{"type":"FeatureCollection","features":[{"type":"Feature","geometry":{"type":"Point","coordinates":[14.4276933,48.2445899]},"properties":{"id":"repair:9ba1ac8c-89ac-4c23-accf-52900023d83e","kind":"repair","longitude":14.4276933,"latitude":48.2445899,"name":"Kerékpár szervizállomás","city":"Asten","address":null,"covered":false,"access":null,"website":null,"phone":null,"source":"OpenStreetMap/node/13065491094","sourceUpdatedAt":null,"verifiedAt":null}},{"type":"Feature","geometry":{"type":"Point","coordinates":[14.4187179,48.2506565]},"properties":{"id":"water:325ae70a-8f70-474d-a90b-d03b5914516d","kind":"water","longitude":14.4187179,"latitude":48.2506565,"name":"Ivókút","city":"Asten","address":null,"covered":null,"access":null,"website":null,"phone":null,"source":"OpenStreetMap/node/1599120939","sourceUpdatedAt":null,"verifiedAt":null}}]}