{"type":"FeatureCollection","features":[{"type":"Feature","geometry":{"type":"Point","coordinates":[10.5402359,52.7039087]},"properties":{"id":"bikerack:63674265-57e9-4a04-8e01-ffcb835c5f1d","kind":"bikerack","longitude":10.5402359,"latitude":52.7039087,"name":"Fahrradabstellplatz","city":"Dedelstorf","address":null,"covered":false,"access":null,"website":null,"phone":null,"source":"OpenStreetMap/node/3450433865","sourceUpdatedAt":null,"verifiedAt":null}},{"type":"Feature","geometry":{"type":"Point","coordinates":[10.5047268,52.7015535]},"properties":{"id":"bikerack:eb654568-a958-499b-8aa8-d34f800ee081","kind":"bikerack","longitude":10.5047268,"latitude":52.7015535,"name":"Fahrradabstellplatz","city":"Dedelstorf","address":null,"covered":false,"access":null,"website":null,"phone":null,"source":"OpenStreetMap/node/11548186097","sourceUpdatedAt":null,"verifiedAt":null}}]}