{"type":"FeatureCollection","features":[{"type":"Feature","geometry":{"type":"Point","coordinates":[10.5435202,52.4739306]},"properties":{"id":"bikerack:088741af-5f7c-47bb-b1ae-290ba799de83","kind":"bikerack","longitude":10.5435202,"latitude":52.4739306,"name":"Fahrradabstellplatz","city":"Gifhorn","address":null,"covered":false,"access":null,"website":null,"phone":null,"source":"OpenStreetMap/node/8350176388","sourceUpdatedAt":null,"verifiedAt":null}},{"type":"Feature","geometry":{"type":"Point","coordinates":[10.542627,52.4676203]},"properties":{"id":"bikerack:0b1779a9-5e83-4a69-9d06-08cb54f60160","kind":"bikerack","longitude":10.542627,"latitude":52.4676203,"name":"Fahrradabstellplatz","city":"Gifhorn","address":null,"covered":false,"access":null,"website":null,"phone":null,"source":"OpenStreetMap/node/8350183133","sourceUpdatedAt":null,"verifiedAt":null}},{"type":"Feature","geometry":{"type":"Point","coordinates":[10.5449882,52.4773449]},"properties":{"id":"bikerack:17781ace-179b-41bd-99ad-2cfc28ae101c","kind":"bikerack","longitude":10.5449882,"latitude":52.4773449,"name":"Gifhorner Wasserturm","city":"Gifhorn","address":null,"covered":false,"access":null,"website":null,"phone":null,"source":"OpenStreetMap/node/1937999612","sourceUpdatedAt":null,"verifiedAt":null}},{"type":"Feature","geometry":{"type":"Point","coordinates":[10.5400206,52.4784792]},"properties":{"id":"bikerack:22c02056-1847-4e4c-b2a1-6ec76b812e84","kind":"bikerack","longitude":10.5400206,"latitude":52.4784792,"name":"Jobcenter Gifhorn","city":"Gifhorn","address":null,"covered":false,"access":null,"website":null,"phone":null,"source":"OpenStreetMap/node/3175258228","sourceUpdatedAt":null,"verifiedAt":null}},{"type":"Feature","geometry":{"type":"Point","coordinates":[10.5448426,52.4827488]},"properties":{"id":"bikerack:247b9ad1-50dd-413e-b31f-3db9fb6bdc64","kind":"bikerack","longitude":10.5448426,"latitude":52.4827488,"name":"Fahrradabstellplatz","city":"Gifhorn","address":null,"covered":false,"access":null,"website":null,"phone":null,"source":"OpenStreetMap/node/10613909722","sourceUpdatedAt":null,"verifiedAt":null}},{"type":"Feature","geometry":{"type":"Point","coordinates":[10.5427801,52.4772715]},"properties":{"id":"bikerack:34f5317b-a92d-4ade-9b6b-6211d10a5f6f","kind":"bikerack","longitude":10.5427801,"latitude":52.4772715,"name":"Fahrradabstellplatz","city":"Gifhorn","address":null,"covered":true,"access":null,"website":null,"phone":null,"source":"OpenStreetMap/node/10610699588","sourceUpdatedAt":null,"verifiedAt":null}},{"type":"Feature","geometry":{"type":"Point","coordinates":[10.5371518,52.4620558]},"properties":{"id":"bikerack:3ac44135-4488-456e-9c07-df9c8a7602ee","kind":"bikerack","longitude":10.5371518,"latitude":52.4620558,"name":"Fahrradabstellplatz","city":"Gifhorn","address":null,"covered":true,"access":null,"website":null,"phone":null,"source":"OpenStreetMap/way/403461963","sourceUpdatedAt":null,"verifiedAt":null}},{"type":"Feature","geometry":{"type":"Point","coordinates":[10.5462312,52.4563956]},"properties":{"id":"bikerack:4ce16bd8-aabd-42ad-a63a-97f5971b489c","kind":"bikerack","longitude":10.5462312,"latitude":52.4563956,"name":"Fahrradabstellplatz","city":"Gifhorn","address":null,"covered":true,"access":null,"website":null,"phone":null,"source":"OpenStreetMap/way/147301563","sourceUpdatedAt":null,"verifiedAt":null}},{"type":"Feature","geometry":{"type":"Point","coordinates":[10.5429395,52.4766314]},"properties":{"id":"bikerack:500c551e-4334-4b9d-bf9a-4f976186be18","kind":"bikerack","longitude":10.5429395,"latitude":52.4766314,"name":"Famila Einkaufszentrum Süd","city":"Gifhorn","address":null,"covered":false,"access":null,"website":null,"phone":null,"source":"OpenStreetMap/node/3089060504","sourceUpdatedAt":null,"verifiedAt":null}},{"type":"Feature","geometry":{"type":"Point","coordinates":[10.537134,52.4619499]},"properties":{"id":"bikerack:67a0a373-4be3-4fa1-a5b9-902c97c3e37a","kind":"bikerack","longitude":10.537134,"latitude":52.4619499,"name":"Fahrradabstellplatz","city":"Gifhorn","address":null,"covered":true,"access":null,"website":null,"phone":null,"source":"OpenStreetMap/way/403461962","sourceUpdatedAt":null,"verifiedAt":null}},{"type":"Feature","geometry":{"type":"Point","coordinates":[10.5411343,52.4590474]},"properties":{"id":"bikerack:7dd079c6-fd9b-4608-baf4-e872ccbf3bef","kind":"bikerack","longitude":10.5411343,"latitude":52.4590474,"name":"Fahrradabstellplatz","city":"Gifhorn","address":null,"covered":false,"access":null,"website":null,"phone":null,"source":"OpenStreetMap/node/5351825641","sourceUpdatedAt":null,"verifiedAt":null}},{"type":"Feature","geometry":{"type":"Point","coordinates":[10.5372052,52.4808151]},"properties":{"id":"bikerack:83933084-96db-4bcf-9b80-40b7423aa54e","kind":"bikerack","longitude":10.5372052,"latitude":52.4808151,"name":"Fahrradabstellplatz","city":"Gifhorn","address":null,"covered":false,"access":null,"website":null,"phone":null,"source":"OpenStreetMap/node/10086547347","sourceUpdatedAt":null,"verifiedAt":null}},{"type":"Feature","geometry":{"type":"Point","coordinates":[10.5420313,52.4796509]},"properties":{"id":"bikerack:90984af5-edf3-4447-a217-4c9793e419d9","kind":"bikerack","longitude":10.5420313,"latitude":52.4796509,"name":"Fahrradabstellplatz","city":"Gifhorn","address":null,"covered":false,"access":null,"website":null,"phone":null,"source":"OpenStreetMap/way/1138655635","sourceUpdatedAt":null,"verifiedAt":null}},{"type":"Feature","geometry":{"type":"Point","coordinates":[10.5429297,52.4775215]},"properties":{"id":"bikerack:9793bc1c-d75c-4619-af3b-ad02ee2d2cb6","kind":"bikerack","longitude":10.5429297,"latitude":52.4775215,"name":"Famila Einkaufszentrum Nord","city":"Gifhorn","address":null,"covered":false,"access":null,"website":null,"phone":null,"source":"OpenStreetMap/node/3089060503","sourceUpdatedAt":null,"verifiedAt":null}},{"type":"Feature","geometry":{"type":"Point","coordinates":[10.5464662,52.4724531]},"properties":{"id":"bikerack:98e0b0ae-971c-43b6-bbb9-9f27f2435874","kind":"bikerack","longitude":10.5464662,"latitude":52.4724531,"name":"Fahrradabstellplatz","city":"Gifhorn","address":null,"covered":false,"access":null,"website":null,"phone":null,"source":"OpenStreetMap/node/9001757975","sourceUpdatedAt":null,"verifiedAt":null}},{"type":"Feature","geometry":{"type":"Point","coordinates":[10.5420162,52.4795781]},"properties":{"id":"bikerack:9b71103e-6e74-4c0e-8818-b9c5374bf9de","kind":"bikerack","longitude":10.5420162,"latitude":52.4795781,"name":"Fahrradabstellplatz","city":"Gifhorn","address":null,"covered":true,"access":null,"website":null,"phone":null,"source":"OpenStreetMap/way/779977787","sourceUpdatedAt":null,"verifiedAt":null}},{"type":"Feature","geometry":{"type":"Point","coordinates":[10.5420709,52.4796109]},"properties":{"id":"bikerack:9dd3608d-9f8f-41d3-bdab-63152b2f177c","kind":"bikerack","longitude":10.5420709,"latitude":52.4796109,"name":"Fahrradabstellplatz","city":"Gifhorn","address":null,"covered":false,"access":null,"website":null,"phone":null,"source":"OpenStreetMap/node/12662333942","sourceUpdatedAt":null,"verifiedAt":null}},{"type":"Feature","geometry":{"type":"Point","coordinates":[10.5371015,52.4620501]},"properties":{"id":"bikerack:a9347f42-2d27-4ec3-8699-d0fd23daac3d","kind":"bikerack","longitude":10.5371015,"latitude":52.4620501,"name":"Fahrradabstellplatz","city":"Gifhorn","address":null,"covered":true,"access":null,"website":null,"phone":null,"source":"OpenStreetMap/way/403461964","sourceUpdatedAt":null,"verifiedAt":null}},{"type":"Feature","geometry":{"type":"Point","coordinates":[10.5416335,52.4689159]},"properties":{"id":"bikerack:a95283dd-96f7-484b-90fa-9e2ee10d546f","kind":"bikerack","longitude":10.5416335,"latitude":52.4689159,"name":"Fahrradabstellplatz","city":"Gifhorn","address":null,"covered":true,"access":null,"website":null,"phone":null,"source":"OpenStreetMap/node/1605528510","sourceUpdatedAt":null,"verifiedAt":null}},{"type":"Feature","geometry":{"type":"Point","coordinates":[10.5056695,52.4672456]},"properties":{"id":"bikerack:b6535f88-0c99-4152-97c2-5d43051712ea","kind":"bikerack","longitude":10.5056695,"latitude":52.4672456,"name":"Fahrradabstellplatz","city":"Ribbesbuttel","address":null,"covered":false,"access":null,"website":null,"phone":null,"source":"OpenStreetMap/node/3667710770","sourceUpdatedAt":null,"verifiedAt":null}},{"type":"Feature","geometry":{"type":"Point","coordinates":[10.5462536,52.4572404]},"properties":{"id":"bikerack:b6c20853-1bcc-4b13-8a63-d03fb34ec499","kind":"bikerack","longitude":10.5462536,"latitude":52.4572404,"name":"Fahrradabstellplatz","city":"Gifhorn","address":null,"covered":true,"access":null,"website":null,"phone":null,"source":"OpenStreetMap/node/3537602341","sourceUpdatedAt":null,"verifiedAt":null}},{"type":"Feature","geometry":{"type":"Point","coordinates":[10.5421924,52.4780819]},"properties":{"id":"bikerack:bb526bf9-601b-40da-91b0-3eede0d04d08","kind":"bikerack","longitude":10.5421924,"latitude":52.4780819,"name":"Fahrradabstellplatz","city":"Gifhorn","address":null,"covered":false,"access":null,"website":null,"phone":null,"source":"OpenStreetMap/node/10220892251","sourceUpdatedAt":null,"verifiedAt":null}},{"type":"Feature","geometry":{"type":"Point","coordinates":[10.545805,52.4764847]},"properties":{"id":"bikerack:bdb4f7f8-c0f7-4083-ba27-161662b4396f","kind":"bikerack","longitude":10.545805,"latitude":52.4764847,"name":"Fahrradabstellplatz","city":"Gifhorn","address":null,"covered":false,"access":null,"website":null,"phone":null,"source":"OpenStreetMap/node/1644670960","sourceUpdatedAt":null,"verifiedAt":null}},{"type":"Feature","geometry":{"type":"Point","coordinates":[10.5422158,52.4641285]},"properties":{"id":"bikerack:c91fda60-828b-4478-b85d-05562fbac837","kind":"bikerack","longitude":10.5422158,"latitude":52.4641285,"name":"Fahrradabstellplatz","city":"Gifhorn","address":null,"covered":false,"access":null,"website":null,"phone":null,"source":"OpenStreetMap/node/8346329761","sourceUpdatedAt":null,"verifiedAt":null}},{"type":"Feature","geometry":{"type":"Point","coordinates":[10.5421542,52.4796197]},"properties":{"id":"bikerack:dcd9af1c-6b4f-400c-bccc-c4c3fd1922e6","kind":"bikerack","longitude":10.5421542,"latitude":52.4796197,"name":"Fahrradabstellplatz","city":"Gifhorn","address":null,"covered":true,"access":null,"website":null,"phone":null,"source":"OpenStreetMap/way/1138655636","sourceUpdatedAt":null,"verifiedAt":null}},{"type":"Feature","geometry":{"type":"Point","coordinates":[10.5170227,52.469729]},"properties":{"id":"bikerack:dd3aa926-5ef3-4d46-be87-765fa76cb506","kind":"bikerack","longitude":10.5170227,"latitude":52.469729,"name":"Fahrradabstellplatz","city":"Gifhorn","address":null,"covered":false,"access":null,"website":null,"phone":null,"source":"OpenStreetMap/node/4657180187","sourceUpdatedAt":null,"verifiedAt":null}},{"type":"Feature","geometry":{"type":"Point","coordinates":[10.5371805,52.461957]},"properties":{"id":"bikerack:e684112e-5862-4d81-b4f2-4c34d61a3cdb","kind":"bikerack","longitude":10.5371805,"latitude":52.461957,"name":"Fahrradabstellplatz","city":"Gifhorn","address":null,"covered":true,"access":null,"website":null,"phone":null,"source":"OpenStreetMap/way/403461965","sourceUpdatedAt":null,"verifiedAt":null}},{"type":"Feature","geometry":{"type":"Point","coordinates":[10.543332,52.4740161]},"properties":{"id":"bikerack:ea3cdd90-f50f-490e-b79d-85f2baa94e13","kind":"bikerack","longitude":10.543332,"latitude":52.4740161,"name":"Fahrradabstellplatz","city":"Gifhorn","address":null,"covered":false,"access":null,"website":null,"phone":null,"source":"OpenStreetMap/node/8350176391","sourceUpdatedAt":null,"verifiedAt":null}},{"type":"Feature","geometry":{"type":"Point","coordinates":[10.5364535,52.4802252]},"properties":{"id":"bikerack:f63f158e-aead-42c4-9a13-bd744a40d18d","kind":"bikerack","longitude":10.5364535,"latitude":52.4802252,"name":"Fahrradabstellplatz","city":"Gifhorn","address":null,"covered":false,"access":null,"website":null,"phone":null,"source":"OpenStreetMap/node/12880511560","sourceUpdatedAt":null,"verifiedAt":null}},{"type":"Feature","geometry":{"type":"Point","coordinates":[10.5328739,52.4714986]},"properties":{"id":"service:52bef941-69a3-48a8-986e-c2a91f6e92a8","kind":"service","longitude":10.5328739,"latitude":52.4714986,"name":"Gazelle","city":"Gifhorn","address":null,"covered":null,"access":null,"website":null,"phone":null,"source":"OpenStreetMap/node/13388788686","sourceUpdatedAt":null,"verifiedAt":null}},{"type":"Feature","geometry":{"type":"Point","coordinates":[10.5403526,52.4583722]},"properties":{"id":"service:91ccd22a-2a5a-413e-81f4-370f9be1d264","kind":"service","longitude":10.5403526,"latitude":52.4583722,"name":"B.O.C.","city":"Gifhorn","address":null,"covered":null,"access":null,"website":null,"phone":null,"source":"OpenStreetMap/way/27284910","sourceUpdatedAt":null,"verifiedAt":null}}]}