{"type":"FeatureCollection","features":[{"type":"Feature","geometry":{"type":"Point","coordinates":[10.5466068,50.996606]},"properties":{"id":"bikerack:a581835c-d38f-4192-941e-1ae558d4f4cc","kind":"bikerack","longitude":10.5466068,"latitude":50.996606,"name":"Fahrradabstellplatz","city":"Friedrichswerth","address":null,"covered":false,"access":null,"website":null,"phone":null,"source":"OpenStreetMap/node/5984194701","sourceUpdatedAt":null,"verifiedAt":null}},{"type":"Feature","geometry":{"type":"Point","coordinates":[10.5112405,50.9871291]},"properties":{"id":"bikerack:de3cb57a-13e4-4669-9441-41881b5bbb13","kind":"bikerack","longitude":10.5112405,"latitude":50.9871291,"name":"Fahrradabstellplatz","city":"Haina","address":null,"covered":false,"access":null,"website":null,"phone":null,"source":"OpenStreetMap/node/13127795688","sourceUpdatedAt":null,"verifiedAt":null}}]}