{"type":"FeatureCollection","features":[{"type":"Feature","geometry":{"type":"Point","coordinates":[10.5165613,50.0408915]},"properties":{"id":"bikerack:3c9044e9-b740-40f4-8dad-1b1a590c3225","kind":"bikerack","longitude":10.5165613,"latitude":50.0408915,"name":"Fahrradabstellplatz","city":"Hassfurt","address":null,"covered":false,"access":null,"website":null,"phone":null,"source":"OpenStreetMap/node/13203384815","sourceUpdatedAt":null,"verifiedAt":null}},{"type":"Feature","geometry":{"type":"Point","coordinates":[10.5154004,50.0395422]},"properties":{"id":"bikerack:4bfc5080-04b6-4bde-abde-7bbb70ba22b2","kind":"bikerack","longitude":10.5154004,"latitude":50.0395422,"name":"Fahrradabstellplatz","city":"Hassfurt","address":null,"covered":false,"access":null,"website":null,"phone":null,"source":"OpenStreetMap/node/9003544907","sourceUpdatedAt":null,"verifiedAt":null}},{"type":"Feature","geometry":{"type":"Point","coordinates":[10.5264174,50.0384543]},"properties":{"id":"bikerack:8b853b1a-86f1-4ecf-a3aa-fc5f0201fd32","kind":"bikerack","longitude":10.5264174,"latitude":50.0384543,"name":"Fahrradabstellplatz","city":"Hassfurt","address":null,"covered":false,"access":null,"website":null,"phone":null,"source":"OpenStreetMap/node/10761199406","sourceUpdatedAt":null,"verifiedAt":null}},{"type":"Feature","geometry":{"type":"Point","coordinates":[10.5253047,50.037865]},"properties":{"id":"bikerack:8c209d19-891a-43b2-b133-90dacdb0b344","kind":"bikerack","longitude":10.5253047,"latitude":50.037865,"name":"Fahrradabstellplatz","city":"Hassfurt","address":null,"covered":true,"access":null,"website":null,"phone":null,"source":"OpenStreetMap/way/94562355","sourceUpdatedAt":null,"verifiedAt":null}}]}