{"type":"FeatureCollection","features":[{"type":"Feature","geometry":{"type":"Point","coordinates":[10.5201462,49.4128465]},"properties":{"id":"bikerack:151c06f6-2767-496b-92a8-0cbe6231a6ea","kind":"bikerack","longitude":10.5201462,"latitude":49.4128465,"name":"Fahrradabstellplatz","city":"Flachslanden","address":null,"covered":false,"access":null,"website":null,"phone":null,"source":"OpenStreetMap/node/2851859479","sourceUpdatedAt":null,"verifiedAt":null}},{"type":"Feature","geometry":{"type":"Point","coordinates":[10.5070912,49.4265261]},"properties":{"id":"water:e56ace6c-891f-4516-b34d-f4b480a81695","kind":"water","longitude":10.5070912,"latitude":49.4265261,"name":"Trinkwasser","city":"Flachslanden","address":null,"covered":null,"access":null,"website":null,"phone":null,"source":"OpenStreetMap/node/6167966642","sourceUpdatedAt":null,"verifiedAt":null}}]}