{"type":"FeatureCollection","features":[{"type":"Feature","geometry":{"type":"Point","coordinates":[10.5071473,49.234133]},"properties":{"id":"service:4ee5a3fb-8539-4c71-9bed-09b8fe2ff81f","kind":"service","longitude":10.5071473,"latitude":49.234133,"name":"Zweirad Center Tolksdorf","city":"Herrieden","address":null,"covered":null,"access":null,"website":null,"phone":null,"source":"OpenStreetMap/way/177829820","sourceUpdatedAt":null,"verifiedAt":null}},{"type":"Feature","geometry":{"type":"Point","coordinates":[10.5459653,49.2283966]},"properties":{"id":"water:da59537e-9363-4cee-a981-1c586a09a943","kind":"water","longitude":10.5459653,"latitude":49.2283966,"name":"Trinkwasser","city":"Burgoberbach","address":null,"covered":null,"access":null,"website":null,"phone":null,"source":"OpenStreetMap/node/5917710670","sourceUpdatedAt":null,"verifiedAt":null}}]}