{"type":"FeatureCollection","features":[{"type":"Feature","geometry":{"type":"Point","coordinates":[10.5095293,48.2012574]},"properties":{"id":"bikerack:2695f300-33a7-4659-8233-7b6950b6b1e9","kind":"bikerack","longitude":10.5095293,"latitude":48.2012574,"name":"Fahrradabstellplatz","city":"Eppishausen","address":null,"covered":false,"access":null,"website":null,"phone":null,"source":"OpenStreetMap/node/9966639205","sourceUpdatedAt":null,"verifiedAt":null}},{"type":"Feature","geometry":{"type":"Point","coordinates":[10.5079622,48.2012016]},"properties":{"id":"bikerack:ffed1548-e181-4fbb-a689-d152e67aec9f","kind":"bikerack","longitude":10.5079622,"latitude":48.2012016,"name":"Fahrradabstellplatz","city":"Eppishausen","address":null,"covered":false,"access":null,"website":null,"phone":null,"source":"OpenStreetMap/node/9966639199","sourceUpdatedAt":null,"verifiedAt":null}},{"type":"Feature","geometry":{"type":"Point","coordinates":[10.510899,48.2036557]},"properties":{"id":"water:9c6fabc2-a992-4981-890c-819ca5ceb632","kind":"water","longitude":10.510899,"latitude":48.2036557,"name":"Trinkwasser","city":"Eppishausen","address":null,"covered":null,"access":null,"website":null,"phone":null,"source":"OpenStreetMap/node/9966639147","sourceUpdatedAt":null,"verifiedAt":null}}]}