{"type":"FeatureCollection","features":[{"type":"Feature","geometry":{"type":"Point","coordinates":[10.5202717,47.4971377]},"properties":{"id":"water:5bac5571-4792-463a-89e5-08e1d539d6a2","kind":"water","longitude":10.5202717,"latitude":47.4971377,"name":"Ivókút","city":"Tannheim","address":null,"covered":null,"access":null,"website":null,"phone":null,"source":"OpenStreetMap/node/1811902665","sourceUpdatedAt":null,"verifiedAt":null}},{"type":"Feature","geometry":{"type":"Point","coordinates":[10.5153303,47.5047091]},"properties":{"id":"water:60218b25-72ee-4f7a-a859-2fc8c92858c1","kind":"water","longitude":10.5153303,"latitude":47.5047091,"name":"Ivókút","city":"Tannheim","address":null,"covered":null,"access":null,"website":null,"phone":null,"source":"OpenStreetMap/node/11012440521","sourceUpdatedAt":null,"verifiedAt":null}},{"type":"Feature","geometry":{"type":"Point","coordinates":[10.5196267,47.5049405]},"properties":{"id":"water:80bfb649-a77e-4320-9727-a26289ccb245","kind":"water","longitude":10.5196267,"latitude":47.5049405,"name":"Ivókút","city":"Tannheim","address":null,"covered":null,"access":null,"website":null,"phone":null,"source":"OpenStreetMap/node/13056029701","sourceUpdatedAt":null,"verifiedAt":null}}]}