{"type":"FeatureCollection","features":[{"type":"Feature","geometry":{"type":"Point","coordinates":[15.5960222,48.4715467]},"properties":{"id":"bikerack:17b6cd7a-a95e-4a45-a12c-b1aaaa9ead22","kind":"bikerack","longitude":15.5960222,"latitude":48.4715467,"name":"Biciklitároló","city":"Lengenfeld","address":null,"covered":false,"access":null,"website":null,"phone":null,"source":"OpenStreetMap/node/11300273189","sourceUpdatedAt":null,"verifiedAt":null}},{"type":"Feature","geometry":{"type":"Point","coordinates":[15.5964164,48.4717801]},"properties":{"id":"bikerack:2412781c-d9ab-46da-a3c0-aba1148ec923","kind":"bikerack","longitude":15.5964164,"latitude":48.4717801,"name":"Biciklitároló","city":"Lengenfeld","address":null,"covered":false,"access":null,"website":null,"phone":null,"source":"OpenStreetMap/node/11300273190","sourceUpdatedAt":null,"verifiedAt":null}},{"type":"Feature","geometry":{"type":"Point","coordinates":[15.5994768,48.4703694]},"properties":{"id":"bikerack:e9a4f776-7305-426e-bc81-bbd74fbd485c","kind":"bikerack","longitude":15.5994768,"latitude":48.4703694,"name":"Biciklitároló","city":"Lengenfeld","address":null,"covered":false,"access":null,"website":null,"phone":null,"source":"OpenStreetMap/node/11300273171","sourceUpdatedAt":null,"verifiedAt":null}}]}