{"type":"FeatureCollection","features":[{"type":"Feature","geometry":{"type":"Point","coordinates":[8.8526818,53.3097641]},"properties":{"id":"bikerack:32519d37-7414-4f57-8dc7-5bb4189e9597","kind":"bikerack","longitude":8.8526818,"latitude":53.3097641,"name":"Fahrradabstellplatz","city":"Hambergen","address":null,"covered":false,"access":null,"website":null,"phone":null,"source":"OpenStreetMap/node/13185140329","sourceUpdatedAt":null,"verifiedAt":null}},{"type":"Feature","geometry":{"type":"Point","coordinates":[8.8404912,53.3051131]},"properties":{"id":"bikerack:3e4be0a7-fbe8-404c-a4f8-09f2556923d1","kind":"bikerack","longitude":8.8404912,"latitude":53.3051131,"name":"Fahrradabstellplatz","city":"Hambergen","address":null,"covered":false,"access":null,"website":null,"phone":null,"source":"OpenStreetMap/node/13092081277","sourceUpdatedAt":null,"verifiedAt":null}},{"type":"Feature","geometry":{"type":"Point","coordinates":[8.8497341,53.3113667]},"properties":{"id":"bikerack:b4b02f47-3de2-41ac-8a04-1faa93637213","kind":"bikerack","longitude":8.8497341,"latitude":53.3113667,"name":"Fahrradabstellplatz","city":"Hambergen","address":null,"covered":false,"access":null,"website":null,"phone":null,"source":"OpenStreetMap/node/6907296433","sourceUpdatedAt":null,"verifiedAt":null}}]}