{"type":"FeatureCollection","features":[{"type":"Feature","geometry":{"type":"Point","coordinates":[8.8354567,52.9479591]},"properties":{"id":"bikerack:06400b4c-71ff-4fb4-b512-5f97e4e1e208","kind":"bikerack","longitude":8.8354567,"latitude":52.9479591,"name":"Fahrradabstellplatz","city":"Syke","address":null,"covered":false,"access":null,"website":null,"phone":null,"source":"OpenStreetMap/node/12974320917","sourceUpdatedAt":null,"verifiedAt":null}},{"type":"Feature","geometry":{"type":"Point","coordinates":[8.844322,52.9536649]},"properties":{"id":"bikerack:55504643-f24d-484d-b1c2-3eb33c4c81a2","kind":"bikerack","longitude":8.844322,"latitude":52.9536649,"name":"Fahrradabstellplatz","city":"Syke","address":null,"covered":false,"access":null,"website":null,"phone":null,"source":"OpenStreetMap/node/12433700530","sourceUpdatedAt":null,"verifiedAt":null}},{"type":"Feature","geometry":{"type":"Point","coordinates":[8.8516827,52.9573705]},"properties":{"id":"bikerack:6c8a3e3f-e574-456f-94c1-607485dbdd03","kind":"bikerack","longitude":8.8516827,"latitude":52.9573705,"name":"Fahrradabstellplatz","city":"Syke","address":null,"covered":false,"access":null,"website":null,"phone":null,"source":"OpenStreetMap/node/8935414976","sourceUpdatedAt":null,"verifiedAt":null}},{"type":"Feature","geometry":{"type":"Point","coordinates":[8.8514681,52.9573567]},"properties":{"id":"bikerack:75508a3e-c7ee-4113-b3f6-c39ca03f3e0f","kind":"bikerack","longitude":8.8514681,"latitude":52.9573567,"name":"Fahrradabstellplatz","city":"Syke","address":null,"covered":false,"access":null,"website":null,"phone":null,"source":"OpenStreetMap/node/8935414975","sourceUpdatedAt":null,"verifiedAt":null}},{"type":"Feature","geometry":{"type":"Point","coordinates":[8.8692222,52.958953]},"properties":{"id":"bikerack:c710887a-c5dd-4250-8415-7b06aa1ef465","kind":"bikerack","longitude":8.8692222,"latitude":52.958953,"name":"Fahrradabstellplatz","city":"Syke","address":null,"covered":false,"access":null,"website":null,"phone":null,"source":"OpenStreetMap/node/12098466932","sourceUpdatedAt":null,"verifiedAt":null}},{"type":"Feature","geometry":{"type":"Point","coordinates":[8.8754306,52.9408301]},"properties":{"id":"repair:55253ed8-10ba-4bd9-a763-8633ba805b0c","kind":"repair","longitude":8.8754306,"latitude":52.9408301,"name":"Fahrradreparaturstation","city":"Syke","address":null,"covered":false,"access":null,"website":null,"phone":null,"source":"OpenStreetMap/node/11167618244","sourceUpdatedAt":null,"verifiedAt":null}},{"type":"Feature","geometry":{"type":"Point","coordinates":[8.8691932,52.9589132]},"properties":{"id":"repair:a2690769-9c28-4923-8a17-d2bbdc0b306a","kind":"repair","longitude":8.8691932,"latitude":52.9589132,"name":"Fahrradreparaturstation","city":"Syke","address":null,"covered":false,"access":null,"website":null,"phone":null,"source":"OpenStreetMap/node/11453952328","sourceUpdatedAt":null,"verifiedAt":null}}]}