{"type":"FeatureCollection","features":[{"type":"Feature","geometry":{"type":"Point","coordinates":[8.8685781,50.9720873]},"properties":{"id":"bikerack:355f69e0-fe46-49b4-991f-49210426a5b5","kind":"bikerack","longitude":8.8685781,"latitude":50.9720873,"name":"Fahrradabstellplatz","city":"Rosenthal","address":null,"covered":false,"access":null,"website":null,"phone":null,"source":"OpenStreetMap/node/1389013987","sourceUpdatedAt":null,"verifiedAt":null}},{"type":"Feature","geometry":{"type":"Point","coordinates":[8.868865,50.9764593]},"properties":{"id":"bikerack:95526d5d-e5da-4b39-bec7-2f0a17895b65","kind":"bikerack","longitude":8.868865,"latitude":50.9764593,"name":"Fahrradabstellplatz","city":"Rosenthal","address":null,"covered":false,"access":null,"website":null,"phone":null,"source":"OpenStreetMap/node/1389014239","sourceUpdatedAt":null,"verifiedAt":null}}]}