{"type":"FeatureCollection","features":[{"type":"Feature","geometry":{"type":"Point","coordinates":[8.8426859,50.7410494]},"properties":{"id":"bikerack:45b28125-e620-483b-90e7-f5cb5e675474","kind":"bikerack","longitude":8.8426859,"latitude":50.7410494,"name":"Fahrradabstellplatz","city":"Ebsdorfergrund","address":null,"covered":false,"access":null,"website":null,"phone":null,"source":"OpenStreetMap/node/12012610299","sourceUpdatedAt":null,"verifiedAt":null}},{"type":"Feature","geometry":{"type":"Point","coordinates":[8.8562085,50.7588443]},"properties":{"id":"bikerack:970acb1b-14a0-4d15-aeb6-643c93326a22","kind":"bikerack","longitude":8.8562085,"latitude":50.7588443,"name":"Fahrradabstellplatz","city":"Ebsdorfergrund","address":null,"covered":false,"access":null,"website":null,"phone":null,"source":"OpenStreetMap/node/11210788237","sourceUpdatedAt":null,"verifiedAt":null}},{"type":"Feature","geometry":{"type":"Point","coordinates":[8.8502614,50.7600259]},"properties":{"id":"bikerack:a36a639d-a51b-42b3-ab76-5bbdb1599c87","kind":"bikerack","longitude":8.8502614,"latitude":50.7600259,"name":"Fahrradabstellplatz","city":"Ebsdorfergrund","address":null,"covered":false,"access":null,"website":null,"phone":null,"source":"OpenStreetMap/node/1760442272","sourceUpdatedAt":null,"verifiedAt":null}},{"type":"Feature","geometry":{"type":"Point","coordinates":[8.8495785,50.7562585]},"properties":{"id":"bikerack:b2d5c1ef-dff7-43e8-a046-803fad259843","kind":"bikerack","longitude":8.8495785,"latitude":50.7562585,"name":"Fahrradabstellplatz","city":"Ebsdorfergrund","address":null,"covered":false,"access":null,"website":null,"phone":null,"source":"OpenStreetMap/node/4771763076","sourceUpdatedAt":null,"verifiedAt":null}}]}