{"type":"FeatureCollection","features":[{"type":"Feature","geometry":{"type":"Point","coordinates":[8.8577284,50.5926878]},"properties":{"id":"bikerack:193482c4-43d6-4c99-ac68-a331b56d8676","kind":"bikerack","longitude":8.8577284,"latitude":50.5926878,"name":"Fahrradabstellplatz","city":"Reiskirchen","address":null,"covered":false,"access":null,"website":null,"phone":null,"source":"OpenStreetMap/node/5893518116","sourceUpdatedAt":null,"verifiedAt":null}},{"type":"Feature","geometry":{"type":"Point","coordinates":[8.8547176,50.5919403]},"properties":{"id":"bikerack:4139440f-4c72-41f3-a1ee-614b47eecb58","kind":"bikerack","longitude":8.8547176,"latitude":50.5919403,"name":"Fahrradabstellplatz","city":"Reiskirchen","address":null,"covered":false,"access":null,"website":null,"phone":null,"source":"OpenStreetMap/node/5893518091","sourceUpdatedAt":null,"verifiedAt":null}},{"type":"Feature","geometry":{"type":"Point","coordinates":[8.8530766,50.5742564]},"properties":{"id":"bikerack:723e8a40-ed4f-4b6b-839c-bef12eeea76f","kind":"bikerack","longitude":8.8530766,"latitude":50.5742564,"name":"Fahrradabstellplatz","city":"Reiskirchen","address":null,"covered":false,"access":null,"website":null,"phone":null,"source":"OpenStreetMap/node/10269929796","sourceUpdatedAt":null,"verifiedAt":null}},{"type":"Feature","geometry":{"type":"Point","coordinates":[8.857238,50.5911474]},"properties":{"id":"bikerack:77db2d8c-7522-4843-b589-cef7b89ea264","kind":"bikerack","longitude":8.857238,"latitude":50.5911474,"name":"Fahrradabstellplatz","city":"Reiskirchen","address":null,"covered":false,"access":null,"website":null,"phone":null,"source":"OpenStreetMap/node/13125587183","sourceUpdatedAt":null,"verifiedAt":null}},{"type":"Feature","geometry":{"type":"Point","coordinates":[8.8576144,50.5925924]},"properties":{"id":"bikerack:86c88a5a-7ba6-4da1-a2e1-be6baebb1517","kind":"bikerack","longitude":8.8576144,"latitude":50.5925924,"name":"Fahrradabstellplatz","city":"Reiskirchen","address":null,"covered":false,"access":null,"website":null,"phone":null,"source":"OpenStreetMap/node/5893518118","sourceUpdatedAt":null,"verifiedAt":null}},{"type":"Feature","geometry":{"type":"Point","coordinates":[8.857487,50.5926035]},"properties":{"id":"bikerack:95e8ad03-21ac-4997-a23a-f1a089725253","kind":"bikerack","longitude":8.857487,"latitude":50.5926035,"name":"Fahrradabstellplatz","city":"Reiskirchen","address":null,"covered":false,"access":null,"website":null,"phone":null,"source":"OpenStreetMap/node/5893518117","sourceUpdatedAt":null,"verifiedAt":null}},{"type":"Feature","geometry":{"type":"Point","coordinates":[8.8347445,50.5962175]},"properties":{"id":"bikerack:b7b73ece-3523-49e9-99cc-4069278309b0","kind":"bikerack","longitude":8.8347445,"latitude":50.5962175,"name":"Fahrradabstellplatz","city":"Reiskirchen","address":null,"covered":false,"access":null,"website":null,"phone":null,"source":"OpenStreetMap/node/5175295108","sourceUpdatedAt":null,"verifiedAt":null}},{"type":"Feature","geometry":{"type":"Point","coordinates":[8.8385466,50.5950415]},"properties":{"id":"bikerack:d82dbe71-4a28-46b4-b828-5bcba844e9b4","kind":"bikerack","longitude":8.8385466,"latitude":50.5950415,"name":"Fahrradabstellplatz","city":"Reiskirchen","address":null,"covered":false,"access":null,"website":null,"phone":null,"source":"OpenStreetMap/node/582197993","sourceUpdatedAt":null,"verifiedAt":null}},{"type":"Feature","geometry":{"type":"Point","coordinates":[8.8568953,50.593727]},"properties":{"id":"bikerack:e68886b0-1e80-4a0a-ad4f-5253a1e1ba3f","kind":"bikerack","longitude":8.8568953,"latitude":50.593727,"name":"Fahrradabstellplatz","city":"Reiskirchen","address":null,"covered":false,"access":null,"website":null,"phone":null,"source":"OpenStreetMap/node/10271677634","sourceUpdatedAt":null,"verifiedAt":null}},{"type":"Feature","geometry":{"type":"Point","coordinates":[8.874109,50.5733489]},"properties":{"id":"bikerack:f322417b-516b-4cb3-a695-da66adaa9661","kind":"bikerack","longitude":8.874109,"latitude":50.5733489,"name":"Fahrradabstellplatz","city":"Reiskirchen","address":null,"covered":false,"access":null,"website":null,"phone":null,"source":"OpenStreetMap/node/2696881398","sourceUpdatedAt":null,"verifiedAt":null}},{"type":"Feature","geometry":{"type":"Point","coordinates":[8.8579229,50.5928777]},"properties":{"id":"bikerack:f4fc4a4c-c903-45cc-92d0-90bbd20ef0f0","kind":"bikerack","longitude":8.8579229,"latitude":50.5928777,"name":"Fahrradabstellplatz","city":"Reiskirchen","address":null,"covered":false,"access":null,"website":null,"phone":null,"source":"OpenStreetMap/node/5893518115","sourceUpdatedAt":null,"verifiedAt":null}},{"type":"Feature","geometry":{"type":"Point","coordinates":[8.8535723,50.5739782]},"properties":{"id":"bikerack:f58d24de-4e4e-4d49-9714-a49a0a4bc757","kind":"bikerack","longitude":8.8535723,"latitude":50.5739782,"name":"Fahrradabstellplatz","city":"Reiskirchen","address":null,"covered":false,"access":null,"website":null,"phone":null,"source":"OpenStreetMap/node/6450793994","sourceUpdatedAt":null,"verifiedAt":null}},{"type":"Feature","geometry":{"type":"Point","coordinates":[8.8339023,50.5954683]},"properties":{"id":"service:17d8118c-7484-448e-a838-fd2caf41f7b6","kind":"service","longitude":8.8339023,"latitude":50.5954683,"name":"Gebrauchte Fahrräder","city":"Reiskirchen","address":null,"covered":null,"access":null,"website":null,"phone":null,"source":"OpenStreetMap/node/4370317046","sourceUpdatedAt":null,"verifiedAt":null}},{"type":"Feature","geometry":{"type":"Point","coordinates":[8.8545674,50.5919096]},"properties":{"id":"water:3c53d55e-f989-4202-badf-850f3d99a17e","kind":"water","longitude":8.8545674,"latitude":50.5919096,"name":"Trinkwasser","city":"Reiskirchen","address":null,"covered":null,"access":null,"website":null,"phone":null,"source":"OpenStreetMap/node/5893518092","sourceUpdatedAt":null,"verifiedAt":null}},{"type":"Feature","geometry":{"type":"Point","coordinates":[8.8473778,50.5767947]},"properties":{"id":"water:943cdf11-1a2d-4384-871a-5bd898e925bb","kind":"water","longitude":8.8473778,"latitude":50.5767947,"name":"Trinkwasser","city":"Reiskirchen","address":null,"covered":null,"access":null,"website":null,"phone":null,"source":"OpenStreetMap/node/4168031331","sourceUpdatedAt":null,"verifiedAt":null}}]}