{"type":"FeatureCollection","features":[{"type":"Feature","geometry":{"type":"Point","coordinates":[8.8727481,50.2280374]},"properties":{"id":"bikerack:080ec07e-a29b-40ad-b7dd-556762613b6e","kind":"bikerack","longitude":8.8727481,"latitude":50.2280374,"name":"Fahrradabstellplatz","city":"Nidderau","address":null,"covered":false,"access":null,"website":null,"phone":null,"source":"OpenStreetMap/node/5908573699","sourceUpdatedAt":null,"verifiedAt":null}},{"type":"Feature","geometry":{"type":"Point","coordinates":[8.8432996,50.2148324]},"properties":{"id":"bikerack:0f98b041-3ca7-49d1-9987-333062c7e42e","kind":"bikerack","longitude":8.8432996,"latitude":50.2148324,"name":"Fahrradabstellplatz","city":"Nidderau","address":null,"covered":false,"access":null,"website":null,"phone":null,"source":"OpenStreetMap/node/1236691503","sourceUpdatedAt":null,"verifiedAt":null}},{"type":"Feature","geometry":{"type":"Point","coordinates":[8.8433466,50.2149341]},"properties":{"id":"bikerack:10cb5e27-2b41-4c1f-afa2-67d5b404e66a","kind":"bikerack","longitude":8.8433466,"latitude":50.2149341,"name":"Fahrradabstellplatz","city":"Nidderau","address":null,"covered":true,"access":null,"website":null,"phone":null,"source":"OpenStreetMap/node/1236691492","sourceUpdatedAt":null,"verifiedAt":null}},{"type":"Feature","geometry":{"type":"Point","coordinates":[8.8743058,50.2279405]},"properties":{"id":"bikerack:22328a38-e216-4c32-a00b-1ec4e5f9e5aa","kind":"bikerack","longitude":8.8743058,"latitude":50.2279405,"name":"Fahrradabstellplatz","city":"Nidderau","address":null,"covered":false,"access":null,"website":null,"phone":null,"source":"OpenStreetMap/node/5908573705","sourceUpdatedAt":null,"verifiedAt":null}},{"type":"Feature","geometry":{"type":"Point","coordinates":[8.8744342,50.2277944]},"properties":{"id":"bikerack:2f1c35d1-9c0b-4c4d-932c-a8628dccb0f9","kind":"bikerack","longitude":8.8744342,"latitude":50.2277944,"name":"Fahrradabstellplatz","city":"Nidderau","address":null,"covered":false,"access":null,"website":null,"phone":null,"source":"OpenStreetMap/node/2292754551","sourceUpdatedAt":null,"verifiedAt":null}},{"type":"Feature","geometry":{"type":"Point","coordinates":[8.8709265,50.2285259]},"properties":{"id":"bikerack:43652c86-0a43-4921-a374-a494a84c94b5","kind":"bikerack","longitude":8.8709265,"latitude":50.2285259,"name":"Fahrradabstellplatz","city":"Nidderau","address":null,"covered":false,"access":null,"website":null,"phone":null,"source":"OpenStreetMap/node/4220120645","sourceUpdatedAt":null,"verifiedAt":null}},{"type":"Feature","geometry":{"type":"Point","coordinates":[8.8727213,50.2280151]},"properties":{"id":"bikerack:485c25f3-4df7-49e8-a646-7474a4308c98","kind":"bikerack","longitude":8.8727213,"latitude":50.2280151,"name":"Fahrradabstellplatz","city":"Nidderau","address":null,"covered":false,"access":null,"website":null,"phone":null,"source":"OpenStreetMap/node/5908573700","sourceUpdatedAt":null,"verifiedAt":null}},{"type":"Feature","geometry":{"type":"Point","coordinates":[8.8718049,50.2288569]},"properties":{"id":"bikerack:50631d99-3fdf-4890-878a-3283c658e58f","kind":"bikerack","longitude":8.8718049,"latitude":50.2288569,"name":"Fahrradabstellplatz","city":"Nidderau","address":null,"covered":false,"access":null,"website":null,"phone":null,"source":"OpenStreetMap/node/4220120649","sourceUpdatedAt":null,"verifiedAt":null}},{"type":"Feature","geometry":{"type":"Point","coordinates":[8.8712887,50.2283807]},"properties":{"id":"bikerack:7a90e61c-721b-4939-b91f-e95b2b63894d","kind":"bikerack","longitude":8.8712887,"latitude":50.2283807,"name":"Fahrradabstellplatz","city":"Nidderau","address":null,"covered":false,"access":null,"website":null,"phone":null,"source":"OpenStreetMap/node/4220120639","sourceUpdatedAt":null,"verifiedAt":null}},{"type":"Feature","geometry":{"type":"Point","coordinates":[8.8724846,50.2278416]},"properties":{"id":"bikerack:8807450b-6130-4cd8-bf41-c04ee067b9b8","kind":"bikerack","longitude":8.8724846,"latitude":50.2278416,"name":"Fahrradabstellplatz","city":"Nidderau","address":null,"covered":false,"access":null,"website":null,"phone":null,"source":"OpenStreetMap/node/4220120634","sourceUpdatedAt":null,"verifiedAt":null}},{"type":"Feature","geometry":{"type":"Point","coordinates":[8.8711,50.2284453]},"properties":{"id":"bikerack:98a22162-07ee-403f-bbb1-d0079debd374","kind":"bikerack","longitude":8.8711,"latitude":50.2284453,"name":"Fahrradabstellplatz","city":"Nidderau","address":null,"covered":false,"access":null,"website":null,"phone":null,"source":"OpenStreetMap/node/4220120642","sourceUpdatedAt":null,"verifiedAt":null}},{"type":"Feature","geometry":{"type":"Point","coordinates":[8.8433635,50.2147434]},"properties":{"id":"bikerack:a1c1af15-8fe4-48b8-b941-6d3f49049a04","kind":"bikerack","longitude":8.8433635,"latitude":50.2147434,"name":"Fahrradabstellplatz","city":"Nidderau","address":null,"covered":true,"access":null,"website":null,"phone":null,"source":"OpenStreetMap/node/1236691504","sourceUpdatedAt":null,"verifiedAt":null}},{"type":"Feature","geometry":{"type":"Point","coordinates":[8.8750766,50.2281676]},"properties":{"id":"bikerack:b71ff89e-024e-4980-a7f7-c2b0d9e33f94","kind":"bikerack","longitude":8.8750766,"latitude":50.2281676,"name":"Fahrradabstellplatz","city":"Nidderau","address":null,"covered":true,"access":null,"website":null,"phone":null,"source":"OpenStreetMap/node/2292754553","sourceUpdatedAt":null,"verifiedAt":null}},{"type":"Feature","geometry":{"type":"Point","coordinates":[8.8735741,50.2284183]},"properties":{"id":"bikerack:d47fad46-87eb-4cd3-b563-408839aa5b31","kind":"bikerack","longitude":8.8735741,"latitude":50.2284183,"name":"Fahrradabstellplatz","city":"Nidderau","address":null,"covered":false,"access":null,"website":null,"phone":null,"source":"OpenStreetMap/node/2292754555","sourceUpdatedAt":null,"verifiedAt":null}},{"type":"Feature","geometry":{"type":"Point","coordinates":[8.8709591,50.228511]},"properties":{"id":"bikerack:e638c37b-68d3-4670-a70b-03024e40284c","kind":"bikerack","longitude":8.8709591,"latitude":50.228511,"name":"Fahrradabstellplatz","city":"Nidderau","address":null,"covered":false,"access":null,"website":null,"phone":null,"source":"OpenStreetMap/node/5908573698","sourceUpdatedAt":null,"verifiedAt":null}},{"type":"Feature","geometry":{"type":"Point","coordinates":[8.8626453,50.224374]},"properties":{"id":"bikerack:ff729330-709d-4dac-abb1-7237e2575701","kind":"bikerack","longitude":8.8626453,"latitude":50.224374,"name":"Fahrradabstellplatz","city":"Nidderau","address":null,"covered":false,"access":null,"website":null,"phone":null,"source":"OpenStreetMap/node/13690634129","sourceUpdatedAt":null,"verifiedAt":null}},{"type":"Feature","geometry":{"type":"Point","coordinates":[8.8600014,50.205096]},"properties":{"id":"service:5653ee63-84e9-48df-b2a4-47d480ceb4e0","kind":"service","longitude":8.8600014,"latitude":50.205096,"name":"Zweirad Schmitt","city":"Nidderau","address":null,"covered":null,"access":null,"website":null,"phone":null,"source":"OpenStreetMap/node/416042537","sourceUpdatedAt":null,"verifiedAt":null}}]}