{"type":"FeatureCollection","features":[{"type":"Feature","geometry":{"type":"Point","coordinates":[8.8533182,49.107863]},"properties":{"id":"bikerack:82b07705-eb74-46de-8e42-e7fd691fb012","kind":"bikerack","longitude":8.8533182,"latitude":49.107863,"name":"Fahrradabstellplatz","city":"Sulzfeld","address":null,"covered":true,"access":null,"website":null,"phone":null,"source":"OpenStreetMap/way/1415669178","sourceUpdatedAt":null,"verifiedAt":null}},{"type":"Feature","geometry":{"type":"Point","coordinates":[8.8524527,49.1080761]},"properties":{"id":"bikerack:ddb83d8a-63c4-4c6c-9246-81fcf184b7b9","kind":"bikerack","longitude":8.8524527,"latitude":49.1080761,"name":"Fahrradabstellplatz","city":"Sulzfeld","address":null,"covered":true,"access":null,"website":null,"phone":null,"source":"OpenStreetMap/way/953297269","sourceUpdatedAt":null,"verifiedAt":null}},{"type":"Feature","geometry":{"type":"Point","coordinates":[8.8533674,49.1079084]},"properties":{"id":"bikerack:eb323fd5-0de1-4436-906b-d2574287d7db","kind":"bikerack","longitude":8.8533674,"latitude":49.1079084,"name":"Fahrradabstellplatz","city":"Sulzfeld","address":null,"covered":false,"access":null,"website":null,"phone":null,"source":"OpenStreetMap/way/1415668881","sourceUpdatedAt":null,"verifiedAt":null}},{"type":"Feature","geometry":{"type":"Point","coordinates":[8.8518907,49.1081856]},"properties":{"id":"bikerack:f6524b54-f98c-485b-a99c-4c1e18775dbd","kind":"bikerack","longitude":8.8518907,"latitude":49.1081856,"name":"Fahrradabstellplatz","city":"Sulzfeld","address":null,"covered":true,"access":null,"website":null,"phone":null,"source":"OpenStreetMap/way/1415669853","sourceUpdatedAt":null,"verifiedAt":null}},{"type":"Feature","geometry":{"type":"Point","coordinates":[8.8584445,49.1016587]},"properties":{"id":"repair:cce12b0d-2866-45e6-aa02-59dceedbf0b3","kind":"repair","longitude":8.8584445,"latitude":49.1016587,"name":"ADAC Radservice-Station","city":"Sulzfeld","address":null,"covered":false,"access":null,"website":null,"phone":null,"source":"OpenStreetMap/node/13381349488","sourceUpdatedAt":null,"verifiedAt":null}},{"type":"Feature","geometry":{"type":"Point","coordinates":[8.8594052,49.1052212]},"properties":{"id":"service:5bf41484-9cd6-4935-9673-e38e6ee92ddd","kind":"service","longitude":8.8594052,"latitude":49.1052212,"name":"Zweirad Schmidt","city":"Sulzfeld","address":null,"covered":null,"access":null,"website":null,"phone":null,"source":"OpenStreetMap/node/1569430464","sourceUpdatedAt":null,"verifiedAt":null}}]}