{"type":"FeatureCollection","features":[{"type":"Feature","geometry":{"type":"Point","coordinates":[8.8584568,46.222477]},"properties":{"id":"bikerack:6270b7f5-e1c0-40d7-ada7-8d00a928774f","kind":"bikerack","longitude":8.8584568,"latitude":46.222477,"name":"Bicycle Parking","city":"Gordola","address":null,"covered":false,"access":null,"website":null,"phone":null,"source":"OpenStreetMap/node/12185797203","sourceUpdatedAt":null,"verifiedAt":null}},{"type":"Feature","geometry":{"type":"Point","coordinates":[8.8647001,46.2222513]},"properties":{"id":"water:0269b0bd-c2ed-4ea4-8f10-7133b6fa8cfe","kind":"water","longitude":8.8647001,"latitude":46.2222513,"name":"Drinking Fountain","city":"Gordola","address":null,"covered":null,"access":null,"website":null,"phone":null,"source":"OpenStreetMap/node/6419588289","sourceUpdatedAt":null,"verifiedAt":null}},{"type":"Feature","geometry":{"type":"Point","coordinates":[8.8411852,46.2144649]},"properties":{"id":"water:0b735b64-d74c-4a5d-a224-372ba6aa88e4","kind":"water","longitude":8.8411852,"latitude":46.2144649,"name":"Drinking Fountain","city":"Gordola","address":null,"covered":null,"access":null,"website":null,"phone":null,"source":"OpenStreetMap/node/12372335303","sourceUpdatedAt":null,"verifiedAt":null}},{"type":"Feature","geometry":{"type":"Point","coordinates":[8.8437132,46.2155246]},"properties":{"id":"water:0db4fbfd-263e-4b38-883b-f7c542dcc118","kind":"water","longitude":8.8437132,"latitude":46.2155246,"name":"Drinking Fountain","city":"Gordola","address":null,"covered":null,"access":null,"website":null,"phone":null,"source":"OpenStreetMap/node/12372330487","sourceUpdatedAt":null,"verifiedAt":null}},{"type":"Feature","geometry":{"type":"Point","coordinates":[8.8604533,46.2186439]},"properties":{"id":"water:1e92aa93-2765-46e7-9a30-6f422921b2d2","kind":"water","longitude":8.8604533,"latitude":46.2186439,"name":"Drinking Fountain","city":"Gordola","address":null,"covered":null,"access":null,"website":null,"phone":null,"source":"OpenStreetMap/node/12228288713","sourceUpdatedAt":null,"verifiedAt":null}},{"type":"Feature","geometry":{"type":"Point","coordinates":[8.8608918,46.2095481]},"properties":{"id":"water:24a70fec-17c9-4357-b563-79c9f56d71ea","kind":"water","longitude":8.8608918,"latitude":46.2095481,"name":"Drinking Fountain","city":"Gordola","address":null,"covered":null,"access":null,"website":null,"phone":null,"source":"OpenStreetMap/node/4475860743","sourceUpdatedAt":null,"verifiedAt":null}},{"type":"Feature","geometry":{"type":"Point","coordinates":[8.8382188,46.2141406]},"properties":{"id":"water:28fa4230-c942-445d-985d-7b8eee84ad57","kind":"water","longitude":8.8382188,"latitude":46.2141406,"name":"Drinking Fountain","city":"Gordola","address":null,"covered":null,"access":null,"website":null,"phone":null,"source":"OpenStreetMap/node/12372333069","sourceUpdatedAt":null,"verifiedAt":null}},{"type":"Feature","geometry":{"type":"Point","coordinates":[8.8663006,46.1971862]},"properties":{"id":"water:2c51d91f-8c6f-4a6f-a5d5-f17b0c3f9cc5","kind":"water","longitude":8.8663006,"latitude":46.1971862,"name":"Drinking Fountain","city":"Gordola","address":null,"covered":null,"access":null,"website":null,"phone":null,"source":"OpenStreetMap/node/4500580765","sourceUpdatedAt":null,"verifiedAt":null}},{"type":"Feature","geometry":{"type":"Point","coordinates":[8.8586522,46.2221328]},"properties":{"id":"water:57e6be50-fef6-46b6-8a80-4bc5a646ed06","kind":"water","longitude":8.8586522,"latitude":46.2221328,"name":"Drinking Fountain","city":"Gordola","address":null,"covered":null,"access":null,"website":null,"phone":null,"source":"OpenStreetMap/node/6419588085","sourceUpdatedAt":null,"verifiedAt":null}},{"type":"Feature","geometry":{"type":"Point","coordinates":[8.8674657,46.2216478]},"properties":{"id":"water:5d9938da-3e4f-45c5-aa20-c998fe1fb4ea","kind":"water","longitude":8.8674657,"latitude":46.2216478,"name":"Drinking Fountain","city":"Gordola","address":null,"covered":null,"access":null,"website":null,"phone":null,"source":"OpenStreetMap/node/5222888323","sourceUpdatedAt":null,"verifiedAt":null}},{"type":"Feature","geometry":{"type":"Point","coordinates":[8.8612586,46.2204865]},"properties":{"id":"water:60bdbf6e-07fb-46f0-9597-e3fc7013ea18","kind":"water","longitude":8.8612586,"latitude":46.2204865,"name":"Drinking Fountain","city":"Gordola","address":null,"covered":null,"access":null,"website":null,"phone":null,"source":"OpenStreetMap/node/6419588285","sourceUpdatedAt":null,"verifiedAt":null}},{"type":"Feature","geometry":{"type":"Point","coordinates":[8.8600037,46.215717]},"properties":{"id":"water:64184e8e-7d51-42c6-833f-127e4bc7a741","kind":"water","longitude":8.8600037,"latitude":46.215717,"name":"Drinking Fountain","city":"Gordola","address":null,"covered":null,"access":null,"website":null,"phone":null,"source":"OpenStreetMap/node/13027130672","sourceUpdatedAt":null,"verifiedAt":null}},{"type":"Feature","geometry":{"type":"Point","coordinates":[8.8615737,46.2216812]},"properties":{"id":"water:a212c1cb-8bb1-4691-9ce2-1a8d52583153","kind":"water","longitude":8.8615737,"latitude":46.2216812,"name":"Drinking Fountain","city":"Gordola","address":null,"covered":null,"access":null,"website":null,"phone":null,"source":"OpenStreetMap/node/6419588086","sourceUpdatedAt":null,"verifiedAt":null}},{"type":"Feature","geometry":{"type":"Point","coordinates":[8.8649253,46.2214223]},"properties":{"id":"water:a96962ca-3c78-4802-9e82-8411005e8d43","kind":"water","longitude":8.8649253,"latitude":46.2214223,"name":"Drinking Fountain","city":"Gordola","address":null,"covered":null,"access":null,"website":null,"phone":null,"source":"OpenStreetMap/node/6419588087","sourceUpdatedAt":null,"verifiedAt":null}},{"type":"Feature","geometry":{"type":"Point","coordinates":[8.8400139,46.2098933]},"properties":{"id":"water:ce0dbe78-6c60-455c-a67a-cac0e17103d2","kind":"water","longitude":8.8400139,"latitude":46.2098933,"name":"Drinking Fountain","city":"Gordola","address":null,"covered":null,"access":null,"website":null,"phone":null,"source":"OpenStreetMap/node/6418337169","sourceUpdatedAt":null,"verifiedAt":null}},{"type":"Feature","geometry":{"type":"Point","coordinates":[8.8681501,46.197178]},"properties":{"id":"water:e2ef0685-f71e-4a55-9a9d-ee24ffbf49b5","kind":"water","longitude":8.8681501,"latitude":46.197178,"name":"Drinking Fountain","city":"Gordola","address":null,"covered":null,"access":null,"website":null,"phone":null,"source":"OpenStreetMap/node/4500579059","sourceUpdatedAt":null,"verifiedAt":null}},{"type":"Feature","geometry":{"type":"Point","coordinates":[8.8480232,46.2107217]},"properties":{"id":"water:e9a0fd69-e55f-4257-821c-69f95c195e56","kind":"water","longitude":8.8480232,"latitude":46.2107217,"name":"Drinking Fountain","city":"Gordola","address":null,"covered":null,"access":null,"website":null,"phone":null,"source":"OpenStreetMap/node/2278821738","sourceUpdatedAt":null,"verifiedAt":null}}]}