{"type":"FeatureCollection","features":[{"type":"Feature","geometry":{"type":"Point","coordinates":[13.7026746,51.851913]},"properties":{"id":"bikerack:27d3f168-27e6-4110-9057-971d87f73722","kind":"bikerack","longitude":13.7026746,"latitude":51.851913,"name":"Fahrradabstellplatz","city":"Luckau","address":null,"covered":false,"access":null,"website":null,"phone":null,"source":"OpenStreetMap/node/11030673736","sourceUpdatedAt":null,"verifiedAt":null}},{"type":"Feature","geometry":{"type":"Point","coordinates":[13.7024858,51.8518953]},"properties":{"id":"bikerack:3e5e79ee-630d-447a-a53d-e94b64ccb740","kind":"bikerack","longitude":13.7024858,"latitude":51.8518953,"name":"Fahrradabstellplatz","city":"Luckau","address":null,"covered":false,"access":null,"website":null,"phone":null,"source":"OpenStreetMap/node/11030673739","sourceUpdatedAt":null,"verifiedAt":null}},{"type":"Feature","geometry":{"type":"Point","coordinates":[13.7024622,51.8518964]},"properties":{"id":"bikerack:461d8ece-cc32-4e5f-b94b-4397af1ea00f","kind":"bikerack","longitude":13.7024622,"latitude":51.8518964,"name":"Fahrradabstellplatz","city":"Luckau","address":null,"covered":false,"access":null,"website":null,"phone":null,"source":"OpenStreetMap/node/11030673738","sourceUpdatedAt":null,"verifiedAt":null}},{"type":"Feature","geometry":{"type":"Point","coordinates":[13.696769,51.8517026]},"properties":{"id":"bikerack:9d01bd14-2ab2-4c3d-8bdb-0df5526040e7","kind":"bikerack","longitude":13.696769,"latitude":51.8517026,"name":"Fahrradabstellplatz","city":"Luckau","address":null,"covered":false,"access":null,"website":null,"phone":null,"source":"OpenStreetMap/node/1996123400","sourceUpdatedAt":null,"verifiedAt":null}},{"type":"Feature","geometry":{"type":"Point","coordinates":[13.7026491,51.8519134]},"properties":{"id":"bikerack:bf515bf1-4d53-4326-87dd-af656cd26c5c","kind":"bikerack","longitude":13.7026491,"latitude":51.8519134,"name":"Fahrradabstellplatz","city":"Luckau","address":null,"covered":false,"access":null,"website":null,"phone":null,"source":"OpenStreetMap/node/11030673737","sourceUpdatedAt":null,"verifiedAt":null}},{"type":"Feature","geometry":{"type":"Point","coordinates":[13.7025113,51.8518945]},"properties":{"id":"bikerack:f8f6771e-f8dc-45fe-a1e1-42f5171b7889","kind":"bikerack","longitude":13.7025113,"latitude":51.8518945,"name":"Fahrradabstellplatz","city":"Luckau","address":null,"covered":false,"access":null,"website":null,"phone":null,"source":"OpenStreetMap/node/11030673740","sourceUpdatedAt":null,"verifiedAt":null}},{"type":"Feature","geometry":{"type":"Point","coordinates":[13.7086142,51.8514555]},"properties":{"id":"water:5d819cda-de2f-4cc8-8684-6918148e680d","kind":"water","longitude":13.7086142,"latitude":51.8514555,"name":"Lindenquelle","city":"Luckau","address":null,"covered":null,"access":null,"website":null,"phone":null,"source":"OpenStreetMap/node/1988358150","sourceUpdatedAt":null,"verifiedAt":null}}]}