{"type":"FeatureCollection","features":[{"type":"Feature","geometry":{"type":"Point","coordinates":[13.6885863,47.557095]},"properties":{"id":"bikerack:50c8eb88-a5dc-4645-af30-6d43f275eb68","kind":"bikerack","longitude":13.6885863,"latitude":47.557095,"name":"Biciklitároló","city":"Bad Aussee","address":null,"covered":false,"access":null,"website":null,"phone":null,"source":"OpenStreetMap/node/8971719044","sourceUpdatedAt":null,"verifiedAt":null}},{"type":"Feature","geometry":{"type":"Point","coordinates":[13.7051367,47.5484258]},"properties":{"id":"bikerack:5c3f1a7a-0b29-453d-b453-758aff2ab0b9","kind":"bikerack","longitude":13.7051367,"latitude":47.5484258,"name":"Biciklitároló","city":"Bad Aussee","address":null,"covered":false,"access":null,"website":null,"phone":null,"source":"OpenStreetMap/node/9732193869","sourceUpdatedAt":null,"verifiedAt":null}},{"type":"Feature","geometry":{"type":"Point","coordinates":[13.6840026,47.5575611]},"properties":{"id":"bikerack:80ee21bc-6202-45c6-b9fc-6d2fa09dd91e","kind":"bikerack","longitude":13.6840026,"latitude":47.5575611,"name":"Biciklitároló","city":"Bad Goisern","address":null,"covered":true,"access":null,"website":null,"phone":null,"source":"OpenStreetMap/way/969131773","sourceUpdatedAt":null,"verifiedAt":null}},{"type":"Feature","geometry":{"type":"Point","coordinates":[13.6835804,47.5577726]},"properties":{"id":"bikerack:ba85a1c0-94e4-4b06-9e66-32f50b8582de","kind":"bikerack","longitude":13.6835804,"latitude":47.5577726,"name":"Biciklitároló","city":"Bad Goisern","address":null,"covered":true,"access":null,"website":null,"phone":null,"source":"OpenStreetMap/way/124333821","sourceUpdatedAt":null,"verifiedAt":null}},{"type":"Feature","geometry":{"type":"Point","coordinates":[13.6901386,47.5557495]},"properties":{"id":"bikerack:d5eef891-4ae1-4620-a5c3-e989cdf7d58b","kind":"bikerack","longitude":13.6901386,"latitude":47.5557495,"name":"Biciklitároló","city":"Bad Aussee","address":null,"covered":false,"access":null,"website":null,"phone":null,"source":"OpenStreetMap/node/8971719045","sourceUpdatedAt":null,"verifiedAt":null}},{"type":"Feature","geometry":{"type":"Point","coordinates":[13.6897999,47.5556676]},"properties":{"id":"water:f7db2751-9d0d-40de-9830-2ded0445eb5a","kind":"water","longitude":13.6897999,"latitude":47.5556676,"name":"Ivókút","city":"Bad Aussee","address":null,"covered":null,"access":null,"website":null,"phone":null,"source":"OpenStreetMap/node/10143043258","sourceUpdatedAt":null,"verifiedAt":null}}]}