{"type":"FeatureCollection","features":[{"type":"Feature","geometry":{"type":"Point","coordinates":[13.7064876,46.673766]},"properties":{"id":"bikerack:19e5785f-dc44-41b0-b535-e600dc8975c3","kind":"bikerack","longitude":13.7064876,"latitude":46.673766,"name":"Biciklitároló","city":"Fresach","address":null,"covered":false,"access":null,"website":null,"phone":null,"source":"OpenStreetMap/node/4513589414","sourceUpdatedAt":null,"verifiedAt":null}},{"type":"Feature","geometry":{"type":"Point","coordinates":[13.7106905,46.6723926]},"properties":{"id":"water:195e5b12-1805-4792-8da2-d70c0b95f3dc","kind":"water","longitude":13.7106905,"latitude":46.6723926,"name":"Ivókút","city":"Fresach","address":null,"covered":null,"access":null,"website":null,"phone":null,"source":"OpenStreetMap/node/4513589417","sourceUpdatedAt":null,"verifiedAt":null}},{"type":"Feature","geometry":{"type":"Point","coordinates":[13.7072943,46.6752521]},"properties":{"id":"water:2770ad2a-7845-4bda-b0f5-982f5c20da34","kind":"water","longitude":13.7072943,"latitude":46.6752521,"name":"Ivókút","city":"Fresach","address":null,"covered":null,"access":null,"website":null,"phone":null,"source":"OpenStreetMap/node/4513589413","sourceUpdatedAt":null,"verifiedAt":null}},{"type":"Feature","geometry":{"type":"Point","coordinates":[13.6979696,46.6516624]},"properties":{"id":"water:bd03804a-dfc1-4177-9eb2-86be8879f1aa","kind":"water","longitude":13.6979696,"latitude":46.6516624,"name":"Ivókút","city":"Fresach","address":null,"covered":null,"access":null,"website":null,"phone":null,"source":"OpenStreetMap/node/9867471632","sourceUpdatedAt":null,"verifiedAt":null}},{"type":"Feature","geometry":{"type":"Point","coordinates":[13.7013792,46.6745161]},"properties":{"id":"water:bd0d2a63-d74a-40ae-ba82-fccbea2984eb","kind":"water","longitude":13.7013792,"latitude":46.6745161,"name":"Ivókút","city":"Fresach","address":null,"covered":null,"access":null,"website":null,"phone":null,"source":"OpenStreetMap/node/12474401448","sourceUpdatedAt":null,"verifiedAt":null}}]}