{"type":"FeatureCollection","features":[{"type":"Feature","geometry":{"type":"Point","coordinates":[16.9155355,51.3018337]},"properties":{"id":"bikerack:18d97d25-575a-444c-8241-d89e6714658f","kind":"bikerack","longitude":16.9155355,"latitude":51.3018337,"name":"Biciklitároló","city":"Oborniki Slaskie","address":null,"covered":false,"access":null,"website":null,"phone":null,"source":"OpenStreetMap/node/9617123982","sourceUpdatedAt":null,"verifiedAt":null}},{"type":"Feature","geometry":{"type":"Point","coordinates":[16.911796,51.2985424]},"properties":{"id":"bikerack:241dfe57-bb99-45e1-a796-dbe08734b18a","kind":"bikerack","longitude":16.911796,"latitude":51.2985424,"name":"Biciklitároló","city":"Oborniki Slaskie","address":null,"covered":false,"access":null,"website":null,"phone":null,"source":"OpenStreetMap/node/10568363616","sourceUpdatedAt":null,"verifiedAt":null}},{"type":"Feature","geometry":{"type":"Point","coordinates":[16.906642,51.3056061]},"properties":{"id":"bikerack:2c8f252d-4e1b-4fa6-baf6-43b2f9e15dff","kind":"bikerack","longitude":16.906642,"latitude":51.3056061,"name":"Biciklitároló","city":"Oborniki Slaskie","address":null,"covered":false,"access":null,"website":null,"phone":null,"source":"OpenStreetMap/node/10042408585","sourceUpdatedAt":null,"verifiedAt":null}},{"type":"Feature","geometry":{"type":"Point","coordinates":[16.9174857,51.3007468]},"properties":{"id":"bikerack:4482f756-d00c-40f8-ab02-9697625c1849","kind":"bikerack","longitude":16.9174857,"latitude":51.3007468,"name":"Biciklitároló","city":"Oborniki Slaskie","address":null,"covered":false,"access":null,"website":null,"phone":null,"source":"OpenStreetMap/node/9673923382","sourceUpdatedAt":null,"verifiedAt":null}},{"type":"Feature","geometry":{"type":"Point","coordinates":[16.8815066,51.3094314]},"properties":{"id":"bikerack:52137a30-2da3-4823-b20f-4d8af8f198ba","kind":"bikerack","longitude":16.8815066,"latitude":51.3094314,"name":"Biciklitároló","city":"Oborniki Slaskie","address":null,"covered":false,"access":null,"website":null,"phone":null,"source":"OpenStreetMap/node/9791166641","sourceUpdatedAt":null,"verifiedAt":null}},{"type":"Feature","geometry":{"type":"Point","coordinates":[16.9120936,51.2981993]},"properties":{"id":"bikerack:5e34bbaf-00c3-4d76-8169-43db193b2d7b","kind":"bikerack","longitude":16.9120936,"latitude":51.2981993,"name":"Biciklitároló","city":"Oborniki Slaskie","address":null,"covered":false,"access":null,"website":null,"phone":null,"source":"OpenStreetMap/node/12558692206","sourceUpdatedAt":null,"verifiedAt":null}},{"type":"Feature","geometry":{"type":"Point","coordinates":[16.9084291,51.3031066]},"properties":{"id":"bikerack:67cc6b8b-8a8b-42a9-af86-a6bd5089e365","kind":"bikerack","longitude":16.9084291,"latitude":51.3031066,"name":"Biciklitároló","city":"Oborniki Slaskie","address":null,"covered":false,"access":null,"website":null,"phone":null,"source":"OpenStreetMap/node/9434252133","sourceUpdatedAt":null,"verifiedAt":null}},{"type":"Feature","geometry":{"type":"Point","coordinates":[16.9111293,51.2975507]},"properties":{"id":"bikerack:882c7bd3-b90e-4410-ad72-c580fbdeaad3","kind":"bikerack","longitude":16.9111293,"latitude":51.2975507,"name":"Biciklitároló","city":"Oborniki Slaskie","address":null,"covered":true,"access":null,"website":null,"phone":null,"source":"OpenStreetMap/way/1356892612","sourceUpdatedAt":null,"verifiedAt":null}},{"type":"Feature","geometry":{"type":"Point","coordinates":[16.9159144,51.3008872]},"properties":{"id":"bikerack:946bc92c-38b7-4dc8-8fb8-da8dfee0d0ac","kind":"bikerack","longitude":16.9159144,"latitude":51.3008872,"name":"Biciklitároló","city":"Oborniki Slaskie","address":null,"covered":false,"access":null,"website":null,"phone":null,"source":"OpenStreetMap/node/11082974042","sourceUpdatedAt":null,"verifiedAt":null}},{"type":"Feature","geometry":{"type":"Point","coordinates":[16.910448,51.3026541]},"properties":{"id":"bikerack:a23667fb-c02a-4dbc-ba2d-fb2ba9e7013a","kind":"bikerack","longitude":16.910448,"latitude":51.3026541,"name":"Biciklitároló","city":"Oborniki Slaskie","address":null,"covered":false,"access":null,"website":null,"phone":null,"source":"OpenStreetMap/node/9673889082","sourceUpdatedAt":null,"verifiedAt":null}},{"type":"Feature","geometry":{"type":"Point","coordinates":[16.9069642,51.2995999]},"properties":{"id":"bikerack:a25722f9-7219-46ec-a8b9-261add54d105","kind":"bikerack","longitude":16.9069642,"latitude":51.2995999,"name":"Biciklitároló","city":"Oborniki Slaskie","address":null,"covered":true,"access":null,"website":null,"phone":null,"source":"OpenStreetMap/way/1467316948","sourceUpdatedAt":null,"verifiedAt":null}},{"type":"Feature","geometry":{"type":"Point","coordinates":[16.9074839,51.2996494]},"properties":{"id":"bikerack:a5da3041-2f93-4855-9684-90b63bc93348","kind":"bikerack","longitude":16.9074839,"latitude":51.2996494,"name":"Biciklitároló","city":"Oborniki Slaskie","address":null,"covered":false,"access":null,"website":null,"phone":null,"source":"OpenStreetMap/node/6433126070","sourceUpdatedAt":null,"verifiedAt":null}},{"type":"Feature","geometry":{"type":"Point","coordinates":[16.9172929,51.3003995]},"properties":{"id":"bikerack:b973b922-bea9-4985-840c-34aa187626e8","kind":"bikerack","longitude":16.9172929,"latitude":51.3003995,"name":"Biciklitároló","city":"Oborniki Slaskie","address":null,"covered":false,"access":null,"website":null,"phone":null,"source":"OpenStreetMap/node/9480940774","sourceUpdatedAt":null,"verifiedAt":null}},{"type":"Feature","geometry":{"type":"Point","coordinates":[16.9126272,51.3038455]},"properties":{"id":"bikerack:c30eeb8f-f207-4dcb-8d1d-c6625999a514","kind":"bikerack","longitude":16.9126272,"latitude":51.3038455,"name":"Biciklitároló","city":"Oborniki Slaskie","address":null,"covered":false,"access":null,"website":null,"phone":null,"source":"OpenStreetMap/node/10543694215","sourceUpdatedAt":null,"verifiedAt":null}},{"type":"Feature","geometry":{"type":"Point","coordinates":[16.9080207,51.2989544]},"properties":{"id":"bikerack:c592b65a-4e44-45fd-bf5a-a46732c56a80","kind":"bikerack","longitude":16.9080207,"latitude":51.2989544,"name":"Biciklitároló","city":"Oborniki Slaskie","address":null,"covered":false,"access":null,"website":null,"phone":null,"source":"OpenStreetMap/node/8898048719","sourceUpdatedAt":null,"verifiedAt":null}},{"type":"Feature","geometry":{"type":"Point","coordinates":[16.9173581,51.3003697]},"properties":{"id":"bikerack:cd2ae4b4-e25e-492f-8109-c20eeb401297","kind":"bikerack","longitude":16.9173581,"latitude":51.3003697,"name":"Biciklitároló","city":"Oborniki Slaskie","address":null,"covered":false,"access":null,"website":null,"phone":null,"source":"OpenStreetMap/node/9480940773","sourceUpdatedAt":null,"verifiedAt":null}},{"type":"Feature","geometry":{"type":"Point","coordinates":[16.9119455,51.2987626]},"properties":{"id":"bikerack:cfeb227e-7809-4696-ae04-32159dd74c03","kind":"bikerack","longitude":16.9119455,"latitude":51.2987626,"name":"Biciklitároló","city":"Oborniki Slaskie","address":null,"covered":false,"access":null,"website":null,"phone":null,"source":"OpenStreetMap/node/9403183734","sourceUpdatedAt":null,"verifiedAt":null}},{"type":"Feature","geometry":{"type":"Point","coordinates":[16.9015454,51.2955258]},"properties":{"id":"bikerack:de66d11a-5f39-444d-a1db-4f783342535e","kind":"bikerack","longitude":16.9015454,"latitude":51.2955258,"name":"Biciklitároló","city":"Oborniki Slaskie","address":null,"covered":false,"access":null,"website":null,"phone":null,"source":"OpenStreetMap/node/9484216960","sourceUpdatedAt":null,"verifiedAt":null}},{"type":"Feature","geometry":{"type":"Point","coordinates":[16.9069692,51.299575]},"properties":{"id":"repair:111acc84-d149-4280-824c-0760ed962e2d","kind":"repair","longitude":16.9069692,"latitude":51.299575,"name":"Kerékpár szervizállomás","city":"Oborniki Slaskie","address":null,"covered":false,"access":null,"website":null,"phone":null,"source":"OpenStreetMap/node/13458342922","sourceUpdatedAt":null,"verifiedAt":null}},{"type":"Feature","geometry":{"type":"Point","coordinates":[16.9168827,51.3012302]},"properties":{"id":"service:b6d5d0dc-65df-4958-af7a-56e7b1b187af","kind":"service","longitude":16.9168827,"latitude":51.3012302,"name":"Bicikli szervíz","city":"Oborniki Slaskie","address":null,"covered":null,"access":null,"website":null,"phone":null,"source":"OpenStreetMap/node/9583761572","sourceUpdatedAt":null,"verifiedAt":null}},{"type":"Feature","geometry":{"type":"Point","coordinates":[16.9135703,51.3122964]},"properties":{"id":"water:0c07e3d8-8c63-4a4f-ab32-0e7fcd7cb1d4","kind":"water","longitude":16.9135703,"latitude":51.3122964,"name":"Ivókút","city":"Oborniki Slaskie","address":null,"covered":null,"access":null,"website":null,"phone":null,"source":"OpenStreetMap/node/13304653753","sourceUpdatedAt":null,"verifiedAt":null}}]}