{"type":"FeatureCollection","features":[{"type":"Feature","geometry":{"type":"Point","coordinates":[16.8889055,51.2822993]},"properties":{"id":"bikerack:05b367b1-272d-430f-99b9-01e1d6f8bc23","kind":"bikerack","longitude":16.8889055,"latitude":51.2822993,"name":"Biciklitároló","city":"Oborniki Slaskie","address":null,"covered":false,"access":null,"website":null,"phone":null,"source":"OpenStreetMap/node/10739888824","sourceUpdatedAt":null,"verifiedAt":null}},{"type":"Feature","geometry":{"type":"Point","coordinates":[16.8915626,51.2647026]},"properties":{"id":"bikerack:8ca9b097-e200-47ca-aecb-3fbd2039b899","kind":"bikerack","longitude":16.8915626,"latitude":51.2647026,"name":"Biciklitároló","city":"Oborniki Slaskie","address":null,"covered":false,"access":null,"website":null,"phone":null,"source":"OpenStreetMap/node/9581472665","sourceUpdatedAt":null,"verifiedAt":null}}]}