{"type":"FeatureCollection","features":[{"type":"Feature","geometry":{"type":"Point","coordinates":[16.8785869,46.3488627]},"properties":{"id":"water:5a99e349-5681-4666-ae31-f8aaf6f183b7","kind":"water","longitude":16.8785869,"latitude":46.3488627,"name":"Ivókút","city":null,"address":null,"covered":null,"access":null,"website":null,"phone":null,"source":"OpenStreetMap","sourceUpdatedAt":null,"verifiedAt":null}},{"type":"Feature","geometry":{"type":"Point","coordinates":[16.9054098,46.3742831]},"properties":{"id":"water:8c3f9eb7-d5ff-4206-a2ce-5eed998be592","kind":"water","longitude":16.9054098,"latitude":46.3742831,"name":"Ivókút","city":null,"address":null,"covered":null,"access":null,"website":null,"phone":null,"source":"OpenStreetMap","sourceUpdatedAt":null,"verifiedAt":null}}]}