{"type":"FeatureCollection","features":[{"type":"Feature","geometry":{"type":"Point","coordinates":[24.6182632,45.6058312]},"properties":{"id":"bikerack:7bb743c2-f1e4-4110-840f-40ca8eed32fa","kind":"bikerack","longitude":24.6182632,"latitude":45.6058312,"name":"Biciklitároló","city":"Cartisoara","address":null,"covered":false,"access":null,"website":null,"phone":null,"source":"OpenStreetMap/node/9986772617","sourceUpdatedAt":null,"verifiedAt":null}},{"type":"Feature","geometry":{"type":"Point","coordinates":[24.6125674,45.6023203]},"properties":{"id":"water:e8a6a8da-5d85-4e6a-b3f7-b113645dd76e","kind":"water","longitude":24.6125674,"latitude":45.6023203,"name":"Ivókút","city":"Cartisoara","address":null,"covered":null,"access":null,"website":null,"phone":null,"source":"OpenStreetMap/node/5850872685","sourceUpdatedAt":null,"verifiedAt":null}}]}