{"type":"FeatureCollection","features":[{"type":"Feature","geometry":{"type":"Point","coordinates":[12.9253338,52.393083]},"properties":{"id":"bikerack:017d6dbe-f8bf-48d6-85e2-a6e7aa19dc0b","kind":"bikerack","longitude":12.9253338,"latitude":52.393083,"name":"Fahrradabstellplatz","city":"Werder","address":null,"covered":false,"access":null,"website":null,"phone":null,"source":"OpenStreetMap/way/1126474772","sourceUpdatedAt":null,"verifiedAt":null}},{"type":"Feature","geometry":{"type":"Point","coordinates":[12.9268657,52.3925495]},"properties":{"id":"bikerack:11e60bc0-dad3-410e-ac99-3878f7e46f39","kind":"bikerack","longitude":12.9268657,"latitude":52.3925495,"name":"Fahrradabstellplatz","city":"Werder","address":null,"covered":false,"access":null,"website":null,"phone":null,"source":"OpenStreetMap/node/2217100214","sourceUpdatedAt":null,"verifiedAt":null}},{"type":"Feature","geometry":{"type":"Point","coordinates":[12.9390157,52.3810035]},"properties":{"id":"bikerack:2de6587c-06f7-4332-896d-ba122006267b","kind":"bikerack","longitude":12.9390157,"latitude":52.3810035,"name":"Fahrradabstellplatz","city":"Werder","address":null,"covered":false,"access":null,"website":null,"phone":null,"source":"OpenStreetMap/node/5635411674","sourceUpdatedAt":null,"verifiedAt":null}},{"type":"Feature","geometry":{"type":"Point","coordinates":[12.9261559,52.4009889]},"properties":{"id":"bikerack:353376c0-8efe-4d94-8cfd-58b8d9dc1ad9","kind":"bikerack","longitude":12.9261559,"latitude":52.4009889,"name":"Fahrradabstellplatz","city":"Werder","address":null,"covered":false,"access":null,"website":null,"phone":null,"source":"OpenStreetMap/node/8251174745","sourceUpdatedAt":null,"verifiedAt":null}},{"type":"Feature","geometry":{"type":"Point","coordinates":[12.9348088,52.3782525]},"properties":{"id":"bikerack:3916765d-9792-475b-a179-6620985c3c0f","kind":"bikerack","longitude":12.9348088,"latitude":52.3782525,"name":"Fahrradabstellplatz","city":"Werder","address":null,"covered":false,"access":null,"website":null,"phone":null,"source":"OpenStreetMap/node/2219161393","sourceUpdatedAt":null,"verifiedAt":null}},{"type":"Feature","geometry":{"type":"Point","coordinates":[12.9400454,52.3809657]},"properties":{"id":"bikerack:5532af51-7d92-4306-a364-ea4929e7164a","kind":"bikerack","longitude":12.9400454,"latitude":52.3809657,"name":"Fahrradabstellplatz","city":"Werder","address":null,"covered":false,"access":null,"website":null,"phone":null,"source":"OpenStreetMap/node/12846353299","sourceUpdatedAt":null,"verifiedAt":null}},{"type":"Feature","geometry":{"type":"Point","coordinates":[12.9258536,52.3925603]},"properties":{"id":"bikerack:567f2116-44bc-4a05-ba51-20daa429e4e0","kind":"bikerack","longitude":12.9258536,"latitude":52.3925603,"name":"Fahrradabstellplatz","city":"Werder","address":null,"covered":false,"access":null,"website":null,"phone":null,"source":"OpenStreetMap/way/944408415","sourceUpdatedAt":null,"verifiedAt":null}},{"type":"Feature","geometry":{"type":"Point","coordinates":[12.930831,52.3921285]},"properties":{"id":"bikerack:6ddaceb5-c344-4850-b588-84da8c91b9fe","kind":"bikerack","longitude":12.930831,"latitude":52.3921285,"name":"Fahrradabstellplatz","city":"Werder","address":null,"covered":false,"access":null,"website":null,"phone":null,"source":"OpenStreetMap/node/12840256558","sourceUpdatedAt":null,"verifiedAt":null}},{"type":"Feature","geometry":{"type":"Point","coordinates":[12.9265253,52.3768823]},"properties":{"id":"bikerack:726f89da-dbdb-4125-9c54-1d440a4846ae","kind":"bikerack","longitude":12.9265253,"latitude":52.3768823,"name":"Fahrradabstellplatz","city":"Werder","address":null,"covered":false,"access":null,"website":null,"phone":null,"source":"OpenStreetMap/node/2271620032","sourceUpdatedAt":null,"verifiedAt":null}},{"type":"Feature","geometry":{"type":"Point","coordinates":[12.9246473,52.3757676]},"properties":{"id":"bikerack:72a308fc-f442-4ddb-9ff1-e01c40b5ea7a","kind":"bikerack","longitude":12.9246473,"latitude":52.3757676,"name":"Fahrradabstellplatz","city":"Werder","address":null,"covered":false,"access":null,"website":null,"phone":null,"source":"OpenStreetMap/node/2271620007","sourceUpdatedAt":null,"verifiedAt":null}},{"type":"Feature","geometry":{"type":"Point","coordinates":[12.9417953,52.3791056]},"properties":{"id":"bikerack:76158039-b450-4577-b947-06997c001b72","kind":"bikerack","longitude":12.9417953,"latitude":52.3791056,"name":"Fahrradabstellplatz","city":"Werder","address":null,"covered":false,"access":null,"website":null,"phone":null,"source":"OpenStreetMap/node/6522586220","sourceUpdatedAt":null,"verifiedAt":null}},{"type":"Feature","geometry":{"type":"Point","coordinates":[12.9411516,52.3789018]},"properties":{"id":"bikerack:83730cec-e3c0-4c92-87d0-6b912b9427f7","kind":"bikerack","longitude":12.9411516,"latitude":52.3789018,"name":"Fahrradabstellplatz","city":"Werder","address":null,"covered":false,"access":null,"website":null,"phone":null,"source":"OpenStreetMap/node/6522592147","sourceUpdatedAt":null,"verifiedAt":null}},{"type":"Feature","geometry":{"type":"Point","coordinates":[12.9236894,52.3995044]},"properties":{"id":"bikerack:8bfdb2de-4d7e-48c0-8f58-bef50a792323","kind":"bikerack","longitude":12.9236894,"latitude":52.3995044,"name":"Fahrradabstellplatz","city":"Werder","address":null,"covered":false,"access":null,"website":null,"phone":null,"source":"OpenStreetMap/way/1050877802","sourceUpdatedAt":null,"verifiedAt":null}},{"type":"Feature","geometry":{"type":"Point","coordinates":[12.9254237,52.393529]},"properties":{"id":"bikerack:94b6a030-1401-4d48-b95d-4b2201d506d4","kind":"bikerack","longitude":12.9254237,"latitude":52.393529,"name":"Fahrradabstellplatz","city":"Werder","address":null,"covered":false,"access":null,"website":null,"phone":null,"source":"OpenStreetMap/node/3553451761","sourceUpdatedAt":null,"verifiedAt":null}},{"type":"Feature","geometry":{"type":"Point","coordinates":[12.9326558,52.3772239]},"properties":{"id":"bikerack:9c09f73a-f74d-415e-b381-94820af772b4","kind":"bikerack","longitude":12.9326558,"latitude":52.3772239,"name":"Fahrradabstellplatz","city":"Werder","address":null,"covered":false,"access":null,"website":null,"phone":null,"source":"OpenStreetMap/node/9922275834","sourceUpdatedAt":null,"verifiedAt":null}},{"type":"Feature","geometry":{"type":"Point","coordinates":[12.9250147,52.3930099]},"properties":{"id":"bikerack:af9ca631-9399-4376-ac2e-80547799190a","kind":"bikerack","longitude":12.9250147,"latitude":52.3930099,"name":"Fahrradabstellplatz","city":"Werder","address":null,"covered":true,"access":null,"website":null,"phone":null,"source":"OpenStreetMap/way/1126474768","sourceUpdatedAt":null,"verifiedAt":null}},{"type":"Feature","geometry":{"type":"Point","coordinates":[12.9395918,52.3812468]},"properties":{"id":"bikerack:b09611db-02d4-4db1-a380-bade82dc1be1","kind":"bikerack","longitude":12.9395918,"latitude":52.3812468,"name":"Fahrradabstellplatz","city":"Werder","address":null,"covered":false,"access":null,"website":null,"phone":null,"source":"OpenStreetMap/node/12846417693","sourceUpdatedAt":null,"verifiedAt":null}},{"type":"Feature","geometry":{"type":"Point","coordinates":[12.9311847,52.3774168]},"properties":{"id":"bikerack:b3ac6def-44de-47e0-aa4c-5ff4ebb827d8","kind":"bikerack","longitude":12.9311847,"latitude":52.3774168,"name":"Fahrradabstellplatz","city":"Werder","address":null,"covered":false,"access":null,"website":null,"phone":null,"source":"OpenStreetMap/node/9922224777","sourceUpdatedAt":null,"verifiedAt":null}},{"type":"Feature","geometry":{"type":"Point","coordinates":[12.9393669,52.3789797]},"properties":{"id":"bikerack:c7caa57c-54aa-403e-b892-6083a300f273","kind":"bikerack","longitude":12.9393669,"latitude":52.3789797,"name":"Fahrradabstellplatz","city":"Werder","address":null,"covered":false,"access":null,"website":null,"phone":null,"source":"OpenStreetMap/node/9430706103","sourceUpdatedAt":null,"verifiedAt":null}},{"type":"Feature","geometry":{"type":"Point","coordinates":[12.9452053,52.3798422]},"properties":{"id":"bikerack:cf4899b5-46f2-4635-b7f8-c11f249edee4","kind":"bikerack","longitude":12.9452053,"latitude":52.3798422,"name":"Fahrradabstellplatz","city":"Werder","address":null,"covered":false,"access":null,"website":null,"phone":null,"source":"OpenStreetMap/node/13015679074","sourceUpdatedAt":null,"verifiedAt":null}},{"type":"Feature","geometry":{"type":"Point","coordinates":[12.9391929,52.3797608]},"properties":{"id":"bikerack:f82b58e2-7e94-4a1e-8b92-4bc21b3d3078","kind":"bikerack","longitude":12.9391929,"latitude":52.3797608,"name":"Fahrradabstellplatz","city":"Werder","address":null,"covered":false,"access":null,"website":null,"phone":null,"source":"OpenStreetMap/node/9430706080","sourceUpdatedAt":null,"verifiedAt":null}},{"type":"Feature","geometry":{"type":"Point","coordinates":[12.932418,52.3914619]},"properties":{"id":"bikerack:fff1921e-911f-4a49-bb78-2ab6628c1613","kind":"bikerack","longitude":12.932418,"latitude":52.3914619,"name":"Fahrradabstellplatz","city":"Werder","address":null,"covered":false,"access":null,"website":null,"phone":null,"source":"OpenStreetMap/node/12840208984","sourceUpdatedAt":null,"verifiedAt":null}},{"type":"Feature","geometry":{"type":"Point","coordinates":[12.931339,52.39173]},"properties":{"id":"service:50fa7af1-5f7c-4f04-a4f4-1fe7a1fb748a","kind":"service","longitude":12.931339,"latitude":52.39173,"name":"e-motion e-Bike Welt Werder","city":"Werder (Havel)","address":null,"covered":null,"access":null,"website":null,"phone":null,"source":"OpenStreetMap/node/10042356495","sourceUpdatedAt":null,"verifiedAt":null}}]}