{"type":"FeatureCollection","features":[{"type":"Feature","geometry":{"type":"Point","coordinates":[12.9476865,52.3612665]},"properties":{"id":"bikerack:1f46ba87-f72e-44ca-a434-be16715d3a08","kind":"bikerack","longitude":12.9476865,"latitude":52.3612665,"name":"Fahrradabstellplatz","city":"Werder","address":null,"covered":false,"access":null,"website":null,"phone":null,"source":"OpenStreetMap/node/12875708385","sourceUpdatedAt":null,"verifiedAt":null}},{"type":"Feature","geometry":{"type":"Point","coordinates":[12.9593525,52.3566646]},"properties":{"id":"bikerack:1f99e86e-bd33-450b-93fb-b9d032f1e0b4","kind":"bikerack","longitude":12.9593525,"latitude":52.3566646,"name":"Fahrradabstellplatz","city":"Werder","address":null,"covered":false,"access":null,"website":null,"phone":null,"source":"OpenStreetMap/node/7731020812","sourceUpdatedAt":null,"verifiedAt":null}},{"type":"Feature","geometry":{"type":"Point","coordinates":[12.9217786,52.3547149]},"properties":{"id":"bikerack:3f50aef5-e7b0-4fa9-8f4a-7051e5f55f6c","kind":"bikerack","longitude":12.9217786,"latitude":52.3547149,"name":"Fahrradabstellplatz","city":"Werder","address":null,"covered":false,"access":null,"website":null,"phone":null,"source":"OpenStreetMap/node/12271391005","sourceUpdatedAt":null,"verifiedAt":null}},{"type":"Feature","geometry":{"type":"Point","coordinates":[12.9222692,52.3548591]},"properties":{"id":"bikerack:73297366-4b0b-4b06-ba7e-aaf904a47281","kind":"bikerack","longitude":12.9222692,"latitude":52.3548591,"name":"Fahrradabstellplatz","city":"Werder","address":null,"covered":false,"access":null,"website":null,"phone":null,"source":"OpenStreetMap/node/12271382347","sourceUpdatedAt":null,"verifiedAt":null}},{"type":"Feature","geometry":{"type":"Point","coordinates":[12.9363142,52.3623924]},"properties":{"id":"bikerack:87497697-10cd-4eb1-9c69-bbe5a5b12e51","kind":"bikerack","longitude":12.9363142,"latitude":52.3623924,"name":"Fahrradabstellplatz","city":"Werder","address":null,"covered":false,"access":null,"website":null,"phone":null,"source":"OpenStreetMap/node/11059928197","sourceUpdatedAt":null,"verifiedAt":null}},{"type":"Feature","geometry":{"type":"Point","coordinates":[12.9271018,52.3744273]},"properties":{"id":"bikerack:9c7d1983-5a55-49e8-a3a3-ca3e4561c1f5","kind":"bikerack","longitude":12.9271018,"latitude":52.3744273,"name":"Fahrradabstellplatz","city":"Werder","address":null,"covered":false,"access":null,"website":null,"phone":null,"source":"OpenStreetMap/node/9520256237","sourceUpdatedAt":null,"verifiedAt":null}},{"type":"Feature","geometry":{"type":"Point","coordinates":[12.9420333,52.3635578]},"properties":{"id":"bikerack:bb729fe9-70ec-4bd1-82ad-617370c72501","kind":"bikerack","longitude":12.9420333,"latitude":52.3635578,"name":"Fahrradabstellplatz","city":"Werder","address":null,"covered":false,"access":null,"website":null,"phone":null,"source":"OpenStreetMap/node/12026080384","sourceUpdatedAt":null,"verifiedAt":null}},{"type":"Feature","geometry":{"type":"Point","coordinates":[12.9423889,52.363795]},"properties":{"id":"bikerack:e78aca32-6471-4bdb-89b4-a54f309d19f0","kind":"bikerack","longitude":12.9423889,"latitude":52.363795,"name":"Fahrradabstellplatz","city":"Werder","address":null,"covered":false,"access":null,"website":null,"phone":null,"source":"OpenStreetMap/node/13007287481","sourceUpdatedAt":null,"verifiedAt":null}},{"type":"Feature","geometry":{"type":"Point","coordinates":[12.9371122,52.3642919]},"properties":{"id":"bikerack:e8196f42-acfc-4fae-b176-f1da542f9972","kind":"bikerack","longitude":12.9371122,"latitude":52.3642919,"name":"Fahrradabstellplatz","city":"Werder","address":null,"covered":false,"access":null,"website":null,"phone":null,"source":"OpenStreetMap/node/11081511614","sourceUpdatedAt":null,"verifiedAt":null}},{"type":"Feature","geometry":{"type":"Point","coordinates":[12.9427174,52.3641111]},"properties":{"id":"service:287c26f2-1643-4069-9a8c-fcdf25f830ba","kind":"service","longitude":12.9427174,"latitude":52.3641111,"name":"DAS RADHAUS Werder","city":"Werder (Havel)","address":null,"covered":null,"access":null,"website":null,"phone":null,"source":"OpenStreetMap/way/111441642","sourceUpdatedAt":null,"verifiedAt":null}}]}