{"type":"FeatureCollection","features":[{"type":"Feature","geometry":{"type":"Point","coordinates":[12.9255511,50.9012267]},"properties":{"id":"bikerack:5c8efc29-f5f3-4977-a00e-b3fc7ad11e75","kind":"bikerack","longitude":12.9255511,"latitude":50.9012267,"name":"Fahrradabstellplatz","city":"Claussnitz","address":null,"covered":false,"access":null,"website":null,"phone":null,"source":"OpenStreetMap/node/8409139186","sourceUpdatedAt":null,"verifiedAt":null}},{"type":"Feature","geometry":{"type":"Point","coordinates":[12.9202048,50.9005137]},"properties":{"id":"bikerack:a7428b3a-e76d-4eee-b45d-2fcda561b86f","kind":"bikerack","longitude":12.9202048,"latitude":50.9005137,"name":"Fahrradabstellplatz","city":"Claussnitz","address":null,"covered":false,"access":null,"website":null,"phone":null,"source":"OpenStreetMap/node/8516058036","sourceUpdatedAt":null,"verifiedAt":null}},{"type":"Feature","geometry":{"type":"Point","coordinates":[12.9527934,50.9015118]},"properties":{"id":"bikerack:e4cd07a0-adef-4f58-9c67-84fcb58243e7","kind":"bikerack","longitude":12.9527934,"latitude":50.9015118,"name":"Fahrradabstellplatz","city":"Hilbersdorf","address":null,"covered":false,"access":null,"website":null,"phone":null,"source":"OpenStreetMap/way/830805827","sourceUpdatedAt":null,"verifiedAt":null}}]}