{"type":"FeatureCollection","features":[{"type":"Feature","geometry":{"type":"Point","coordinates":[12.9599288,47.8750481]},"properties":{"id":"water:39efb0bb-5896-4ebd-a1a7-7826ba4cc5a2","kind":"water","longitude":12.9599288,"latitude":47.8750481,"name":"Trinkwasser","city":"Freilassing","address":null,"covered":null,"access":null,"website":null,"phone":null,"source":"OpenStreetMap/node/8206069284","sourceUpdatedAt":null,"verifiedAt":null}},{"type":"Feature","geometry":{"type":"Point","coordinates":[12.9588939,47.87354]},"properties":{"id":"water:9b9041c2-f4e7-4d7a-9463-67a139cf5ce3","kind":"water","longitude":12.9588939,"latitude":47.87354,"name":"Trinkwasser","city":"Freilassing","address":null,"covered":null,"access":null,"website":null,"phone":null,"source":"OpenStreetMap/node/8220397633","sourceUpdatedAt":null,"verifiedAt":null}},{"type":"Feature","geometry":{"type":"Point","coordinates":[12.9602871,47.8751296]},"properties":{"id":"water:a154a965-b177-4ba5-898a-3cc94d56791c","kind":"water","longitude":12.9602871,"latitude":47.8751296,"name":"Trinkwasser","city":"Freilassing","address":null,"covered":null,"access":null,"website":null,"phone":null,"source":"OpenStreetMap/node/8206136445","sourceUpdatedAt":null,"verifiedAt":null}}]}