{"type":"FeatureCollection","features":[{"type":"Feature","geometry":{"type":"Point","coordinates":[12.9387895,45.9421651]},"properties":{"id":"water:4fd97318-210f-474e-a874-1db38bf67eae","kind":"water","longitude":12.9387895,"latitude":45.9421651,"name":"Fontanella","city":"Camino al Tagliamento","address":null,"covered":null,"access":null,"website":null,"phone":null,"source":"OpenStreetMap/node/12886754591","sourceUpdatedAt":null,"verifiedAt":null}},{"type":"Feature","geometry":{"type":"Point","coordinates":[12.9564211,45.9317501]},"properties":{"id":"water:7b894c03-13ca-4cf3-833f-68d05ec17325","kind":"water","longitude":12.9564211,"latitude":45.9317501,"name":"Fontanella","city":"Camino al Tagliamento","address":null,"covered":null,"access":null,"website":null,"phone":null,"source":"OpenStreetMap/node/12886699764","sourceUpdatedAt":null,"verifiedAt":null}}]}