{"type":"FeatureCollection","features":[{"type":"Feature","geometry":{"type":"Point","coordinates":[20.7521974,50.6128232]},"properties":{"id":"bikerack:03832a44-0aeb-41ae-8470-8c447617eb0d","kind":"bikerack","longitude":20.7521974,"latitude":50.6128232,"name":"Biciklitároló","city":"Chmielnik","address":null,"covered":false,"access":null,"website":null,"phone":null,"source":"OpenStreetMap/way/358568966","sourceUpdatedAt":null,"verifiedAt":null}},{"type":"Feature","geometry":{"type":"Point","coordinates":[20.754252,50.6122807]},"properties":{"id":"bikerack:34be80cb-d112-4e1c-a4f2-ba9de12ff93d","kind":"bikerack","longitude":20.754252,"latitude":50.6122807,"name":"Biciklitároló","city":"Chmielnik","address":null,"covered":false,"access":null,"website":null,"phone":null,"source":"OpenStreetMap/way/358568964","sourceUpdatedAt":null,"verifiedAt":null}},{"type":"Feature","geometry":{"type":"Point","coordinates":[20.7507329,50.6148203]},"properties":{"id":"bikerack:6ec0df4f-e1d3-47f9-8751-f4b712030541","kind":"bikerack","longitude":20.7507329,"latitude":50.6148203,"name":"Biciklitároló","city":"Chmielnik","address":null,"covered":false,"access":null,"website":null,"phone":null,"source":"OpenStreetMap/node/13017160294","sourceUpdatedAt":null,"verifiedAt":null}},{"type":"Feature","geometry":{"type":"Point","coordinates":[20.7543334,50.6125495]},"properties":{"id":"bikerack:b6780a5f-944b-48ce-a8e5-5e5891b64a17","kind":"bikerack","longitude":20.7543334,"latitude":50.6125495,"name":"Biciklitároló","city":"Chmielnik","address":null,"covered":false,"access":null,"website":null,"phone":null,"source":"OpenStreetMap/way/358568963","sourceUpdatedAt":null,"verifiedAt":null}}]}