{"type":"FeatureCollection","features":[{"type":"Feature","geometry":{"type":"Point","coordinates":[20.765992,48.0802488]},"properties":{"id":"bikerack:00257a75-037f-41bc-a421-3cc1c82865f2","kind":"bikerack","longitude":20.765992,"latitude":48.0802488,"name":"Biciklitároló","city":"Miskolc","address":null,"covered":true,"access":null,"website":null,"phone":null,"source":"OpenStreetMap/node/5151333635","sourceUpdatedAt":null,"verifiedAt":null}},{"type":"Feature","geometry":{"type":"Point","coordinates":[20.7661033,48.0803374]},"properties":{"id":"bikerack:064987e1-1985-49ad-880e-417de8ed1ef7","kind":"bikerack","longitude":20.7661033,"latitude":48.0803374,"name":"Biciklitároló","city":"Miskolc","address":null,"covered":false,"access":null,"website":null,"phone":null,"source":"OpenStreetMap/node/12155187123","sourceUpdatedAt":null,"verifiedAt":null}},{"type":"Feature","geometry":{"type":"Point","coordinates":[20.7683509,48.080568]},"properties":{"id":"bikerack:1b7f79c5-4908-451c-bd3c-33a1fd229143","kind":"bikerack","longitude":20.7683509,"latitude":48.080568,"name":"Biciklitároló","city":"Miskolc","address":null,"covered":true,"access":null,"website":null,"phone":null,"source":"OpenStreetMap/node/13020371736","sourceUpdatedAt":null,"verifiedAt":null}},{"type":"Feature","geometry":{"type":"Point","coordinates":[20.7665368,48.1047146]},"properties":{"id":"bikerack:20eaec83-3805-47c2-bdc0-32de1203cb95","kind":"bikerack","longitude":20.7665368,"latitude":48.1047146,"name":"Biciklitároló","city":"Miskolc","address":null,"covered":false,"access":null,"website":null,"phone":null,"source":"OpenStreetMap/node/11101288126","sourceUpdatedAt":null,"verifiedAt":null}},{"type":"Feature","geometry":{"type":"Point","coordinates":[20.7688697,48.0803826]},"properties":{"id":"bikerack:230b066d-c9d0-4801-9a0b-02a98ef1aac7","kind":"bikerack","longitude":20.7688697,"latitude":48.0803826,"name":"Biciklitároló","city":"Miskolc","address":null,"covered":true,"access":null,"website":null,"phone":null,"source":"OpenStreetMap/node/4915252229","sourceUpdatedAt":null,"verifiedAt":null}},{"type":"Feature","geometry":{"type":"Point","coordinates":[20.7472019,48.1028198]},"properties":{"id":"bikerack:2f14aa67-97bf-4013-81bd-63d56a462594","kind":"bikerack","longitude":20.7472019,"latitude":48.1028198,"name":"Biciklitároló","city":"Miskolc","address":null,"covered":false,"access":null,"website":null,"phone":null,"source":"OpenStreetMap/node/11101288130","sourceUpdatedAt":null,"verifiedAt":null}},{"type":"Feature","geometry":{"type":"Point","coordinates":[20.7655927,48.0805231]},"properties":{"id":"bikerack:485bb8ff-6c28-41de-874d-1570d0a5ceb7","kind":"bikerack","longitude":20.7655927,"latitude":48.0805231,"name":"Biciklitároló","city":"Miskolc","address":null,"covered":false,"access":null,"website":null,"phone":null,"source":"OpenStreetMap/node/5151333634","sourceUpdatedAt":null,"verifiedAt":null}},{"type":"Feature","geometry":{"type":"Point","coordinates":[20.7655687,48.0823116]},"properties":{"id":"bikerack:4b3d63bc-e25c-4109-9f2c-0543e21889d6","kind":"bikerack","longitude":20.7655687,"latitude":48.0823116,"name":"Biciklitároló","city":"Miskolc","address":null,"covered":true,"access":null,"website":null,"phone":null,"source":"OpenStreetMap/node/4894319161","sourceUpdatedAt":null,"verifiedAt":null}},{"type":"Feature","geometry":{"type":"Point","coordinates":[20.767319,48.0830459]},"properties":{"id":"bikerack:4d36003b-349f-4566-83d8-2225e8223250","kind":"bikerack","longitude":20.767319,"latitude":48.0830459,"name":"Biciklitároló","city":"Miskolc","address":null,"covered":true,"access":null,"website":null,"phone":null,"source":"OpenStreetMap/node/4894319160","sourceUpdatedAt":null,"verifiedAt":null}},{"type":"Feature","geometry":{"type":"Point","coordinates":[20.7660524,48.0802568]},"properties":{"id":"bikerack:5e03a4a4-5d2d-4768-926b-7ec175c0ede4","kind":"bikerack","longitude":20.7660524,"latitude":48.0802568,"name":"Biciklitároló","city":"Miskolc","address":null,"covered":false,"access":null,"website":null,"phone":null,"source":"OpenStreetMap/node/12155187122","sourceUpdatedAt":null,"verifiedAt":null}},{"type":"Feature","geometry":{"type":"Point","coordinates":[20.7783888,48.104868]},"properties":{"id":"bikerack:61da5340-0d26-4d94-9325-42f9981e5b60","kind":"bikerack","longitude":20.7783888,"latitude":48.104868,"name":"Biciklitároló","city":"Miskolc","address":null,"covered":false,"access":null,"website":null,"phone":null,"source":"OpenStreetMap/node/5381266367","sourceUpdatedAt":null,"verifiedAt":null}},{"type":"Feature","geometry":{"type":"Point","coordinates":[20.7635151,48.1047979]},"properties":{"id":"bikerack:68969a9b-9da4-4511-8ee3-f4d376df890a","kind":"bikerack","longitude":20.7635151,"latitude":48.1047979,"name":"Biciklitároló","city":"Miskolc","address":null,"covered":false,"access":null,"website":null,"phone":null,"source":"OpenStreetMap/node/10002671272","sourceUpdatedAt":null,"verifiedAt":null}},{"type":"Feature","geometry":{"type":"Point","coordinates":[20.7767838,48.1018714]},"properties":{"id":"bikerack:76556365-f474-49fc-b63d-10443c82d7d0","kind":"bikerack","longitude":20.7767838,"latitude":48.1018714,"name":"Biciklitároló","city":"Miskolc","address":null,"covered":false,"access":null,"website":null,"phone":null,"source":"OpenStreetMap/node/5087464384","sourceUpdatedAt":null,"verifiedAt":null}},{"type":"Feature","geometry":{"type":"Point","coordinates":[20.7668311,48.0815819]},"properties":{"id":"bikerack:9928a472-cc6d-49ee-b169-edcbe9509b43","kind":"bikerack","longitude":20.7668311,"latitude":48.0815819,"name":"Biciklitároló","city":"Miskolc","address":null,"covered":true,"access":null,"website":null,"phone":null,"source":"OpenStreetMap/node/4894319228","sourceUpdatedAt":null,"verifiedAt":null}},{"type":"Feature","geometry":{"type":"Point","coordinates":[20.7795534,48.1022051]},"properties":{"id":"bikerack:9f211401-6bf3-4ac9-94a1-49cc66c0ea12","kind":"bikerack","longitude":20.7795534,"latitude":48.1022051,"name":"Biciklitároló","city":"Miskolc","address":null,"covered":false,"access":null,"website":null,"phone":null,"source":"OpenStreetMap/node/8035895844","sourceUpdatedAt":null,"verifiedAt":null}},{"type":"Feature","geometry":{"type":"Point","coordinates":[20.7773833,48.1029195]},"properties":{"id":"bikerack:a612dff2-f187-466c-90ba-c5d5017c9143","kind":"bikerack","longitude":20.7773833,"latitude":48.1029195,"name":"Biciklitároló","city":"Miskolc","address":null,"covered":false,"access":null,"website":null,"phone":null,"source":"OpenStreetMap/node/11811263630","sourceUpdatedAt":null,"verifiedAt":null}},{"type":"Feature","geometry":{"type":"Point","coordinates":[20.7642152,48.080816]},"properties":{"id":"bikerack:a7b49023-14e2-4034-9235-199565a306d9","kind":"bikerack","longitude":20.7642152,"latitude":48.080816,"name":"Biciklitároló","city":"Miskolc","address":null,"covered":true,"access":null,"website":null,"phone":null,"source":"OpenStreetMap/node/5149614930","sourceUpdatedAt":null,"verifiedAt":null}},{"type":"Feature","geometry":{"type":"Point","coordinates":[20.778492,48.1040105]},"properties":{"id":"bikerack:ae4c4539-7382-485d-ae20-02d1bf80a56d","kind":"bikerack","longitude":20.778492,"latitude":48.1040105,"name":"Biciklitároló","city":"Miskolc","address":null,"covered":false,"access":null,"website":null,"phone":null,"source":"OpenStreetMap/node/8035895843","sourceUpdatedAt":null,"verifiedAt":null}},{"type":"Feature","geometry":{"type":"Point","coordinates":[20.7458789,48.1000805]},"properties":{"id":"bikerack:bb8ad643-c372-4378-8d26-abccfaf7e741","kind":"bikerack","longitude":20.7458789,"latitude":48.1000805,"name":"Biciklitároló","city":"Miskolc","address":null,"covered":false,"access":null,"website":null,"phone":null,"source":"OpenStreetMap/node/11584373166","sourceUpdatedAt":null,"verifiedAt":null}},{"type":"Feature","geometry":{"type":"Point","coordinates":[20.7526977,48.1034149]},"properties":{"id":"bikerack:c01b9546-31e6-4ceb-bc3a-e5e1a71f77bf","kind":"bikerack","longitude":20.7526977,"latitude":48.1034149,"name":"Biciklitároló","city":"Miskolc","address":null,"covered":true,"access":null,"website":null,"phone":null,"source":"OpenStreetMap/node/11101288127","sourceUpdatedAt":null,"verifiedAt":null}},{"type":"Feature","geometry":{"type":"Point","coordinates":[20.7699835,48.0801319]},"properties":{"id":"bikerack:c6071ece-dfe7-41c0-b923-0265ababe665","kind":"bikerack","longitude":20.7699835,"latitude":48.0801319,"name":"Biciklitároló","city":"Miskolc","address":null,"covered":true,"access":null,"website":null,"phone":null,"source":"OpenStreetMap/node/12153552606","sourceUpdatedAt":null,"verifiedAt":null}},{"type":"Feature","geometry":{"type":"Point","coordinates":[20.7753023,48.0782657]},"properties":{"id":"bikerack:d25f09be-4005-44f7-a61f-118b1d2f6367","kind":"bikerack","longitude":20.7753023,"latitude":48.0782657,"name":"Biciklitároló","city":"Miskolc","address":null,"covered":false,"access":null,"website":null,"phone":null,"source":"OpenStreetMap/node/11881083458","sourceUpdatedAt":null,"verifiedAt":null}},{"type":"Feature","geometry":{"type":"Point","coordinates":[20.7469328,48.0997032]},"properties":{"id":"bikerack:eca96556-055e-4e71-a44b-297bbe1d8854","kind":"bikerack","longitude":20.7469328,"latitude":48.0997032,"name":"kerékpártároló","city":"Miskolc","address":null,"covered":false,"access":null,"website":null,"phone":null,"source":"OpenStreetMap/node/4827156198","sourceUpdatedAt":null,"verifiedAt":null}},{"type":"Feature","geometry":{"type":"Point","coordinates":[20.7720673,48.1043721]},"properties":{"id":"service:cd603f2a-f6c3-4bc4-9b08-b792487d117c","kind":"service","longitude":20.7720673,"latitude":48.1043721,"name":"ebikeshop Miskolc","city":"Miskolc","address":null,"covered":null,"access":null,"website":null,"phone":null,"source":"OpenStreetMap/node/12797321381","sourceUpdatedAt":null,"verifiedAt":null}},{"type":"Feature","geometry":{"type":"Point","coordinates":[20.7608436,48.0906709]},"properties":{"id":"water:0c876781-3043-49cd-bebf-b7911da8c728","kind":"water","longitude":20.7608436,"latitude":48.0906709,"name":"Ivókút","city":null,"address":null,"covered":null,"access":null,"website":null,"phone":null,"source":"OpenStreetMap","sourceUpdatedAt":null,"verifiedAt":null}},{"type":"Feature","geometry":{"type":"Point","coordinates":[20.7587661,48.0906078]},"properties":{"id":"water:151c21ba-56f8-4ae0-824a-203bbacc39e4","kind":"water","longitude":20.7587661,"latitude":48.0906078,"name":"Ivókút","city":null,"address":null,"covered":null,"access":null,"website":null,"phone":null,"source":"OpenStreetMap","sourceUpdatedAt":null,"verifiedAt":null}},{"type":"Feature","geometry":{"type":"Point","coordinates":[20.779835,48.098519]},"properties":{"id":"water:19705985-2a51-46a6-ba8c-850de41340b4","kind":"water","longitude":20.779835,"latitude":48.098519,"name":"Ivókút","city":null,"address":null,"covered":null,"access":null,"website":null,"phone":null,"source":"OpenStreetMap","sourceUpdatedAt":null,"verifiedAt":null}},{"type":"Feature","geometry":{"type":"Point","coordinates":[20.785922,48.090395]},"properties":{"id":"water:1f189508-3bd9-4685-b263-4ced10b99800","kind":"water","longitude":20.785922,"latitude":48.090395,"name":"Ivókút","city":null,"address":null,"covered":null,"access":null,"website":null,"phone":null,"source":"OpenStreetMap","sourceUpdatedAt":null,"verifiedAt":null}},{"type":"Feature","geometry":{"type":"Point","coordinates":[20.7731428,48.091211]},"properties":{"id":"water:2ef73bcc-241f-4f7e-b18d-6ad02ea4f712","kind":"water","longitude":20.7731428,"latitude":48.091211,"name":"Ivókút","city":null,"address":null,"covered":null,"access":null,"website":null,"phone":null,"source":"OpenStreetMap","sourceUpdatedAt":null,"verifiedAt":null}},{"type":"Feature","geometry":{"type":"Point","coordinates":[20.771281,48.092985]},"properties":{"id":"water:38452e9f-42e0-472f-a734-ba4e921632a2","kind":"water","longitude":20.771281,"latitude":48.092985,"name":"Ivókút","city":null,"address":null,"covered":null,"access":null,"website":null,"phone":null,"source":"OpenStreetMap","sourceUpdatedAt":null,"verifiedAt":null}},{"type":"Feature","geometry":{"type":"Point","coordinates":[20.7856031,48.0966661]},"properties":{"id":"water:3b77cf03-c620-44a7-9070-c9a991ea88fd","kind":"water","longitude":20.7856031,"latitude":48.0966661,"name":"Ivókút","city":null,"address":null,"covered":null,"access":null,"website":null,"phone":null,"source":"OpenStreetMap","sourceUpdatedAt":null,"verifiedAt":null}},{"type":"Feature","geometry":{"type":"Point","coordinates":[20.778622,48.098328]},"properties":{"id":"water:40cc6d42-ca77-4fc4-996b-43a54db5c734","kind":"water","longitude":20.778622,"latitude":48.098328,"name":"Ivókút","city":null,"address":null,"covered":null,"access":null,"website":null,"phone":null,"source":"OpenStreetMap","sourceUpdatedAt":null,"verifiedAt":null}},{"type":"Feature","geometry":{"type":"Point","coordinates":[20.7848972,48.1020007]},"properties":{"id":"water:446c95db-29f5-49ab-938a-8f0de844f16f","kind":"water","longitude":20.7848972,"latitude":48.1020007,"name":"Ivókút","city":null,"address":null,"covered":null,"access":null,"website":null,"phone":null,"source":"OpenStreetMap","sourceUpdatedAt":null,"verifiedAt":null}},{"type":"Feature","geometry":{"type":"Point","coordinates":[20.7734143,48.1015352]},"properties":{"id":"water:4680b497-1669-4162-8b83-6a232f90e64d","kind":"water","longitude":20.7734143,"latitude":48.1015352,"name":"Ivókút","city":null,"address":null,"covered":null,"access":null,"website":null,"phone":null,"source":"OpenStreetMap","sourceUpdatedAt":null,"verifiedAt":null}},{"type":"Feature","geometry":{"type":"Point","coordinates":[20.7643786,48.0990948]},"properties":{"id":"water:6250256f-fc49-4ab8-a0ae-f6bd9ba5d934","kind":"water","longitude":20.7643786,"latitude":48.0990948,"name":"Ivókút","city":null,"address":null,"covered":null,"access":null,"website":null,"phone":null,"source":"OpenStreetMap","sourceUpdatedAt":null,"verifiedAt":null}},{"type":"Feature","geometry":{"type":"Point","coordinates":[20.7647702,48.1024495]},"properties":{"id":"water:6465ea87-e171-403b-854e-589cb15b030a","kind":"water","longitude":20.7647702,"latitude":48.1024495,"name":"Ivókút","city":null,"address":null,"covered":null,"access":null,"website":null,"phone":null,"source":"OpenStreetMap","sourceUpdatedAt":null,"verifiedAt":null}},{"type":"Feature","geometry":{"type":"Point","coordinates":[20.7778056,48.0998312]},"properties":{"id":"water:8c3e2c16-0306-483b-bdf5-fb9bf236fe50","kind":"water","longitude":20.7778056,"latitude":48.0998312,"name":"Ivókút","city":null,"address":null,"covered":null,"access":null,"website":null,"phone":null,"source":"OpenStreetMap","sourceUpdatedAt":null,"verifiedAt":null}},{"type":"Feature","geometry":{"type":"Point","coordinates":[20.7740082,48.0904297]},"properties":{"id":"water:90685696-278f-4596-bd8b-20bb075bf797","kind":"water","longitude":20.7740082,"latitude":48.0904297,"name":"Ivókút","city":null,"address":null,"covered":null,"access":null,"website":null,"phone":null,"source":"OpenStreetMap","sourceUpdatedAt":null,"verifiedAt":null}},{"type":"Feature","geometry":{"type":"Point","coordinates":[20.7735814,48.1055786]},"properties":{"id":"water:91e43f10-3d8f-44f1-94ee-0d23a62cb64c","kind":"water","longitude":20.7735814,"latitude":48.1055786,"name":"Ivókút","city":null,"address":null,"covered":null,"access":null,"website":null,"phone":null,"source":"OpenStreetMap","sourceUpdatedAt":null,"verifiedAt":null}},{"type":"Feature","geometry":{"type":"Point","coordinates":[20.7860789,48.0958846]},"properties":{"id":"water:b1c40889-113b-4162-a496-0e4fe9c60096","kind":"water","longitude":20.7860789,"latitude":48.0958846,"name":"Ivókút","city":null,"address":null,"covered":null,"access":null,"website":null,"phone":null,"source":"OpenStreetMap","sourceUpdatedAt":null,"verifiedAt":null}},{"type":"Feature","geometry":{"type":"Point","coordinates":[20.7703006,48.0970734]},"properties":{"id":"water:b32cde77-7f8f-4242-9486-762a07033b98","kind":"water","longitude":20.7703006,"latitude":48.0970734,"name":"Ivókút","city":null,"address":null,"covered":null,"access":null,"website":null,"phone":null,"source":"OpenStreetMap","sourceUpdatedAt":null,"verifiedAt":null}},{"type":"Feature","geometry":{"type":"Point","coordinates":[20.7537845,48.1063359]},"properties":{"id":"water:b35e0543-84c4-4db2-9b4e-9358501c28f2","kind":"water","longitude":20.7537845,"latitude":48.1063359,"name":"Ivókút","city":null,"address":null,"covered":null,"access":null,"website":null,"phone":null,"source":"OpenStreetMap","sourceUpdatedAt":null,"verifiedAt":null}},{"type":"Feature","geometry":{"type":"Point","coordinates":[20.743892,48.084279]},"properties":{"id":"water:b5ca00fd-c46b-415c-885a-24c95b39659c","kind":"water","longitude":20.743892,"latitude":48.084279,"name":"Ivókút","city":null,"address":null,"covered":null,"access":null,"website":null,"phone":null,"source":"OpenStreetMap","sourceUpdatedAt":null,"verifiedAt":null}},{"type":"Feature","geometry":{"type":"Point","coordinates":[20.7784087,48.1029336]},"properties":{"id":"water:c2879b5d-d98a-4e12-8bca-35528f461a58","kind":"water","longitude":20.7784087,"latitude":48.1029336,"name":"Ivókút","city":null,"address":null,"covered":null,"access":null,"website":null,"phone":null,"source":"OpenStreetMap","sourceUpdatedAt":null,"verifiedAt":null}},{"type":"Feature","geometry":{"type":"Point","coordinates":[20.7537216,48.1068115]},"properties":{"id":"water:c8c2bb78-4ab1-4bc7-8f70-901d08c68a0d","kind":"water","longitude":20.7537216,"latitude":48.1068115,"name":"Ivókút","city":null,"address":null,"covered":null,"access":null,"website":null,"phone":null,"source":"OpenStreetMap","sourceUpdatedAt":null,"verifiedAt":null}},{"type":"Feature","geometry":{"type":"Point","coordinates":[20.751727,48.080387]},"properties":{"id":"water:ce4ae005-b687-4d23-8e7a-f7a8b5b45735","kind":"water","longitude":20.751727,"latitude":48.080387,"name":"Ivókút","city":null,"address":null,"covered":null,"access":null,"website":null,"phone":null,"source":"OpenStreetMap","sourceUpdatedAt":null,"verifiedAt":null}},{"type":"Feature","geometry":{"type":"Point","coordinates":[20.7578522,48.1056763]},"properties":{"id":"water:e78f3f40-7f10-4d8c-a7c1-0ad850929efb","kind":"water","longitude":20.7578522,"latitude":48.1056763,"name":"Ivókút","city":null,"address":null,"covered":null,"access":null,"website":null,"phone":null,"source":"OpenStreetMap","sourceUpdatedAt":null,"verifiedAt":null}},{"type":"Feature","geometry":{"type":"Point","coordinates":[20.7522869,48.0881045]},"properties":{"id":"water:f42d856a-d0e0-4854-bec5-2cd44f541f70","kind":"water","longitude":20.7522869,"latitude":48.0881045,"name":"Ivókút","city":null,"address":null,"covered":null,"access":null,"website":null,"phone":null,"source":"OpenStreetMap","sourceUpdatedAt":null,"verifiedAt":null}},{"type":"Feature","geometry":{"type":"Point","coordinates":[20.7773258,48.1009787]},"properties":{"id":"water:fdddb6e3-5216-4254-a06c-5f0c4fa12416","kind":"water","longitude":20.7773258,"latitude":48.1009787,"name":"Ivókút","city":null,"address":null,"covered":null,"access":null,"website":null,"phone":null,"source":"OpenStreetMap","sourceUpdatedAt":null,"verifiedAt":null}}]}