{"type":"FeatureCollection","features":[{"type":"Feature","geometry":{"type":"Point","coordinates":[11.190204,53.4323169]},"properties":{"id":"bikerack:0ecb13fc-292d-44d4-bb59-f5f657944c47","kind":"bikerack","longitude":11.190204,"latitude":53.4323169,"name":"Fahrradabstellplatz","city":"Hagenow","address":null,"covered":false,"access":null,"website":null,"phone":null,"source":"OpenStreetMap/node/1476773689","sourceUpdatedAt":null,"verifiedAt":null}},{"type":"Feature","geometry":{"type":"Point","coordinates":[11.1885617,53.4344339]},"properties":{"id":"bikerack:3f80311a-76a5-4203-abcd-2b16a1f29a1e","kind":"bikerack","longitude":11.1885617,"latitude":53.4344339,"name":"Fahrradabstellplatz","city":"Hagenow","address":null,"covered":false,"access":null,"website":null,"phone":null,"source":"OpenStreetMap/node/1476929050","sourceUpdatedAt":null,"verifiedAt":null}},{"type":"Feature","geometry":{"type":"Point","coordinates":[11.1858952,53.4299482]},"properties":{"id":"bikerack:58a80568-618c-401d-9cf0-094f8e84ef88","kind":"bikerack","longitude":11.1858952,"latitude":53.4299482,"name":"Fahrradabstellplatz","city":"Hagenow","address":null,"covered":false,"access":null,"website":null,"phone":null,"source":"OpenStreetMap/node/10867212814","sourceUpdatedAt":null,"verifiedAt":null}},{"type":"Feature","geometry":{"type":"Point","coordinates":[11.1893365,53.4335778]},"properties":{"id":"bikerack:742dbf5c-1218-485c-8d48-265a0c01e276","kind":"bikerack","longitude":11.1893365,"latitude":53.4335778,"name":"Fahrradabstellplatz","city":"Hagenow","address":null,"covered":false,"access":null,"website":null,"phone":null,"source":"OpenStreetMap/node/1476928987","sourceUpdatedAt":null,"verifiedAt":null}},{"type":"Feature","geometry":{"type":"Point","coordinates":[11.1924512,53.4320487]},"properties":{"id":"bikerack:9e31701f-8518-4f8d-ba2d-5c11075fc6ea","kind":"bikerack","longitude":11.1924512,"latitude":53.4320487,"name":"Fahrradabstellplatz","city":"Hagenow","address":null,"covered":false,"access":null,"website":null,"phone":null,"source":"OpenStreetMap/node/1476697225","sourceUpdatedAt":null,"verifiedAt":null}},{"type":"Feature","geometry":{"type":"Point","coordinates":[11.1881295,53.4346178]},"properties":{"id":"bikerack:a745f553-d8f4-4371-8e9f-196970dd4a94","kind":"bikerack","longitude":11.1881295,"latitude":53.4346178,"name":"Fahrradabstellplatz","city":"Hagenow","address":null,"covered":false,"access":null,"website":null,"phone":null,"source":"OpenStreetMap/node/1476929069","sourceUpdatedAt":null,"verifiedAt":null}},{"type":"Feature","geometry":{"type":"Point","coordinates":[11.1905212,53.4315581]},"properties":{"id":"bikerack:c7bd4cb9-aa36-43e6-8ddb-49ad726239cc","kind":"bikerack","longitude":11.1905212,"latitude":53.4315581,"name":"Fahrradabstellplatz","city":"Hagenow","address":null,"covered":false,"access":null,"website":null,"phone":null,"source":"OpenStreetMap/node/8812643234","sourceUpdatedAt":null,"verifiedAt":null}},{"type":"Feature","geometry":{"type":"Point","coordinates":[11.1878872,53.4317715]},"properties":{"id":"bikerack:cbf7d743-4d33-48d0-8440-73babd80efdf","kind":"bikerack","longitude":11.1878872,"latitude":53.4317715,"name":"Fahrradabstellplatz","city":"Hagenow","address":null,"covered":false,"access":null,"website":null,"phone":null,"source":"OpenStreetMap/node/1477113181","sourceUpdatedAt":null,"verifiedAt":null}},{"type":"Feature","geometry":{"type":"Point","coordinates":[11.1888254,53.4339214]},"properties":{"id":"service:c157125a-ea2a-495e-b9df-307310ae00ae","kind":"service","longitude":11.1888254,"latitude":53.4339214,"name":"Fahrradladen","city":"Hagenow","address":null,"covered":null,"access":null,"website":null,"phone":null,"source":"OpenStreetMap/node/1476928914","sourceUpdatedAt":null,"verifiedAt":null}}]}