{"type":"FeatureCollection","features":[{"type":"Feature","geometry":{"type":"Point","coordinates":[11.1867406,49.1410005]},"properties":{"id":"bikerack:8774d4cc-42db-44ba-bd1e-435a24af9760","kind":"bikerack","longitude":11.1867406,"latitude":49.1410005,"name":"Fahrradabstellplatz","city":"Hilpoltstein","address":null,"covered":false,"access":null,"website":null,"phone":null,"source":"OpenStreetMap/node/3505541461","sourceUpdatedAt":null,"verifiedAt":null}},{"type":"Feature","geometry":{"type":"Point","coordinates":[11.1851165,49.1415881]},"properties":{"id":"bikerack:9de0e69d-3d97-4a34-a8d5-ebf10e7f3c83","kind":"bikerack","longitude":11.1851165,"latitude":49.1415881,"name":"Fahrradabstellplatz","city":"Hilpoltstein","address":null,"covered":false,"access":null,"website":null,"phone":null,"source":"OpenStreetMap/node/12884360593","sourceUpdatedAt":null,"verifiedAt":null}},{"type":"Feature","geometry":{"type":"Point","coordinates":[11.1848977,49.140651]},"properties":{"id":"bikerack:b6a52bca-f80e-4ed5-bb03-a6814fd24562","kind":"bikerack","longitude":11.1848977,"latitude":49.140651,"name":"Fahrradabstellplatz","city":"Hilpoltstein","address":null,"covered":false,"access":null,"website":null,"phone":null,"source":"OpenStreetMap/node/3505541840","sourceUpdatedAt":null,"verifiedAt":null}},{"type":"Feature","geometry":{"type":"Point","coordinates":[11.1870892,49.1409254]},"properties":{"id":"water:fc4cf21d-04ac-4b2c-a534-3f1870ed6923","kind":"water","longitude":11.1870892,"latitude":49.1409254,"name":"Trinkwasser","city":"Hilpoltstein","address":null,"covered":null,"access":null,"website":null,"phone":null,"source":"OpenStreetMap/node/12172331149","sourceUpdatedAt":null,"verifiedAt":null}}]}