{"type":"FeatureCollection","features":[{"type":"Feature","geometry":{"type":"Point","coordinates":[11.2051052,48.3067241]},"properties":{"id":"bikerack:460ecdb6-900b-4f5f-8eb5-b9770306dc4d","kind":"bikerack","longitude":11.2051052,"latitude":48.3067241,"name":"Fahrradabstellplatz","city":"Odelzhausen","address":null,"covered":false,"access":null,"website":null,"phone":null,"source":"OpenStreetMap/node/10929047419","sourceUpdatedAt":null,"verifiedAt":null}},{"type":"Feature","geometry":{"type":"Point","coordinates":[11.2049989,48.3067618]},"properties":{"id":"bikerack:71085ab5-5aba-45ee-9872-66dc757b0d94","kind":"bikerack","longitude":11.2049989,"latitude":48.3067618,"name":"Fahrradabstellplatz","city":"Odelzhausen","address":null,"covered":false,"access":null,"website":null,"phone":null,"source":"OpenStreetMap/node/10929051851","sourceUpdatedAt":null,"verifiedAt":null}},{"type":"Feature","geometry":{"type":"Point","coordinates":[11.1631807,48.2963079]},"properties":{"id":"water:08c0037b-9ce7-431d-894d-9f1572b1d74d","kind":"water","longitude":11.1631807,"latitude":48.2963079,"name":"Trinkwasser","city":"Egenhofen","address":null,"covered":null,"access":null,"website":null,"phone":null,"source":"OpenStreetMap/node/10043935983","sourceUpdatedAt":null,"verifiedAt":null}},{"type":"Feature","geometry":{"type":"Point","coordinates":[11.1952654,48.3115329]},"properties":{"id":"water:fd6ad36b-da85-4447-b0d8-a64662de7188","kind":"water","longitude":11.1952654,"latitude":48.3115329,"name":"Trinkwasser","city":"Odelzhausen","address":null,"covered":null,"access":null,"website":null,"phone":null,"source":"OpenStreetMap/node/5002440673","sourceUpdatedAt":null,"verifiedAt":null}}]}