{"type":"FeatureCollection","features":[{"type":"Feature","geometry":{"type":"Point","coordinates":[13.82744,45.6734827]},"properties":{"id":"bikerack:6ca5125e-cf1f-48ff-a838-27339b0090c6","kind":"bikerack","longitude":13.82744,"latitude":45.6734827,"name":"Parcheggio bici","city":"Villa Opicina","address":null,"covered":false,"access":null,"website":null,"phone":null,"source":"OpenStreetMap/node/9680509103","sourceUpdatedAt":null,"verifiedAt":null}},{"type":"Feature","geometry":{"type":"Point","coordinates":[13.8067729,45.6556035]},"properties":{"id":"bikerack:fccbb6ef-bd14-4d53-9ecb-a7cd07be9a92","kind":"bikerack","longitude":13.8067729,"latitude":45.6556035,"name":"Parcheggio bici","city":"Trieste","address":null,"covered":false,"access":null,"website":null,"phone":null,"source":"OpenStreetMap/node/6957773457","sourceUpdatedAt":null,"verifiedAt":null}},{"type":"Feature","geometry":{"type":"Point","coordinates":[13.8042792,45.6549414]},"properties":{"id":"water:0a061d9c-9c7a-4305-804a-485830e754e0","kind":"water","longitude":13.8042792,"latitude":45.6549414,"name":"Fontanella","city":"Trieste","address":null,"covered":null,"access":null,"website":null,"phone":null,"source":"OpenStreetMap/node/836437481","sourceUpdatedAt":null,"verifiedAt":null}},{"type":"Feature","geometry":{"type":"Point","coordinates":[13.7989725,45.6544226]},"properties":{"id":"water:1037b8de-0d1e-45ab-ae87-8db3c696f76b","kind":"water","longitude":13.7989725,"latitude":45.6544226,"name":"Fontanella","city":"Trieste","address":null,"covered":null,"access":null,"website":null,"phone":null,"source":"OpenStreetMap/node/836437052","sourceUpdatedAt":null,"verifiedAt":null}},{"type":"Feature","geometry":{"type":"Point","coordinates":[13.8394229,45.6583929]},"properties":{"id":"water:12a4dab5-f9f8-40cc-b701-90acff8d2f9b","kind":"water","longitude":13.8394229,"latitude":45.6583929,"name":"Fontanella","city":"Domio","address":null,"covered":null,"access":null,"website":null,"phone":null,"source":"OpenStreetMap/node/7617910455","sourceUpdatedAt":null,"verifiedAt":null}},{"type":"Feature","geometry":{"type":"Point","coordinates":[13.8171977,45.6513076]},"properties":{"id":"water:1c893c8c-f64f-4f34-91ba-2f743b05f18f","kind":"water","longitude":13.8171977,"latitude":45.6513076,"name":"Fontanella","city":"Trieste","address":null,"covered":null,"access":null,"website":null,"phone":null,"source":"OpenStreetMap/node/1264617203","sourceUpdatedAt":null,"verifiedAt":null}},{"type":"Feature","geometry":{"type":"Point","coordinates":[13.8073799,45.6613719]},"properties":{"id":"water:214484e7-1ac7-48a3-9dd9-538fcef24f5e","kind":"water","longitude":13.8073799,"latitude":45.6613719,"name":"Fontanella","city":"Trieste","address":null,"covered":null,"access":null,"website":null,"phone":null,"source":"OpenStreetMap/node/7615746739","sourceUpdatedAt":null,"verifiedAt":null}},{"type":"Feature","geometry":{"type":"Point","coordinates":[13.8149861,45.6501805]},"properties":{"id":"water:3b6bb8fe-f7f1-4dda-b2d8-c6f795638ec9","kind":"water","longitude":13.8149861,"latitude":45.6501805,"name":"Fontanella","city":"Trieste","address":null,"covered":null,"access":null,"website":null,"phone":null,"source":"OpenStreetMap/node/4424087702","sourceUpdatedAt":null,"verifiedAt":null}},{"type":"Feature","geometry":{"type":"Point","coordinates":[13.7989194,45.6555317]},"properties":{"id":"water:3fede72b-2739-4a66-a2d4-f695219a27cd","kind":"water","longitude":13.7989194,"latitude":45.6555317,"name":"Fontanella","city":"Trieste","address":null,"covered":null,"access":null,"website":null,"phone":null,"source":"OpenStreetMap/node/836434305","sourceUpdatedAt":null,"verifiedAt":null}},{"type":"Feature","geometry":{"type":"Point","coordinates":[13.8233403,45.6737133]},"properties":{"id":"water:4688bc80-3b6a-4701-b3ab-2f11b6306706","kind":"water","longitude":13.8233403,"latitude":45.6737133,"name":"Fontanella","city":"Villa Opicina","address":null,"covered":null,"access":null,"website":null,"phone":null,"source":"OpenStreetMap/node/7615746748","sourceUpdatedAt":null,"verifiedAt":null}},{"type":"Feature","geometry":{"type":"Point","coordinates":[13.8252898,45.6722031]},"properties":{"id":"water:4cfe7117-67b6-4bd2-9e34-772e53398cac","kind":"water","longitude":13.8252898,"latitude":45.6722031,"name":"Fontanella","city":"Villa Opicina","address":null,"covered":null,"access":null,"website":null,"phone":null,"source":"OpenStreetMap/node/7615746751","sourceUpdatedAt":null,"verifiedAt":null}},{"type":"Feature","geometry":{"type":"Point","coordinates":[13.8053565,45.6586895]},"properties":{"id":"water:4f2111f7-9c86-4197-912a-cf71de1d80a3","kind":"water","longitude":13.8053565,"latitude":45.6586895,"name":"Fontanella","city":"Trieste","address":null,"covered":null,"access":null,"website":null,"phone":null,"source":"OpenStreetMap/node/6586743894","sourceUpdatedAt":null,"verifiedAt":null}},{"type":"Feature","geometry":{"type":"Point","coordinates":[13.8108669,45.6559459]},"properties":{"id":"water:a4ae1a2b-58b1-4434-b5bc-88b022a40155","kind":"water","longitude":13.8108669,"latitude":45.6559459,"name":"Fontanella","city":"Trieste","address":null,"covered":null,"access":null,"website":null,"phone":null,"source":"OpenStreetMap/node/10931777585","sourceUpdatedAt":null,"verifiedAt":null}},{"type":"Feature","geometry":{"type":"Point","coordinates":[13.8212933,45.6473031]},"properties":{"id":"water:b97cc0c0-a99f-470f-b8c6-2a3c31a2f332","kind":"water","longitude":13.8212933,"latitude":45.6473031,"name":"Fontanella","city":"Trieste","address":null,"covered":null,"access":null,"website":null,"phone":null,"source":"OpenStreetMap/node/13703714064","sourceUpdatedAt":null,"verifiedAt":null}},{"type":"Feature","geometry":{"type":"Point","coordinates":[13.8393357,45.6575252]},"properties":{"id":"water:bc343b97-3e91-4797-9fec-aafb0f65a4d7","kind":"water","longitude":13.8393357,"latitude":45.6575252,"name":"Fontanella","city":"Domio","address":null,"covered":null,"access":null,"website":null,"phone":null,"source":"OpenStreetMap/node/4221991791","sourceUpdatedAt":null,"verifiedAt":null}},{"type":"Feature","geometry":{"type":"Point","coordinates":[13.8113153,45.6455409]},"properties":{"id":"water:d9bf250e-381f-4e80-92d2-ffc7bd47f8f5","kind":"water","longitude":13.8113153,"latitude":45.6455409,"name":"Fontanella","city":"Trieste","address":null,"covered":null,"access":null,"website":null,"phone":null,"source":"OpenStreetMap/node/2384179286","sourceUpdatedAt":null,"verifiedAt":null}},{"type":"Feature","geometry":{"type":"Point","coordinates":[13.8011601,45.6630246]},"properties":{"id":"water:de8e66d9-02f2-49b7-9c96-54d8c89af0db","kind":"water","longitude":13.8011601,"latitude":45.6630246,"name":"Fontanella","city":"Trieste","address":null,"covered":null,"access":null,"website":null,"phone":null,"source":"OpenStreetMap/node/7615746733","sourceUpdatedAt":null,"verifiedAt":null}},{"type":"Feature","geometry":{"type":"Point","coordinates":[13.8098229,45.6454192]},"properties":{"id":"water:e68e676e-2529-493c-b4cf-c75880ede677","kind":"water","longitude":13.8098229,"latitude":45.6454192,"name":"Fontanella","city":"Trieste","address":null,"covered":null,"access":null,"website":null,"phone":null,"source":"OpenStreetMap/node/836436437","sourceUpdatedAt":null,"verifiedAt":null}},{"type":"Feature","geometry":{"type":"Point","coordinates":[13.8142107,45.6554176]},"properties":{"id":"water:f5363c90-a0a3-4361-acf3-a6a1e6bd8fad","kind":"water","longitude":13.8142107,"latitude":45.6554176,"name":"Fontanella","city":"Trieste","address":null,"covered":null,"access":null,"website":null,"phone":null,"source":"OpenStreetMap/node/6164993664","sourceUpdatedAt":null,"verifiedAt":null}},{"type":"Feature","geometry":{"type":"Point","coordinates":[13.7995729,45.656953]},"properties":{"id":"water:faa6ea22-31d5-423f-a1d2-4a6fc2beca0c","kind":"water","longitude":13.7995729,"latitude":45.656953,"name":"Fontanella","city":"Trieste","address":null,"covered":null,"access":null,"website":null,"phone":null,"source":"OpenStreetMap/node/5322427056","sourceUpdatedAt":null,"verifiedAt":null}}]}