{"type":"FeatureCollection","features":[{"type":"Feature","geometry":{"type":"Point","coordinates":[21.45107,46.77474]},"properties":{"id":"water:67be1a0c-f5f7-463f-951b-6a59f6d11664","kind":"water","longitude":21.45107,"latitude":46.77474,"name":"Ivókút","city":null,"address":null,"covered":null,"access":null,"website":null,"phone":null,"source":"OpenStreetMap","sourceUpdatedAt":"2026-04-04T22:50:22.71606+00:00","verifiedAt":null}},{"type":"Feature","geometry":{"type":"Point","coordinates":[21.4705779,46.735304]},"properties":{"id":"water:d60b224a-19c0-4d74-a6fa-67d4c82bae15","kind":"water","longitude":21.4705779,"latitude":46.735304,"name":"Ivókút","city":null,"address":null,"covered":null,"access":null,"website":null,"phone":null,"source":"OpenStreetMap","sourceUpdatedAt":"2026-04-04T22:50:22.71606+00:00","verifiedAt":null}}]}