{"type":"FeatureCollection","features":[{"type":"Feature","geometry":{"type":"Point","coordinates":[12.4833331,50.7953938]},"properties":{"id":"bikerack:64f3aaf9-40d4-4051-a968-89742e196aa5","kind":"bikerack","longitude":12.4833331,"latitude":50.7953938,"name":"Fahrradabstellplatz","city":"Dennheritz","address":null,"covered":true,"access":null,"website":null,"phone":null,"source":"OpenStreetMap/way/1121206883","sourceUpdatedAt":null,"verifiedAt":null}},{"type":"Feature","geometry":{"type":"Point","coordinates":[12.4931281,50.7939741]},"properties":{"id":"bikerack:a404e984-7000-47a7-9daa-8fa5983eef1b","kind":"bikerack","longitude":12.4931281,"latitude":50.7939741,"name":"Fahrradabstellplatz","city":"Dennheritz","address":null,"covered":false,"access":null,"website":null,"phone":null,"source":"OpenStreetMap/node/10255485595","sourceUpdatedAt":null,"verifiedAt":null}},{"type":"Feature","geometry":{"type":"Point","coordinates":[12.4825758,50.7946886]},"properties":{"id":"bikerack:bce93271-fd67-4756-9ae1-25d293612e3f","kind":"bikerack","longitude":12.4825758,"latitude":50.7946886,"name":"Fahrradabstellplatz","city":"Dennheritz","address":null,"covered":true,"access":null,"website":null,"phone":null,"source":"OpenStreetMap/way/614224911","sourceUpdatedAt":null,"verifiedAt":null}},{"type":"Feature","geometry":{"type":"Point","coordinates":[12.4884995,50.7947121]},"properties":{"id":"bikerack:bdcc44be-433d-45ce-8f94-306f817ccbf2","kind":"bikerack","longitude":12.4884995,"latitude":50.7947121,"name":"Fahrradabstellplatz","city":"Dennheritz","address":null,"covered":true,"access":null,"website":null,"phone":null,"source":"OpenStreetMap/way/1121206875","sourceUpdatedAt":null,"verifiedAt":null}},{"type":"Feature","geometry":{"type":"Point","coordinates":[12.4931592,50.7929271]},"properties":{"id":"bikerack:beb7efee-42fe-4529-b485-4bcad94d30ee","kind":"bikerack","longitude":12.4931592,"latitude":50.7929271,"name":"Fahrradabstellplatz","city":"Dennheritz","address":null,"covered":false,"access":null,"website":null,"phone":null,"source":"OpenStreetMap/node/10255485596","sourceUpdatedAt":null,"verifiedAt":null}},{"type":"Feature","geometry":{"type":"Point","coordinates":[12.5131816,50.8190093]},"properties":{"id":"bikerack:c0888236-af50-47aa-a232-65b348cac85f","kind":"bikerack","longitude":12.5131816,"latitude":50.8190093,"name":"Fahrradabstellplatz","city":"Glauchau","address":null,"covered":true,"access":null,"website":null,"phone":null,"source":"OpenStreetMap/node/9709048381","sourceUpdatedAt":null,"verifiedAt":null}},{"type":"Feature","geometry":{"type":"Point","coordinates":[12.4837301,50.7957013]},"properties":{"id":"bikerack:ff144e8b-0d4b-43c0-bb92-a4eacb3913e9","kind":"bikerack","longitude":12.4837301,"latitude":50.7957013,"name":"Fahrradabstellplatz","city":"Dennheritz","address":null,"covered":false,"access":null,"website":null,"phone":null,"source":"OpenStreetMap/node/10255498276","sourceUpdatedAt":null,"verifiedAt":null}},{"type":"Feature","geometry":{"type":"Point","coordinates":[12.5082991,50.8088271]},"properties":{"id":"repair:a6ac9130-65b7-434d-80f2-e0231b708308","kind":"repair","longitude":12.5082991,"latitude":50.8088271,"name":"Fahrradreparaturstation","city":"Glauchau","address":null,"covered":false,"access":null,"website":null,"phone":null,"source":"OpenStreetMap/node/13039593100","sourceUpdatedAt":null,"verifiedAt":null}}]}