{"type":"FeatureCollection","features":[{"type":"Feature","geometry":{"type":"Point","coordinates":[8.9060194,53.0401567]},"properties":{"id":"bikerack:115c2326-fbde-4d97-a7e0-54fd74be6c22","kind":"bikerack","longitude":8.9060194,"latitude":53.0401567,"name":"Fahrradabstellplatz","city":"Riede","address":null,"covered":false,"access":null,"website":null,"phone":null,"source":"OpenStreetMap/node/12843615106","sourceUpdatedAt":null,"verifiedAt":null}},{"type":"Feature","geometry":{"type":"Point","coordinates":[8.9037511,53.0303876]},"properties":{"id":"bikerack:2a6e99ab-9d5d-44bc-8413-b508cf5a2962","kind":"bikerack","longitude":8.9037511,"latitude":53.0303876,"name":"Fahrradabstellplatz","city":"Riede","address":null,"covered":false,"access":null,"website":null,"phone":null,"source":"OpenStreetMap/node/5769874106","sourceUpdatedAt":null,"verifiedAt":null}},{"type":"Feature","geometry":{"type":"Point","coordinates":[8.9004459,53.0403653]},"properties":{"id":"bikerack:cc5f1d21-e4bc-4e09-ae3a-df6312ff4968","kind":"bikerack","longitude":8.9004459,"latitude":53.0403653,"name":"Fahrradabstellplatz","city":"Riede","address":null,"covered":false,"access":null,"website":null,"phone":null,"source":"OpenStreetMap/way/1314686262","sourceUpdatedAt":null,"verifiedAt":null}},{"type":"Feature","geometry":{"type":"Point","coordinates":[8.8994079,53.0406409]},"properties":{"id":"bikerack:d71cef7a-a1a9-4985-a7fe-22f5b79f7897","kind":"bikerack","longitude":8.8994079,"latitude":53.0406409,"name":"Fahrradabstellplatz","city":"Riede","address":null,"covered":false,"access":null,"website":null,"phone":null,"source":"OpenStreetMap/node/12168477590","sourceUpdatedAt":null,"verifiedAt":null}},{"type":"Feature","geometry":{"type":"Point","coordinates":[8.8894482,53.034923]},"properties":{"id":"service:75437551-b90d-4478-8449-6ddcafb20d49","kind":"service","longitude":8.8894482,"latitude":53.034923,"name":"dreirad.de","city":"Bremen","address":null,"covered":null,"access":null,"website":null,"phone":null,"source":"OpenStreetMap/node/571260085","sourceUpdatedAt":null,"verifiedAt":null}}]}