{"type":"FeatureCollection","features":[{"type":"Feature","geometry":{"type":"Point","coordinates":[8.8974338,47.7358938]},"properties":{"id":"bikerack:c5724a24-81c8-4007-84ca-e996063e176e","kind":"bikerack","longitude":8.8974338,"latitude":47.7358938,"name":"Fahrradabstellplatz","city":"Moos","address":null,"covered":false,"access":null,"website":null,"phone":null,"source":"OpenStreetMap/node/10307402242","sourceUpdatedAt":null,"verifiedAt":null}},{"type":"Feature","geometry":{"type":"Point","coordinates":[8.8970449,47.7371483]},"properties":{"id":"repair:ef2e72c0-94ec-460a-942b-3368fc777a61","kind":"repair","longitude":8.8970449,"latitude":47.7371483,"name":"RadService-Punkt Überlingen am Ried","city":"Moos","address":null,"covered":false,"access":null,"website":null,"phone":null,"source":"OpenStreetMap/node/5894345626","sourceUpdatedAt":null,"verifiedAt":null}}]}