{"type":"FeatureCollection","features":[{"type":"Feature","geometry":{"type":"Point","coordinates":[8.8858637,47.412371]},"properties":{"id":"water:6fc7780b-b206-45fe-80dc-2344827ebd4a","kind":"water","longitude":8.8858637,"latitude":47.412371,"name":"Drinking Fountain","city":"Wila","address":null,"covered":null,"access":null,"website":null,"phone":null,"source":"OpenStreetMap/node/3577954430","sourceUpdatedAt":null,"verifiedAt":null}},{"type":"Feature","geometry":{"type":"Point","coordinates":[8.9114545,47.424348]},"properties":{"id":"water:b8cfbf3e-1c8c-4cc6-b058-f9ae8daba6d0","kind":"water","longitude":8.9114545,"latitude":47.424348,"name":"Drinking Fountain","city":"Fischingen","address":null,"covered":null,"access":null,"website":null,"phone":null,"source":"OpenStreetMap/node/9652032334","sourceUpdatedAt":null,"verifiedAt":null}},{"type":"Feature","geometry":{"type":"Point","coordinates":[8.9127835,47.4006378]},"properties":{"id":"water:b9a29f67-c3d8-4234-b9e6-071a943e28a3","kind":"water","longitude":8.9127835,"latitude":47.4006378,"name":"Drinking Fountain","city":"Bauma","address":null,"covered":null,"access":null,"website":null,"phone":null,"source":"OpenStreetMap/node/12649428705","sourceUpdatedAt":null,"verifiedAt":null}},{"type":"Feature","geometry":{"type":"Point","coordinates":[8.8813842,47.4101256]},"properties":{"id":"water:d0f6e177-a5e8-4048-a7d4-f3e77405d38f","kind":"water","longitude":8.8813842,"latitude":47.4101256,"name":"Drinking Fountain","city":"Wila","address":null,"covered":null,"access":null,"website":null,"phone":null,"source":"OpenStreetMap/node/3577954405","sourceUpdatedAt":null,"verifiedAt":null}},{"type":"Feature","geometry":{"type":"Point","coordinates":[8.9033324,47.4020206]},"properties":{"id":"water:d3228daf-d4f0-435d-9bc4-c236f5104ded","kind":"water","longitude":8.9033324,"latitude":47.4020206,"name":"Drinking Fountain","city":"Bauma","address":null,"covered":null,"access":null,"website":null,"phone":null,"source":"OpenStreetMap/node/3760887329","sourceUpdatedAt":null,"verifiedAt":null}},{"type":"Feature","geometry":{"type":"Point","coordinates":[8.9109672,47.426779]},"properties":{"id":"water:d6e1c382-3c1e-43e7-a2ec-a57adceb648e","kind":"water","longitude":8.9109672,"latitude":47.426779,"name":"Drinking Fountain","city":"Fischingen","address":null,"covered":null,"access":null,"website":null,"phone":null,"source":"OpenStreetMap/node/1922069165","sourceUpdatedAt":null,"verifiedAt":null}}]}