{"type":"FeatureCollection","features":[{"type":"Feature","geometry":{"type":"Point","coordinates":[8.8812668,47.3678782]},"properties":{"id":"bikerack:1cf1a3ed-d9fb-4f7d-8b66-2e0faf370ed6","kind":"bikerack","longitude":8.8812668,"latitude":47.3678782,"name":"Bicycle Parking","city":"Bauma","address":null,"covered":true,"access":null,"website":null,"phone":null,"source":"OpenStreetMap/way/252707119","sourceUpdatedAt":null,"verifiedAt":null}},{"type":"Feature","geometry":{"type":"Point","coordinates":[8.9052543,47.3659964]},"properties":{"id":"bikerack:a20a2eda-13aa-457b-b5c6-7705b340a2d3","kind":"bikerack","longitude":8.9052543,"latitude":47.3659964,"name":"Bicycle Parking","city":"Bauma","address":null,"covered":true,"access":null,"website":null,"phone":null,"source":"OpenStreetMap/way/773010151","sourceUpdatedAt":null,"verifiedAt":null}},{"type":"Feature","geometry":{"type":"Point","coordinates":[8.8812012,47.3678867]},"properties":{"id":"bikerack:c524035c-f014-4121-91e9-654eb92b3c2e","kind":"bikerack","longitude":8.8812012,"latitude":47.3678867,"name":"Bicycle Parking","city":"Bauma","address":null,"covered":true,"access":null,"website":null,"phone":null,"source":"OpenStreetMap/way/753594571","sourceUpdatedAt":null,"verifiedAt":null}},{"type":"Feature","geometry":{"type":"Point","coordinates":[8.9072875,47.3645523]},"properties":{"id":"water:03524b71-d2db-48a4-ae27-680221355275","kind":"water","longitude":8.9072875,"latitude":47.3645523,"name":"Drinking Fountain","city":"Bauma","address":null,"covered":null,"access":null,"website":null,"phone":null,"source":"OpenStreetMap/node/7141638603","sourceUpdatedAt":null,"verifiedAt":null}},{"type":"Feature","geometry":{"type":"Point","coordinates":[8.8829429,47.3652677]},"properties":{"id":"water:1ca49fb5-7d52-4541-b5f1-7afb07c3b6e1","kind":"water","longitude":8.8829429,"latitude":47.3652677,"name":"Drinking Fountain","city":"Bauma","address":null,"covered":null,"access":null,"website":null,"phone":null,"source":"OpenStreetMap/node/6859020353","sourceUpdatedAt":null,"verifiedAt":null}},{"type":"Feature","geometry":{"type":"Point","coordinates":[8.8980401,47.3649366]},"properties":{"id":"water:36845e2e-b432-4c9b-9d22-949e73000687","kind":"water","longitude":8.8980401,"latitude":47.3649366,"name":"Drinking Fountain","city":"Bauma","address":null,"covered":null,"access":null,"website":null,"phone":null,"source":"OpenStreetMap/node/1379318304","sourceUpdatedAt":null,"verifiedAt":null}},{"type":"Feature","geometry":{"type":"Point","coordinates":[8.8788824,47.3602782]},"properties":{"id":"water:3a83b806-d6e2-47a1-a943-bb04c1b46e64","kind":"water","longitude":8.8788824,"latitude":47.3602782,"name":"Drinking Fountain","city":"Bauma","address":null,"covered":null,"access":null,"website":null,"phone":null,"source":"OpenStreetMap/node/13140558304","sourceUpdatedAt":null,"verifiedAt":null}},{"type":"Feature","geometry":{"type":"Point","coordinates":[8.8828675,47.3644504]},"properties":{"id":"water:59abf26b-99b3-40ce-bacb-b8006d071bec","kind":"water","longitude":8.8828675,"latitude":47.3644504,"name":"Drinking Fountain","city":"Bauma","address":null,"covered":null,"access":null,"website":null,"phone":null,"source":"OpenStreetMap/node/13140554971","sourceUpdatedAt":null,"verifiedAt":null}},{"type":"Feature","geometry":{"type":"Point","coordinates":[8.9185343,47.360798]},"properties":{"id":"water:60bb0cd1-9175-4657-be0b-483421e72fbe","kind":"water","longitude":8.9185343,"latitude":47.360798,"name":"Drinking Fountain","city":"Bauma","address":null,"covered":null,"access":null,"website":null,"phone":null,"source":"OpenStreetMap/node/7154999305","sourceUpdatedAt":null,"verifiedAt":null}},{"type":"Feature","geometry":{"type":"Point","coordinates":[8.8787145,47.3685075]},"properties":{"id":"water:c7e7d336-1fe3-4444-b3ce-347eff1babea","kind":"water","longitude":8.8787145,"latitude":47.3685075,"name":"Drinking Fountain","city":"Bauma","address":null,"covered":null,"access":null,"website":null,"phone":null,"source":"OpenStreetMap/node/867391090","sourceUpdatedAt":null,"verifiedAt":null}},{"type":"Feature","geometry":{"type":"Point","coordinates":[8.878575,47.3682311]},"properties":{"id":"water:e8b7b30c-f570-4dba-ae54-85c4ed795f73","kind":"water","longitude":8.878575,"latitude":47.3682311,"name":"Drinking Fountain","city":"Bauma","address":null,"covered":null,"access":null,"website":null,"phone":null,"source":"OpenStreetMap/node/867392222","sourceUpdatedAt":null,"verifiedAt":null}},{"type":"Feature","geometry":{"type":"Point","coordinates":[8.8790759,47.3673498]},"properties":{"id":"water:f6dc2128-f2cb-499c-b5ba-9b41b09379dc","kind":"water","longitude":8.8790759,"latitude":47.3673498,"name":"Drinking Fountain","city":"Bauma","address":null,"covered":null,"access":null,"website":null,"phone":null,"source":"OpenStreetMap/node/10875430911","sourceUpdatedAt":null,"verifiedAt":null}},{"type":"Feature","geometry":{"type":"Point","coordinates":[8.8776828,47.3682352]},"properties":{"id":"water:fa94ab66-95d7-4e5f-9735-475f2f207794","kind":"water","longitude":8.8776828,"latitude":47.3682352,"name":"Drinking Fountain","city":"Bauma","address":null,"covered":null,"access":null,"website":null,"phone":null,"source":"OpenStreetMap/node/7040673255","sourceUpdatedAt":null,"verifiedAt":null}},{"type":"Feature","geometry":{"type":"Point","coordinates":[8.9079668,47.36465]},"properties":{"id":"water:ffcd5ec7-deb6-4c34-8e56-0c5a04ab5711","kind":"water","longitude":8.9079668,"latitude":47.36465,"name":"Drinking Fountain","city":"Bauma","address":null,"covered":null,"access":null,"website":null,"phone":null,"source":"OpenStreetMap/node/1932852733","sourceUpdatedAt":null,"verifiedAt":null}}]}