{"type":"FeatureCollection","features":[{"type":"Feature","geometry":{"type":"Point","coordinates":[8.2506583,48.3755266]},"properties":{"id":"water:96d8e71b-16f3-4755-a7e9-3fd0a3b086f6","kind":"water","longitude":8.2506583,"latitude":48.3755266,"name":"Hansjakobstein","city":"Bad Peterstal-Griesbach","address":null,"covered":null,"access":null,"website":null,"phone":null,"source":"OpenStreetMap/node/751942419","sourceUpdatedAt":null,"verifiedAt":null}},{"type":"Feature","geometry":{"type":"Point","coordinates":[8.2429603,48.3767952]},"properties":{"id":"water:b57e9d98-916f-4eb6-bc2f-70843c60f072","kind":"water","longitude":8.2429603,"latitude":48.3767952,"name":"Trinkwasser","city":"Bad Peterstal-Griesbach","address":null,"covered":null,"access":null,"website":null,"phone":null,"source":"OpenStreetMap/node/790734492","sourceUpdatedAt":null,"verifiedAt":null}}]}