{"type":"FeatureCollection","features":[{"type":"Feature","geometry":{"type":"Point","coordinates":[8.2237836,47.410352]},"properties":{"id":"bikerack:10bf32dc-e26b-4201-82de-5f9269a8a063","kind":"bikerack","longitude":8.2237836,"latitude":47.410352,"name":"Bicycle Parking","city":"Othmarsingen","address":null,"covered":true,"access":null,"website":null,"phone":null,"source":"OpenStreetMap/way/1005661257","sourceUpdatedAt":null,"verifiedAt":null}},{"type":"Feature","geometry":{"type":"Point","coordinates":[8.2321445,47.4115292]},"properties":{"id":"bikerack:1de83ad5-b003-4ee3-9ac8-d3b783e120d9","kind":"bikerack","longitude":8.2321445,"latitude":47.4115292,"name":"Bicycle Parking","city":"Othmarsingen","address":null,"covered":true,"access":null,"website":null,"phone":null,"source":"OpenStreetMap/way/1005661258","sourceUpdatedAt":null,"verifiedAt":null}},{"type":"Feature","geometry":{"type":"Point","coordinates":[8.2324451,47.4120614]},"properties":{"id":"bikerack:38d26a4c-575f-4246-b9f5-3cd5aeb2b654","kind":"bikerack","longitude":8.2324451,"latitude":47.4120614,"name":"Bicycle Parking","city":"Othmarsingen","address":null,"covered":false,"access":null,"website":null,"phone":null,"source":"OpenStreetMap/node/9278663633","sourceUpdatedAt":null,"verifiedAt":null}},{"type":"Feature","geometry":{"type":"Point","coordinates":[8.2569793,47.4126239]},"properties":{"id":"bikerack:5398ea3f-42c5-432d-8b4e-666756093199","kind":"bikerack","longitude":8.2569793,"latitude":47.4126239,"name":"Bicycle Parking","city":"Mellingen","address":null,"covered":false,"access":null,"website":null,"phone":null,"source":"OpenStreetMap/node/12533990330","sourceUpdatedAt":null,"verifiedAt":null}},{"type":"Feature","geometry":{"type":"Point","coordinates":[8.234439,47.4114677]},"properties":{"id":"bikerack:72d92791-3c16-4016-a209-80b194619139","kind":"bikerack","longitude":8.234439,"latitude":47.4114677,"name":"Bicycle Parking","city":"Othmarsingen","address":null,"covered":true,"access":null,"website":null,"phone":null,"source":"OpenStreetMap/way/1005661260","sourceUpdatedAt":null,"verifiedAt":null}},{"type":"Feature","geometry":{"type":"Point","coordinates":[8.2188624,47.4015148]},"properties":{"id":"bikerack:9815f473-1cb0-4dcd-a34f-d22dfac1f450","kind":"bikerack","longitude":8.2188624,"latitude":47.4015148,"name":"Bicycle Parking","city":"Othmarsingen","address":null,"covered":false,"access":null,"website":null,"phone":null,"source":"OpenStreetMap/way/900723571","sourceUpdatedAt":null,"verifiedAt":null}},{"type":"Feature","geometry":{"type":"Point","coordinates":[8.2187359,47.4066379]},"properties":{"id":"bikerack:9c895bb5-162d-48e0-b080-631e5e9031df","kind":"bikerack","longitude":8.2187359,"latitude":47.4066379,"name":"Bicycle Parking","city":"Othmarsingen","address":null,"covered":true,"access":null,"website":null,"phone":null,"source":"OpenStreetMap/way/1189967106","sourceUpdatedAt":null,"verifiedAt":null}},{"type":"Feature","geometry":{"type":"Point","coordinates":[8.2335209,47.4119178]},"properties":{"id":"bikerack:a0c9c012-774c-4853-965b-a5895a0516c2","kind":"bikerack","longitude":8.2335209,"latitude":47.4119178,"name":"Bicycle Parking","city":"Othmarsingen","address":null,"covered":true,"access":null,"website":null,"phone":null,"source":"OpenStreetMap/way/1005661259","sourceUpdatedAt":null,"verifiedAt":null}},{"type":"Feature","geometry":{"type":"Point","coordinates":[8.2345119,47.4114671]},"properties":{"id":"bikerack:c31ac620-280a-4ccf-acca-13a9e03f5785","kind":"bikerack","longitude":8.2345119,"latitude":47.4114671,"name":"Bicycle Parking","city":"Othmarsingen","address":null,"covered":true,"access":null,"website":null,"phone":null,"source":"OpenStreetMap/way/1005661261","sourceUpdatedAt":null,"verifiedAt":null}},{"type":"Feature","geometry":{"type":"Point","coordinates":[8.2322983,47.4120156]},"properties":{"id":"bikerack:e40d2848-1a6a-422f-ac8b-054822ceaddd","kind":"bikerack","longitude":8.2322983,"latitude":47.4120156,"name":"Bicycle Parking","city":"Othmarsingen","address":null,"covered":false,"access":null,"website":null,"phone":null,"source":"OpenStreetMap/node/9278663632","sourceUpdatedAt":null,"verifiedAt":null}},{"type":"Feature","geometry":{"type":"Point","coordinates":[8.256133,47.4132947]},"properties":{"id":"repair:bcd16be1-9d75-4aa9-a7d0-fae649cd1d5a","kind":"repair","longitude":8.256133,"latitude":47.4132947,"name":"VELOIN","city":"Mellingen","address":null,"covered":false,"access":null,"website":null,"phone":null,"source":"OpenStreetMap/node/8938721421","sourceUpdatedAt":null,"verifiedAt":null}},{"type":"Feature","geometry":{"type":"Point","coordinates":[8.2561973,47.4132428]},"properties":{"id":"service:4bf18ca7-fa1c-487a-a373-06fb41ee3021","kind":"service","longitude":8.2561973,"latitude":47.4132428,"name":"VELOIN Zweirad-Werkstatt","city":"Mellingen","address":null,"covered":null,"access":null,"website":null,"phone":null,"source":"OpenStreetMap/node/12533976353","sourceUpdatedAt":null,"verifiedAt":null}},{"type":"Feature","geometry":{"type":"Point","coordinates":[8.256133,47.4132947]},"properties":{"id":"service:7c204cae-2512-4a7a-b35d-d73083f8777e","kind":"service","longitude":8.256133,"latitude":47.4132947,"name":"VELOIN","city":"Mellingen","address":null,"covered":null,"access":null,"website":null,"phone":null,"source":"OpenStreetMap/node/8938721421","sourceUpdatedAt":null,"verifiedAt":null}},{"type":"Feature","geometry":{"type":"Point","coordinates":[8.2506276,47.4267773]},"properties":{"id":"water:15fc20ec-83bb-48fa-8b59-e9270a0c4e90","kind":"water","longitude":8.2506276,"latitude":47.4267773,"name":"Drinking Fountain","city":"Mellingen","address":null,"covered":null,"access":null,"website":null,"phone":null,"source":"OpenStreetMap/node/2145426760","sourceUpdatedAt":null,"verifiedAt":null}},{"type":"Feature","geometry":{"type":"Point","coordinates":[8.2434086,47.4272547]},"properties":{"id":"water:2ee35f4e-551c-4df7-94fe-b8c9a7ed3345","kind":"water","longitude":8.2434086,"latitude":47.4272547,"name":"Drinking Fountain","city":"Mellingen","address":null,"covered":null,"access":null,"website":null,"phone":null,"source":"OpenStreetMap/node/5602936650","sourceUpdatedAt":null,"verifiedAt":null}},{"type":"Feature","geometry":{"type":"Point","coordinates":[8.2283737,47.4108295]},"properties":{"id":"water:48c0fdab-bc34-4904-906e-5e8d8330f378","kind":"water","longitude":8.2283737,"latitude":47.4108295,"name":"Drinking Fountain","city":"Othmarsingen","address":null,"covered":null,"access":null,"website":null,"phone":null,"source":"OpenStreetMap/node/11627396393","sourceUpdatedAt":null,"verifiedAt":null}},{"type":"Feature","geometry":{"type":"Point","coordinates":[8.2595584,47.4114849]},"properties":{"id":"water:6354324d-cacb-4932-a7bc-10c1f7bace95","kind":"water","longitude":8.2595584,"latitude":47.4114849,"name":"Drinking Fountain","city":"Mellingen","address":null,"covered":null,"access":null,"website":null,"phone":null,"source":"OpenStreetMap/node/1803808020","sourceUpdatedAt":null,"verifiedAt":null}},{"type":"Feature","geometry":{"type":"Point","coordinates":[8.2425893,47.4102782]},"properties":{"id":"water:641a9ccb-cd81-4290-81fd-60cc42dfca20","kind":"water","longitude":8.2425893,"latitude":47.4102782,"name":"Drinking Fountain","city":"Hagglingen","address":null,"covered":null,"access":null,"website":null,"phone":null,"source":"OpenStreetMap/node/2822959407","sourceUpdatedAt":null,"verifiedAt":null}},{"type":"Feature","geometry":{"type":"Point","coordinates":[8.2184746,47.4012395]},"properties":{"id":"water:69cdc689-e499-4efd-b5ff-a14283de455c","kind":"water","longitude":8.2184746,"latitude":47.4012395,"name":"Drinking Fountain","city":"Othmarsingen","address":null,"covered":null,"access":null,"website":null,"phone":null,"source":"OpenStreetMap/node/5547790131","sourceUpdatedAt":null,"verifiedAt":null}},{"type":"Feature","geometry":{"type":"Point","coordinates":[8.2335334,47.4119613]},"properties":{"id":"water:8485834d-2991-4f4d-a9b5-aa7364c3c8ef","kind":"water","longitude":8.2335334,"latitude":47.4119613,"name":"Drinking Fountain","city":"Othmarsingen","address":null,"covered":null,"access":null,"website":null,"phone":null,"source":"OpenStreetMap/node/9278663634","sourceUpdatedAt":null,"verifiedAt":null}},{"type":"Feature","geometry":{"type":"Point","coordinates":[8.2191241,47.3991283]},"properties":{"id":"water:a0bede0a-91a8-4f2c-bf27-d8b2c8647504","kind":"water","longitude":8.2191241,"latitude":47.3991283,"name":"Drinking Fountain","city":"Othmarsingen","address":null,"covered":null,"access":null,"website":null,"phone":null,"source":"OpenStreetMap/node/5547790130","sourceUpdatedAt":null,"verifiedAt":null}}]}