{"type":"FeatureCollection","features":[{"type":"Feature","geometry":{"type":"Point","coordinates":[8.2308114,47.1977909]},"properties":{"id":"bikerack:11e6b140-b9ae-4e60-9e25-c25861f473c4","kind":"bikerack","longitude":8.2308114,"latitude":47.1977909,"name":"Bicycle Parking","city":"Neudorf","address":null,"covered":false,"access":null,"website":null,"phone":null,"source":"OpenStreetMap/node/9243747855","sourceUpdatedAt":null,"verifiedAt":null}},{"type":"Feature","geometry":{"type":"Point","coordinates":[8.2309143,47.197594]},"properties":{"id":"bikerack:35a69c07-714d-4697-90cc-6fdcb7e38855","kind":"bikerack","longitude":8.2309143,"latitude":47.197594,"name":"Bicycle Parking","city":"Neudorf","address":null,"covered":true,"access":null,"website":null,"phone":null,"source":"OpenStreetMap/way/1001476759","sourceUpdatedAt":null,"verifiedAt":null}},{"type":"Feature","geometry":{"type":"Point","coordinates":[8.251692,47.1956835]},"properties":{"id":"bikerack:90f0e887-57b5-4915-b473-7728183f7ce7","kind":"bikerack","longitude":8.251692,"latitude":47.1956835,"name":"Bicycle Parking","city":"Roemerswil","address":null,"covered":false,"access":null,"website":null,"phone":null,"source":"OpenStreetMap/way/1000338153","sourceUpdatedAt":null,"verifiedAt":null}},{"type":"Feature","geometry":{"type":"Point","coordinates":[8.2205733,47.1988646]},"properties":{"id":"water:7acae988-d609-4fa0-aef3-6717f36cdd99","kind":"water","longitude":8.2205733,"latitude":47.1988646,"name":"Drinking Fountain","city":"Neudorf","address":null,"covered":null,"access":null,"website":null,"phone":null,"source":"OpenStreetMap/node/7341226991","sourceUpdatedAt":null,"verifiedAt":null}},{"type":"Feature","geometry":{"type":"Point","coordinates":[8.2421011,47.2121046]},"properties":{"id":"water:f98a6a82-1f15-4d9b-bd9f-3330470605cc","kind":"water","longitude":8.2421011,"latitude":47.2121046,"name":"Drinking Fountain","city":"Hitzkirch","address":null,"covered":null,"access":null,"website":null,"phone":null,"source":"OpenStreetMap/node/9233689943","sourceUpdatedAt":null,"verifiedAt":null}}]}