{"type":"FeatureCollection","features":[{"type":"Feature","geometry":{"type":"Point","coordinates":[8.2525553,47.0905957]},"properties":{"id":"bikerack:1b852f57-7c19-4c9d-9525-23bb3c8a77b3","kind":"bikerack","longitude":8.2525553,"latitude":47.0905957,"name":"Bicycle Parking","city":"Emmen","address":null,"covered":true,"access":null,"website":null,"phone":null,"source":"OpenStreetMap/way/1334158915","sourceUpdatedAt":null,"verifiedAt":null}},{"type":"Feature","geometry":{"type":"Point","coordinates":[8.2491611,47.0882441]},"properties":{"id":"bikerack:8b7ef913-7304-4c1e-8dca-da6384a3137c","kind":"bikerack","longitude":8.2491611,"latitude":47.0882441,"name":"Bicycle Parking","city":"Emmen","address":null,"covered":true,"access":null,"website":null,"phone":null,"source":"OpenStreetMap/way/122804264","sourceUpdatedAt":null,"verifiedAt":null}},{"type":"Feature","geometry":{"type":"Point","coordinates":[8.2496432,47.0882287]},"properties":{"id":"bikerack:902e760c-41f8-46cf-baf3-d30c2d6073d3","kind":"bikerack","longitude":8.2496432,"latitude":47.0882287,"name":"Bicycle Parking","city":"Emmen","address":null,"covered":true,"access":null,"website":null,"phone":null,"source":"OpenStreetMap/way/122804267","sourceUpdatedAt":null,"verifiedAt":null}},{"type":"Feature","geometry":{"type":"Point","coordinates":[8.2607393,47.0764079]},"properties":{"id":"bikerack:b089cc73-69ff-429c-a53c-b17b3d349b78","kind":"bikerack","longitude":8.2607393,"latitude":47.0764079,"name":"Bicycle Parking","city":"Emmen","address":null,"covered":true,"access":null,"website":null,"phone":null,"source":"OpenStreetMap/node/2165928324","sourceUpdatedAt":null,"verifiedAt":null}},{"type":"Feature","geometry":{"type":"Point","coordinates":[8.2444607,47.0960362]},"properties":{"id":"service:0e8f7b55-78dd-4d32-8ebf-09b7fafa92b8","kind":"service","longitude":8.2444607,"latitude":47.0960362,"name":"E-Wheels","city":"Emmen","address":null,"covered":null,"access":null,"website":null,"phone":null,"source":"OpenStreetMap/node/7282458678","sourceUpdatedAt":null,"verifiedAt":null}},{"type":"Feature","geometry":{"type":"Point","coordinates":[8.2445675,47.0956976]},"properties":{"id":"service:e4c1f4af-d405-44bd-8275-28182134f9a5","kind":"service","longitude":8.2445675,"latitude":47.0956976,"name":"E-Wheels Workshop","city":"Emmen","address":null,"covered":null,"access":null,"website":null,"phone":null,"source":"OpenStreetMap/node/7282458676","sourceUpdatedAt":null,"verifiedAt":null}},{"type":"Feature","geometry":{"type":"Point","coordinates":[8.2218075,47.0982508]},"properties":{"id":"water:8b0cbd26-3c82-4291-b556-240d56ee1e0c","kind":"water","longitude":8.2218075,"latitude":47.0982508,"name":"Drinking Fountain","city":"Neuenkirch","address":null,"covered":null,"access":null,"website":null,"phone":null,"source":"OpenStreetMap/node/5507239653","sourceUpdatedAt":null,"verifiedAt":null}}]}