{"type":"FeatureCollection","features":[{"type":"Feature","geometry":{"type":"Point","coordinates":[8.22423,46.1322245]},"properties":{"id":"water:029d7bcb-09a4-40bf-a542-ab1316192432","kind":"water","longitude":8.22423,"latitude":46.1322245,"name":"Fontanella","city":"San Lorenzo","address":null,"covered":null,"access":null,"website":null,"phone":null,"source":"OpenStreetMap/node/9990152277","sourceUpdatedAt":null,"verifiedAt":null}},{"type":"Feature","geometry":{"type":"Point","coordinates":[8.239765,46.1235402]},"properties":{"id":"water:0b670a63-63c2-44e6-8765-ce9d956277e9","kind":"water","longitude":8.239765,"latitude":46.1235402,"name":"Fontanella","city":"San Lorenzo","address":null,"covered":null,"access":null,"website":null,"phone":null,"source":"OpenStreetMap/node/12960676096","sourceUpdatedAt":null,"verifiedAt":null}},{"type":"Feature","geometry":{"type":"Point","coordinates":[8.2266353,46.1262229]},"properties":{"id":"water:0de696b2-cea9-45d7-8e49-6cdaf814abbb","kind":"water","longitude":8.2266353,"latitude":46.1262229,"name":"Fontanella","city":"San Lorenzo","address":null,"covered":null,"access":null,"website":null,"phone":null,"source":"OpenStreetMap/node/4922772238","sourceUpdatedAt":null,"verifiedAt":null}},{"type":"Feature","geometry":{"type":"Point","coordinates":[8.235798,46.1168005]},"properties":{"id":"water:217665ac-ea6d-47d4-b4fc-dd653159567e","kind":"water","longitude":8.235798,"latitude":46.1168005,"name":"Fontanella","city":"San Lorenzo","address":null,"covered":null,"access":null,"website":null,"phone":null,"source":"OpenStreetMap/node/3710811879","sourceUpdatedAt":null,"verifiedAt":null}},{"type":"Feature","geometry":{"type":"Point","coordinates":[8.2267351,46.1194017]},"properties":{"id":"water:3c50dc52-ace9-44f4-9591-9d265ea4a308","kind":"water","longitude":8.2267351,"latitude":46.1194017,"name":"Fontanella","city":"San Lorenzo","address":null,"covered":null,"access":null,"website":null,"phone":null,"source":"OpenStreetMap/node/8767866342","sourceUpdatedAt":null,"verifiedAt":null}},{"type":"Feature","geometry":{"type":"Point","coordinates":[8.2369014,46.1260434]},"properties":{"id":"water:3d205ca3-af12-4058-9df5-273d83f072df","kind":"water","longitude":8.2369014,"latitude":46.1260434,"name":"Fontanella","city":"San Lorenzo","address":null,"covered":null,"access":null,"website":null,"phone":null,"source":"OpenStreetMap/node/12165144826","sourceUpdatedAt":null,"verifiedAt":null}},{"type":"Feature","geometry":{"type":"Point","coordinates":[8.2237567,46.1328693]},"properties":{"id":"water:44d246a3-df68-4c4b-92d9-3abbadc6217e","kind":"water","longitude":8.2237567,"latitude":46.1328693,"name":"Fontanella","city":"San Lorenzo","address":null,"covered":null,"access":null,"website":null,"phone":null,"source":"OpenStreetMap/node/9990152251","sourceUpdatedAt":null,"verifiedAt":null}},{"type":"Feature","geometry":{"type":"Point","coordinates":[8.252111,46.1044948]},"properties":{"id":"water:4cb91616-d31a-42d6-ae9a-92c20c35b1de","kind":"water","longitude":8.252111,"latitude":46.1044948,"name":"Fontanella","city":"Villadossola","address":null,"covered":null,"access":null,"website":null,"phone":null,"source":"OpenStreetMap/node/7837187286","sourceUpdatedAt":null,"verifiedAt":null}},{"type":"Feature","geometry":{"type":"Point","coordinates":[8.2282768,46.1208814]},"properties":{"id":"water:63015a36-ab76-4798-9a91-6cd1bb989ec8","kind":"water","longitude":8.2282768,"latitude":46.1208814,"name":"Fontanella","city":"San Lorenzo","address":null,"covered":null,"access":null,"website":null,"phone":null,"source":"OpenStreetMap/node/8767866366","sourceUpdatedAt":null,"verifiedAt":null}},{"type":"Feature","geometry":{"type":"Point","coordinates":[8.23272,46.1338801]},"properties":{"id":"water:7f122031-4c47-4bbc-aae5-4f50875fe4e9","kind":"water","longitude":8.23272,"latitude":46.1338801,"name":"Fontanella","city":"San Lorenzo","address":null,"covered":null,"access":null,"website":null,"phone":null,"source":"OpenStreetMap/node/5572801131","sourceUpdatedAt":null,"verifiedAt":null}},{"type":"Feature","geometry":{"type":"Point","coordinates":[8.2404834,46.1215383]},"properties":{"id":"water:82b301af-6307-4f63-9b3f-a16a9415ad79","kind":"water","longitude":8.2404834,"latitude":46.1215383,"name":"Fontanella","city":"San Lorenzo","address":null,"covered":null,"access":null,"website":null,"phone":null,"source":"OpenStreetMap/node/8823681215","sourceUpdatedAt":null,"verifiedAt":null}},{"type":"Feature","geometry":{"type":"Point","coordinates":[8.2508099,46.1236502]},"properties":{"id":"water:8c378ddd-0a8f-4191-84b6-f2226e74d69b","kind":"water","longitude":8.2508099,"latitude":46.1236502,"name":"Fontanella","city":"Domodossola","address":null,"covered":null,"access":null,"website":null,"phone":null,"source":"OpenStreetMap/node/6378628885","sourceUpdatedAt":null,"verifiedAt":null}},{"type":"Feature","geometry":{"type":"Point","coordinates":[8.237723,46.1259584]},"properties":{"id":"water:a82b4df4-fef5-4b1e-87c7-808476198050","kind":"water","longitude":8.237723,"latitude":46.1259584,"name":"Fontanella","city":"San Lorenzo","address":null,"covered":null,"access":null,"website":null,"phone":null,"source":"OpenStreetMap/node/6380470593","sourceUpdatedAt":null,"verifiedAt":null}},{"type":"Feature","geometry":{"type":"Point","coordinates":[8.2540339,46.106599]},"properties":{"id":"water:b034c0f3-c4d4-4230-b0cc-0e831d1403ca","kind":"water","longitude":8.2540339,"latitude":46.106599,"name":"Fontanella","city":"Villadossola","address":null,"covered":null,"access":null,"website":null,"phone":null,"source":"OpenStreetMap/node/1425322697","sourceUpdatedAt":null,"verifiedAt":null}},{"type":"Feature","geometry":{"type":"Point","coordinates":[8.2212389,46.1257216]},"properties":{"id":"water:b6c2803a-c107-40f3-acec-dd5999c540cf","kind":"water","longitude":8.2212389,"latitude":46.1257216,"name":"Fontanella","city":"San Lorenzo","address":null,"covered":null,"access":null,"website":null,"phone":null,"source":"OpenStreetMap/node/5042875913","sourceUpdatedAt":null,"verifiedAt":null}},{"type":"Feature","geometry":{"type":"Point","coordinates":[8.2391218,46.1226215]},"properties":{"id":"water:c22afe13-856d-431e-86b6-650561078ec4","kind":"water","longitude":8.2391218,"latitude":46.1226215,"name":"Fontanella","city":"San Lorenzo","address":null,"covered":null,"access":null,"website":null,"phone":null,"source":"OpenStreetMap/node/12960717022","sourceUpdatedAt":null,"verifiedAt":null}},{"type":"Feature","geometry":{"type":"Point","coordinates":[8.2263127,46.1257615]},"properties":{"id":"water:c8cfa669-ad37-449a-ae2c-a2aa19c2ed8e","kind":"water","longitude":8.2263127,"latitude":46.1257615,"name":"Fontanella","city":"San Lorenzo","address":null,"covered":null,"access":null,"website":null,"phone":null,"source":"OpenStreetMap/node/12879702479","sourceUpdatedAt":null,"verifiedAt":null}},{"type":"Feature","geometry":{"type":"Point","coordinates":[8.2356957,46.116542]},"properties":{"id":"water:d82c03bd-50ca-4ace-b9bc-4e2c3270ec81","kind":"water","longitude":8.2356957,"latitude":46.116542,"name":"Fontanella","city":"San Lorenzo","address":null,"covered":null,"access":null,"website":null,"phone":null,"source":"OpenStreetMap/node/8806921878","sourceUpdatedAt":null,"verifiedAt":null}},{"type":"Feature","geometry":{"type":"Point","coordinates":[8.2409725,46.1214854]},"properties":{"id":"water:d8e0b1c2-1dfe-4a18-ae7b-a4ef2161cd41","kind":"water","longitude":8.2409725,"latitude":46.1214854,"name":"Fontanella","city":"San Lorenzo","address":null,"covered":null,"access":null,"website":null,"phone":null,"source":"OpenStreetMap/node/8825269176","sourceUpdatedAt":null,"verifiedAt":null}},{"type":"Feature","geometry":{"type":"Point","coordinates":[8.2374281,46.1216163]},"properties":{"id":"water:e521b613-4c83-448d-9bdc-2647f86a6824","kind":"water","longitude":8.2374281,"latitude":46.1216163,"name":"Fontanella","city":"San Lorenzo","address":null,"covered":null,"access":null,"website":null,"phone":null,"source":"OpenStreetMap/node/8513060357","sourceUpdatedAt":null,"verifiedAt":null}}]}