{"type":"FeatureCollection","features":[{"type":"Feature","geometry":{"type":"Point","coordinates":[8.2504812,46.0894499]},"properties":{"id":"water:47012c46-3935-43f7-a9d5-669c062cc553","kind":"water","longitude":8.2504812,"latitude":46.0894499,"name":"Fontanella","city":"Villadossola","address":null,"covered":null,"access":null,"website":null,"phone":null,"source":"OpenStreetMap/node/6342975793","sourceUpdatedAt":null,"verifiedAt":null}},{"type":"Feature","geometry":{"type":"Point","coordinates":[8.244347,46.0885106]},"properties":{"id":"water:53a04732-480a-4c1a-89d4-d1559de6db57","kind":"water","longitude":8.244347,"latitude":46.0885106,"name":"Fontanella","city":"Montescheno","address":null,"covered":null,"access":null,"website":null,"phone":null,"source":"OpenStreetMap/node/6342975795","sourceUpdatedAt":null,"verifiedAt":null}},{"type":"Feature","geometry":{"type":"Point","coordinates":[8.218168,46.0798782]},"properties":{"id":"water:53c4cc0b-b935-4e54-b33d-5c08c77d24bd","kind":"water","longitude":8.218168,"latitude":46.0798782,"name":"Fontanella","city":"Montescheno","address":null,"covered":null,"access":null,"website":null,"phone":null,"source":"OpenStreetMap/node/8445394970","sourceUpdatedAt":null,"verifiedAt":null}},{"type":"Feature","geometry":{"type":"Point","coordinates":[8.218749,46.0795439]},"properties":{"id":"water:68bd926d-b30c-4055-9f6a-8b56595c2ded","kind":"water","longitude":8.218749,"latitude":46.0795439,"name":"Fontanella","city":"Montescheno","address":null,"covered":null,"access":null,"website":null,"phone":null,"source":"OpenStreetMap/node/8445394971","sourceUpdatedAt":null,"verifiedAt":null}},{"type":"Feature","geometry":{"type":"Point","coordinates":[8.2393366,46.0957216]},"properties":{"id":"water:6938aa41-ccd1-4ca8-b9ab-aa1b8ea62ba9","kind":"water","longitude":8.2393366,"latitude":46.0957216,"name":"Fontanella","city":"Montescheno","address":null,"covered":null,"access":null,"website":null,"phone":null,"source":"OpenStreetMap/node/2343426073","sourceUpdatedAt":null,"verifiedAt":null}},{"type":"Feature","geometry":{"type":"Point","coordinates":[8.2578713,46.1028017]},"properties":{"id":"water:97190f67-3582-4cbd-b1a7-3b911421f14e","kind":"water","longitude":8.2578713,"latitude":46.1028017,"name":"Fontanella","city":"Villadossola","address":null,"covered":null,"access":null,"website":null,"phone":null,"source":"OpenStreetMap/node/1425322693","sourceUpdatedAt":null,"verifiedAt":null}},{"type":"Feature","geometry":{"type":"Point","coordinates":[8.2561682,46.0870502]},"properties":{"id":"water:ab0cd011-c11a-4a05-a0fc-5f3f60024098","kind":"water","longitude":8.2561682,"latitude":46.0870502,"name":"Fontanella","city":"Villadossola","address":null,"covered":null,"access":null,"website":null,"phone":null,"source":"OpenStreetMap/node/6342975792","sourceUpdatedAt":null,"verifiedAt":null}},{"type":"Feature","geometry":{"type":"Point","coordinates":[8.249727,46.0891788]},"properties":{"id":"water:de454d7a-6d0b-419e-a4c6-b4dcef1fa56a","kind":"water","longitude":8.249727,"latitude":46.0891788,"name":"Fontanella","city":"Villadossola","address":null,"covered":null,"access":null,"website":null,"phone":null,"source":"OpenStreetMap/node/6342975794","sourceUpdatedAt":null,"verifiedAt":null}},{"type":"Feature","geometry":{"type":"Point","coordinates":[8.247687,46.1032105]},"properties":{"id":"water:ee878d64-5d62-499f-b129-3b668d0bd558","kind":"water","longitude":8.247687,"latitude":46.1032105,"name":"Fontanella","city":"Villadossola","address":null,"covered":null,"access":null,"website":null,"phone":null,"source":"OpenStreetMap/node/7837192585","sourceUpdatedAt":null,"verifiedAt":null}}]}