{"type":"FeatureCollection","features":[{"type":"Feature","geometry":{"type":"Point","coordinates":[15.8326075,47.3075335]},"properties":{"id":"bikerack:03e6ff56-8acc-43c4-80a0-459f17b8f059","kind":"bikerack","longitude":15.8326075,"latitude":47.3075335,"name":"Biciklitároló","city":"Poellau","address":null,"covered":false,"access":null,"website":null,"phone":null,"source":"OpenStreetMap/node/1625161243","sourceUpdatedAt":null,"verifiedAt":null}},{"type":"Feature","geometry":{"type":"Point","coordinates":[15.8375007,47.3025547]},"properties":{"id":"bikerack:5ff3a59b-f179-4fbe-a31c-1e94a22ad387","kind":"bikerack","longitude":15.8375007,"latitude":47.3025547,"name":"Biciklitároló","city":"Poellau","address":null,"covered":false,"access":null,"website":null,"phone":null,"source":"OpenStreetMap/node/1625288094","sourceUpdatedAt":null,"verifiedAt":null}},{"type":"Feature","geometry":{"type":"Point","coordinates":[15.832694,47.3076892]},"properties":{"id":"bikerack:afe2a1ab-c9a3-44ef-acfc-3ea834fed6da","kind":"bikerack","longitude":15.832694,"latitude":47.3076892,"name":"Biciklitároló","city":"Poellau","address":null,"covered":false,"access":null,"website":null,"phone":null,"source":"OpenStreetMap/node/1625161249","sourceUpdatedAt":null,"verifiedAt":null}}]}