{"type":"FeatureCollection","features":[{"type":"Feature","geometry":{"type":"Point","coordinates":[15.8574799,45.5280953]},"properties":{"id":"water:28b978da-de70-4f65-9af7-8706389b5800","kind":"water","longitude":15.8574799,"latitude":45.5280953,"name":"Ivókút","city":"Horvati","address":null,"covered":null,"access":null,"website":null,"phone":null,"source":"OpenStreetMap/node/7796650285","sourceUpdatedAt":null,"verifiedAt":null}},{"type":"Feature","geometry":{"type":"Point","coordinates":[15.856757,45.5280512]},"properties":{"id":"water:f5b817ee-04db-43b2-8612-252c878cc1d0","kind":"water","longitude":15.856757,"latitude":45.5280512,"name":"Ivókút","city":"Horvati","address":null,"covered":null,"access":null,"website":null,"phone":null,"source":"OpenStreetMap/node/7796650385","sourceUpdatedAt":null,"verifiedAt":null}}]}