{"type":"FeatureCollection","features":[{"type":"Feature","geometry":{"type":"Point","coordinates":[16.591756,52.8893619]},"properties":{"id":"bikerack:9e4b8f73-b182-4ca3-91e8-606487f97c02","kind":"bikerack","longitude":16.591756,"latitude":52.8893619,"name":"Biciklitároló","city":"Czarnkow","address":null,"covered":false,"access":null,"website":null,"phone":null,"source":"OpenStreetMap/node/10199869185","sourceUpdatedAt":null,"verifiedAt":null}},{"type":"Feature","geometry":{"type":"Point","coordinates":[16.5675862,52.9053628]},"properties":{"id":"service:da349235-6eba-4948-b36c-20ea8a08f692","kind":"service","longitude":16.5675862,"latitude":52.9053628,"name":"Bicikli szervíz","city":"Czarnkow","address":null,"covered":null,"access":null,"website":null,"phone":null,"source":"OpenStreetMap/way/1036406747","sourceUpdatedAt":null,"verifiedAt":null}}]}