{"type":"FeatureCollection","features":[{"type":"Feature","geometry":{"type":"Point","coordinates":[16.5880479,48.0254147]},"properties":{"id":"bikerack:7e0c6b71-6168-42eb-ada1-417c1d8b98b6","kind":"bikerack","longitude":16.5880479,"latitude":48.0254147,"name":"Biciklitároló","city":"Gotzendorf an der Leitha","address":null,"covered":true,"access":null,"website":null,"phone":null,"source":"OpenStreetMap/way/1208218219","sourceUpdatedAt":null,"verifiedAt":null}},{"type":"Feature","geometry":{"type":"Point","coordinates":[16.5882272,48.0254216]},"properties":{"id":"bikerack:d21bb292-bd70-4af2-8566-39fb64b037d8","kind":"bikerack","longitude":16.5882272,"latitude":48.0254216,"name":"Biciklitároló","city":"Gotzendorf an der Leitha","address":null,"covered":true,"access":null,"website":null,"phone":null,"source":"OpenStreetMap/way/1208218220","sourceUpdatedAt":null,"verifiedAt":null}}]}