{"type":"FeatureCollection","features":[{"type":"Feature","geometry":{"type":"Point","coordinates":[20.1248127,48.520131]},"properties":{"id":"water:111bbdba-a2f8-486d-bcb2-997c972801c6","kind":"water","longitude":20.1248127,"latitude":48.520131,"name":"Ivókút","city":"Revuca","address":null,"covered":null,"access":null,"website":null,"phone":null,"source":"OpenStreetMap/node/4976641187","sourceUpdatedAt":null,"verifiedAt":null}},{"type":"Feature","geometry":{"type":"Point","coordinates":[20.092596,48.5177659]},"properties":{"id":"water:378a6c4e-4722-46ad-a176-045f297a5bd0","kind":"water","longitude":20.092596,"latitude":48.5177659,"name":"Ivókút","city":"Rimavska Sobota","address":null,"covered":null,"access":null,"website":null,"phone":null,"source":"OpenStreetMap/node/4976129136","sourceUpdatedAt":null,"verifiedAt":null}}]}