{"type":"FeatureCollection","features":[{"type":"Feature","geometry":{"type":"Point","coordinates":[20.0832415,45.9296831]},"properties":{"id":"water:12318d3a-c82d-46a9-81b7-045bcada3e7f","kind":"water","longitude":20.0832415,"latitude":45.9296831,"name":"Ivókút","city":"Senta","address":null,"covered":null,"access":null,"website":null,"phone":null,"source":"OpenStreetMap/node/6565551494","sourceUpdatedAt":null,"verifiedAt":null}},{"type":"Feature","geometry":{"type":"Point","coordinates":[20.0861955,45.9383342]},"properties":{"id":"water:364248d4-01b5-4763-ad38-4e77d0525498","kind":"water","longitude":20.0861955,"latitude":45.9383342,"name":"Ivókút","city":"Senta","address":null,"covered":null,"access":null,"website":null,"phone":null,"source":"OpenStreetMap/node/6565494446","sourceUpdatedAt":null,"verifiedAt":null}},{"type":"Feature","geometry":{"type":"Point","coordinates":[20.0956467,45.9334141]},"properties":{"id":"water:45c813ff-4f3e-465c-825a-5bdef01d5587","kind":"water","longitude":20.0956467,"latitude":45.9334141,"name":"Ivókút","city":"Senta","address":null,"covered":null,"access":null,"website":null,"phone":null,"source":"OpenStreetMap/node/6565487683","sourceUpdatedAt":null,"verifiedAt":null}},{"type":"Feature","geometry":{"type":"Point","coordinates":[20.0880797,45.9327101]},"properties":{"id":"water:b29e2d62-d387-47f7-a352-fbb5e91457c8","kind":"water","longitude":20.0880797,"latitude":45.9327101,"name":"Ivókút","city":"Senta","address":null,"covered":null,"access":null,"website":null,"phone":null,"source":"OpenStreetMap/node/6565474111","sourceUpdatedAt":null,"verifiedAt":null}},{"type":"Feature","geometry":{"type":"Point","coordinates":[20.0905334,45.9315916]},"properties":{"id":"water:ef720d12-8950-4bb5-8f3f-c6c8497f97be","kind":"water","longitude":20.0905334,"latitude":45.9315916,"name":"Ivókút","city":"Senta","address":null,"covered":null,"access":null,"website":null,"phone":null,"source":"OpenStreetMap/node/6565538221","sourceUpdatedAt":null,"verifiedAt":null}}]}