{"type":"FeatureCollection","features":[{"type":"Feature","geometry":{"type":"Point","coordinates":[18.3234921,49.4149348]},"properties":{"id":"bikerack:21f6748c-8069-43f9-8480-f71c92dc455f","kind":"bikerack","longitude":18.3234921,"latitude":49.4149348,"name":"Bicycle Parking","city":"Horni Becva","address":null,"covered":false,"access":null,"website":null,"phone":null,"source":"OpenStreetMap/node/3817851997","sourceUpdatedAt":null,"verifiedAt":null}},{"type":"Feature","geometry":{"type":"Point","coordinates":[18.3239479,49.414619]},"properties":{"id":"bikerack:7acf1152-9ad8-4475-a04a-eb41a93d93a0","kind":"bikerack","longitude":18.3239479,"latitude":49.414619,"name":"Bicycle Parking","city":"Horni Becva","address":null,"covered":false,"access":null,"website":null,"phone":null,"source":"OpenStreetMap/node/3817851887","sourceUpdatedAt":null,"verifiedAt":null}}]}