{"type":"FeatureCollection","features":[{"type":"Feature","geometry":{"type":"Point","coordinates":[18.3032239,48.2398325]},"properties":{"id":"bikerack:005d392a-bbe7-4b56-9bda-875eef67f1bc","kind":"bikerack","longitude":18.3032239,"latitude":48.2398325,"name":"Biciklitároló","city":"Vrable","address":null,"covered":false,"access":null,"website":null,"phone":null,"source":"OpenStreetMap/node/10291447450","sourceUpdatedAt":null,"verifiedAt":null}},{"type":"Feature","geometry":{"type":"Point","coordinates":[18.3035573,48.2446888]},"properties":{"id":"bikerack:1b0beda7-9cdf-47bf-8723-95d13c378dd4","kind":"bikerack","longitude":18.3035573,"latitude":48.2446888,"name":"Lidl Vráble","city":"Vrable","address":null,"covered":false,"access":null,"website":null,"phone":null,"source":"OpenStreetMap/node/831712112","sourceUpdatedAt":null,"verifiedAt":null}},{"type":"Feature","geometry":{"type":"Point","coordinates":[18.3032,48.2398488]},"properties":{"id":"bikerack:40c6edd8-7b67-4ffb-b614-89c04d12854d","kind":"bikerack","longitude":18.3032,"latitude":48.2398488,"name":"Biciklitároló","city":"Vrable","address":null,"covered":false,"access":null,"website":null,"phone":null,"source":"OpenStreetMap/node/10291447448","sourceUpdatedAt":null,"verifiedAt":null}},{"type":"Feature","geometry":{"type":"Point","coordinates":[18.303205,48.2398556]},"properties":{"id":"bikerack:5bc7150e-c632-4a01-b7ce-b2b29ea9c583","kind":"bikerack","longitude":18.303205,"latitude":48.2398556,"name":"Biciklitároló","city":"Vrable","address":null,"covered":false,"access":null,"website":null,"phone":null,"source":"OpenStreetMap/node/10291447447","sourceUpdatedAt":null,"verifiedAt":null}},{"type":"Feature","geometry":{"type":"Point","coordinates":[18.3032351,48.2398639]},"properties":{"id":"bikerack:5ff5a476-9eb2-487e-ad19-6913b1a1a393","kind":"bikerack","longitude":18.3032351,"latitude":48.2398639,"name":"Biciklitároló","city":"Vrable","address":null,"covered":false,"access":null,"website":null,"phone":null,"source":"OpenStreetMap/node/10291447446","sourceUpdatedAt":null,"verifiedAt":null}},{"type":"Feature","geometry":{"type":"Point","coordinates":[18.3032242,48.2398539]},"properties":{"id":"bikerack:613d6758-d8a7-461c-860a-ed2d66e4b6e0","kind":"bikerack","longitude":18.3032242,"latitude":48.2398539,"name":"Biciklitároló","city":"Vrable","address":null,"covered":false,"access":null,"website":null,"phone":null,"source":"OpenStreetMap/node/10291447451","sourceUpdatedAt":null,"verifiedAt":null}},{"type":"Feature","geometry":{"type":"Point","coordinates":[18.3032374,48.2398494]},"properties":{"id":"bikerack:b9f04816-38f0-4bed-8800-df5ab86c3461","kind":"bikerack","longitude":18.3032374,"latitude":48.2398494,"name":"Biciklitároló","city":"Vrable","address":null,"covered":false,"access":null,"website":null,"phone":null,"source":"OpenStreetMap/node/10291447449","sourceUpdatedAt":null,"verifiedAt":null}},{"type":"Feature","geometry":{"type":"Point","coordinates":[18.3030614,48.2399225]},"properties":{"id":"bikerack:d7f26f4f-5c33-4505-aad3-f8bfa8627cbf","kind":"bikerack","longitude":18.3030614,"latitude":48.2399225,"name":"Biciklitároló","city":"Vrable","address":null,"covered":false,"access":null,"website":null,"phone":null,"source":"OpenStreetMap/node/10291447439","sourceUpdatedAt":null,"verifiedAt":null}}]}