{"type":"FeatureCollection","features":[{"type":"Feature","geometry":{"type":"Point","coordinates":[21.0563784,52.3265591]},"properties":{"id":"bikerack:4d69fb28-5e50-4235-881f-193c59676c5b","kind":"bikerack","longitude":21.0563784,"latitude":52.3265591,"name":"Biciklitároló","city":"Targowek","address":null,"covered":false,"access":null,"website":null,"phone":null,"source":"OpenStreetMap/way/1307108651","sourceUpdatedAt":null,"verifiedAt":null}},{"type":"Feature","geometry":{"type":"Point","coordinates":[21.066097,52.3267592]},"properties":{"id":"bikerack:65968fe4-557f-45aa-a909-ce26ed632447","kind":"bikerack","longitude":21.066097,"latitude":52.3267592,"name":"Biciklitároló","city":"Targowek","address":null,"covered":false,"access":null,"website":null,"phone":null,"source":"OpenStreetMap/node/8926938945","sourceUpdatedAt":null,"verifiedAt":null}},{"type":"Feature","geometry":{"type":"Point","coordinates":[21.0660839,52.3268148]},"properties":{"id":"bikerack:681a1c6a-7da1-4fad-bdb4-82d812c980f9","kind":"bikerack","longitude":21.0660839,"latitude":52.3268148,"name":"Biciklitároló","city":"Marki","address":null,"covered":false,"access":null,"website":null,"phone":null,"source":"OpenStreetMap/node/8926938943","sourceUpdatedAt":null,"verifiedAt":null}},{"type":"Feature","geometry":{"type":"Point","coordinates":[21.0919306,52.3265291]},"properties":{"id":"bikerack:6a6078d1-f5bf-44b7-a941-14f0d3b15508","kind":"bikerack","longitude":21.0919306,"latitude":52.3265291,"name":"Biciklitároló","city":"Marki","address":null,"covered":false,"access":null,"website":null,"phone":null,"source":"OpenStreetMap/way/1478610404","sourceUpdatedAt":null,"verifiedAt":null}},{"type":"Feature","geometry":{"type":"Point","coordinates":[21.0580441,52.3437857]},"properties":{"id":"bikerack:7054d8d3-b81f-4f9c-8070-ac46d9aee105","kind":"bikerack","longitude":21.0580441,"latitude":52.3437857,"name":"Biciklitároló","city":"Stanislawow Pierwszy","address":null,"covered":true,"access":null,"website":null,"phone":null,"source":"OpenStreetMap/node/13267025143","sourceUpdatedAt":null,"verifiedAt":null}},{"type":"Feature","geometry":{"type":"Point","coordinates":[21.0583545,52.344516]},"properties":{"id":"bikerack:821cc145-8f95-4689-a15e-8e76c8de80ab","kind":"bikerack","longitude":21.0583545,"latitude":52.344516,"name":"Biciklitároló","city":"Stanislawow Pierwszy","address":null,"covered":false,"access":null,"website":null,"phone":null,"source":"OpenStreetMap/node/12064729633","sourceUpdatedAt":null,"verifiedAt":null}},{"type":"Feature","geometry":{"type":"Point","coordinates":[21.0537197,52.3268948]},"properties":{"id":"bikerack:977a8fa0-df92-4665-873b-4dac37cfeec4","kind":"bikerack","longitude":21.0537197,"latitude":52.3268948,"name":"Biciklitároló","city":"Targowek","address":null,"covered":false,"access":null,"website":null,"phone":null,"source":"OpenStreetMap/node/12104950626","sourceUpdatedAt":null,"verifiedAt":null}},{"type":"Feature","geometry":{"type":"Point","coordinates":[21.0682105,52.3239614]},"properties":{"id":"bikerack:a88fab60-b39d-4f9f-ab3b-3e0fd377d6a7","kind":"bikerack","longitude":21.0682105,"latitude":52.3239614,"name":"Biciklitároló","city":"Marki","address":null,"covered":false,"access":null,"website":null,"phone":null,"source":"OpenStreetMap/way/1337710741","sourceUpdatedAt":null,"verifiedAt":null}},{"type":"Feature","geometry":{"type":"Point","coordinates":[21.0923397,52.3259581]},"properties":{"id":"bikerack:b5791cc6-711d-42d5-a274-84e9e974e213","kind":"bikerack","longitude":21.0923397,"latitude":52.3259581,"name":"Biciklitároló","city":"Marki","address":null,"covered":true,"access":null,"website":null,"phone":null,"source":"OpenStreetMap/node/13074888361","sourceUpdatedAt":null,"verifiedAt":null}},{"type":"Feature","geometry":{"type":"Point","coordinates":[21.0659601,52.3268393]},"properties":{"id":"bikerack:be6ab42e-97f2-454b-9f8f-9cdb1faeb426","kind":"bikerack","longitude":21.0659601,"latitude":52.3268393,"name":"Biciklitároló","city":"Targowek","address":null,"covered":false,"access":null,"website":null,"phone":null,"source":"OpenStreetMap/node/8926938944","sourceUpdatedAt":null,"verifiedAt":null}},{"type":"Feature","geometry":{"type":"Point","coordinates":[21.0650299,52.3243795]},"properties":{"id":"bikerack:e30c9aa7-154a-4a43-8560-fe8410988eab","kind":"bikerack","longitude":21.0650299,"latitude":52.3243795,"name":"Biciklitároló","city":"Targowek","address":null,"covered":false,"access":null,"website":null,"phone":null,"source":"OpenStreetMap/node/12373656969","sourceUpdatedAt":null,"verifiedAt":null}},{"type":"Feature","geometry":{"type":"Point","coordinates":[21.0686342,52.3229583]},"properties":{"id":"bikerack:ecf37744-1a56-4fd2-958a-fe093c16d44f","kind":"bikerack","longitude":21.0686342,"latitude":52.3229583,"name":"Biciklitároló","city":"Marki","address":null,"covered":false,"access":null,"website":null,"phone":null,"source":"OpenStreetMap/way/1337710740","sourceUpdatedAt":null,"verifiedAt":null}},{"type":"Feature","geometry":{"type":"Point","coordinates":[21.0535982,52.3242893]},"properties":{"id":"service:bae9be69-6372-44b9-9ab3-c8900f21a740","kind":"service","longitude":21.0535982,"latitude":52.3242893,"name":"Bicikli szervíz","city":"Targowek","address":null,"covered":null,"access":null,"website":null,"phone":null,"source":"OpenStreetMap/node/4398990535","sourceUpdatedAt":null,"verifiedAt":null}}]}