{"type":"FeatureCollection","features":[{"type":"Feature","geometry":{"type":"Point","coordinates":[21.0924395,51.4137404]},"properties":{"id":"bikerack:01ce7a21-1f3e-498a-aa69-b25586a24cba","kind":"bikerack","longitude":21.0924395,"latitude":51.4137404,"name":"Biciklitároló","city":"Radom","address":null,"covered":false,"access":null,"website":null,"phone":null,"source":"OpenStreetMap/node/5288315066","sourceUpdatedAt":null,"verifiedAt":null}},{"type":"Feature","geometry":{"type":"Point","coordinates":[21.0536377,51.4066867]},"properties":{"id":"bikerack:1d88c7e4-805a-4d74-bfa7-223a8b773edc","kind":"bikerack","longitude":21.0536377,"latitude":51.4066867,"name":"Biciklitároló","city":"Zakrzew","address":null,"covered":false,"access":null,"website":null,"phone":null,"source":"OpenStreetMap/node/5795773045","sourceUpdatedAt":null,"verifiedAt":null}},{"type":"Feature","geometry":{"type":"Point","coordinates":[21.0784587,51.4191232]},"properties":{"id":"bikerack:7243e1f0-d967-4c1c-b59e-14d2f16a8233","kind":"bikerack","longitude":21.0784587,"latitude":51.4191232,"name":"Biciklitároló","city":"Radom","address":null,"covered":false,"access":null,"website":null,"phone":null,"source":"OpenStreetMap/node/11978988634","sourceUpdatedAt":null,"verifiedAt":null}},{"type":"Feature","geometry":{"type":"Point","coordinates":[21.0550794,51.4065941]},"properties":{"id":"bikerack:7e70421a-81fc-4905-80b3-6e3113ec9ae9","kind":"bikerack","longitude":21.0550794,"latitude":51.4065941,"name":"Biciklitároló","city":"Zakrzew","address":null,"covered":false,"access":null,"website":null,"phone":null,"source":"OpenStreetMap/node/9216677633","sourceUpdatedAt":null,"verifiedAt":null}},{"type":"Feature","geometry":{"type":"Point","coordinates":[21.0551564,51.4065772]},"properties":{"id":"bikerack:97f58b60-49bf-4b9e-90b0-43f87d6d4789","kind":"bikerack","longitude":21.0551564,"latitude":51.4065772,"name":"Biciklitároló","city":"Zakrzew","address":null,"covered":true,"access":null,"website":null,"phone":null,"source":"OpenStreetMap/node/9216677634","sourceUpdatedAt":null,"verifiedAt":null}},{"type":"Feature","geometry":{"type":"Point","coordinates":[21.0552031,51.4065583]},"properties":{"id":"bikerack:aa2f73e3-0656-437c-b109-7eb6bb5520e1","kind":"bikerack","longitude":21.0552031,"latitude":51.4065583,"name":"Biciklitároló","city":"Zakrzew","address":null,"covered":false,"access":null,"website":null,"phone":null,"source":"OpenStreetMap/node/9216677632","sourceUpdatedAt":null,"verifiedAt":null}},{"type":"Feature","geometry":{"type":"Point","coordinates":[21.0551974,51.4090889]},"properties":{"id":"bikerack:af73ef43-f766-4f24-8076-7cf026cc8564","kind":"bikerack","longitude":21.0551974,"latitude":51.4090889,"name":"Biciklitároló","city":"Zakrzew","address":null,"covered":false,"access":null,"website":null,"phone":null,"source":"OpenStreetMap/node/11697617909","sourceUpdatedAt":null,"verifiedAt":null}},{"type":"Feature","geometry":{"type":"Point","coordinates":[21.0932255,51.4140444]},"properties":{"id":"bikerack:af9c37f1-7de6-404e-96eb-4c617a910507","kind":"bikerack","longitude":21.0932255,"latitude":51.4140444,"name":"Biciklitároló","city":"Radom","address":null,"covered":false,"access":null,"website":null,"phone":null,"source":"OpenStreetMap/node/6960004356","sourceUpdatedAt":null,"verifiedAt":null}},{"type":"Feature","geometry":{"type":"Point","coordinates":[21.0551174,51.4065847]},"properties":{"id":"repair:608fac57-6c24-40c4-bca9-b209293ff8d3","kind":"repair","longitude":21.0551174,"latitude":51.4065847,"name":"Samoobsługowa Stacja Naprawy Rowerów","city":"Zakrzew","address":null,"covered":false,"access":null,"website":null,"phone":null,"source":"OpenStreetMap/node/9216677629","sourceUpdatedAt":null,"verifiedAt":null}}]}