{"type":"FeatureCollection","features":[{"type":"Feature","geometry":{"type":"Point","coordinates":[9.1350795,52.9271618]},"properties":{"id":"bikerack:1a177af1-b3f7-415e-8305-4acd844c2679","kind":"bikerack","longitude":9.1350795,"latitude":52.9271618,"name":"Fahrradabstellplatz","city":"Blender","address":null,"covered":false,"access":null,"website":null,"phone":null,"source":"OpenStreetMap/node/11165503500","sourceUpdatedAt":null,"verifiedAt":null}},{"type":"Feature","geometry":{"type":"Point","coordinates":[9.1278657,52.9229809]},"properties":{"id":"bikerack:2bd940d1-5499-40e9-b004-9db2abb1a47b","kind":"bikerack","longitude":9.1278657,"latitude":52.9229809,"name":"Fahrradabstellplatz","city":"Blender","address":null,"covered":false,"access":null,"website":null,"phone":null,"source":"OpenStreetMap/node/11098284565","sourceUpdatedAt":null,"verifiedAt":null}},{"type":"Feature","geometry":{"type":"Point","coordinates":[9.0976807,52.9143282]},"properties":{"id":"bikerack:37b95876-b159-4589-9482-3b0a6eed6f26","kind":"bikerack","longitude":9.0976807,"latitude":52.9143282,"name":"Fahrradabstellplatz","city":"Blender","address":null,"covered":false,"access":null,"website":null,"phone":null,"source":"OpenStreetMap/node/1408922500","sourceUpdatedAt":null,"verifiedAt":null}},{"type":"Feature","geometry":{"type":"Point","coordinates":[9.1358949,52.9275714]},"properties":{"id":"bikerack:5a0289d3-0359-43cf-ae38-ff5e9842cb38","kind":"bikerack","longitude":9.1358949,"latitude":52.9275714,"name":"Fahrradabstellplatz","city":"Blender","address":null,"covered":false,"access":null,"website":null,"phone":null,"source":"OpenStreetMap/node/1408922667","sourceUpdatedAt":null,"verifiedAt":null}},{"type":"Feature","geometry":{"type":"Point","coordinates":[9.1345642,52.9276495]},"properties":{"id":"bikerack:963c6674-7f90-4dca-8dd5-761d8dda5637","kind":"bikerack","longitude":9.1345642,"latitude":52.9276495,"name":"Fahrradabstellplatz","city":"Blender","address":null,"covered":false,"access":null,"website":null,"phone":null,"source":"OpenStreetMap/node/11169718767","sourceUpdatedAt":null,"verifiedAt":null}},{"type":"Feature","geometry":{"type":"Point","coordinates":[9.1339419,52.927448]},"properties":{"id":"bikerack:9e9a16d2-991d-41f7-bf75-4a5f69070a46","kind":"bikerack","longitude":9.1339419,"latitude":52.927448,"name":"Fahrradabstellplatz","city":"Blender","address":null,"covered":false,"access":null,"website":null,"phone":null,"source":"OpenStreetMap/node/1408922649","sourceUpdatedAt":null,"verifiedAt":null}},{"type":"Feature","geometry":{"type":"Point","coordinates":[9.1293526,52.9226273]},"properties":{"id":"bikerack:b57156eb-c37f-4c46-81d6-a9554eccbb08","kind":"bikerack","longitude":9.1293526,"latitude":52.9226273,"name":"Fahrradabstellplatz","city":"Blender","address":null,"covered":true,"access":null,"website":null,"phone":null,"source":"OpenStreetMap/node/9921850375","sourceUpdatedAt":null,"verifiedAt":null}},{"type":"Feature","geometry":{"type":"Point","coordinates":[9.1316542,52.9245172]},"properties":{"id":"bikerack:c5b81980-36ce-4843-a4f5-b91e8387fb62","kind":"bikerack","longitude":9.1316542,"latitude":52.9245172,"name":"Fahrradabstellplatz","city":"Blender","address":null,"covered":false,"access":null,"website":null,"phone":null,"source":"OpenStreetMap/node/1408922594","sourceUpdatedAt":null,"verifiedAt":null}}]}