{"type":"FeatureCollection","features":[{"type":"Feature","geometry":{"type":"Point","coordinates":[9.1225936,52.0295019]},"properties":{"id":"bikerack:5ca443ff-6a1d-4410-af52-6e3c07998a91","kind":"bikerack","longitude":9.1225936,"latitude":52.0295019,"name":"Fahrradabstellplatz","city":"Barntrup","address":null,"covered":false,"access":null,"website":null,"phone":null,"source":"OpenStreetMap/node/6698482508","sourceUpdatedAt":null,"verifiedAt":null}},{"type":"Feature","geometry":{"type":"Point","coordinates":[9.1226506,52.0294115]},"properties":{"id":"bikerack:ce619cc8-2ae0-4239-8f25-eb62dfda0b6f","kind":"bikerack","longitude":9.1226506,"latitude":52.0294115,"name":"Fahrradabstellplatz","city":"Barntrup","address":null,"covered":false,"access":null,"website":null,"phone":null,"source":"OpenStreetMap/node/6698482509","sourceUpdatedAt":null,"verifiedAt":null}},{"type":"Feature","geometry":{"type":"Point","coordinates":[9.1241967,52.0286137]},"properties":{"id":"bikerack:dfbe9359-6d28-44b9-97a4-95797f30f725","kind":"bikerack","longitude":9.1241967,"latitude":52.0286137,"name":"Fahrradabstellplatz","city":"Barntrup","address":null,"covered":false,"access":null,"website":null,"phone":null,"source":"OpenStreetMap/node/4285644645","sourceUpdatedAt":null,"verifiedAt":null}},{"type":"Feature","geometry":{"type":"Point","coordinates":[9.1360547,52.0344592]},"properties":{"id":"water:b353d229-4d39-4e6f-9849-38d3bc69ff9e","kind":"water","longitude":9.1360547,"latitude":52.0344592,"name":"EL DIMOR - Vollblutaraber zum Reiten","city":"Barntrup","address":null,"covered":null,"access":null,"website":null,"phone":null,"source":"OpenStreetMap/node/4772699915","sourceUpdatedAt":null,"verifiedAt":null}}]}