{"type":"FeatureCollection","features":[{"type":"Feature","geometry":{"type":"Point","coordinates":[9.0978307,48.6083325]},"properties":{"id":"bikerack:a7cf7db5-fcfd-44fa-8da9-0b003bddbd5d","kind":"bikerack","longitude":9.0978307,"latitude":48.6083325,"name":"Fahrradabstellplatz","city":"Dettenhausen","address":null,"covered":false,"access":null,"website":null,"phone":null,"source":"OpenStreetMap/node/4849617215","sourceUpdatedAt":null,"verifiedAt":null}},{"type":"Feature","geometry":{"type":"Point","coordinates":[9.0997262,48.6086501]},"properties":{"id":"bikerack:b472a63f-233f-4383-b354-256be33a4224","kind":"bikerack","longitude":9.0997262,"latitude":48.6086501,"name":"Fahrradabstellplatz","city":"Dettenhausen","address":null,"covered":false,"access":null,"website":null,"phone":null,"source":"OpenStreetMap/node/6166793318","sourceUpdatedAt":null,"verifiedAt":null}}]}