{"type":"FeatureCollection","features":[{"type":"Feature","geometry":{"type":"Point","coordinates":[9.1099727,48.5486655]},"properties":{"id":"bikerack:2cc42fd5-746c-4ca6-b690-93fa7dd058c9","kind":"bikerack","longitude":9.1099727,"latitude":48.5486655,"name":"Fahrradabstellplatz","city":"Kusterdingen","address":null,"covered":false,"access":null,"website":null,"phone":null,"source":"OpenStreetMap/node/12899528373","sourceUpdatedAt":null,"verifiedAt":null}},{"type":"Feature","geometry":{"type":"Point","coordinates":[9.0977164,48.5569643]},"properties":{"id":"bikerack:e89642d7-41bb-4031-bfbf-84c112dbc7e1","kind":"bikerack","longitude":9.0977164,"latitude":48.5569643,"name":"Fahrradabstellplatz","city":"Kusterdingen","address":null,"covered":true,"access":null,"website":null,"phone":null,"source":"OpenStreetMap/node/12648096037","sourceUpdatedAt":null,"verifiedAt":null}},{"type":"Feature","geometry":{"type":"Point","coordinates":[9.1077635,48.5529141]},"properties":{"id":"bikerack:ed06ccef-de63-4e31-8c25-c34ad86d5c85","kind":"bikerack","longitude":9.1077635,"latitude":48.5529141,"name":"Fahrradabstellplatz","city":"Kusterdingen","address":null,"covered":false,"access":null,"website":null,"phone":null,"source":"OpenStreetMap/node/8560834234","sourceUpdatedAt":null,"verifiedAt":null}}]}