{"type":"FeatureCollection","features":[{"type":"Feature","geometry":{"type":"Point","coordinates":[9.1175715,45.588554]},"properties":{"id":"bikerack:18d3f2eb-d35f-4a86-b33c-efc22ccaf4fc","kind":"bikerack","longitude":9.1175715,"latitude":45.588554,"name":"Parcheggio bici","city":"Senago","address":null,"covered":false,"access":null,"website":null,"phone":null,"source":"OpenStreetMap/node/9295891809","sourceUpdatedAt":null,"verifiedAt":null}},{"type":"Feature","geometry":{"type":"Point","coordinates":[9.1295019,45.6089846]},"properties":{"id":"bikerack:26be5c3e-45a2-4ffd-bb23-764c73ebb798","kind":"bikerack","longitude":9.1295019,"latitude":45.6089846,"name":"Parcheggio bici","city":"Limbiate","address":null,"covered":false,"access":null,"website":null,"phone":null,"source":"OpenStreetMap/node/12290528937","sourceUpdatedAt":null,"verifiedAt":null}},{"type":"Feature","geometry":{"type":"Point","coordinates":[9.1330491,45.6046731]},"properties":{"id":"bikerack:468f0ef7-df71-4252-901e-f944f048defb","kind":"bikerack","longitude":9.1330491,"latitude":45.6046731,"name":"Parcheggio bici","city":"Limbiate","address":null,"covered":false,"access":null,"website":null,"phone":null,"source":"OpenStreetMap/node/9492790466","sourceUpdatedAt":null,"verifiedAt":null}},{"type":"Feature","geometry":{"type":"Point","coordinates":[9.1224168,45.6008435]},"properties":{"id":"bikerack:783fea4e-0755-4900-95c9-3cbeb903f16d","kind":"bikerack","longitude":9.1224168,"latitude":45.6008435,"name":"Parcheggio bici","city":"Limbiate","address":null,"covered":false,"access":null,"website":null,"phone":null,"source":"OpenStreetMap/node/10989463348","sourceUpdatedAt":null,"verifiedAt":null}},{"type":"Feature","geometry":{"type":"Point","coordinates":[9.1310706,45.6071365]},"properties":{"id":"bikerack:8ccd659a-5569-4f49-9c91-ec0f92ed6ef1","kind":"bikerack","longitude":9.1310706,"latitude":45.6071365,"name":"Parcheggio bici","city":"Limbiate","address":null,"covered":false,"access":null,"website":null,"phone":null,"source":"OpenStreetMap/node/9806853936","sourceUpdatedAt":null,"verifiedAt":null}},{"type":"Feature","geometry":{"type":"Point","coordinates":[9.1206507,45.5918091]},"properties":{"id":"bikerack:8eec108a-577e-4922-afb1-7689b1aba504","kind":"bikerack","longitude":9.1206507,"latitude":45.5918091,"name":"Parcheggio bici","city":"Limbiate","address":null,"covered":false,"access":null,"website":null,"phone":null,"source":"OpenStreetMap/node/9447836250","sourceUpdatedAt":null,"verifiedAt":null}},{"type":"Feature","geometry":{"type":"Point","coordinates":[9.1329687,45.6045646]},"properties":{"id":"bikerack:e36b0a4a-f138-44bb-b280-de2c806bc628","kind":"bikerack","longitude":9.1329687,"latitude":45.6045646,"name":"Parcheggio bici","city":"Limbiate","address":null,"covered":false,"access":null,"website":null,"phone":null,"source":"OpenStreetMap/node/9492790467","sourceUpdatedAt":null,"verifiedAt":null}},{"type":"Feature","geometry":{"type":"Point","coordinates":[9.1209149,45.603321]},"properties":{"id":"service:55cdc250-7715-4026-a7a6-c59a024fdf6c","kind":"service","longitude":9.1209149,"latitude":45.603321,"name":"Gloriotti Maurizio","city":"Limbiate","address":null,"covered":null,"access":null,"website":null,"phone":null,"source":"OpenStreetMap/node/9283330500","sourceUpdatedAt":null,"verifiedAt":null}},{"type":"Feature","geometry":{"type":"Point","coordinates":[9.1396835,45.5933467]},"properties":{"id":"water:3661ab98-a1e9-41f1-a73a-7667567cd19e","kind":"water","longitude":9.1396835,"latitude":45.5933467,"name":"Fontanella","city":"Limbiate","address":null,"covered":null,"access":null,"website":null,"phone":null,"source":"OpenStreetMap/node/12715607547","sourceUpdatedAt":null,"verifiedAt":null}},{"type":"Feature","geometry":{"type":"Point","coordinates":[9.1202456,45.6002477]},"properties":{"id":"water:4591c15b-9c28-4daf-9e4c-f6366f47c33b","kind":"water","longitude":9.1202456,"latitude":45.6002477,"name":"Fontanella","city":"Limbiate","address":null,"covered":null,"access":null,"website":null,"phone":null,"source":"OpenStreetMap/node/13606402927","sourceUpdatedAt":null,"verifiedAt":null}},{"type":"Feature","geometry":{"type":"Point","coordinates":[9.1213442,45.6072883]},"properties":{"id":"water:55e793e4-23af-44d6-b6bd-1b25542d826e","kind":"water","longitude":9.1213442,"latitude":45.6072883,"name":"Fontanella","city":"Limbiate","address":null,"covered":null,"access":null,"website":null,"phone":null,"source":"OpenStreetMap/node/12467618404","sourceUpdatedAt":null,"verifiedAt":null}},{"type":"Feature","geometry":{"type":"Point","coordinates":[9.1220745,45.6029703]},"properties":{"id":"water:7971845f-f928-472e-9c8a-7d2b4b3b7212","kind":"water","longitude":9.1220745,"latitude":45.6029703,"name":"Fontanella","city":"Limbiate","address":null,"covered":null,"access":null,"website":null,"phone":null,"source":"OpenStreetMap/node/1301164930","sourceUpdatedAt":null,"verifiedAt":null}},{"type":"Feature","geometry":{"type":"Point","coordinates":[9.1261797,45.5943251]},"properties":{"id":"water:81ac5811-0a73-4738-b43a-1f6bfd70b26f","kind":"water","longitude":9.1261797,"latitude":45.5943251,"name":"Fontanella","city":"Limbiate","address":null,"covered":null,"access":null,"website":null,"phone":null,"source":"OpenStreetMap/node/12314127620","sourceUpdatedAt":null,"verifiedAt":null}},{"type":"Feature","geometry":{"type":"Point","coordinates":[9.11907,45.6005822]},"properties":{"id":"water:bfff2351-b628-4c3c-9e03-742798b11cf5","kind":"water","longitude":9.11907,"latitude":45.6005822,"name":"Fontanella","city":"Limbiate","address":null,"covered":null,"access":null,"website":null,"phone":null,"source":"OpenStreetMap/node/10043608769","sourceUpdatedAt":null,"verifiedAt":null}},{"type":"Feature","geometry":{"type":"Point","coordinates":[9.1203137,45.5991258]},"properties":{"id":"water:c937eefa-ea9f-45e7-863b-10271983172c","kind":"water","longitude":9.1203137,"latitude":45.5991258,"name":"Fontanella","city":"Limbiate","address":null,"covered":null,"access":null,"website":null,"phone":null,"source":"OpenStreetMap/node/9300216029","sourceUpdatedAt":null,"verifiedAt":null}},{"type":"Feature","geometry":{"type":"Point","coordinates":[9.1175219,45.5885559]},"properties":{"id":"water:d494fb72-4600-45c8-8bb9-a3bd831991f2","kind":"water","longitude":9.1175219,"latitude":45.5885559,"name":"Fontanella","city":"Senago","address":null,"covered":null,"access":null,"website":null,"phone":null,"source":"OpenStreetMap/node/9233058622","sourceUpdatedAt":null,"verifiedAt":null}},{"type":"Feature","geometry":{"type":"Point","coordinates":[9.1191519,45.5891763]},"properties":{"id":"water:efe61617-ae70-4e7c-acf8-9aa4f7c62f12","kind":"water","longitude":9.1191519,"latitude":45.5891763,"name":"Fontanella","city":"Limbiate","address":null,"covered":null,"access":null,"website":null,"phone":null,"source":"OpenStreetMap/node/9233063294","sourceUpdatedAt":null,"verifiedAt":null}}]}