{"type":"FeatureCollection","features":[{"type":"Feature","geometry":{"type":"Point","coordinates":[9.1119406,45.55267]},"properties":{"id":"bikerack:b243c962-0b75-45c2-a007-4936918b291a","kind":"bikerack","longitude":9.1119406,"latitude":45.55267,"name":"Parcheggio bici","city":"Bollate","address":null,"covered":true,"access":null,"website":null,"phone":null,"source":"OpenStreetMap/node/11163390446","sourceUpdatedAt":null,"verifiedAt":null}},{"type":"Feature","geometry":{"type":"Point","coordinates":[9.1321722,45.5706955]},"properties":{"id":"water:4beb2a67-49bc-47d1-a5a3-68997bda6bba","kind":"water","longitude":9.1321722,"latitude":45.5706955,"name":"Fontanella","city":"Senago","address":null,"covered":null,"access":null,"website":null,"phone":null,"source":"OpenStreetMap/node/13507887955","sourceUpdatedAt":null,"verifiedAt":null}},{"type":"Feature","geometry":{"type":"Point","coordinates":[9.125587,45.5764105]},"properties":{"id":"water:c117ce88-ed6f-4e98-89cc-b44802922017","kind":"water","longitude":9.125587,"latitude":45.5764105,"name":"Fontanella","city":"Senago","address":null,"covered":null,"access":null,"website":null,"phone":null,"source":"OpenStreetMap/node/9806828210","sourceUpdatedAt":null,"verifiedAt":null}},{"type":"Feature","geometry":{"type":"Point","coordinates":[9.1350811,45.5737033]},"properties":{"id":"water:d862c0e9-46e9-4ffc-ab11-ae7df9758e88","kind":"water","longitude":9.1350811,"latitude":45.5737033,"name":"Fontanella","city":"Senago","address":null,"covered":null,"access":null,"website":null,"phone":null,"source":"OpenStreetMap/node/13507887931","sourceUpdatedAt":null,"verifiedAt":null}},{"type":"Feature","geometry":{"type":"Point","coordinates":[9.1316038,45.5705114]},"properties":{"id":"water:dec0e0d2-ea1c-4875-80c3-9ac2f766f0fb","kind":"water","longitude":9.1316038,"latitude":45.5705114,"name":"Fontanella","city":"Senago","address":null,"covered":null,"access":null,"website":null,"phone":null,"source":"OpenStreetMap/node/13481994469","sourceUpdatedAt":null,"verifiedAt":null}}]}