{"type":"FeatureCollection","features":[{"type":"Feature","geometry":{"type":"Point","coordinates":[9.1368697,45.0728701]},"properties":{"id":"bikerack:beb656da-ae50-463d-9f32-c4048f143ff4","kind":"bikerack","longitude":9.1368697,"latitude":45.0728701,"name":"Parcheggio bici","city":"Bressana","address":null,"covered":true,"access":null,"website":null,"phone":null,"source":"OpenStreetMap/way/556505272","sourceUpdatedAt":null,"verifiedAt":null}},{"type":"Feature","geometry":{"type":"Point","coordinates":[9.1032861,45.0716981]},"properties":{"id":"service:d4ecd7c0-d073-4be4-8b90-bfdf6b0da169","kind":"service","longitude":9.1032861,"latitude":45.0716981,"name":"LentiBike","city":"Castelletto Po","address":null,"covered":null,"access":null,"website":null,"phone":null,"source":"OpenStreetMap/node/12276907244","sourceUpdatedAt":null,"verifiedAt":null}},{"type":"Feature","geometry":{"type":"Point","coordinates":[9.1344036,45.0776763]},"properties":{"id":"water:5f80d8e9-3dd6-47c9-8dba-48724b8d6fc8","kind":"water","longitude":9.1344036,"latitude":45.0776763,"name":"Fontanella","city":"Bressana","address":null,"covered":null,"access":null,"website":null,"phone":null,"source":"OpenStreetMap/node/1804126574","sourceUpdatedAt":null,"verifiedAt":null}}]}