{"type":"FeatureCollection","features":[{"type":"Feature","geometry":{"type":"Point","coordinates":[13.7417486,52.4269186]},"properties":{"id":"bikerack:0427df94-8736-4921-806f-70a6f398b734","kind":"bikerack","longitude":13.7417486,"latitude":52.4269186,"name":"Fahrradabstellplatz","city":"Erkner","address":null,"covered":false,"access":null,"website":null,"phone":null,"source":"OpenStreetMap/node/10556413748","sourceUpdatedAt":null,"verifiedAt":null}},{"type":"Feature","geometry":{"type":"Point","coordinates":[13.754847,52.4147096]},"properties":{"id":"bikerack:05b0de96-4ef3-4b96-9619-33674b5a3ba9","kind":"bikerack","longitude":13.754847,"latitude":52.4147096,"name":"Fahrradabstellplatz","city":"Erkner","address":null,"covered":false,"access":null,"website":null,"phone":null,"source":"OpenStreetMap/node/10811152007","sourceUpdatedAt":null,"verifiedAt":null}},{"type":"Feature","geometry":{"type":"Point","coordinates":[13.7518945,52.4243058]},"properties":{"id":"bikerack:07a93357-e9ce-40c1-b012-10f2f567a1dc","kind":"bikerack","longitude":13.7518945,"latitude":52.4243058,"name":"Fahrradabstellplatz","city":"Erkner","address":null,"covered":false,"access":null,"website":null,"phone":null,"source":"OpenStreetMap/node/10556697602","sourceUpdatedAt":null,"verifiedAt":null}},{"type":"Feature","geometry":{"type":"Point","coordinates":[13.7524055,52.4118383]},"properties":{"id":"bikerack:07b37e23-7013-4e4f-95cb-f2bb252aff41","kind":"bikerack","longitude":13.7524055,"latitude":52.4118383,"name":"Fahrradabstellplatz","city":"Erkner","address":null,"covered":false,"access":null,"website":null,"phone":null,"source":"OpenStreetMap/node/10811136941","sourceUpdatedAt":null,"verifiedAt":null}},{"type":"Feature","geometry":{"type":"Point","coordinates":[13.7532501,52.4254253]},"properties":{"id":"bikerack:0a63b585-9ddb-4031-a5a3-088f264ccb77","kind":"bikerack","longitude":13.7532501,"latitude":52.4254253,"name":"Fahrradabstellplatz","city":"Erkner","address":null,"covered":false,"access":null,"website":null,"phone":null,"source":"OpenStreetMap/node/10869877659","sourceUpdatedAt":null,"verifiedAt":null}},{"type":"Feature","geometry":{"type":"Point","coordinates":[13.7529703,52.4203098]},"properties":{"id":"bikerack:0b678ce2-9824-4611-b37f-09153b0589d7","kind":"bikerack","longitude":13.7529703,"latitude":52.4203098,"name":"Fahrradabstellplatz","city":"Erkner","address":null,"covered":false,"access":null,"website":null,"phone":null,"source":"OpenStreetMap/node/10556920668","sourceUpdatedAt":null,"verifiedAt":null}},{"type":"Feature","geometry":{"type":"Point","coordinates":[13.7366836,52.4289448]},"properties":{"id":"bikerack:0d7571ef-c20c-4d00-9627-75de5a2f91e7","kind":"bikerack","longitude":13.7366836,"latitude":52.4289448,"name":"Fahrradabstellplatz","city":"Erkner","address":null,"covered":false,"access":null,"website":null,"phone":null,"source":"OpenStreetMap/node/10556350595","sourceUpdatedAt":null,"verifiedAt":null}},{"type":"Feature","geometry":{"type":"Point","coordinates":[13.7529089,52.4115595]},"properties":{"id":"bikerack:0f1a49cf-299d-4e3f-b46f-e7ff1d99ab42","kind":"bikerack","longitude":13.7529089,"latitude":52.4115595,"name":"Fahrradabstellplatz","city":"Erkner","address":null,"covered":false,"access":null,"website":null,"phone":null,"source":"OpenStreetMap/node/10811136958","sourceUpdatedAt":null,"verifiedAt":null}},{"type":"Feature","geometry":{"type":"Point","coordinates":[13.7371988,52.4281585]},"properties":{"id":"bikerack:10f0270d-68f6-439e-8b84-a576aafe681d","kind":"bikerack","longitude":13.7371988,"latitude":52.4281585,"name":"Fahrradabstellplatz","city":"Erkner","address":null,"covered":false,"access":null,"website":null,"phone":null,"source":"OpenStreetMap/node/12052764587","sourceUpdatedAt":null,"verifiedAt":null}},{"type":"Feature","geometry":{"type":"Point","coordinates":[13.7525625,52.4121289]},"properties":{"id":"bikerack:133850c0-785d-4484-9c19-acab8b794532","kind":"bikerack","longitude":13.7525625,"latitude":52.4121289,"name":"Fahrradabstellplatz","city":"Erkner","address":null,"covered":false,"access":null,"website":null,"phone":null,"source":"OpenStreetMap/node/10811136943","sourceUpdatedAt":null,"verifiedAt":null}},{"type":"Feature","geometry":{"type":"Point","coordinates":[13.7369402,52.4278148]},"properties":{"id":"bikerack:1375536c-1a5c-4e3e-81b3-668cc90e0f59","kind":"bikerack","longitude":13.7369402,"latitude":52.4278148,"name":"Fahrradabstellplatz","city":"Erkner","address":null,"covered":false,"access":null,"website":null,"phone":null,"source":"OpenStreetMap/node/10555157955","sourceUpdatedAt":null,"verifiedAt":null}},{"type":"Feature","geometry":{"type":"Point","coordinates":[13.7530643,52.4221149]},"properties":{"id":"bikerack:17260c8a-b334-44dd-b7f1-9349cabfded9","kind":"bikerack","longitude":13.7530643,"latitude":52.4221149,"name":"Fahrradabstellplatz","city":"Erkner","address":null,"covered":false,"access":null,"website":null,"phone":null,"source":"OpenStreetMap/node/10556722618","sourceUpdatedAt":null,"verifiedAt":null}},{"type":"Feature","geometry":{"type":"Point","coordinates":[13.745244,52.4253176]},"properties":{"id":"bikerack:1e2a35d8-c062-4541-9ef2-45d1216ff9d7","kind":"bikerack","longitude":13.745244,"latitude":52.4253176,"name":"Fahrradabstellplatz","city":"Erkner","address":null,"covered":false,"access":null,"website":null,"phone":null,"source":"OpenStreetMap/way/1132139115","sourceUpdatedAt":null,"verifiedAt":null}},{"type":"Feature","geometry":{"type":"Point","coordinates":[13.737746,52.4275373]},"properties":{"id":"bikerack:206ed734-0536-47c7-977a-b8d385a56b4d","kind":"bikerack","longitude":13.737746,"latitude":52.4275373,"name":"Fahrradabstellplatz","city":"Erkner","address":null,"covered":false,"access":null,"website":null,"phone":null,"source":"OpenStreetMap/node/10555157956","sourceUpdatedAt":null,"verifiedAt":null}},{"type":"Feature","geometry":{"type":"Point","coordinates":[13.7536927,52.4203687]},"properties":{"id":"bikerack:22b98082-fd71-4d9c-86e3-11618125deed","kind":"bikerack","longitude":13.7536927,"latitude":52.4203687,"name":"Fahrradabstellplatz","city":"Erkner","address":null,"covered":false,"access":null,"website":null,"phone":null,"source":"OpenStreetMap/node/10556920666","sourceUpdatedAt":null,"verifiedAt":null}},{"type":"Feature","geometry":{"type":"Point","coordinates":[13.737987,52.4286084]},"properties":{"id":"bikerack:24885c8e-4dcd-4991-8a82-ce70e06b29b5","kind":"bikerack","longitude":13.737987,"latitude":52.4286084,"name":"Fahrradabstellplatz","city":"Erkner","address":null,"covered":false,"access":null,"website":null,"phone":null,"source":"OpenStreetMap/node/10555157952","sourceUpdatedAt":null,"verifiedAt":null}},{"type":"Feature","geometry":{"type":"Point","coordinates":[13.7529835,52.4164239]},"properties":{"id":"bikerack:27aca7c9-59b2-4e16-b0dc-dc1108b587ae","kind":"bikerack","longitude":13.7529835,"latitude":52.4164239,"name":"Fahrradabstellplatz","city":"Erkner","address":null,"covered":false,"access":null,"website":null,"phone":null,"source":"OpenStreetMap/way/1162437427","sourceUpdatedAt":null,"verifiedAt":null}},{"type":"Feature","geometry":{"type":"Point","coordinates":[13.7533883,52.4117474]},"properties":{"id":"bikerack:2d5f6ff2-0ef9-4494-a7c6-3964d3c0842d","kind":"bikerack","longitude":13.7533883,"latitude":52.4117474,"name":"Fahrradabstellplatz","city":"Erkner","address":null,"covered":false,"access":null,"website":null,"phone":null,"source":"OpenStreetMap/node/10811136951","sourceUpdatedAt":null,"verifiedAt":null}},{"type":"Feature","geometry":{"type":"Point","coordinates":[13.7355857,52.4274961]},"properties":{"id":"bikerack:3a07f4a9-328e-4152-977d-260233f8ed89","kind":"bikerack","longitude":13.7355857,"latitude":52.4274961,"name":"Fahrradabstellplatz","city":"Erkner","address":null,"covered":true,"access":null,"website":null,"phone":null,"source":"OpenStreetMap/way/1286472700","sourceUpdatedAt":null,"verifiedAt":null}},{"type":"Feature","geometry":{"type":"Point","coordinates":[13.7372587,52.4287961]},"properties":{"id":"bikerack:4141fce7-2018-4c8b-8175-2aab0b02e7eb","kind":"bikerack","longitude":13.7372587,"latitude":52.4287961,"name":"Fahrradabstellplatz","city":"Erkner","address":null,"covered":false,"access":null,"website":null,"phone":null,"source":"OpenStreetMap/node/10556350597","sourceUpdatedAt":null,"verifiedAt":null}},{"type":"Feature","geometry":{"type":"Point","coordinates":[13.7548752,52.414336]},"properties":{"id":"bikerack:41b8aa02-f5af-48c4-b44a-fdc972843316","kind":"bikerack","longitude":13.7548752,"latitude":52.414336,"name":"Fahrradabstellplatz","city":"Erkner","address":null,"covered":false,"access":null,"website":null,"phone":null,"source":"OpenStreetMap/node/10811136988","sourceUpdatedAt":null,"verifiedAt":null}},{"type":"Feature","geometry":{"type":"Point","coordinates":[13.7410545,52.4276821]},"properties":{"id":"bikerack:425c15c4-fcb2-4be0-a1bb-68f581fa5d4b","kind":"bikerack","longitude":13.7410545,"latitude":52.4276821,"name":"Fahrradabstellplatz","city":"Erkner","address":null,"covered":false,"access":null,"website":null,"phone":null,"source":"OpenStreetMap/node/10556413733","sourceUpdatedAt":null,"verifiedAt":null}},{"type":"Feature","geometry":{"type":"Point","coordinates":[13.7517883,52.4243361]},"properties":{"id":"bikerack:44fb6b32-f952-41dc-b086-208ce380732c","kind":"bikerack","longitude":13.7517883,"latitude":52.4243361,"name":"Fahrradabstellplatz","city":"Erkner","address":null,"covered":false,"access":null,"website":null,"phone":null,"source":"OpenStreetMap/node/10556697601","sourceUpdatedAt":null,"verifiedAt":null}},{"type":"Feature","geometry":{"type":"Point","coordinates":[13.7472834,52.4272346]},"properties":{"id":"bikerack:450f55eb-80f1-4094-a3a6-23ea3fbc3c78","kind":"bikerack","longitude":13.7472834,"latitude":52.4272346,"name":"Fahrradabstellplatz","city":"Erkner","address":null,"covered":false,"access":null,"website":null,"phone":null,"source":"OpenStreetMap/node/10808422941","sourceUpdatedAt":null,"verifiedAt":null}},{"type":"Feature","geometry":{"type":"Point","coordinates":[13.7544596,52.4144186]},"properties":{"id":"bikerack:57c83dc7-6de6-42cf-bc95-87cf4054c4f9","kind":"bikerack","longitude":13.7544596,"latitude":52.4144186,"name":"Fahrradabstellplatz","city":"Erkner","address":null,"covered":false,"access":null,"website":null,"phone":null,"source":"OpenStreetMap/node/10811136989","sourceUpdatedAt":null,"verifiedAt":null}},{"type":"Feature","geometry":{"type":"Point","coordinates":[13.7476971,52.4271703]},"properties":{"id":"bikerack:5ab9ff48-1463-475e-99a2-2969d84e2184","kind":"bikerack","longitude":13.7476971,"latitude":52.4271703,"name":"Fahrradabstellplatz","city":"Erkner","address":null,"covered":false,"access":null,"website":null,"phone":null,"source":"OpenStreetMap/node/10808422943","sourceUpdatedAt":null,"verifiedAt":null}},{"type":"Feature","geometry":{"type":"Point","coordinates":[13.7529346,52.4161853]},"properties":{"id":"bikerack:5eb20ff2-8fae-4756-b5ae-6190a73f03f6","kind":"bikerack","longitude":13.7529346,"latitude":52.4161853,"name":"Fahrradabstellplatz","city":"Erkner","address":null,"covered":false,"access":null,"website":null,"phone":null,"source":"OpenStreetMap/node/10811042514","sourceUpdatedAt":null,"verifiedAt":null}},{"type":"Feature","geometry":{"type":"Point","coordinates":[13.7533879,52.4223042]},"properties":{"id":"bikerack:5f6278ee-4f83-4d55-a810-b6f0d2f3ce69","kind":"bikerack","longitude":13.7533879,"latitude":52.4223042,"name":"Fahrradabstellplatz","city":"Erkner","address":null,"covered":false,"access":null,"website":null,"phone":null,"source":"OpenStreetMap/node/10572030083","sourceUpdatedAt":null,"verifiedAt":null}},{"type":"Feature","geometry":{"type":"Point","coordinates":[13.7534536,52.411877]},"properties":{"id":"bikerack:62ee1dfb-b971-44e2-ba43-ef439d855530","kind":"bikerack","longitude":13.7534536,"latitude":52.411877,"name":"Fahrradabstellplatz","city":"Erkner","address":null,"covered":false,"access":null,"website":null,"phone":null,"source":"OpenStreetMap/node/10811136950","sourceUpdatedAt":null,"verifiedAt":null}},{"type":"Feature","geometry":{"type":"Point","coordinates":[13.7547779,52.4145806]},"properties":{"id":"bikerack:632b57ef-0c5f-4747-b3f2-d6792d2a5853","kind":"bikerack","longitude":13.7547779,"latitude":52.4145806,"name":"Fahrradabstellplatz","city":"Erkner","address":null,"covered":false,"access":null,"website":null,"phone":null,"source":"OpenStreetMap/node/10811152006","sourceUpdatedAt":null,"verifiedAt":null}},{"type":"Feature","geometry":{"type":"Point","coordinates":[13.7474855,52.4272043]},"properties":{"id":"bikerack:661cc636-7e9a-4d6a-b50d-d054bd8dc538","kind":"bikerack","longitude":13.7474855,"latitude":52.4272043,"name":"Fahrradabstellplatz","city":"Erkner","address":null,"covered":false,"access":null,"website":null,"phone":null,"source":"OpenStreetMap/node/10808422942","sourceUpdatedAt":null,"verifiedAt":null}},{"type":"Feature","geometry":{"type":"Point","coordinates":[13.7402613,52.4281203]},"properties":{"id":"bikerack:6b454546-029a-42e7-bcd2-741c95629e29","kind":"bikerack","longitude":13.7402613,"latitude":52.4281203,"name":"Fahrradabstellplatz","city":"Erkner","address":null,"covered":false,"access":null,"website":null,"phone":null,"source":"OpenStreetMap/node/10556350607","sourceUpdatedAt":null,"verifiedAt":null}},{"type":"Feature","geometry":{"type":"Point","coordinates":[13.7393491,52.4282748]},"properties":{"id":"bikerack:6bd37813-9ee5-4328-9a8c-5913bb06d126","kind":"bikerack","longitude":13.7393491,"latitude":52.4282748,"name":"Fahrradabstellplatz","city":"Erkner","address":null,"covered":false,"access":null,"website":null,"phone":null,"source":"OpenStreetMap/node/10556350604","sourceUpdatedAt":null,"verifiedAt":null}},{"type":"Feature","geometry":{"type":"Point","coordinates":[13.7365884,52.4278546]},"properties":{"id":"bikerack:758ab889-6961-4f17-9fd7-17fff2063420","kind":"bikerack","longitude":13.7365884,"latitude":52.4278546,"name":"Fahrradabstellplatz","city":"Erkner","address":null,"covered":false,"access":null,"website":null,"phone":null,"source":"OpenStreetMap/node/10951461417","sourceUpdatedAt":null,"verifiedAt":null}},{"type":"Feature","geometry":{"type":"Point","coordinates":[13.7520238,52.4122528]},"properties":{"id":"bikerack:7c675261-88c0-4266-9eaf-5065e21f3b4e","kind":"bikerack","longitude":13.7520238,"latitude":52.4122528,"name":"Fahrradabstellplatz","city":"Erkner","address":null,"covered":true,"access":null,"website":null,"phone":null,"source":"OpenStreetMap/node/10810639799","sourceUpdatedAt":null,"verifiedAt":null}},{"type":"Feature","geometry":{"type":"Point","coordinates":[13.7531234,52.4119836]},"properties":{"id":"bikerack:7ce6f39d-92f2-434b-92e3-25a41b0675cf","kind":"bikerack","longitude":13.7531234,"latitude":52.4119836,"name":"Fahrradabstellplatz","city":"Erkner","address":null,"covered":false,"access":null,"website":null,"phone":null,"source":"OpenStreetMap/node/10811136952","sourceUpdatedAt":null,"verifiedAt":null}},{"type":"Feature","geometry":{"type":"Point","coordinates":[13.7394887,52.4271201]},"properties":{"id":"bikerack:8d18ef4c-2ddb-4739-827f-7cefd1aa5f7d","kind":"bikerack","longitude":13.7394887,"latitude":52.4271201,"name":"Fahrradabstellplatz","city":"Erkner","address":null,"covered":false,"access":null,"website":null,"phone":null,"source":"OpenStreetMap/node/10555157961","sourceUpdatedAt":null,"verifiedAt":null}},{"type":"Feature","geometry":{"type":"Point","coordinates":[13.7527424,52.4229143]},"properties":{"id":"bikerack:8fa05de3-dab6-4a04-9b07-726dc671cf29","kind":"bikerack","longitude":13.7527424,"latitude":52.4229143,"name":"Fahrradabstellplatz","city":"Erkner","address":null,"covered":false,"access":null,"website":null,"phone":null,"source":"OpenStreetMap/node/3786902826","sourceUpdatedAt":null,"verifiedAt":null}},{"type":"Feature","geometry":{"type":"Point","coordinates":[13.7479026,52.4271387]},"properties":{"id":"bikerack:940d00ea-b4b8-48ee-ba09-f1cf13d24131","kind":"bikerack","longitude":13.7479026,"latitude":52.4271387,"name":"Fahrradabstellplatz","city":"Erkner","address":null,"covered":false,"access":null,"website":null,"phone":null,"source":"OpenStreetMap/node/10808422944","sourceUpdatedAt":null,"verifiedAt":null}},{"type":"Feature","geometry":{"type":"Point","coordinates":[13.7546639,52.4143751]},"properties":{"id":"bikerack:9932abc9-8e2e-4e6f-a8b5-98e2ccbaa8af","kind":"bikerack","longitude":13.7546639,"latitude":52.4143751,"name":"Fahrradabstellplatz","city":"Erkner","address":null,"covered":false,"access":null,"website":null,"phone":null,"source":"OpenStreetMap/node/10811136987","sourceUpdatedAt":null,"verifiedAt":null}},{"type":"Feature","geometry":{"type":"Point","coordinates":[13.7528152,52.4226635]},"properties":{"id":"bikerack:9d3ac6c6-15ec-4427-bb3e-d37d22e7d12d","kind":"bikerack","longitude":13.7528152,"latitude":52.4226635,"name":"Fahrradabstellplatz","city":"Erkner","address":null,"covered":false,"access":null,"website":null,"phone":null,"source":"OpenStreetMap/node/3786902825","sourceUpdatedAt":null,"verifiedAt":null}},{"type":"Feature","geometry":{"type":"Point","coordinates":[13.7399268,52.4281373]},"properties":{"id":"bikerack:a00a2cbe-762e-43bd-8672-2051bee4cf72","kind":"bikerack","longitude":13.7399268,"latitude":52.4281373,"name":"Fahrradabstellplatz","city":"Erkner","address":null,"covered":false,"access":null,"website":null,"phone":null,"source":"OpenStreetMap/node/10556350605","sourceUpdatedAt":null,"verifiedAt":null}},{"type":"Feature","geometry":{"type":"Point","coordinates":[13.7520898,52.4244388]},"properties":{"id":"bikerack:a7e5b903-6854-41fd-986e-1ec8aff7ea00","kind":"bikerack","longitude":13.7520898,"latitude":52.4244388,"name":"Fahrradabstellplatz","city":"Erkner","address":null,"covered":false,"access":null,"website":null,"phone":null,"source":"OpenStreetMap/node/10556697599","sourceUpdatedAt":null,"verifiedAt":null}},{"type":"Feature","geometry":{"type":"Point","coordinates":[13.7521108,52.4280715]},"properties":{"id":"bikerack:aa0cd392-4e61-4653-adf6-5f0d9050beaf","kind":"bikerack","longitude":13.7521108,"latitude":52.4280715,"name":"Fahrradabstellplatz","city":"Erkner","address":null,"covered":false,"access":null,"website":null,"phone":null,"source":"OpenStreetMap/way/1168595589","sourceUpdatedAt":null,"verifiedAt":null}},{"type":"Feature","geometry":{"type":"Point","coordinates":[13.7530571,52.411854]},"properties":{"id":"bikerack:ad04f661-ea10-4b94-9de6-b2aaaf02b769","kind":"bikerack","longitude":13.7530571,"latitude":52.411854,"name":"Fahrradabstellplatz","city":"Erkner","address":null,"covered":false,"access":null,"website":null,"phone":null,"source":"OpenStreetMap/node/10811136953","sourceUpdatedAt":null,"verifiedAt":null}},{"type":"Feature","geometry":{"type":"Point","coordinates":[13.7524788,52.4119871]},"properties":{"id":"bikerack:b111b7d6-6cef-4672-97d7-f0b9fae2ff01","kind":"bikerack","longitude":13.7524788,"latitude":52.4119871,"name":"Fahrradabstellplatz","city":"Erkner","address":null,"covered":false,"access":null,"website":null,"phone":null,"source":"OpenStreetMap/node/10811136942","sourceUpdatedAt":null,"verifiedAt":null}},{"type":"Feature","geometry":{"type":"Point","coordinates":[13.7532506,52.4114965]},"properties":{"id":"bikerack:b3ca7a14-1cba-4d82-9979-cab255865c15","kind":"bikerack","longitude":13.7532506,"latitude":52.4114965,"name":"Fahrradabstellplatz","city":"Erkner","address":null,"covered":false,"access":null,"website":null,"phone":null,"source":"OpenStreetMap/node/10811136959","sourceUpdatedAt":null,"verifiedAt":null}},{"type":"Feature","geometry":{"type":"Point","coordinates":[13.753322,52.411623]},"properties":{"id":"bikerack:b4bbde81-7288-4e2a-b6d6-151c0aabd808","kind":"bikerack","longitude":13.753322,"latitude":52.411623,"name":"Fahrradabstellplatz","city":"Erkner","address":null,"covered":false,"access":null,"website":null,"phone":null,"source":"OpenStreetMap/node/10811136956","sourceUpdatedAt":null,"verifiedAt":null}},{"type":"Feature","geometry":{"type":"Point","coordinates":[13.7365302,52.4278674]},"properties":{"id":"bikerack:b7982ecf-c513-47ad-b26a-1ccf25f38ec3","kind":"bikerack","longitude":13.7365302,"latitude":52.4278674,"name":"Fahrradabstellplatz","city":"Erkner","address":null,"covered":false,"access":null,"website":null,"phone":null,"source":"OpenStreetMap/node/10951461418","sourceUpdatedAt":null,"verifiedAt":null}},{"type":"Feature","geometry":{"type":"Point","coordinates":[13.740363,52.4280816]},"properties":{"id":"bikerack:b90a3f5a-ba9e-4775-8d41-b7e4f0a9a433","kind":"bikerack","longitude":13.740363,"latitude":52.4280816,"name":"Fahrradabstellplatz","city":"Erkner","address":null,"covered":false,"access":null,"website":null,"phone":null,"source":"OpenStreetMap/node/10556350606","sourceUpdatedAt":null,"verifiedAt":null}},{"type":"Feature","geometry":{"type":"Point","coordinates":[13.7523472,52.4238552]},"properties":{"id":"bikerack:bb3aee68-74cb-49ef-8398-2e315be0ef4f","kind":"bikerack","longitude":13.7523472,"latitude":52.4238552,"name":"Fahrradabstellplatz","city":"Erkner","address":null,"covered":false,"access":null,"website":null,"phone":null,"source":"OpenStreetMap/node/10556722613","sourceUpdatedAt":null,"verifiedAt":null}},{"type":"Feature","geometry":{"type":"Point","coordinates":[13.7523248,52.4116811]},"properties":{"id":"bikerack:bde761f1-dc82-4901-8c95-c047c55b05e4","kind":"bikerack","longitude":13.7523248,"latitude":52.4116811,"name":"Fahrradabstellplatz","city":"Erkner","address":null,"covered":false,"access":null,"website":null,"phone":null,"source":"OpenStreetMap/node/10811136940","sourceUpdatedAt":null,"verifiedAt":null}},{"type":"Feature","geometry":{"type":"Point","coordinates":[13.7406681,52.4279684]},"properties":{"id":"bikerack:c3eec98b-8cd1-4f9d-a557-a5495e6fb1d4","kind":"bikerack","longitude":13.7406681,"latitude":52.4279684,"name":"Fahrradabstellplatz","city":"Erkner","address":null,"covered":false,"access":null,"website":null,"phone":null,"source":"OpenStreetMap/node/10556350608","sourceUpdatedAt":null,"verifiedAt":null}},{"type":"Feature","geometry":{"type":"Point","coordinates":[13.7529962,52.4288172]},"properties":{"id":"bikerack:c5eb8aec-9b91-415e-b60c-951bae8ebfc3","kind":"bikerack","longitude":13.7529962,"latitude":52.4288172,"name":"Fahrradabstellplatz","city":"Erkner","address":null,"covered":true,"access":null,"website":null,"phone":null,"source":"OpenStreetMap/way/24291489","sourceUpdatedAt":null,"verifiedAt":null}},{"type":"Feature","geometry":{"type":"Point","coordinates":[13.7529797,52.4116904]},"properties":{"id":"bikerack:c9adbc33-b5c5-4d1c-a8f1-1c86857adcc5","kind":"bikerack","longitude":13.7529797,"latitude":52.4116904,"name":"Fahrradabstellplatz","city":"Erkner","address":null,"covered":false,"access":null,"website":null,"phone":null,"source":"OpenStreetMap/node/10811136957","sourceUpdatedAt":null,"verifiedAt":null}},{"type":"Feature","geometry":{"type":"Point","coordinates":[13.7386119,52.428465]},"properties":{"id":"bikerack:caf54289-9c2c-46f7-b1ef-520072fa2116","kind":"bikerack","longitude":13.7386119,"latitude":52.428465,"name":"Fahrradabstellplatz","city":"Erkner","address":null,"covered":false,"access":null,"website":null,"phone":null,"source":"OpenStreetMap/node/10555157953","sourceUpdatedAt":null,"verifiedAt":null}},{"type":"Feature","geometry":{"type":"Point","coordinates":[13.7495858,52.4205053]},"properties":{"id":"bikerack:cc1eee8d-8da4-4441-8015-f02a3f1d5386","kind":"bikerack","longitude":13.7495858,"latitude":52.4205053,"name":"Fahrradabstellplatz","city":"Erkner","address":null,"covered":false,"access":null,"website":null,"phone":null,"source":"OpenStreetMap/node/12875230021","sourceUpdatedAt":null,"verifiedAt":null}},{"type":"Feature","geometry":{"type":"Point","coordinates":[13.7517587,52.42768]},"properties":{"id":"bikerack:cd034895-73c8-449f-bc0b-a6ffecb72cf3","kind":"bikerack","longitude":13.7517587,"latitude":52.42768,"name":"Fahrradabstellplatz","city":"Erkner","address":null,"covered":false,"access":null,"website":null,"phone":null,"source":"OpenStreetMap/way/1168595590","sourceUpdatedAt":null,"verifiedAt":null}},{"type":"Feature","geometry":{"type":"Point","coordinates":[13.7501028,52.4275582]},"properties":{"id":"bikerack:cec42366-a6ee-4a31-9a7c-d02f432544b4","kind":"bikerack","longitude":13.7501028,"latitude":52.4275582,"name":"Fahrradabstellplatz","city":"Erkner","address":null,"covered":false,"access":null,"website":null,"phone":null,"source":"OpenStreetMap/node/13371671201","sourceUpdatedAt":null,"verifiedAt":null}},{"type":"Feature","geometry":{"type":"Point","coordinates":[13.7361686,52.4274176]},"properties":{"id":"bikerack:d028e679-e4de-4ef5-b37b-e12991ab454f","kind":"bikerack","longitude":13.7361686,"latitude":52.4274176,"name":"Fahrradabstellplatz","city":"Erkner","address":null,"covered":true,"access":null,"website":null,"phone":null,"source":"OpenStreetMap/way/1381373451","sourceUpdatedAt":null,"verifiedAt":null}},{"type":"Feature","geometry":{"type":"Point","coordinates":[13.7433869,52.428255]},"properties":{"id":"bikerack:d55305dc-04a2-4367-9a30-fc24b25b08be","kind":"bikerack","longitude":13.7433869,"latitude":52.428255,"name":"Fahrradabstellplatz","city":"Erkner","address":null,"covered":false,"access":null,"website":null,"phone":null,"source":"OpenStreetMap/node/11030461019","sourceUpdatedAt":null,"verifiedAt":null}},{"type":"Feature","geometry":{"type":"Point","coordinates":[13.736359,52.429066]},"properties":{"id":"bikerack:d94039df-5069-4376-9cd5-2828c3cf612b","kind":"bikerack","longitude":13.736359,"latitude":52.429066,"name":"Fahrradabstellplatz","city":"Erkner","address":null,"covered":false,"access":null,"website":null,"phone":null,"source":"OpenStreetMap/node/12158203533","sourceUpdatedAt":null,"verifiedAt":null}},{"type":"Feature","geometry":{"type":"Point","coordinates":[13.7277396,52.4274396]},"properties":{"id":"bikerack:d97f2752-5f99-4f69-8264-d7793609fd6a","kind":"bikerack","longitude":13.7277396,"latitude":52.4274396,"name":"Fahrradabstellplatz","city":"Erkner","address":null,"covered":false,"access":null,"website":null,"phone":null,"source":"OpenStreetMap/node/10555094132","sourceUpdatedAt":null,"verifiedAt":null}},{"type":"Feature","geometry":{"type":"Point","coordinates":[13.7481069,52.4271052]},"properties":{"id":"bikerack:dca6f481-bd1a-4416-a374-4ea82d740a7d","kind":"bikerack","longitude":13.7481069,"latitude":52.4271052,"name":"Fahrradabstellplatz","city":"Erkner","address":null,"covered":false,"access":null,"website":null,"phone":null,"source":"OpenStreetMap/node/10808422945","sourceUpdatedAt":null,"verifiedAt":null}},{"type":"Feature","geometry":{"type":"Point","coordinates":[13.751795,52.4273393]},"properties":{"id":"bikerack:de0fe91e-e4de-4531-8cfc-65b36ae5b253","kind":"bikerack","longitude":13.751795,"latitude":52.4273393,"name":"Fahrradabstellplatz","city":"Erkner","address":null,"covered":false,"access":null,"website":null,"phone":null,"source":"OpenStreetMap/way/1168595591","sourceUpdatedAt":null,"verifiedAt":null}},{"type":"Feature","geometry":{"type":"Point","coordinates":[13.7447823,52.4288427]},"properties":{"id":"bikerack:e603ee9d-e77d-4725-be5a-4b89347c6e56","kind":"bikerack","longitude":13.7447823,"latitude":52.4288427,"name":"Fahrradabstellplatz","city":"Erkner","address":null,"covered":false,"access":null,"website":null,"phone":null,"source":"OpenStreetMap/node/10808422925","sourceUpdatedAt":null,"verifiedAt":null}},{"type":"Feature","geometry":{"type":"Point","coordinates":[13.7434988,52.4251723]},"properties":{"id":"bikerack:f2587d17-41db-4b90-a316-c17b9b3d800a","kind":"bikerack","longitude":13.7434988,"latitude":52.4251723,"name":"Fahrradabstellplatz","city":"Erkner","address":null,"covered":false,"access":null,"website":null,"phone":null,"source":"OpenStreetMap/node/10556416214","sourceUpdatedAt":null,"verifiedAt":null}},{"type":"Feature","geometry":{"type":"Point","coordinates":[13.7539499,52.4164317]},"properties":{"id":"bikerack:f8a7789a-b505-49a6-b990-61820a9fc838","kind":"bikerack","longitude":13.7539499,"latitude":52.4164317,"name":"Fahrradabstellplatz","city":"Erkner","address":null,"covered":false,"access":null,"website":null,"phone":null,"source":"OpenStreetMap/way/1306625999","sourceUpdatedAt":null,"verifiedAt":null}},{"type":"Feature","geometry":{"type":"Point","coordinates":[13.7360635,52.4279437]},"properties":{"id":"bikerack:feae4b40-1464-4094-b8ea-a388d7ead0bf","kind":"bikerack","longitude":13.7360635,"latitude":52.4279437,"name":"Fahrradabstellplatz","city":"Erkner","address":null,"covered":false,"access":null,"website":null,"phone":null,"source":"OpenStreetMap/node/10555157954","sourceUpdatedAt":null,"verifiedAt":null}},{"type":"Feature","geometry":{"type":"Point","coordinates":[13.7520815,52.4244477]},"properties":{"id":"repair:89815c60-acb5-4ad5-ac20-7a6d282a4261","kind":"repair","longitude":13.7520815,"latitude":52.4244477,"name":"Fahrradreparaturstation","city":"Erkner","address":null,"covered":false,"access":null,"website":null,"phone":null,"source":"OpenStreetMap/node/13116946536","sourceUpdatedAt":null,"verifiedAt":null}},{"type":"Feature","geometry":{"type":"Point","coordinates":[13.7534798,52.4224429]},"properties":{"id":"service:0f89c9ae-7d5e-4952-8b6a-ebc075c1f185","kind":"service","longitude":13.7534798,"latitude":52.4224429,"name":"RIKE","city":"Erkner","address":null,"covered":null,"access":null,"website":null,"phone":null,"source":"OpenStreetMap/node/757325918","sourceUpdatedAt":null,"verifiedAt":null}}]}