{"type":"FeatureCollection","features":[{"type":"Feature","geometry":{"type":"Point","coordinates":[13.7517791,46.3807104]},"properties":{"id":"bikerack:e5f656ed-8210-4f9b-9c5d-6698e8d152fa","kind":"bikerack","longitude":13.7517791,"latitude":46.3807104,"name":"Biciklitároló","city":"Kranjska Gora","address":null,"covered":false,"access":null,"website":null,"phone":null,"source":"OpenStreetMap/node/11149562894","sourceUpdatedAt":null,"verifiedAt":null}},{"type":"Feature","geometry":{"type":"Point","coordinates":[13.7547469,46.4075216]},"properties":{"id":"water:1b283717-688c-4a01-99bf-9c64eba60ae6","kind":"water","longitude":13.7547469,"latitude":46.4075216,"name":"Cev ob cestarski bajti","city":"Kranjska Gora","address":null,"covered":null,"access":null,"website":null,"phone":null,"source":"OpenStreetMap/node/1396212927","sourceUpdatedAt":null,"verifiedAt":null}},{"type":"Feature","geometry":{"type":"Point","coordinates":[13.7208718,46.379406]},"properties":{"id":"water:22cc0950-7b48-45aa-84ba-34a8f245b988","kind":"water","longitude":13.7208718,"latitude":46.379406,"name":"Ivókút","city":"Kranjska Gora","address":null,"covered":null,"access":null,"website":null,"phone":null,"source":"OpenStreetMap/node/6751028720","sourceUpdatedAt":null,"verifiedAt":null}},{"type":"Feature","geometry":{"type":"Point","coordinates":[13.7515221,46.3808823]},"properties":{"id":"water:8ca3699d-6cec-4efc-a1e3-ed5483fc7c2c","kind":"water","longitude":13.7515221,"latitude":46.3808823,"name":"Ivókút","city":"Kranjska Gora","address":null,"covered":null,"access":null,"website":null,"phone":null,"source":"OpenStreetMap/node/7661188327","sourceUpdatedAt":null,"verifiedAt":null}},{"type":"Feature","geometry":{"type":"Point","coordinates":[13.7429884,46.4025262]},"properties":{"id":"water:a1f45c52-ab70-4973-8c8a-f3a51f4b4bb9","kind":"water","longitude":13.7429884,"latitude":46.4025262,"name":"Well","city":"Kranjska Gora","address":null,"covered":null,"access":null,"website":null,"phone":null,"source":"OpenStreetMap/node/7746301592","sourceUpdatedAt":null,"verifiedAt":null}},{"type":"Feature","geometry":{"type":"Point","coordinates":[13.7443501,46.4028937]},"properties":{"id":"water:c51b5f3d-5704-4f3c-a539-9208ecc7b6cb","kind":"water","longitude":13.7443501,"latitude":46.4028937,"name":"Well","city":"Kranjska Gora","address":null,"covered":null,"access":null,"website":null,"phone":null,"source":"OpenStreetMap/node/7746300814","sourceUpdatedAt":null,"verifiedAt":null}},{"type":"Feature","geometry":{"type":"Point","coordinates":[13.7514617,46.3807158]},"properties":{"id":"water:dbac75c0-fb1b-42c5-b201-3db90f53b56c","kind":"water","longitude":13.7514617,"latitude":46.3807158,"name":"Pipa na trgu v Trenti","city":"Kranjska Gora","address":null,"covered":null,"access":null,"website":null,"phone":null,"source":"OpenStreetMap/node/1396212926","sourceUpdatedAt":null,"verifiedAt":null}},{"type":"Feature","geometry":{"type":"Point","coordinates":[13.7372392,46.4058551]},"properties":{"id":"water:f0449a17-7f8f-47f1-8abb-3fd8c2bacbe7","kind":"water","longitude":13.7372392,"latitude":46.4058551,"name":"Ivókút","city":"Kranjska Gora","address":null,"covered":null,"access":null,"website":null,"phone":null,"source":"OpenStreetMap/node/4957676837","sourceUpdatedAt":null,"verifiedAt":null}}]}