{"type":"FeatureCollection","features":[{"type":"Feature","geometry":{"type":"Point","coordinates":[13.7339638,45.8858422]},"properties":{"id":"bikerack:690bc6bb-bcbe-484c-bb09-c08d2e8407de","kind":"bikerack","longitude":13.7339638,"latitude":45.8858422,"name":"Biciklitároló","city":"Prvacina","address":null,"covered":false,"access":null,"website":null,"phone":null,"source":"OpenStreetMap/way/1232948072","sourceUpdatedAt":null,"verifiedAt":null}},{"type":"Feature","geometry":{"type":"Point","coordinates":[13.7224565,45.8877078]},"properties":{"id":"bikerack:f4a15a36-e2b5-4cc1-9d79-a9e2cb0217c7","kind":"bikerack","longitude":13.7224565,"latitude":45.8877078,"name":"Biciklitároló","city":"Prvacina","address":null,"covered":false,"access":null,"website":null,"phone":null,"source":"OpenStreetMap/way/1232948073","sourceUpdatedAt":null,"verifiedAt":null}},{"type":"Feature","geometry":{"type":"Point","coordinates":[13.7444181,45.8881733]},"properties":{"id":"water:3a900c24-c2d6-4a73-9823-ac58d74d40e0","kind":"water","longitude":13.7444181,"latitude":45.8881733,"name":"Ivókút","city":"Prvacina","address":null,"covered":null,"access":null,"website":null,"phone":null,"source":"OpenStreetMap/node/11536763094","sourceUpdatedAt":null,"verifiedAt":null}},{"type":"Feature","geometry":{"type":"Point","coordinates":[13.7279433,45.8850472]},"properties":{"id":"water:df762d84-6de2-4181-a1eb-b71453b27f9a","kind":"water","longitude":13.7279433,"latitude":45.8850472,"name":"Ivókút","city":"Prvacina","address":null,"covered":null,"access":null,"website":null,"phone":null,"source":"OpenStreetMap/node/11141318867","sourceUpdatedAt":null,"verifiedAt":null}},{"type":"Feature","geometry":{"type":"Point","coordinates":[13.7225114,45.8876625]},"properties":{"id":"water:e4757fb7-cbc6-4a75-bdfd-a3c775b216ad","kind":"water","longitude":13.7225114,"latitude":45.8876625,"name":"Ivókút","city":"Prvacina","address":null,"covered":null,"access":null,"website":null,"phone":null,"source":"OpenStreetMap/node/13392791092","sourceUpdatedAt":null,"verifiedAt":null}},{"type":"Feature","geometry":{"type":"Point","coordinates":[13.7471503,45.8881511]},"properties":{"id":"water:fc59c3e6-c12e-4a70-ac4d-68f9cb332992","kind":"water","longitude":13.7471503,"latitude":45.8881511,"name":"Ivókút","city":"Prvacina","address":null,"covered":null,"access":null,"website":null,"phone":null,"source":"OpenStreetMap/node/8951491716","sourceUpdatedAt":null,"verifiedAt":null}}]}