{"type":"FeatureCollection","features":[{"type":"Feature","geometry":{"type":"Point","coordinates":[13.7462206,45.8169107]},"properties":{"id":"water:13dd9ab6-5c92-4f67-8d0c-0d764f8c5414","kind":"water","longitude":13.7462206,"latitude":45.8169107,"name":"Ivókút","city":"Komen","address":null,"covered":null,"access":null,"website":null,"phone":null,"source":"OpenStreetMap/node/12514141500","sourceUpdatedAt":null,"verifiedAt":null}},{"type":"Feature","geometry":{"type":"Point","coordinates":[13.7122416,45.801553]},"properties":{"id":"water:2e1e7f20-b73c-45df-a73b-211184b65cd4","kind":"water","longitude":13.7122416,"latitude":45.801553,"name":"Ivókút","city":"Komen","address":null,"covered":null,"access":null,"website":null,"phone":null,"source":"OpenStreetMap/node/7649763405","sourceUpdatedAt":null,"verifiedAt":null}},{"type":"Feature","geometry":{"type":"Point","coordinates":[13.7473483,45.7983895]},"properties":{"id":"water:6ca6834f-55c3-4f2a-8ca4-2e2b89e0b6eb","kind":"water","longitude":13.7473483,"latitude":45.7983895,"name":"Ivókút","city":"Komen","address":null,"covered":null,"access":null,"website":null,"phone":null,"source":"OpenStreetMap/node/1235340678","sourceUpdatedAt":null,"verifiedAt":null}},{"type":"Feature","geometry":{"type":"Point","coordinates":[13.7123044,45.8020367]},"properties":{"id":"water:e4476efa-fe61-4ed6-81d7-ad8f0675498a","kind":"water","longitude":13.7123044,"latitude":45.8020367,"name":"Ivókút","city":"Komen","address":null,"covered":null,"access":null,"website":null,"phone":null,"source":"OpenStreetMap/node/3617139107","sourceUpdatedAt":null,"verifiedAt":null}}]}