{"type":"FeatureCollection","features":[{"type":"Feature","geometry":{"type":"Point","coordinates":[15.3308362,53.4575451]},"properties":{"id":"bikerack:57f3375e-5e22-46e5-8fef-ece20c4a0656","kind":"bikerack","longitude":15.3308362,"latitude":53.4575451,"name":"Biciklitároló","city":"Chociwel","address":null,"covered":false,"access":null,"website":null,"phone":null,"source":"OpenStreetMap/node/9682230193","sourceUpdatedAt":null,"verifiedAt":null}},{"type":"Feature","geometry":{"type":"Point","coordinates":[15.3351513,53.4595468]},"properties":{"id":"bikerack:b6571669-33bf-408b-815c-e9b5b3417ea6","kind":"bikerack","longitude":15.3351513,"latitude":53.4595468,"name":"Stacja rowerowa Chociwel","city":"Chociwel","address":null,"covered":false,"access":null,"website":null,"phone":null,"source":"OpenStreetMap/way/1323172681","sourceUpdatedAt":null,"verifiedAt":null}},{"type":"Feature","geometry":{"type":"Point","coordinates":[15.3351403,53.459535]},"properties":{"id":"repair:bb01f284-f333-4f24-94b7-df64d10480f0","kind":"repair","longitude":15.3351403,"latitude":53.459535,"name":"Kerékpár szervizállomás","city":"Chociwel","address":null,"covered":false,"access":null,"website":null,"phone":null,"source":"OpenStreetMap/node/12244098879","sourceUpdatedAt":null,"verifiedAt":null}}]}