{"type":"FeatureCollection","features":[{"type":"Feature","geometry":{"type":"Point","coordinates":[15.3066733,52.6717872]},"properties":{"id":"bikerack:6108805b-cb24-4ae0-87aa-a211b938145c","kind":"bikerack","longitude":15.3066733,"latitude":52.6717872,"name":"Biciklitároló","city":"Deszczno","address":null,"covered":false,"access":null,"website":null,"phone":null,"source":"OpenStreetMap/node/11044223381","sourceUpdatedAt":null,"verifiedAt":null}},{"type":"Feature","geometry":{"type":"Point","coordinates":[15.3059488,52.6751879]},"properties":{"id":"bikerack:b0305c70-db34-4e0f-956e-1e25c9fabf08","kind":"bikerack","longitude":15.3059488,"latitude":52.6751879,"name":"Biciklitároló","city":"Deszczno","address":null,"covered":false,"access":null,"website":null,"phone":null,"source":"OpenStreetMap/way/1212016368","sourceUpdatedAt":null,"verifiedAt":null}}]}