{"type":"FeatureCollection","features":[{"type":"Feature","geometry":{"type":"Point","coordinates":[10.0025395,54.6640098]},"properties":{"id":"bikerack:5c8a70ba-092c-422e-aca6-0c444f22993a","kind":"bikerack","longitude":10.0025395,"latitude":54.6640098,"name":"Fahrradabstellplatz","city":"Maasholm","address":null,"covered":false,"access":null,"website":null,"phone":null,"source":"OpenStreetMap/node/12978350731","sourceUpdatedAt":null,"verifiedAt":null}},{"type":"Feature","geometry":{"type":"Point","coordinates":[10.0061529,54.660124]},"properties":{"id":"bikerack:b8ecdd45-4e14-498f-901f-73499809f1fe","kind":"bikerack","longitude":10.0061529,"latitude":54.660124,"name":"Fahrradabstellplatz","city":"Maasholm","address":null,"covered":false,"access":null,"website":null,"phone":null,"source":"OpenStreetMap/node/12945026062","sourceUpdatedAt":null,"verifiedAt":null}},{"type":"Feature","geometry":{"type":"Point","coordinates":[10.0031281,54.6639959]},"properties":{"id":"bikerack:b985bfe2-f16e-4128-a45f-4b5aab4c0081","kind":"bikerack","longitude":10.0031281,"latitude":54.6639959,"name":"Fahrradabstellplatz","city":"Maasholm","address":null,"covered":false,"access":null,"website":null,"phone":null,"source":"OpenStreetMap/node/12978350862","sourceUpdatedAt":null,"verifiedAt":null}},{"type":"Feature","geometry":{"type":"Point","coordinates":[10.0177798,54.6589976]},"properties":{"id":"bikerack:f2637db5-f433-4b5b-9fab-077fc6b0e4a4","kind":"bikerack","longitude":10.0177798,"latitude":54.6589976,"name":"Fahrradabstellplatz","city":"Maasholm","address":null,"covered":false,"access":null,"website":null,"phone":null,"source":"OpenStreetMap/node/13708237957","sourceUpdatedAt":null,"verifiedAt":null}}]}