{"type":"FeatureCollection","features":[{"type":"Feature","geometry":{"type":"Point","coordinates":[9.9788975,52.4030195]},"properties":{"id":"bikerack:115a7e6f-1289-49d1-b442-7be4e508a833","kind":"bikerack","longitude":9.9788975,"latitude":52.4030195,"name":"Fahrradabstellplatz","city":"Lehrte","address":null,"covered":false,"access":null,"website":null,"phone":null,"source":"OpenStreetMap/way/857355667","sourceUpdatedAt":null,"verifiedAt":null}},{"type":"Feature","geometry":{"type":"Point","coordinates":[9.9793253,52.4029847]},"properties":{"id":"bikerack:33f17f38-9b6b-4928-beaa-f1d11e57c555","kind":"bikerack","longitude":9.9793253,"latitude":52.4029847,"name":"Fahrradabstellplatz","city":"Lehrte","address":null,"covered":false,"access":null,"website":null,"phone":null,"source":"OpenStreetMap/way/697451186","sourceUpdatedAt":null,"verifiedAt":null}},{"type":"Feature","geometry":{"type":"Point","coordinates":[9.9788729,52.4029454]},"properties":{"id":"bikerack:936dd0b1-858a-4ed8-b37b-18ce515d24da","kind":"bikerack","longitude":9.9788729,"latitude":52.4029454,"name":"Fahrradabstellplatz","city":"Lehrte","address":null,"covered":true,"access":null,"website":null,"phone":null,"source":"OpenStreetMap/way/857355668","sourceUpdatedAt":null,"verifiedAt":null}},{"type":"Feature","geometry":{"type":"Point","coordinates":[9.9789428,52.4029735]},"properties":{"id":"bikerack:97518ee5-2a6c-4542-9ba3-c5f23b2e0b33","kind":"bikerack","longitude":9.9789428,"latitude":52.4029735,"name":"Fahrradabstellplatz","city":"Lehrte","address":null,"covered":false,"access":null,"website":null,"phone":null,"source":"OpenStreetMap/way/857355669","sourceUpdatedAt":null,"verifiedAt":null}},{"type":"Feature","geometry":{"type":"Point","coordinates":[9.9794112,52.4030256]},"properties":{"id":"bikerack:cb636ff0-03b4-4b32-a5bd-0b5b7d38b0db","kind":"bikerack","longitude":9.9794112,"latitude":52.4030256,"name":"Fahrradabstellplatz","city":"Lehrte","address":null,"covered":true,"access":null,"website":null,"phone":null,"source":"OpenStreetMap/way/697451187","sourceUpdatedAt":null,"verifiedAt":null}}]}