{"type":"FeatureCollection","features":[{"type":"Feature","geometry":{"type":"Point","coordinates":[10.0183806,50.3970717]},"properties":{"id":"repair:07277541-16fe-4375-af73-272bc3df5696","kind":"repair","longitude":10.0183806,"latitude":50.3970717,"name":"Fahrradreparaturstation","city":"Bischofsheim an der Rhon","address":null,"covered":false,"access":null,"website":null,"phone":null,"source":"OpenStreetMap/node/12001382200","sourceUpdatedAt":null,"verifiedAt":null}},{"type":"Feature","geometry":{"type":"Point","coordinates":[9.9918629,50.3933673]},"properties":{"id":"service:84467f85-062e-456a-a3fe-3b60c0f1b934","kind":"service","longitude":9.9918629,"latitude":50.3933673,"name":"Radsport Reder","city":"Bischofsheim an der Rhon","address":null,"covered":null,"access":null,"website":null,"phone":null,"source":"OpenStreetMap/node/6718286777","sourceUpdatedAt":null,"verifiedAt":null}},{"type":"Feature","geometry":{"type":"Point","coordinates":[10.0181706,50.3970726]},"properties":{"id":"water:09adac09-cd16-424f-b7c6-1c742bebf320","kind":"water","longitude":10.0181706,"latitude":50.3970726,"name":"Trinkwasser","city":"Bischofsheim an der Rhon","address":null,"covered":null,"access":null,"website":null,"phone":null,"source":"OpenStreetMap/node/11178710393","sourceUpdatedAt":null,"verifiedAt":null}},{"type":"Feature","geometry":{"type":"Point","coordinates":[10.0076938,50.4010359]},"properties":{"id":"water:f9606db2-ac74-49fb-bc6e-c93634d6f350","kind":"water","longitude":10.0076938,"latitude":50.4010359,"name":"Trinkwasser","city":"Bischofsheim an der Rhon","address":null,"covered":null,"access":null,"website":null,"phone":null,"source":"OpenStreetMap/node/9230306191","sourceUpdatedAt":null,"verifiedAt":null}}]}