{"type":"FeatureCollection","features":[{"type":"Feature","geometry":{"type":"Point","coordinates":[9.9881317,48.3607141]},"properties":{"id":"bikerack:0beada20-08dc-42e7-9ccf-076084f1d4b1","kind":"bikerack","longitude":9.9881317,"latitude":48.3607141,"name":"Fahrradabstellplatz","city":"Ulm","address":null,"covered":false,"access":null,"website":null,"phone":null,"source":"OpenStreetMap/node/5595728960","sourceUpdatedAt":null,"verifiedAt":null}},{"type":"Feature","geometry":{"type":"Point","coordinates":[9.9774307,48.3579672]},"properties":{"id":"bikerack:10ab535e-8cab-4bcd-b88b-e28c7acab633","kind":"bikerack","longitude":9.9774307,"latitude":48.3579672,"name":"Fahrradabstellplatz","city":"Ulm","address":null,"covered":false,"access":null,"website":null,"phone":null,"source":"OpenStreetMap/way/486664506","sourceUpdatedAt":null,"verifiedAt":null}},{"type":"Feature","geometry":{"type":"Point","coordinates":[9.9764496,48.3603267]},"properties":{"id":"bikerack:157e5052-3411-4ec7-ba4e-8ba970f5ac7b","kind":"bikerack","longitude":9.9764496,"latitude":48.3603267,"name":"Fahrradabstellplatz","city":"Ulm","address":null,"covered":false,"access":null,"website":null,"phone":null,"source":"OpenStreetMap/node/4686587903","sourceUpdatedAt":null,"verifiedAt":null}},{"type":"Feature","geometry":{"type":"Point","coordinates":[9.9885694,48.3605121]},"properties":{"id":"bikerack:222c58ed-aedb-40e6-893c-c47c73a93316","kind":"bikerack","longitude":9.9885694,"latitude":48.3605121,"name":"Fahrradabstellplatz","city":"Ulm","address":null,"covered":false,"access":null,"website":null,"phone":null,"source":"OpenStreetMap/node/6324089995","sourceUpdatedAt":null,"verifiedAt":null}},{"type":"Feature","geometry":{"type":"Point","coordinates":[9.9906606,48.3613495]},"properties":{"id":"bikerack:2fada783-10e2-443f-8f3c-a7a8a0350395","kind":"bikerack","longitude":9.9906606,"latitude":48.3613495,"name":"Fahrradabstellplatz","city":"Ulm","address":null,"covered":false,"access":null,"website":null,"phone":null,"source":"OpenStreetMap/node/6324088171","sourceUpdatedAt":null,"verifiedAt":null}},{"type":"Feature","geometry":{"type":"Point","coordinates":[9.9940161,48.3561345]},"properties":{"id":"bikerack:48b4343b-d485-4a43-ac61-fc6bf352d5db","kind":"bikerack","longitude":9.9940161,"latitude":48.3561345,"name":"Fahrradabstellplatz","city":"Neu-Ulm","address":null,"covered":false,"access":null,"website":null,"phone":null,"source":"OpenStreetMap/node/12186875200","sourceUpdatedAt":null,"verifiedAt":null}},{"type":"Feature","geometry":{"type":"Point","coordinates":[9.9763021,48.353399]},"properties":{"id":"bikerack:8042d3c0-061f-465a-831b-703e9fa7d00c","kind":"bikerack","longitude":9.9763021,"latitude":48.353399,"name":"Fahrradabstellplatz","city":"Ulm","address":null,"covered":false,"access":null,"website":null,"phone":null,"source":"OpenStreetMap/node/5052125297","sourceUpdatedAt":null,"verifiedAt":null}},{"type":"Feature","geometry":{"type":"Point","coordinates":[9.9911894,48.3618115]},"properties":{"id":"bikerack:98df1d63-98e3-48c2-ae20-90837d2664ce","kind":"bikerack","longitude":9.9911894,"latitude":48.3618115,"name":"Fahrradabstellplatz","city":"Ulm","address":null,"covered":false,"access":null,"website":null,"phone":null,"source":"OpenStreetMap/node/6320713422","sourceUpdatedAt":null,"verifiedAt":null}},{"type":"Feature","geometry":{"type":"Point","coordinates":[9.9904549,48.3606305]},"properties":{"id":"bikerack:b1825cc9-6add-48d7-97e3-d91d99d6c002","kind":"bikerack","longitude":9.9904549,"latitude":48.3606305,"name":"Fahrradabstellplatz","city":"Ulm","address":null,"covered":false,"access":null,"website":null,"phone":null,"source":"OpenStreetMap/node/6459499458","sourceUpdatedAt":null,"verifiedAt":null}},{"type":"Feature","geometry":{"type":"Point","coordinates":[9.991548,48.3615806]},"properties":{"id":"bikerack:f1142e1f-dd23-49a4-95d9-91f3aa609293","kind":"bikerack","longitude":9.991548,"latitude":48.3615806,"name":"Fahrradabstellplatz","city":"Ulm","address":null,"covered":false,"access":null,"website":null,"phone":null,"source":"OpenStreetMap/node/6324087517","sourceUpdatedAt":null,"verifiedAt":null}},{"type":"Feature","geometry":{"type":"Point","coordinates":[10.0108146,48.3645912]},"properties":{"id":"service:e0631846-276f-4612-9258-dcd771e593a3","kind":"service","longitude":10.0108146,"latitude":48.3645912,"name":"SERVICE4BIKES","city":"Neu-Ulm","address":null,"covered":null,"access":null,"website":null,"phone":null,"source":"OpenStreetMap/node/12720470884","sourceUpdatedAt":null,"verifiedAt":null}}]}