{"type":"FeatureCollection","features":[{"type":"Feature","geometry":{"type":"Point","coordinates":[10.0075101,46.1755835]},"properties":{"id":"water:00c73933-fa16-47e2-842d-ac6b8a0f89a4","kind":"water","longitude":10.0075101,"latitude":46.1755835,"name":"Fontanella","city":"Chiuro","address":null,"covered":null,"access":null,"website":null,"phone":null,"source":"OpenStreetMap/node/4696029385","sourceUpdatedAt":null,"verifiedAt":null}},{"type":"Feature","geometry":{"type":"Point","coordinates":[9.9870663,46.1798903]},"properties":{"id":"water:054ce25b-0c19-49e7-a472-f466585b8b0c","kind":"water","longitude":9.9870663,"latitude":46.1798903,"name":"Fontanella","city":"Ponte in Valtellina","address":null,"covered":null,"access":null,"website":null,"phone":null,"source":"OpenStreetMap/node/6874290991","sourceUpdatedAt":null,"verifiedAt":null}},{"type":"Feature","geometry":{"type":"Point","coordinates":[10.0164817,46.1896027]},"properties":{"id":"water:05fec74d-0d99-4e41-ad5c-164398507c68","kind":"water","longitude":10.0164817,"latitude":46.1896027,"name":"Fontanella","city":"San Giacomo","address":null,"covered":null,"access":null,"website":null,"phone":null,"source":"OpenStreetMap/node/4190446158","sourceUpdatedAt":null,"verifiedAt":null}},{"type":"Feature","geometry":{"type":"Point","coordinates":[10.00968,46.1745072]},"properties":{"id":"water:06996a27-0944-427a-92f2-e362c115e951","kind":"water","longitude":10.00968,"latitude":46.1745072,"name":"Fontanella","city":"San Giacomo","address":null,"covered":null,"access":null,"website":null,"phone":null,"source":"OpenStreetMap/node/4696029384","sourceUpdatedAt":null,"verifiedAt":null}},{"type":"Feature","geometry":{"type":"Point","coordinates":[10.0079634,46.1748155]},"properties":{"id":"water:0aca95c2-f7ac-4dff-9003-06fe9045d42d","kind":"water","longitude":10.0079634,"latitude":46.1748155,"name":"Fontanella","city":"San Giacomo","address":null,"covered":null,"access":null,"website":null,"phone":null,"source":"OpenStreetMap/node/4696029386","sourceUpdatedAt":null,"verifiedAt":null}},{"type":"Feature","geometry":{"type":"Point","coordinates":[9.9793105,46.1715221]},"properties":{"id":"water:1287ead6-25c4-4853-9a0d-41debf34d557","kind":"water","longitude":9.9793105,"latitude":46.1715221,"name":"Fontanella","city":"Ponte in Valtellina","address":null,"covered":null,"access":null,"website":null,"phone":null,"source":"OpenStreetMap/node/9816531856","sourceUpdatedAt":null,"verifiedAt":null}},{"type":"Feature","geometry":{"type":"Point","coordinates":[9.9782561,46.1774476]},"properties":{"id":"water:1bac4daf-192e-4ec1-838e-4c31b035ff9c","kind":"water","longitude":9.9782561,"latitude":46.1774476,"name":"Fontanella","city":"Ponte in Valtellina","address":null,"covered":null,"access":null,"website":null,"phone":null,"source":"OpenStreetMap/node/7938781765","sourceUpdatedAt":null,"verifiedAt":null}},{"type":"Feature","geometry":{"type":"Point","coordinates":[9.9777786,46.177748]},"properties":{"id":"water:1fd56639-3e33-4325-9525-1638a2cd2b32","kind":"water","longitude":9.9777786,"latitude":46.177748,"name":"Fontanella","city":"Ponte in Valtellina","address":null,"covered":null,"access":null,"website":null,"phone":null,"source":"OpenStreetMap/node/7938781764","sourceUpdatedAt":null,"verifiedAt":null}},{"type":"Feature","geometry":{"type":"Point","coordinates":[9.9790225,46.1752811]},"properties":{"id":"water:2b5bf7f0-e704-4774-94a5-e8b5f3c92b9f","kind":"water","longitude":9.9790225,"latitude":46.1752811,"name":"Fontanella","city":"Ponte in Valtellina","address":null,"covered":null,"access":null,"website":null,"phone":null,"source":"OpenStreetMap/node/7938781761","sourceUpdatedAt":null,"verifiedAt":null}},{"type":"Feature","geometry":{"type":"Point","coordinates":[9.9887287,46.1674658]},"properties":{"id":"water:33c66fb4-4605-43d5-be65-64fc0cf387a7","kind":"water","longitude":9.9887287,"latitude":46.1674658,"name":"Fontanella","city":"Chiuro","address":null,"covered":null,"access":null,"website":null,"phone":null,"source":"OpenStreetMap/node/12197611335","sourceUpdatedAt":null,"verifiedAt":null}},{"type":"Feature","geometry":{"type":"Point","coordinates":[9.9783754,46.1755919]},"properties":{"id":"water:3c3c0236-7d8b-4a83-aa31-0f3a81b512b0","kind":"water","longitude":9.9783754,"latitude":46.1755919,"name":"Fontanella","city":"Ponte in Valtellina","address":null,"covered":null,"access":null,"website":null,"phone":null,"source":"OpenStreetMap/node/13368254316","sourceUpdatedAt":null,"verifiedAt":null}},{"type":"Feature","geometry":{"type":"Point","coordinates":[9.9823421,46.1884348]},"properties":{"id":"water:3d82c187-dfd7-4db6-9417-3226504b4710","kind":"water","longitude":9.9823421,"latitude":46.1884348,"name":"Fontanella","city":"Ponte in Valtellina","address":null,"covered":null,"access":null,"website":null,"phone":null,"source":"OpenStreetMap/node/7263095957","sourceUpdatedAt":null,"verifiedAt":null}},{"type":"Feature","geometry":{"type":"Point","coordinates":[10.0086463,46.172671]},"properties":{"id":"water:43ba7136-395d-4347-a3b1-62aaaeed57ec","kind":"water","longitude":10.0086463,"latitude":46.172671,"name":"Fontanella","city":"San Giacomo","address":null,"covered":null,"access":null,"website":null,"phone":null,"source":"OpenStreetMap/node/4696029379","sourceUpdatedAt":null,"verifiedAt":null}},{"type":"Feature","geometry":{"type":"Point","coordinates":[10.0054262,46.1768844]},"properties":{"id":"water:47430b94-2313-41df-9c0c-e29fdaa0b91f","kind":"water","longitude":10.0054262,"latitude":46.1768844,"name":"Fontanella","city":"Chiuro","address":null,"covered":null,"access":null,"website":null,"phone":null,"source":"OpenStreetMap/node/4696029377","sourceUpdatedAt":null,"verifiedAt":null}},{"type":"Feature","geometry":{"type":"Point","coordinates":[9.987713,46.1776988]},"properties":{"id":"water:4c8c412e-7036-446e-8b97-8aa9b733dd3a","kind":"water","longitude":9.987713,"latitude":46.1776988,"name":"Fontanella","city":"Ponte in Valtellina","address":null,"covered":null,"access":null,"website":null,"phone":null,"source":"OpenStreetMap/node/4696029376","sourceUpdatedAt":null,"verifiedAt":null}},{"type":"Feature","geometry":{"type":"Point","coordinates":[9.9857711,46.1776215]},"properties":{"id":"water:4cd54b27-ffe8-4c30-8454-324c07725122","kind":"water","longitude":9.9857711,"latitude":46.1776215,"name":"Fontanella","city":"Ponte in Valtellina","address":null,"covered":null,"access":null,"website":null,"phone":null,"source":"OpenStreetMap/node/6874290996","sourceUpdatedAt":null,"verifiedAt":null}},{"type":"Feature","geometry":{"type":"Point","coordinates":[9.9798777,46.1847663]},"properties":{"id":"water:535176fb-2df1-4dcf-9348-a94a87cc6cc4","kind":"water","longitude":9.9798777,"latitude":46.1847663,"name":"Fontanella","city":"Ponte in Valtellina","address":null,"covered":null,"access":null,"website":null,"phone":null,"source":"OpenStreetMap/node/4210461437","sourceUpdatedAt":null,"verifiedAt":null}},{"type":"Feature","geometry":{"type":"Point","coordinates":[10.0122054,46.1883935]},"properties":{"id":"water:5724bdcb-ab49-47eb-978a-7b5683249903","kind":"water","longitude":10.0122054,"latitude":46.1883935,"name":"Fontanella","city":"San Giacomo","address":null,"covered":null,"access":null,"website":null,"phone":null,"source":"OpenStreetMap/node/4726881180","sourceUpdatedAt":null,"verifiedAt":null}},{"type":"Feature","geometry":{"type":"Point","coordinates":[9.984857,46.1658294]},"properties":{"id":"water:5b80e578-0e3f-4002-af36-6b26b9835d9f","kind":"water","longitude":9.984857,"latitude":46.1658294,"name":"Fontanella","city":"Chiuro","address":null,"covered":null,"access":null,"website":null,"phone":null,"source":"OpenStreetMap/node/10998361184","sourceUpdatedAt":null,"verifiedAt":null}},{"type":"Feature","geometry":{"type":"Point","coordinates":[9.9772204,46.1917591]},"properties":{"id":"water:5ba6c01c-b56d-492c-b62d-005e170ed2e3","kind":"water","longitude":9.9772204,"latitude":46.1917591,"name":"Fontanella","city":"Ponte in Valtellina","address":null,"covered":null,"access":null,"website":null,"phone":null,"source":"OpenStreetMap/node/12787976322","sourceUpdatedAt":null,"verifiedAt":null}},{"type":"Feature","geometry":{"type":"Point","coordinates":[10.0063771,46.1750791]},"properties":{"id":"water:5de55a73-9b06-4963-8c50-f85bbdc57624","kind":"water","longitude":10.0063771,"latitude":46.1750791,"name":"Fontanella","city":"Chiuro","address":null,"covered":null,"access":null,"website":null,"phone":null,"source":"OpenStreetMap/node/4696029383","sourceUpdatedAt":null,"verifiedAt":null}},{"type":"Feature","geometry":{"type":"Point","coordinates":[10.0185013,46.1909369]},"properties":{"id":"water:60e580c4-9749-4cfd-a4d9-a84fbfb32e61","kind":"water","longitude":10.0185013,"latitude":46.1909369,"name":"Fontanella","city":"San Giacomo","address":null,"covered":null,"access":null,"website":null,"phone":null,"source":"OpenStreetMap/node/5043749826","sourceUpdatedAt":null,"verifiedAt":null}},{"type":"Feature","geometry":{"type":"Point","coordinates":[9.9984029,46.1785466]},"properties":{"id":"water:6e60dc13-bb38-4124-a332-5c9e3e98b0a7","kind":"water","longitude":9.9984029,"latitude":46.1785466,"name":"Fontanella","city":"Chiuro","address":null,"covered":null,"access":null,"website":null,"phone":null,"source":"OpenStreetMap/node/4696029381","sourceUpdatedAt":null,"verifiedAt":null}},{"type":"Feature","geometry":{"type":"Point","coordinates":[9.9811207,46.1906128]},"properties":{"id":"water:81ae1b11-926a-48c1-b9c8-d1d955d034d6","kind":"water","longitude":9.9811207,"latitude":46.1906128,"name":"Fontanella","city":"Ponte in Valtellina","address":null,"covered":null,"access":null,"website":null,"phone":null,"source":"OpenStreetMap/node/4210460873","sourceUpdatedAt":null,"verifiedAt":null}},{"type":"Feature","geometry":{"type":"Point","coordinates":[9.9895459,46.1795975]},"properties":{"id":"water:886ad3ba-158d-431a-8462-3854e260a4b7","kind":"water","longitude":9.9895459,"latitude":46.1795975,"name":"Fontanella","city":"Ponte in Valtellina","address":null,"covered":null,"access":null,"website":null,"phone":null,"source":"OpenStreetMap/node/9023365715","sourceUpdatedAt":null,"verifiedAt":null}},{"type":"Feature","geometry":{"type":"Point","coordinates":[9.9808116,46.1757245]},"properties":{"id":"water:89a7a337-d6c0-487e-848d-48d46e9cf0b7","kind":"water","longitude":9.9808116,"latitude":46.1757245,"name":"Fontanella","city":"Ponte in Valtellina","address":null,"covered":null,"access":null,"website":null,"phone":null,"source":"OpenStreetMap/node/4696029374","sourceUpdatedAt":null,"verifiedAt":null}},{"type":"Feature","geometry":{"type":"Point","coordinates":[9.9936017,46.1721797]},"properties":{"id":"water:8d45d408-99d7-4a7f-9d17-2d99342b4d8a","kind":"water","longitude":9.9936017,"latitude":46.1721797,"name":"Fontanella","city":"Chiuro","address":null,"covered":null,"access":null,"website":null,"phone":null,"source":"OpenStreetMap/node/2618819564","sourceUpdatedAt":null,"verifiedAt":null}},{"type":"Feature","geometry":{"type":"Point","coordinates":[10.0173487,46.1882269]},"properties":{"id":"water:9292e344-860b-43d5-adad-f84b612f4348","kind":"water","longitude":10.0173487,"latitude":46.1882269,"name":"Fontanella","city":"San Giacomo","address":null,"covered":null,"access":null,"website":null,"phone":null,"source":"OpenStreetMap/node/4190445309","sourceUpdatedAt":null,"verifiedAt":null}},{"type":"Feature","geometry":{"type":"Point","coordinates":[9.9877708,46.1784445]},"properties":{"id":"water:9d2807f0-8b6b-4351-8c88-c69f9403882e","kind":"water","longitude":9.9877708,"latitude":46.1784445,"name":"Fontanella","city":"Ponte in Valtellina","address":null,"covered":null,"access":null,"website":null,"phone":null,"source":"OpenStreetMap/node/6874290995","sourceUpdatedAt":null,"verifiedAt":null}},{"type":"Feature","geometry":{"type":"Point","coordinates":[9.9786772,46.1786421]},"properties":{"id":"water:9ef64556-8087-4f93-9576-a1786a1d1b11","kind":"water","longitude":9.9786772,"latitude":46.1786421,"name":"Fontanella","city":"Ponte in Valtellina","address":null,"covered":null,"access":null,"website":null,"phone":null,"source":"OpenStreetMap/node/9607482924","sourceUpdatedAt":null,"verifiedAt":null}},{"type":"Feature","geometry":{"type":"Point","coordinates":[9.9773207,46.1766393]},"properties":{"id":"water:a2ac2d29-e0c8-40da-89f7-0156014e17de","kind":"water","longitude":9.9773207,"latitude":46.1766393,"name":"Fontanella","city":"Ponte in Valtellina","address":null,"covered":null,"access":null,"website":null,"phone":null,"source":"OpenStreetMap/node/7938781763","sourceUpdatedAt":null,"verifiedAt":null}},{"type":"Feature","geometry":{"type":"Point","coordinates":[9.9807829,46.1750511]},"properties":{"id":"water:a7d2de93-2cd5-4279-9af8-fabaf945c2bc","kind":"water","longitude":9.9807829,"latitude":46.1750511,"name":"Fontanella","city":"Ponte in Valtellina","address":null,"covered":null,"access":null,"website":null,"phone":null,"source":"OpenStreetMap/node/11822939814","sourceUpdatedAt":null,"verifiedAt":null}},{"type":"Feature","geometry":{"type":"Point","coordinates":[9.9770477,46.1758894]},"properties":{"id":"water:b3500701-3a8d-4118-abd4-73178be33e50","kind":"water","longitude":9.9770477,"latitude":46.1758894,"name":"Fontanella","city":"Ponte in Valtellina","address":null,"covered":null,"access":null,"website":null,"phone":null,"source":"OpenStreetMap/node/7938781762","sourceUpdatedAt":null,"verifiedAt":null}},{"type":"Feature","geometry":{"type":"Point","coordinates":[10.000196,46.1818327]},"properties":{"id":"water:b4fad1ad-a718-454c-b62f-379ef9182c3e","kind":"water","longitude":10.000196,"latitude":46.1818327,"name":"Fontanella","city":"Chiuro","address":null,"covered":null,"access":null,"website":null,"phone":null,"source":"OpenStreetMap/node/4198653228","sourceUpdatedAt":null,"verifiedAt":null}},{"type":"Feature","geometry":{"type":"Point","coordinates":[9.9986148,46.1775846]},"properties":{"id":"water:b6adc761-db9a-45a3-9301-2fff342a4e02","kind":"water","longitude":9.9986148,"latitude":46.1775846,"name":"Fontanella","city":"Chiuro","address":null,"covered":null,"access":null,"website":null,"phone":null,"source":"OpenStreetMap/node/4696029382","sourceUpdatedAt":null,"verifiedAt":null}},{"type":"Feature","geometry":{"type":"Point","coordinates":[10.0066393,46.176337]},"properties":{"id":"water:b7f3dfd3-d064-4cbd-a22b-44e6549fe51d","kind":"water","longitude":10.0066393,"latitude":46.176337,"name":"Fontanella","city":"Chiuro","address":null,"covered":null,"access":null,"website":null,"phone":null,"source":"OpenStreetMap/node/4696029378","sourceUpdatedAt":null,"verifiedAt":null}},{"type":"Feature","geometry":{"type":"Point","coordinates":[9.9934895,46.1841981]},"properties":{"id":"water:ba077d39-d33c-405e-a9be-fd6766837b80","kind":"water","longitude":9.9934895,"latitude":46.1841981,"name":"Fontanella","city":"Ponte in Valtellina","address":null,"covered":null,"access":null,"website":null,"phone":null,"source":"OpenStreetMap/node/13241484745","sourceUpdatedAt":null,"verifiedAt":null}},{"type":"Feature","geometry":{"type":"Point","coordinates":[10.0132948,46.193387]},"properties":{"id":"water:ba6228a8-6697-4aae-a376-8ed6eea399b0","kind":"water","longitude":10.0132948,"latitude":46.193387,"name":"Fontanella","city":"San Giacomo","address":null,"covered":null,"access":null,"website":null,"phone":null,"source":"OpenStreetMap/node/4244833318","sourceUpdatedAt":null,"verifiedAt":null}},{"type":"Feature","geometry":{"type":"Point","coordinates":[9.9933985,46.1698481]},"properties":{"id":"water:bf7796a7-337d-4022-8e0d-4b59c03a3899","kind":"water","longitude":9.9933985,"latitude":46.1698481,"name":"Fontanella","city":"Chiuro","address":null,"covered":null,"access":null,"website":null,"phone":null,"source":"OpenStreetMap/node/6535163485","sourceUpdatedAt":null,"verifiedAt":null}},{"type":"Feature","geometry":{"type":"Point","coordinates":[9.9847106,46.1774423]},"properties":{"id":"water:cdc7feaa-1083-4ca8-b7d7-a1ec706c567f","kind":"water","longitude":9.9847106,"latitude":46.1774423,"name":"Fontanella","city":"Ponte in Valtellina","address":null,"covered":null,"access":null,"website":null,"phone":null,"source":"OpenStreetMap/node/6874290997","sourceUpdatedAt":null,"verifiedAt":null}},{"type":"Feature","geometry":{"type":"Point","coordinates":[10.0145543,46.1873832]},"properties":{"id":"water:d6638fe7-7fd2-436c-87fd-7906a20df4c4","kind":"water","longitude":10.0145543,"latitude":46.1873832,"name":"Fontanella","city":"San Giacomo","address":null,"covered":null,"access":null,"website":null,"phone":null,"source":"OpenStreetMap/node/4719048729","sourceUpdatedAt":null,"verifiedAt":null}},{"type":"Feature","geometry":{"type":"Point","coordinates":[9.9763301,46.192146]},"properties":{"id":"water:db3fe55d-1021-4bf7-8df6-676bad470c46","kind":"water","longitude":9.9763301,"latitude":46.192146,"name":"Fontanella","city":"Ponte in Valtellina","address":null,"covered":null,"access":null,"website":null,"phone":null,"source":"OpenStreetMap/node/3175165714","sourceUpdatedAt":null,"verifiedAt":null}},{"type":"Feature","geometry":{"type":"Point","coordinates":[10.0110545,46.1877837]},"properties":{"id":"water:dcb8a745-0d99-4b69-b701-cf4337fa92cd","kind":"water","longitude":10.0110545,"latitude":46.1877837,"name":"Fontanella","city":"San Giacomo","address":null,"covered":null,"access":null,"website":null,"phone":null,"source":"OpenStreetMap/node/12178538835","sourceUpdatedAt":null,"verifiedAt":null}},{"type":"Feature","geometry":{"type":"Point","coordinates":[9.9896737,46.178776]},"properties":{"id":"water:ee98974c-aea1-4698-8afc-83c973f1fafa","kind":"water","longitude":9.9896737,"latitude":46.178776,"name":"Fontanella","city":"Chiuro","address":null,"covered":null,"access":null,"website":null,"phone":null,"source":"OpenStreetMap/node/4696029375","sourceUpdatedAt":null,"verifiedAt":null}},{"type":"Feature","geometry":{"type":"Point","coordinates":[9.9758458,46.1796665]},"properties":{"id":"water:fe568005-f942-4a2c-bea4-49b5466c8ebd","kind":"water","longitude":9.9758458,"latitude":46.1796665,"name":"Fontanella","city":"Ponte in Valtellina","address":null,"covered":null,"access":null,"website":null,"phone":null,"source":"OpenStreetMap/node/4059739240","sourceUpdatedAt":null,"verifiedAt":null}},{"type":"Feature","geometry":{"type":"Point","coordinates":[9.9840257,46.1924044]},"properties":{"id":"water:ff0126d1-42b0-41eb-9392-381d39e3b2bc","kind":"water","longitude":9.9840257,"latitude":46.1924044,"name":"Fontanella","city":"Ponte in Valtellina","address":null,"covered":null,"access":null,"website":null,"phone":null,"source":"OpenStreetMap/node/13276013670","sourceUpdatedAt":null,"verifiedAt":null}}]}