{"type":"FeatureCollection","features":[{"type":"Feature","geometry":{"type":"Point","coordinates":[20.3786945,50.1138353]},"properties":{"id":"bikerack:12f13568-f278-4d09-b45e-ed69d3f53335","kind":"bikerack","longitude":20.3786945,"latitude":50.1138353,"name":"Biciklitároló","city":"Nowe Brzesko","address":null,"covered":true,"access":null,"website":null,"phone":null,"source":"OpenStreetMap/node/12613605123","sourceUpdatedAt":null,"verifiedAt":null}},{"type":"Feature","geometry":{"type":"Point","coordinates":[20.3835703,50.1175851]},"properties":{"id":"bikerack:85fa954c-e982-43b5-a774-9b3978343052","kind":"bikerack","longitude":20.3835703,"latitude":50.1175851,"name":"Miejsce Obsługi Rowerzystów Ispina","city":"Nowe Brzesko","address":null,"covered":false,"access":null,"website":null,"phone":null,"source":"OpenStreetMap/node/4971880321","sourceUpdatedAt":null,"verifiedAt":null}},{"type":"Feature","geometry":{"type":"Point","coordinates":[20.3834804,50.1175635]},"properties":{"id":"repair:949ce3e7-4bdc-4307-b603-e39aff518c2e","kind":"repair","longitude":20.3834804,"latitude":50.1175635,"name":"Kerékpár szervizállomás","city":"Nowe Brzesko","address":null,"covered":false,"access":null,"website":null,"phone":null,"source":"OpenStreetMap/node/5993178341","sourceUpdatedAt":null,"verifiedAt":null}},{"type":"Feature","geometry":{"type":"Point","coordinates":[20.378726,50.1138611]},"properties":{"id":"repair:eefdba08-ff78-42ca-a1cf-6cbf7b0aabec","kind":"repair","longitude":20.378726,"latitude":50.1138611,"name":"Kerékpár szervizállomás","city":"Nowe Brzesko","address":null,"covered":false,"access":null,"website":null,"phone":null,"source":"OpenStreetMap/node/12613605122","sourceUpdatedAt":null,"verifiedAt":null}}]}