{"type":"FeatureCollection","features":[{"type":"Feature","geometry":{"type":"Point","coordinates":[20.3647545,48.6576281]},"properties":{"id":"bikerack:08e97b14-a51d-400d-8ba4-e5badae5a07e","kind":"bikerack","longitude":20.3647545,"latitude":48.6576281,"name":"Biciklitároló","city":"Dobsina","address":null,"covered":false,"access":null,"website":null,"phone":null,"source":"OpenStreetMap/node/11295783586","sourceUpdatedAt":null,"verifiedAt":null}},{"type":"Feature","geometry":{"type":"Point","coordinates":[20.3649215,48.6575299]},"properties":{"id":"bikerack:4463477b-c575-42e1-b54a-fc036278846b","kind":"bikerack","longitude":20.3649215,"latitude":48.6575299,"name":"Biciklitároló","city":"Dobsina","address":null,"covered":false,"access":null,"website":null,"phone":null,"source":"OpenStreetMap/node/3239394668","sourceUpdatedAt":null,"verifiedAt":null}},{"type":"Feature","geometry":{"type":"Point","coordinates":[20.3646233,48.6586761]},"properties":{"id":"bikerack:c49b00e2-ea04-48c8-a6e3-139f9e2f41ea","kind":"bikerack","longitude":20.3646233,"latitude":48.6586761,"name":"Biciklitároló","city":"Dobsina","address":null,"covered":false,"access":null,"website":null,"phone":null,"source":"OpenStreetMap/node/3224584609","sourceUpdatedAt":null,"verifiedAt":null}}]}