{"type":"FeatureCollection","features":[{"type":"Feature","geometry":{"type":"Point","coordinates":[20.3837525,46.9021202]},"properties":{"id":"bikerack:f55cf906-4ab1-4e9b-89f6-f2c77967e91b","kind":"bikerack","longitude":20.3837525,"latitude":46.9021202,"name":"Biciklitároló","city":"Ocsod","address":null,"covered":false,"access":null,"website":null,"phone":null,"source":"OpenStreetMap/node/9970052158","sourceUpdatedAt":null,"verifiedAt":null}},{"type":"Feature","geometry":{"type":"Point","coordinates":[20.388483,46.895183]},"properties":{"id":"water:0ddbff6b-4343-4816-9a08-4bacbb3c8a2a","kind":"water","longitude":20.388483,"latitude":46.895183,"name":"Ivókút","city":null,"address":null,"covered":null,"access":null,"website":null,"phone":null,"source":"OpenStreetMap","sourceUpdatedAt":null,"verifiedAt":null}},{"type":"Feature","geometry":{"type":"Point","coordinates":[20.377067,46.90985]},"properties":{"id":"water:7435e633-d7a5-4f29-951e-0492746c5934","kind":"water","longitude":20.377067,"latitude":46.90985,"name":"Ivókút","city":null,"address":null,"covered":null,"access":null,"website":null,"phone":null,"source":"OpenStreetMap","sourceUpdatedAt":null,"verifiedAt":null}},{"type":"Feature","geometry":{"type":"Point","coordinates":[20.373467,46.911717]},"properties":{"id":"water:86f87205-a381-4ccc-8996-082f6d039ca1","kind":"water","longitude":20.373467,"latitude":46.911717,"name":"Ivókút","city":null,"address":null,"covered":null,"access":null,"website":null,"phone":null,"source":"OpenStreetMap","sourceUpdatedAt":null,"verifiedAt":null}},{"type":"Feature","geometry":{"type":"Point","coordinates":[20.379667,46.909483]},"properties":{"id":"water:b868dc18-f7b1-4bb9-9eda-cf6398c780bc","kind":"water","longitude":20.379667,"latitude":46.909483,"name":"Ivókút","city":null,"address":null,"covered":null,"access":null,"website":null,"phone":null,"source":"OpenStreetMap","sourceUpdatedAt":null,"verifiedAt":null}},{"type":"Feature","geometry":{"type":"Point","coordinates":[20.386817,46.904117]},"properties":{"id":"water:baba03d9-dc07-40cb-bd76-ad2f219f7be0","kind":"water","longitude":20.386817,"latitude":46.904117,"name":"Ivókút","city":null,"address":null,"covered":null,"access":null,"website":null,"phone":null,"source":"OpenStreetMap","sourceUpdatedAt":null,"verifiedAt":null}},{"type":"Feature","geometry":{"type":"Point","coordinates":[20.382767,46.909033]},"properties":{"id":"water:dd6b691f-1f6b-469b-8a07-902ca2369078","kind":"water","longitude":20.382767,"latitude":46.909033,"name":"Ivókút","city":null,"address":null,"covered":null,"access":null,"website":null,"phone":null,"source":"OpenStreetMap","sourceUpdatedAt":null,"verifiedAt":null}},{"type":"Feature","geometry":{"type":"Point","coordinates":[20.3834283,46.9012738]},"properties":{"id":"water:f82da0c9-2aea-4a09-9981-a6f8ebd710f0","kind":"water","longitude":20.3834283,"latitude":46.9012738,"name":"Ivókút","city":null,"address":null,"covered":null,"access":null,"website":null,"phone":null,"source":"OpenStreetMap","sourceUpdatedAt":null,"verifiedAt":null}}]}