{"type":"FeatureCollection","features":[{"type":"Feature","geometry":{"type":"Point","coordinates":[17.5698117,53.7015158]},"properties":{"id":"bikerack:001e37a7-2071-463f-8e1a-66d76af98ed1","kind":"bikerack","longitude":17.5698117,"latitude":53.7015158,"name":"Biciklitároló","city":"Chojnice","address":null,"covered":false,"access":null,"website":null,"phone":null,"source":"OpenStreetMap/node/13110800815","sourceUpdatedAt":null,"verifiedAt":null}},{"type":"Feature","geometry":{"type":"Point","coordinates":[17.5733127,53.6996178]},"properties":{"id":"bikerack:0426c2a4-5d76-4ad9-b701-75c5e93d88a6","kind":"bikerack","longitude":17.5733127,"latitude":53.6996178,"name":"Biciklitároló","city":"Chojnice","address":null,"covered":false,"access":null,"website":null,"phone":null,"source":"OpenStreetMap/node/8791464757","sourceUpdatedAt":null,"verifiedAt":null}},{"type":"Feature","geometry":{"type":"Point","coordinates":[17.5469231,53.7121962]},"properties":{"id":"bikerack:0fd77646-1f76-4597-803b-5f41960f16f7","kind":"bikerack","longitude":17.5469231,"latitude":53.7121962,"name":"Biciklitároló","city":"Chojnice","address":null,"covered":false,"access":null,"website":null,"phone":null,"source":"OpenStreetMap/node/3160119366","sourceUpdatedAt":null,"verifiedAt":null}},{"type":"Feature","geometry":{"type":"Point","coordinates":[17.5669603,53.7006526]},"properties":{"id":"bikerack:31f0cf9b-3f9a-4e2c-ac07-751c2c88d554","kind":"bikerack","longitude":17.5669603,"latitude":53.7006526,"name":"Biciklitároló","city":"Chojnice","address":null,"covered":false,"access":null,"website":null,"phone":null,"source":"OpenStreetMap/node/13273752930","sourceUpdatedAt":null,"verifiedAt":null}},{"type":"Feature","geometry":{"type":"Point","coordinates":[17.5713723,53.7002243]},"properties":{"id":"bikerack:33d4c043-3ed1-4c7f-b746-9b0ec24f7d92","kind":"bikerack","longitude":17.5713723,"latitude":53.7002243,"name":"Biciklitároló","city":"Chojnice","address":null,"covered":false,"access":null,"website":null,"phone":null,"source":"OpenStreetMap/node/13110749864","sourceUpdatedAt":null,"verifiedAt":null}},{"type":"Feature","geometry":{"type":"Point","coordinates":[17.5725287,53.7014803]},"properties":{"id":"bikerack:62b5df43-83c7-4ca7-b8fc-c8408fdc8dc4","kind":"bikerack","longitude":17.5725287,"latitude":53.7014803,"name":"Biciklitároló","city":"Chojnice","address":null,"covered":false,"access":null,"website":null,"phone":null,"source":"OpenStreetMap/way/1128326242","sourceUpdatedAt":null,"verifiedAt":null}},{"type":"Feature","geometry":{"type":"Point","coordinates":[17.5709361,53.7011863]},"properties":{"id":"bikerack:7dea5e0b-4540-4595-ac60-78dbead166a8","kind":"bikerack","longitude":17.5709361,"latitude":53.7011863,"name":"Biciklitároló","city":"Chojnice","address":null,"covered":false,"access":null,"website":null,"phone":null,"source":"OpenStreetMap/node/13110786034","sourceUpdatedAt":null,"verifiedAt":null}},{"type":"Feature","geometry":{"type":"Point","coordinates":[17.5714541,53.7010117]},"properties":{"id":"bikerack:8557ba08-7d61-4b3e-ac1c-0acb18978a38","kind":"bikerack","longitude":17.5714541,"latitude":53.7010117,"name":"Biciklitároló","city":"Chojnice","address":null,"covered":false,"access":null,"website":null,"phone":null,"source":"OpenStreetMap/node/13110792422","sourceUpdatedAt":null,"verifiedAt":null}},{"type":"Feature","geometry":{"type":"Point","coordinates":[17.5669291,53.7005081]},"properties":{"id":"bikerack:875a9f99-ec84-440d-ae24-70abb1c2a3fb","kind":"bikerack","longitude":17.5669291,"latitude":53.7005081,"name":"Biciklitároló","city":"Chojnice","address":null,"covered":false,"access":null,"website":null,"phone":null,"source":"OpenStreetMap/node/13273752929","sourceUpdatedAt":null,"verifiedAt":null}},{"type":"Feature","geometry":{"type":"Point","coordinates":[17.5699506,53.701486]},"properties":{"id":"bikerack:b9744fdd-cf2f-4ae1-826d-a4628fdbdd8d","kind":"bikerack","longitude":17.5699506,"latitude":53.701486,"name":"Biciklitároló","city":"Chojnice","address":null,"covered":false,"access":null,"website":null,"phone":null,"source":"OpenStreetMap/node/13110779992","sourceUpdatedAt":null,"verifiedAt":null}},{"type":"Feature","geometry":{"type":"Point","coordinates":[17.5701324,53.7014436]},"properties":{"id":"bikerack:ba48f1b9-a159-474b-a96e-f66497bc2f65","kind":"bikerack","longitude":17.5701324,"latitude":53.7014436,"name":"Biciklitároló","city":"Chojnice","address":null,"covered":false,"access":null,"website":null,"phone":null,"source":"OpenStreetMap/node/13110793576","sourceUpdatedAt":null,"verifiedAt":null}},{"type":"Feature","geometry":{"type":"Point","coordinates":[17.5471108,53.7128945]},"properties":{"id":"bikerack:c1e769c0-9f50-4cf7-9c7f-6edb0e897817","kind":"bikerack","longitude":17.5471108,"latitude":53.7128945,"name":"Biciklitároló","city":"Chojnice","address":null,"covered":false,"access":null,"website":null,"phone":null,"source":"OpenStreetMap/node/1549458741","sourceUpdatedAt":null,"verifiedAt":null}},{"type":"Feature","geometry":{"type":"Point","coordinates":[17.5669905,53.7007619]},"properties":{"id":"bikerack:c69c1b5a-cd63-40cb-bd8e-e21448ef0f58","kind":"bikerack","longitude":17.5669905,"latitude":53.7007619,"name":"Biciklitároló","city":"Chojnice","address":null,"covered":false,"access":null,"website":null,"phone":null,"source":"OpenStreetMap/node/13273752938","sourceUpdatedAt":null,"verifiedAt":null}},{"type":"Feature","geometry":{"type":"Point","coordinates":[17.5718237,53.6997116]},"properties":{"id":"bikerack:ce3412ea-a660-4195-ac63-9f8c4ef5ab20","kind":"bikerack","longitude":17.5718237,"latitude":53.6997116,"name":"Biciklitároló","city":"Chojnice","address":null,"covered":false,"access":null,"website":null,"phone":null,"source":"OpenStreetMap/node/13110800813","sourceUpdatedAt":null,"verifiedAt":null}},{"type":"Feature","geometry":{"type":"Point","coordinates":[17.5728091,53.7013585]},"properties":{"id":"bikerack:cee3343e-7743-4105-8efd-e63a59dc31af","kind":"bikerack","longitude":17.5728091,"latitude":53.7013585,"name":"Biciklitároló","city":"Chojnice","address":null,"covered":false,"access":null,"website":null,"phone":null,"source":"OpenStreetMap/way/1128326234","sourceUpdatedAt":null,"verifiedAt":null}},{"type":"Feature","geometry":{"type":"Point","coordinates":[17.5479227,53.7126121]},"properties":{"id":"bikerack:d03a857d-b9b7-4171-b312-4d61ec408e44","kind":"bikerack","longitude":17.5479227,"latitude":53.7126121,"name":"Biciklitároló","city":"Chojnice","address":null,"covered":false,"access":null,"website":null,"phone":null,"source":"OpenStreetMap/node/4126340386","sourceUpdatedAt":null,"verifiedAt":null}},{"type":"Feature","geometry":{"type":"Point","coordinates":[17.5712927,53.701069]},"properties":{"id":"bikerack:ec26204c-0281-4bdd-8203-8c5ae12bda23","kind":"bikerack","longitude":17.5712927,"latitude":53.701069,"name":"Biciklitároló","city":"Chojnice","address":null,"covered":false,"access":null,"website":null,"phone":null,"source":"OpenStreetMap/node/13110766152","sourceUpdatedAt":null,"verifiedAt":null}},{"type":"Feature","geometry":{"type":"Point","coordinates":[17.5669139,53.7004111]},"properties":{"id":"bikerack:fc2e88c6-bece-4879-a37f-61b333e8407f","kind":"bikerack","longitude":17.5669139,"latitude":53.7004111,"name":"Biciklitároló","city":"Chojnice","address":null,"covered":false,"access":null,"website":null,"phone":null,"source":"OpenStreetMap/node/13273752926","sourceUpdatedAt":null,"verifiedAt":null}},{"type":"Feature","geometry":{"type":"Point","coordinates":[17.5731218,53.7058731]},"properties":{"id":"bikerack:fd6974c2-fcfd-4167-a6f4-ca7b18edcf38","kind":"bikerack","longitude":17.5731218,"latitude":53.7058731,"name":"Biciklitároló","city":"Chojnice","address":null,"covered":false,"access":null,"website":null,"phone":null,"source":"OpenStreetMap/node/6572636764","sourceUpdatedAt":null,"verifiedAt":null}}]}