{"type":"FeatureCollection","features":[{"type":"Feature","geometry":{"type":"Point","coordinates":[17.541236,47.696609]},"properties":{"id":"water:46c896bf-869d-4434-b3cf-d1db1674b91c","kind":"water","longitude":17.541236,"latitude":47.696609,"name":"Ivókút","city":null,"address":null,"covered":null,"access":null,"website":null,"phone":null,"source":"OpenStreetMap","sourceUpdatedAt":null,"verifiedAt":null}},{"type":"Feature","geometry":{"type":"Point","coordinates":[17.534638,47.699801]},"properties":{"id":"water:60f0f736-1d94-443c-8e7c-1c6d5d7b203e","kind":"water","longitude":17.534638,"latitude":47.699801,"name":"Ivókút","city":null,"address":null,"covered":null,"access":null,"website":null,"phone":null,"source":"OpenStreetMap","sourceUpdatedAt":null,"verifiedAt":null}},{"type":"Feature","geometry":{"type":"Point","coordinates":[17.5387415,47.6953921]},"properties":{"id":"water:625025a3-33ce-42b5-a087-c94bebf8c55b","kind":"water","longitude":17.5387415,"latitude":47.6953921,"name":"Ivókút","city":null,"address":null,"covered":null,"access":null,"website":null,"phone":null,"source":"OpenStreetMap","sourceUpdatedAt":null,"verifiedAt":null}},{"type":"Feature","geometry":{"type":"Point","coordinates":[17.543235,47.698202]},"properties":{"id":"water:b17e65bf-54c3-4bc5-a82c-6fbc0c8c3d4a","kind":"water","longitude":17.543235,"latitude":47.698202,"name":"Ivókút","city":null,"address":null,"covered":null,"access":null,"website":null,"phone":null,"source":"OpenStreetMap","sourceUpdatedAt":null,"verifiedAt":null}},{"type":"Feature","geometry":{"type":"Point","coordinates":[17.5375541,47.6952721]},"properties":{"id":"water:c02bdec9-b69a-4c60-aca8-b18936cc528c","kind":"water","longitude":17.5375541,"latitude":47.6952721,"name":"Ivókút","city":null,"address":null,"covered":null,"access":null,"website":null,"phone":null,"source":"OpenStreetMap","sourceUpdatedAt":null,"verifiedAt":null}}]}