{"type":"FeatureCollection","features":[{"type":"Feature","geometry":{"type":"Point","coordinates":[14.1706453,46.5887419]},"properties":{"id":"bikerack:0939f269-6233-450d-af8d-c9ae2d5a6c13","kind":"bikerack","longitude":14.1706453,"latitude":46.5887419,"name":"Biciklitároló","city":"Keutschach am See","address":null,"covered":false,"access":null,"website":null,"phone":null,"source":"OpenStreetMap/node/6812169264","sourceUpdatedAt":null,"verifiedAt":null}},{"type":"Feature","geometry":{"type":"Point","coordinates":[14.1717413,46.5846855]},"properties":{"id":"bikerack:44962d68-a68c-4a33-8455-f546d978973e","kind":"bikerack","longitude":14.1717413,"latitude":46.5846855,"name":"Biciklitároló","city":"Keutschach am See","address":null,"covered":false,"access":null,"website":null,"phone":null,"source":"OpenStreetMap/node/1952721635","sourceUpdatedAt":null,"verifiedAt":null}},{"type":"Feature","geometry":{"type":"Point","coordinates":[14.1718995,46.5847608]},"properties":{"id":"water:fce3f47a-db53-4d96-90a5-ab07b839c90e","kind":"water","longitude":14.1718995,"latitude":46.5847608,"name":"Ivókút","city":"Keutschach am See","address":null,"covered":null,"access":null,"website":null,"phone":null,"source":"OpenStreetMap/node/1293105058","sourceUpdatedAt":null,"verifiedAt":null}}]}