{"type":"FeatureCollection","features":[{"type":"Feature","geometry":{"type":"Point","coordinates":[17.2687713,49.5923221]},"properties":{"id":"bikerack:00a423f7-12dd-49fd-96e8-cd835466f701","kind":"bikerack","longitude":17.2687713,"latitude":49.5923221,"name":"Bicycle Parking","city":"Olomouc","address":null,"covered":true,"access":null,"website":null,"phone":null,"source":"OpenStreetMap/node/4860482162","sourceUpdatedAt":null,"verifiedAt":null}},{"type":"Feature","geometry":{"type":"Point","coordinates":[17.2525485,49.5926255]},"properties":{"id":"bikerack:053aef3c-0a27-4ae4-9bbe-5c63eea3f0f6","kind":"bikerack","longitude":17.2525485,"latitude":49.5926255,"name":"Bicycle Parking","city":"Olomouc","address":null,"covered":true,"access":null,"website":null,"phone":null,"source":"OpenStreetMap/node/7599096680","sourceUpdatedAt":null,"verifiedAt":null}},{"type":"Feature","geometry":{"type":"Point","coordinates":[17.25321,49.5893751]},"properties":{"id":"bikerack:095843a3-4781-4b3b-8f73-288399c0a756","kind":"bikerack","longitude":17.25321,"latitude":49.5893751,"name":"Bicycle Parking","city":"Olomouc","address":null,"covered":false,"access":null,"website":null,"phone":null,"source":"OpenStreetMap/node/4644237678","sourceUpdatedAt":null,"verifiedAt":null}},{"type":"Feature","geometry":{"type":"Point","coordinates":[17.2475869,49.5941364]},"properties":{"id":"bikerack:0a3415e1-94e2-48e7-8c20-e9c5f96d485a","kind":"bikerack","longitude":17.2475869,"latitude":49.5941364,"name":"Bicycle Parking","city":"Olomouc","address":null,"covered":false,"access":null,"website":null,"phone":null,"source":"OpenStreetMap/node/5650920760","sourceUpdatedAt":null,"verifiedAt":null}},{"type":"Feature","geometry":{"type":"Point","coordinates":[17.2625533,49.5915417]},"properties":{"id":"bikerack:0ab16761-4f3c-48b4-b8a4-008cb66133a6","kind":"bikerack","longitude":17.2625533,"latitude":49.5915417,"name":"Bicycle Parking","city":"Olomouc","address":null,"covered":true,"access":null,"website":null,"phone":null,"source":"OpenStreetMap/node/11585155818","sourceUpdatedAt":null,"verifiedAt":null}},{"type":"Feature","geometry":{"type":"Point","coordinates":[17.2541945,49.5968076]},"properties":{"id":"bikerack:0db98a12-aaf1-4b69-94a7-05df563d0e28","kind":"bikerack","longitude":17.2541945,"latitude":49.5968076,"name":"Bicycle Parking","city":"Olomouc","address":null,"covered":false,"access":null,"website":null,"phone":null,"source":"OpenStreetMap/node/4741512915","sourceUpdatedAt":null,"verifiedAt":null}},{"type":"Feature","geometry":{"type":"Point","coordinates":[17.2587518,49.5842941]},"properties":{"id":"bikerack:0fa122ce-f677-4806-926c-85268102566b","kind":"bikerack","longitude":17.2587518,"latitude":49.5842941,"name":"Bicycle Parking","city":"Olomouc","address":null,"covered":false,"access":null,"website":null,"phone":null,"source":"OpenStreetMap/node/7599096683","sourceUpdatedAt":null,"verifiedAt":null}},{"type":"Feature","geometry":{"type":"Point","coordinates":[17.270063,49.5886962]},"properties":{"id":"bikerack:161943df-0504-4994-a25b-3f484f014850","kind":"bikerack","longitude":17.270063,"latitude":49.5886962,"name":"Bicycle Parking","city":"Olomouc","address":null,"covered":true,"access":null,"website":null,"phone":null,"source":"OpenStreetMap/node/4620736271","sourceUpdatedAt":null,"verifiedAt":null}},{"type":"Feature","geometry":{"type":"Point","coordinates":[17.2515948,49.6025286]},"properties":{"id":"bikerack:16f51aac-206f-432e-8241-744ce791d71f","kind":"bikerack","longitude":17.2515948,"latitude":49.6025286,"name":"Bicycle Parking","city":"Olomouc","address":null,"covered":true,"access":null,"website":null,"phone":null,"source":"OpenStreetMap/node/7599039697","sourceUpdatedAt":null,"verifiedAt":null}},{"type":"Feature","geometry":{"type":"Point","coordinates":[17.2428076,49.596036]},"properties":{"id":"bikerack:17605f00-ae97-40a4-9975-e84ab4e21c8d","kind":"bikerack","longitude":17.2428076,"latitude":49.596036,"name":"Bicycle Parking","city":"Olomouc","address":null,"covered":false,"access":null,"website":null,"phone":null,"source":"OpenStreetMap/node/13481932502","sourceUpdatedAt":null,"verifiedAt":null}},{"type":"Feature","geometry":{"type":"Point","coordinates":[17.2698197,49.594692]},"properties":{"id":"bikerack:187f9a2c-edc0-45fc-86bb-f4924751c263","kind":"bikerack","longitude":17.2698197,"latitude":49.594692,"name":"Bicycle Parking","city":"Olomouc","address":null,"covered":false,"access":null,"website":null,"phone":null,"source":"OpenStreetMap/node/13547439448","sourceUpdatedAt":null,"verifiedAt":null}},{"type":"Feature","geometry":{"type":"Point","coordinates":[17.2511117,49.5873976]},"properties":{"id":"bikerack:195c193b-4175-4a12-a71b-c75f085870b9","kind":"bikerack","longitude":17.2511117,"latitude":49.5873976,"name":"Bicycle Parking","city":"Olomouc","address":null,"covered":false,"access":null,"website":null,"phone":null,"source":"OpenStreetMap/node/4620736261","sourceUpdatedAt":null,"verifiedAt":null}},{"type":"Feature","geometry":{"type":"Point","coordinates":[17.2635794,49.5922466]},"properties":{"id":"bikerack:1c206b62-99d8-4902-a945-9c4cfc77b7a3","kind":"bikerack","longitude":17.2635794,"latitude":49.5922466,"name":"Bicycle Parking","city":"Olomouc","address":null,"covered":true,"access":null,"website":null,"phone":null,"source":"OpenStreetMap/node/13106669528","sourceUpdatedAt":null,"verifiedAt":null}},{"type":"Feature","geometry":{"type":"Point","coordinates":[17.2439952,49.6025058]},"properties":{"id":"bikerack:1e96d446-5797-49e5-abac-0feab04fb275","kind":"bikerack","longitude":17.2439952,"latitude":49.6025058,"name":"Bicycle Parking","city":"Olomouc","address":null,"covered":false,"access":null,"website":null,"phone":null,"source":"OpenStreetMap/node/7599039712","sourceUpdatedAt":null,"verifiedAt":null}},{"type":"Feature","geometry":{"type":"Point","coordinates":[17.2338222,49.5911445]},"properties":{"id":"bikerack:1ed0bdaf-8be6-48ef-817b-e05e5c75e2b7","kind":"bikerack","longitude":17.2338222,"latitude":49.5911445,"name":"Bicycle Parking","city":"Olomouc","address":null,"covered":false,"access":null,"website":null,"phone":null,"source":"OpenStreetMap/node/7591923888","sourceUpdatedAt":null,"verifiedAt":null}},{"type":"Feature","geometry":{"type":"Point","coordinates":[17.2455417,49.5991888]},"properties":{"id":"bikerack:1f0736e8-cf0f-4844-ba13-05d24cfeb54f","kind":"bikerack","longitude":17.2455417,"latitude":49.5991888,"name":"Bicycle Parking","city":"Olomouc","address":null,"covered":false,"access":null,"website":null,"phone":null,"source":"OpenStreetMap/node/7572099385","sourceUpdatedAt":null,"verifiedAt":null}},{"type":"Feature","geometry":{"type":"Point","coordinates":[17.263695,49.5924543]},"properties":{"id":"bikerack:26f52006-f2b0-495b-bc6c-9d971209ae83","kind":"bikerack","longitude":17.263695,"latitude":49.5924543,"name":"Bicycle Parking","city":"Olomouc","address":null,"covered":true,"access":null,"website":null,"phone":null,"source":"OpenStreetMap/node/11708089650","sourceUpdatedAt":null,"verifiedAt":null}},{"type":"Feature","geometry":{"type":"Point","coordinates":[17.2599674,49.5948545]},"properties":{"id":"bikerack:27c96ddc-eb73-4308-9d12-4462675b9878","kind":"bikerack","longitude":17.2599674,"latitude":49.5948545,"name":"Bicycle Parking","city":"Olomouc","address":null,"covered":false,"access":null,"website":null,"phone":null,"source":"OpenStreetMap/node/4620736266","sourceUpdatedAt":null,"verifiedAt":null}},{"type":"Feature","geometry":{"type":"Point","coordinates":[17.2469905,49.595776]},"properties":{"id":"bikerack:2ce152f7-d4f3-4a23-9cb4-6226c2de3c46","kind":"bikerack","longitude":17.2469905,"latitude":49.595776,"name":"Bicycle Parking","city":"Olomouc","address":null,"covered":false,"access":null,"website":null,"phone":null,"source":"OpenStreetMap/node/12289021446","sourceUpdatedAt":null,"verifiedAt":null}},{"type":"Feature","geometry":{"type":"Point","coordinates":[17.263364,49.5925957]},"properties":{"id":"bikerack:3097dc9c-5250-4a18-a44e-21093a6ea0ae","kind":"bikerack","longitude":17.263364,"latitude":49.5925957,"name":"Bicycle Parking","city":"Olomouc","address":null,"covered":true,"access":null,"website":null,"phone":null,"source":"OpenStreetMap/node/3737055716","sourceUpdatedAt":null,"verifiedAt":null}},{"type":"Feature","geometry":{"type":"Point","coordinates":[17.2453866,49.5984233]},"properties":{"id":"bikerack:30e89772-8567-4f31-a628-a1acc2c90f50","kind":"bikerack","longitude":17.2453866,"latitude":49.5984233,"name":"Bicycle Parking","city":"Olomouc","address":null,"covered":false,"access":null,"website":null,"phone":null,"source":"OpenStreetMap/node/7919802028","sourceUpdatedAt":null,"verifiedAt":null}},{"type":"Feature","geometry":{"type":"Point","coordinates":[17.2475015,49.595376]},"properties":{"id":"bikerack:32d8aad6-185c-4b7a-8306-79ce17e63511","kind":"bikerack","longitude":17.2475015,"latitude":49.595376,"name":"Bicycle Parking","city":"Olomouc","address":null,"covered":true,"access":null,"website":null,"phone":null,"source":"OpenStreetMap/node/4620456277","sourceUpdatedAt":null,"verifiedAt":null}},{"type":"Feature","geometry":{"type":"Point","coordinates":[17.2566123,49.5958946]},"properties":{"id":"bikerack:35482b78-323a-4cb8-ac30-940c2977ccbf","kind":"bikerack","longitude":17.2566123,"latitude":49.5958946,"name":"Bicycle Parking","city":"Olomouc","address":null,"covered":false,"access":null,"website":null,"phone":null,"source":"OpenStreetMap/node/4928165121","sourceUpdatedAt":null,"verifiedAt":null}},{"type":"Feature","geometry":{"type":"Point","coordinates":[17.2644732,49.5957996]},"properties":{"id":"bikerack:357e62db-4b1f-494a-8822-f81198a10daa","kind":"bikerack","longitude":17.2644732,"latitude":49.5957996,"name":"Bicycle Parking","city":"Olomouc","address":null,"covered":false,"access":null,"website":null,"phone":null,"source":"OpenStreetMap/node/7596132755","sourceUpdatedAt":null,"verifiedAt":null}},{"type":"Feature","geometry":{"type":"Point","coordinates":[17.2366284,49.6020036]},"properties":{"id":"bikerack:364edb0b-0fb7-467c-931f-3028346307b8","kind":"bikerack","longitude":17.2366284,"latitude":49.6020036,"name":"Bicycle Parking","city":"Olomouc","address":null,"covered":false,"access":null,"website":null,"phone":null,"source":"OpenStreetMap/node/7591923885","sourceUpdatedAt":null,"verifiedAt":null}},{"type":"Feature","geometry":{"type":"Point","coordinates":[17.2505398,49.5952081]},"properties":{"id":"bikerack:371535b6-7b2a-4641-b0ac-fa2d9d549034","kind":"bikerack","longitude":17.2505398,"latitude":49.5952081,"name":"Bicycle Parking","city":"Olomouc","address":null,"covered":false,"access":null,"website":null,"phone":null,"source":"OpenStreetMap/node/4620456272","sourceUpdatedAt":null,"verifiedAt":null}},{"type":"Feature","geometry":{"type":"Point","coordinates":[17.2525966,49.5918713]},"properties":{"id":"bikerack:37bb34a5-2c00-4e60-abaf-91f7a15d1a66","kind":"bikerack","longitude":17.2525966,"latitude":49.5918713,"name":"Bicycle Parking","city":"Olomouc","address":null,"covered":false,"access":null,"website":null,"phone":null,"source":"OpenStreetMap/node/4047696151","sourceUpdatedAt":null,"verifiedAt":null}},{"type":"Feature","geometry":{"type":"Point","coordinates":[17.2379564,49.5846151]},"properties":{"id":"bikerack:3821f8d6-8e36-437c-93f2-9ad099538c0f","kind":"bikerack","longitude":17.2379564,"latitude":49.5846151,"name":"Bicycle Parking","city":"Olomouc","address":null,"covered":false,"access":null,"website":null,"phone":null,"source":"OpenStreetMap/node/7591923887","sourceUpdatedAt":null,"verifiedAt":null}},{"type":"Feature","geometry":{"type":"Point","coordinates":[17.2348301,49.6104538]},"properties":{"id":"bikerack:3bc862b3-366e-4dd4-a1ec-2eda5c095075","kind":"bikerack","longitude":17.2348301,"latitude":49.6104538,"name":"Bicycle Parking","city":"Olomouc","address":null,"covered":false,"access":null,"website":null,"phone":null,"source":"OpenStreetMap/node/8483617779","sourceUpdatedAt":null,"verifiedAt":null}},{"type":"Feature","geometry":{"type":"Point","coordinates":[17.2664233,49.5902509]},"properties":{"id":"bikerack:3bd9245a-8058-4e09-ab76-897e250ee054","kind":"bikerack","longitude":17.2664233,"latitude":49.5902509,"name":"Bicycle Parking","city":"Olomouc","address":null,"covered":false,"access":null,"website":null,"phone":null,"source":"OpenStreetMap/node/4923793034","sourceUpdatedAt":null,"verifiedAt":null}},{"type":"Feature","geometry":{"type":"Point","coordinates":[17.2339941,49.5907209]},"properties":{"id":"bikerack:3c83e5e9-41b6-49ec-9a0a-6384be3cdd29","kind":"bikerack","longitude":17.2339941,"latitude":49.5907209,"name":"Bicycle Parking","city":"Olomouc","address":null,"covered":false,"access":null,"website":null,"phone":null,"source":"OpenStreetMap/node/4620736258","sourceUpdatedAt":null,"verifiedAt":null}},{"type":"Feature","geometry":{"type":"Point","coordinates":[17.2498581,49.5892968]},"properties":{"id":"bikerack:3f7e9fc6-8509-4089-8ca9-24ff2f0b55db","kind":"bikerack","longitude":17.2498581,"latitude":49.5892968,"name":"Bicycle Parking","city":"Olomouc","address":null,"covered":false,"access":null,"website":null,"phone":null,"source":"OpenStreetMap/node/4644473933","sourceUpdatedAt":null,"verifiedAt":null}},{"type":"Feature","geometry":{"type":"Point","coordinates":[17.2656167,49.6049747]},"properties":{"id":"bikerack:3fea28f8-6689-401a-baae-0a2d9eed2b60","kind":"bikerack","longitude":17.2656167,"latitude":49.6049747,"name":"Bicycle Parking","city":"Olomouc","address":null,"covered":true,"access":null,"website":null,"phone":null,"source":"OpenStreetMap/way/1375569227","sourceUpdatedAt":null,"verifiedAt":null}},{"type":"Feature","geometry":{"type":"Point","coordinates":[17.2340726,49.5914274]},"properties":{"id":"bikerack:40199991-1f2e-414d-b07e-e9ab0f2cf055","kind":"bikerack","longitude":17.2340726,"latitude":49.5914274,"name":"Bicycle Parking","city":"Olomouc","address":null,"covered":false,"access":null,"website":null,"phone":null,"source":"OpenStreetMap/node/11582708902","sourceUpdatedAt":null,"verifiedAt":null}},{"type":"Feature","geometry":{"type":"Point","coordinates":[17.2522844,49.5941785]},"properties":{"id":"bikerack:475d0620-326b-40d2-853b-399708d8bf78","kind":"bikerack","longitude":17.2522844,"latitude":49.5941785,"name":"Bicycle Parking","city":"Olomouc","address":null,"covered":false,"access":null,"website":null,"phone":null,"source":"OpenStreetMap/node/13108840641","sourceUpdatedAt":null,"verifiedAt":null}},{"type":"Feature","geometry":{"type":"Point","coordinates":[17.2500361,49.5964392]},"properties":{"id":"bikerack:48190777-76b9-4cfd-87ca-e4b1864fa1fd","kind":"bikerack","longitude":17.2500361,"latitude":49.5964392,"name":"Bicycle Parking","city":"Olomouc","address":null,"covered":false,"access":null,"website":null,"phone":null,"source":"OpenStreetMap/node/4860482166","sourceUpdatedAt":null,"verifiedAt":null}},{"type":"Feature","geometry":{"type":"Point","coordinates":[17.2526668,49.6025092]},"properties":{"id":"bikerack:4840444d-19b3-4f35-ab1e-179d13318c76","kind":"bikerack","longitude":17.2526668,"latitude":49.6025092,"name":"Bicycle Parking","city":"Olomouc","address":null,"covered":false,"access":null,"website":null,"phone":null,"source":"OpenStreetMap/node/7599039716","sourceUpdatedAt":null,"verifiedAt":null}},{"type":"Feature","geometry":{"type":"Point","coordinates":[17.2581303,49.5959611]},"properties":{"id":"bikerack:4b2d6fc7-0622-4db5-af68-d57c8e91276c","kind":"bikerack","longitude":17.2581303,"latitude":49.5959611,"name":"Bicycle Parking","city":"Olomouc","address":null,"covered":false,"access":null,"website":null,"phone":null,"source":"OpenStreetMap/node/4620736278","sourceUpdatedAt":null,"verifiedAt":null}},{"type":"Feature","geometry":{"type":"Point","coordinates":[17.2581758,49.5961926]},"properties":{"id":"bikerack:4b4ab7fb-e467-4955-93ca-20b09e02dfac","kind":"bikerack","longitude":17.2581758,"latitude":49.5961926,"name":"Bicycle Parking","city":"Olomouc","address":null,"covered":false,"access":null,"website":null,"phone":null,"source":"OpenStreetMap/node/4713121918","sourceUpdatedAt":null,"verifiedAt":null}},{"type":"Feature","geometry":{"type":"Point","coordinates":[17.2459032,49.5973984]},"properties":{"id":"bikerack:4c9c6bb9-e24c-48be-8270-ef593e41236a","kind":"bikerack","longitude":17.2459032,"latitude":49.5973984,"name":"Bicycle Parking","city":"Olomouc","address":null,"covered":false,"access":null,"website":null,"phone":null,"source":"OpenStreetMap/node/7599110687","sourceUpdatedAt":null,"verifiedAt":null}},{"type":"Feature","geometry":{"type":"Point","coordinates":[17.2511674,49.5933729]},"properties":{"id":"bikerack:50e01ebd-0be6-4638-a999-4eeba4dc2d5d","kind":"bikerack","longitude":17.2511674,"latitude":49.5933729,"name":"Bicycle Parking","city":"Olomouc","address":null,"covered":false,"access":null,"website":null,"phone":null,"source":"OpenStreetMap/node/4620736260","sourceUpdatedAt":null,"verifiedAt":null}},{"type":"Feature","geometry":{"type":"Point","coordinates":[17.2651804,49.6052889]},"properties":{"id":"bikerack:52136f7c-f311-4cd5-8e85-ad3cdde0c075","kind":"bikerack","longitude":17.2651804,"latitude":49.6052889,"name":"Bicycle Parking","city":"Olomouc","address":null,"covered":false,"access":null,"website":null,"phone":null,"source":"OpenStreetMap/node/7599039719","sourceUpdatedAt":null,"verifiedAt":null}},{"type":"Feature","geometry":{"type":"Point","coordinates":[17.2498489,49.5950174]},"properties":{"id":"bikerack:53afb474-7807-4a5e-b463-67dff81c9352","kind":"bikerack","longitude":17.2498489,"latitude":49.5950174,"name":"Bicycle Parking","city":"Olomouc","address":null,"covered":false,"access":null,"website":null,"phone":null,"source":"OpenStreetMap/node/4620456270","sourceUpdatedAt":null,"verifiedAt":null}},{"type":"Feature","geometry":{"type":"Point","coordinates":[17.2609818,49.5907396]},"properties":{"id":"bikerack:54c36e4e-1435-411e-bf63-85b65defb3b0","kind":"bikerack","longitude":17.2609818,"latitude":49.5907396,"name":"Bicycle Parking","city":"Olomouc","address":null,"covered":false,"access":null,"website":null,"phone":null,"source":"OpenStreetMap/node/4620736269","sourceUpdatedAt":null,"verifiedAt":null}},{"type":"Feature","geometry":{"type":"Point","coordinates":[17.2341686,49.5911545]},"properties":{"id":"bikerack:554f3505-88d7-425b-b0e0-40d30ff79d74","kind":"bikerack","longitude":17.2341686,"latitude":49.5911545,"name":"Bicycle Parking","city":"Olomouc","address":null,"covered":false,"access":null,"website":null,"phone":null,"source":"OpenStreetMap/node/4648180541","sourceUpdatedAt":null,"verifiedAt":null}},{"type":"Feature","geometry":{"type":"Point","coordinates":[17.2623956,49.5905603]},"properties":{"id":"bikerack:59031250-16a4-419e-9e6f-19d8f127f9c5","kind":"bikerack","longitude":17.2623956,"latitude":49.5905603,"name":"Bicycle Parking","city":"Olomouc","address":null,"covered":false,"access":null,"website":null,"phone":null,"source":"OpenStreetMap/node/4647981923","sourceUpdatedAt":null,"verifiedAt":null}},{"type":"Feature","geometry":{"type":"Point","coordinates":[17.236966,49.5977675]},"properties":{"id":"bikerack:59fb125c-9d99-460a-a211-e563c9bb94fb","kind":"bikerack","longitude":17.236966,"latitude":49.5977675,"name":"Bicycle Parking","city":"Olomouc","address":null,"covered":false,"access":null,"website":null,"phone":null,"source":"OpenStreetMap/node/7599039702","sourceUpdatedAt":null,"verifiedAt":null}},{"type":"Feature","geometry":{"type":"Point","coordinates":[17.2550323,49.5945176]},"properties":{"id":"bikerack:5f26aaf4-9949-4acc-9988-e9ac8b5dd4b6","kind":"bikerack","longitude":17.2550323,"latitude":49.5945176,"name":"Bicycle Parking","city":"Olomouc","address":null,"covered":true,"access":null,"website":null,"phone":null,"source":"OpenStreetMap/node/4741512863","sourceUpdatedAt":null,"verifiedAt":null}},{"type":"Feature","geometry":{"type":"Point","coordinates":[17.2442647,49.591277]},"properties":{"id":"bikerack:5f4bc588-5a1d-4b31-a86e-96f0d1ed88a4","kind":"bikerack","longitude":17.2442647,"latitude":49.591277,"name":"Bicycle Parking","city":"Olomouc","address":null,"covered":false,"access":null,"website":null,"phone":null,"source":"OpenStreetMap/node/7599110694","sourceUpdatedAt":null,"verifiedAt":null}},{"type":"Feature","geometry":{"type":"Point","coordinates":[17.2686176,49.5893195]},"properties":{"id":"bikerack:5f670cd2-5ca5-48cf-ac81-dc87cf186d6b","kind":"bikerack","longitude":17.2686176,"latitude":49.5893195,"name":"Bicycle Parking","city":"Olomouc","address":null,"covered":false,"access":null,"website":null,"phone":null,"source":"OpenStreetMap/node/4648180527","sourceUpdatedAt":null,"verifiedAt":null}},{"type":"Feature","geometry":{"type":"Point","coordinates":[17.2319097,49.6054795]},"properties":{"id":"bikerack:60012ee3-40ac-4ec5-adc3-fa308249bfb8","kind":"bikerack","longitude":17.2319097,"latitude":49.6054795,"name":"Bicycle Parking","city":"Olomouc","address":null,"covered":false,"access":null,"website":null,"phone":null,"source":"OpenStreetMap/node/7599039709","sourceUpdatedAt":null,"verifiedAt":null}},{"type":"Feature","geometry":{"type":"Point","coordinates":[17.2412519,49.5948551]},"properties":{"id":"bikerack:674fed9b-84cd-414d-90ba-8dff1bdaa20f","kind":"bikerack","longitude":17.2412519,"latitude":49.5948551,"name":"Bicycle Parking","city":"Olomouc","address":null,"covered":false,"access":null,"website":null,"phone":null,"source":"OpenStreetMap/node/7596132761","sourceUpdatedAt":null,"verifiedAt":null}},{"type":"Feature","geometry":{"type":"Point","coordinates":[17.2508622,49.5839194]},"properties":{"id":"bikerack:67e378f7-a0fd-4d53-af62-23df9e0473be","kind":"bikerack","longitude":17.2508622,"latitude":49.5839194,"name":"Bicycle Parking","city":"Olomouc","address":null,"covered":false,"access":null,"website":null,"phone":null,"source":"OpenStreetMap/node/7599096684","sourceUpdatedAt":null,"verifiedAt":null}},{"type":"Feature","geometry":{"type":"Point","coordinates":[17.2451697,49.5991419]},"properties":{"id":"bikerack:6a52c56a-603d-41ea-bc64-a08595e9e124","kind":"bikerack","longitude":17.2451697,"latitude":49.5991419,"name":"Bicycle Parking","city":"Olomouc","address":null,"covered":false,"access":null,"website":null,"phone":null,"source":"OpenStreetMap/node/7919802026","sourceUpdatedAt":null,"verifiedAt":null}},{"type":"Feature","geometry":{"type":"Point","coordinates":[17.2699491,49.5898562]},"properties":{"id":"bikerack:6b42ef71-45bf-4316-8903-5bb49a2d3c7e","kind":"bikerack","longitude":17.2699491,"latitude":49.5898562,"name":"Bicycle Parking","city":"Olomouc","address":null,"covered":false,"access":null,"website":null,"phone":null,"source":"OpenStreetMap/node/5057970973","sourceUpdatedAt":null,"verifiedAt":null}},{"type":"Feature","geometry":{"type":"Point","coordinates":[17.2580262,49.5875872]},"properties":{"id":"bikerack:6c014f00-58be-4705-9ac8-68b6d9445540","kind":"bikerack","longitude":17.2580262,"latitude":49.5875872,"name":"Bicycle Parking","city":"Olomouc","address":null,"covered":false,"access":null,"website":null,"phone":null,"source":"OpenStreetMap/node/5242459661","sourceUpdatedAt":null,"verifiedAt":null}},{"type":"Feature","geometry":{"type":"Point","coordinates":[17.2532182,49.5922043]},"properties":{"id":"bikerack:6ed52efc-423c-4887-82ec-4c7afa104837","kind":"bikerack","longitude":17.2532182,"latitude":49.5922043,"name":"Bicycle Parking","city":"Olomouc","address":null,"covered":false,"access":null,"website":null,"phone":null,"source":"OpenStreetMap/node/4625040358","sourceUpdatedAt":null,"verifiedAt":null}},{"type":"Feature","geometry":{"type":"Point","coordinates":[17.2399171,49.5855151]},"properties":{"id":"bikerack:6fc1b4a8-38fa-4c0a-8780-871997fc3dad","kind":"bikerack","longitude":17.2399171,"latitude":49.5855151,"name":"Bicycle Parking","city":"Olomouc","address":null,"covered":false,"access":null,"website":null,"phone":null,"source":"OpenStreetMap/node/7599039700","sourceUpdatedAt":null,"verifiedAt":null}},{"type":"Feature","geometry":{"type":"Point","coordinates":[17.2636292,49.5924602]},"properties":{"id":"bikerack:6ff6b943-601f-4781-955e-44fedc265723","kind":"bikerack","longitude":17.2636292,"latitude":49.5924602,"name":"Bicycle Parking","city":"Olomouc","address":null,"covered":true,"access":null,"website":null,"phone":null,"source":"OpenStreetMap/node/11708091137","sourceUpdatedAt":null,"verifiedAt":null}},{"type":"Feature","geometry":{"type":"Point","coordinates":[17.2503727,49.5911335]},"properties":{"id":"bikerack:702ce2a2-9c7e-4d77-af2f-38733bb34c37","kind":"bikerack","longitude":17.2503727,"latitude":49.5911335,"name":"Bicycle Parking","city":"Olomouc","address":null,"covered":false,"access":null,"website":null,"phone":null,"source":"OpenStreetMap/node/7596132758","sourceUpdatedAt":null,"verifiedAt":null}},{"type":"Feature","geometry":{"type":"Point","coordinates":[17.2386575,49.5828045]},"properties":{"id":"bikerack:7183b754-08fa-4d9f-ab38-ff2e2e51d014","kind":"bikerack","longitude":17.2386575,"latitude":49.5828045,"name":"Bicycle Parking","city":"Olomouc","address":null,"covered":false,"access":null,"website":null,"phone":null,"source":"OpenStreetMap/node/7591923886","sourceUpdatedAt":null,"verifiedAt":null}},{"type":"Feature","geometry":{"type":"Point","coordinates":[17.247486,49.5985281]},"properties":{"id":"bikerack:748dfce7-aac4-4b46-bf4b-27f0d6bd4a74","kind":"bikerack","longitude":17.247486,"latitude":49.5985281,"name":"Bicycle Parking","city":"Olomouc","address":null,"covered":false,"access":null,"website":null,"phone":null,"source":"OpenStreetMap/node/7599110685","sourceUpdatedAt":null,"verifiedAt":null}},{"type":"Feature","geometry":{"type":"Point","coordinates":[17.2498919,49.5941172]},"properties":{"id":"bikerack:75e0dd81-e068-46d6-bcf0-7b0b024a9a46","kind":"bikerack","longitude":17.2498919,"latitude":49.5941172,"name":"Bicycle Parking","city":"Olomouc","address":null,"covered":false,"access":null,"website":null,"phone":null,"source":"OpenStreetMap/node/7596132752","sourceUpdatedAt":null,"verifiedAt":null}},{"type":"Feature","geometry":{"type":"Point","coordinates":[17.2499077,49.5948698]},"properties":{"id":"bikerack:75f7efbc-94a8-4227-a63b-bb8047a6b76c","kind":"bikerack","longitude":17.2499077,"latitude":49.5948698,"name":"Bicycle Parking","city":"Olomouc","address":null,"covered":false,"access":null,"website":null,"phone":null,"source":"OpenStreetMap/node/4620456269","sourceUpdatedAt":null,"verifiedAt":null}},{"type":"Feature","geometry":{"type":"Point","coordinates":[17.2442855,49.5966789]},"properties":{"id":"bikerack:7764b80f-c7d4-458c-bdbd-0a6ee35b7d30","kind":"bikerack","longitude":17.2442855,"latitude":49.5966789,"name":"Bicycle Parking","city":"Olomouc","address":null,"covered":false,"access":null,"website":null,"phone":null,"source":"OpenStreetMap/node/4648180543","sourceUpdatedAt":null,"verifiedAt":null}},{"type":"Feature","geometry":{"type":"Point","coordinates":[17.2457417,49.5993339]},"properties":{"id":"bikerack:78f8fb8d-0337-4608-b560-8c8d65005394","kind":"bikerack","longitude":17.2457417,"latitude":49.5993339,"name":"Bicycle Parking","city":"Olomouc","address":null,"covered":false,"access":null,"website":null,"phone":null,"source":"OpenStreetMap/node/7919802027","sourceUpdatedAt":null,"verifiedAt":null}},{"type":"Feature","geometry":{"type":"Point","coordinates":[17.241691,49.5952768]},"properties":{"id":"bikerack:79b8ed36-4565-4000-b7c6-c3423a6e2999","kind":"bikerack","longitude":17.241691,"latitude":49.5952768,"name":"Bicycle Parking","city":"Olomouc","address":null,"covered":true,"access":null,"website":null,"phone":null,"source":"OpenStreetMap/node/4644145089","sourceUpdatedAt":null,"verifiedAt":null}},{"type":"Feature","geometry":{"type":"Point","coordinates":[17.2522911,49.5922793]},"properties":{"id":"bikerack:79cb3e22-aa56-4ba3-a795-102efa4ac959","kind":"bikerack","longitude":17.2522911,"latitude":49.5922793,"name":"Bicycle Parking","city":"Olomouc","address":null,"covered":false,"access":null,"website":null,"phone":null,"source":"OpenStreetMap/node/13108804150","sourceUpdatedAt":null,"verifiedAt":null}},{"type":"Feature","geometry":{"type":"Point","coordinates":[17.2586146,49.5871288]},"properties":{"id":"bikerack:7aa12086-aed7-4252-af99-3b63bb2a8514","kind":"bikerack","longitude":17.2586146,"latitude":49.5871288,"name":"Bicycle Parking","city":"Olomouc","address":null,"covered":false,"access":null,"website":null,"phone":null,"source":"OpenStreetMap/node/5242459657","sourceUpdatedAt":null,"verifiedAt":null}},{"type":"Feature","geometry":{"type":"Point","coordinates":[17.2487658,49.5916298]},"properties":{"id":"bikerack:7df8d57e-51bb-4352-8d0b-7cadfb882cb3","kind":"bikerack","longitude":17.2487658,"latitude":49.5916298,"name":"Bicycle Parking","city":"Olomouc","address":null,"covered":false,"access":null,"website":null,"phone":null,"source":"OpenStreetMap/node/7599096681","sourceUpdatedAt":null,"verifiedAt":null}},{"type":"Feature","geometry":{"type":"Point","coordinates":[17.2337676,49.5897112]},"properties":{"id":"bikerack:7e44b984-b5ba-4529-ad81-af6f565ec301","kind":"bikerack","longitude":17.2337676,"latitude":49.5897112,"name":"Bicycle Parking","city":"Olomouc","address":null,"covered":false,"access":null,"website":null,"phone":null,"source":"OpenStreetMap/node/7599039704","sourceUpdatedAt":null,"verifiedAt":null}},{"type":"Feature","geometry":{"type":"Point","coordinates":[17.2669637,49.5973654]},"properties":{"id":"bikerack:7eefe9dc-edfc-4129-afd2-6872e572acab","kind":"bikerack","longitude":17.2669637,"latitude":49.5973654,"name":"Bicycle Parking","city":"Olomouc","address":null,"covered":false,"access":null,"website":null,"phone":null,"source":"OpenStreetMap/node/4713121919","sourceUpdatedAt":null,"verifiedAt":null}},{"type":"Feature","geometry":{"type":"Point","coordinates":[17.2574519,49.6016406]},"properties":{"id":"bikerack:7f36ced0-acb8-4261-9446-37666c7977cf","kind":"bikerack","longitude":17.2574519,"latitude":49.6016406,"name":"Bicycle Parking","city":"Olomouc","address":null,"covered":false,"access":null,"website":null,"phone":null,"source":"OpenStreetMap/node/7599039718","sourceUpdatedAt":null,"verifiedAt":null}},{"type":"Feature","geometry":{"type":"Point","coordinates":[17.2516505,49.5905788]},"properties":{"id":"bikerack:80d7b5f4-e5a3-4a8c-89ff-b0fb309fc321","kind":"bikerack","longitude":17.2516505,"latitude":49.5905788,"name":"Bicycle Parking","city":"Olomouc","address":null,"covered":false,"access":null,"website":null,"phone":null,"source":"OpenStreetMap/node/7596132759","sourceUpdatedAt":null,"verifiedAt":null}},{"type":"Feature","geometry":{"type":"Point","coordinates":[17.2554668,49.5947668]},"properties":{"id":"bikerack:81ff3a12-d16d-48aa-8a39-a39624592609","kind":"bikerack","longitude":17.2554668,"latitude":49.5947668,"name":"Bicycle Parking","city":"Olomouc","address":null,"covered":false,"access":null,"website":null,"phone":null,"source":"OpenStreetMap/node/4647981922","sourceUpdatedAt":null,"verifiedAt":null}},{"type":"Feature","geometry":{"type":"Point","coordinates":[17.2592521,49.5950143]},"properties":{"id":"bikerack:84075e05-f56f-46d1-a7bd-1e7c4b65e814","kind":"bikerack","longitude":17.2592521,"latitude":49.5950143,"name":"Bicycle Parking","city":"Olomouc","address":null,"covered":false,"access":null,"website":null,"phone":null,"source":"OpenStreetMap/node/12425608362","sourceUpdatedAt":null,"verifiedAt":null}},{"type":"Feature","geometry":{"type":"Point","coordinates":[17.2445997,49.5886839]},"properties":{"id":"bikerack:887693eb-b206-4171-a31c-31f05f1ef269","kind":"bikerack","longitude":17.2445997,"latitude":49.5886839,"name":"Bicycle Parking","city":"Olomouc","address":null,"covered":false,"access":null,"website":null,"phone":null,"source":"OpenStreetMap/node/7596132757","sourceUpdatedAt":null,"verifiedAt":null}},{"type":"Feature","geometry":{"type":"Point","coordinates":[17.2495972,49.6024599]},"properties":{"id":"bikerack:88e23d87-f54c-4054-a7bc-e015e2b835bd","kind":"bikerack","longitude":17.2495972,"latitude":49.6024599,"name":"Bicycle Parking","city":"Olomouc","address":null,"covered":false,"access":null,"website":null,"phone":null,"source":"OpenStreetMap/node/7599039713","sourceUpdatedAt":null,"verifiedAt":null}},{"type":"Feature","geometry":{"type":"Point","coordinates":[17.2510106,49.5943508]},"properties":{"id":"bikerack:89c7d7a4-14f2-4e36-9171-a3abfae83d0a","kind":"bikerack","longitude":17.2510106,"latitude":49.5943508,"name":"Bicycle Parking","city":"Olomouc","address":null,"covered":false,"access":null,"website":null,"phone":null,"source":"OpenStreetMap/node/13153390670","sourceUpdatedAt":null,"verifiedAt":null}},{"type":"Feature","geometry":{"type":"Point","coordinates":[17.2339322,49.5917983]},"properties":{"id":"bikerack:89fbb451-1e2c-4bca-9850-88ad6c7be7a3","kind":"bikerack","longitude":17.2339322,"latitude":49.5917983,"name":"Bicycle Parking","city":"Olomouc","address":null,"covered":false,"access":null,"website":null,"phone":null,"source":"OpenStreetMap/node/11582708903","sourceUpdatedAt":null,"verifiedAt":null}},{"type":"Feature","geometry":{"type":"Point","coordinates":[17.2497902,49.595177]},"properties":{"id":"bikerack:8c38e927-7ae3-4192-ac7e-a8a8a364a444","kind":"bikerack","longitude":17.2497902,"latitude":49.595177,"name":"Bicycle Parking","city":"Olomouc","address":null,"covered":false,"access":null,"website":null,"phone":null,"source":"OpenStreetMap/node/4620456271","sourceUpdatedAt":null,"verifiedAt":null}},{"type":"Feature","geometry":{"type":"Point","coordinates":[17.2526251,49.5918588]},"properties":{"id":"bikerack:8f18130a-5b17-485b-a9ad-4471b2dc0cc0","kind":"bikerack","longitude":17.2526251,"latitude":49.5918588,"name":"Bicycle Parking","city":"Olomouc","address":null,"covered":false,"access":null,"website":null,"phone":null,"source":"OpenStreetMap/node/4047696149","sourceUpdatedAt":null,"verifiedAt":null}},{"type":"Feature","geometry":{"type":"Point","coordinates":[17.2488548,49.6008181]},"properties":{"id":"bikerack:8f9d547c-1725-4362-b9b5-85468f29c456","kind":"bikerack","longitude":17.2488548,"latitude":49.6008181,"name":"Bicycle Parking","city":"Olomouc","address":null,"covered":false,"access":null,"website":null,"phone":null,"source":"OpenStreetMap/node/13393154098","sourceUpdatedAt":null,"verifiedAt":null}},{"type":"Feature","geometry":{"type":"Point","coordinates":[17.2596561,49.5943385]},"properties":{"id":"bikerack:91d52201-c44b-455d-b17e-c51d56db97c0","kind":"bikerack","longitude":17.2596561,"latitude":49.5943385,"name":"Bicycle Parking","city":"Olomouc","address":null,"covered":false,"access":null,"website":null,"phone":null,"source":"OpenStreetMap/node/4620736267","sourceUpdatedAt":null,"verifiedAt":null}},{"type":"Feature","geometry":{"type":"Point","coordinates":[17.2417089,49.5955713]},"properties":{"id":"bikerack:93598354-e761-4d97-948b-780837d44dff","kind":"bikerack","longitude":17.2417089,"latitude":49.5955713,"name":"Bicycle Parking","city":"Olomouc","address":null,"covered":false,"access":null,"website":null,"phone":null,"source":"OpenStreetMap/node/4860482163","sourceUpdatedAt":null,"verifiedAt":null}},{"type":"Feature","geometry":{"type":"Point","coordinates":[17.2655018,49.5940575]},"properties":{"id":"bikerack:95db7f1d-97e9-4c56-b8b8-a580985c240f","kind":"bikerack","longitude":17.2655018,"latitude":49.5940575,"name":"Bicycle Parking","city":"Olomouc","address":null,"covered":false,"access":null,"website":null,"phone":null,"source":"OpenStreetMap/node/4620736268","sourceUpdatedAt":null,"verifiedAt":null}},{"type":"Feature","geometry":{"type":"Point","coordinates":[17.2576336,49.5878478]},"properties":{"id":"bikerack:97b52bc8-1f7e-42f8-a0d8-ee72f1293892","kind":"bikerack","longitude":17.2576336,"latitude":49.5878478,"name":"Bicycle Parking","city":"Olomouc","address":null,"covered":false,"access":null,"website":null,"phone":null,"source":"OpenStreetMap/node/13204953084","sourceUpdatedAt":null,"verifiedAt":null}},{"type":"Feature","geometry":{"type":"Point","coordinates":[17.2620432,49.5980497]},"properties":{"id":"bikerack:984594e7-3d32-4aa2-9ba9-47bf63d8f3c3","kind":"bikerack","longitude":17.2620432,"latitude":49.5980497,"name":"Bicycle Parking","city":"Olomouc","address":null,"covered":false,"access":null,"website":null,"phone":null,"source":"OpenStreetMap/node/13108746827","sourceUpdatedAt":null,"verifiedAt":null}},{"type":"Feature","geometry":{"type":"Point","coordinates":[17.2493905,49.5923108]},"properties":{"id":"bikerack:9b853665-5424-48c2-bafd-2951f1b6e7d0","kind":"bikerack","longitude":17.2493905,"latitude":49.5923108,"name":"Bicycle Parking","city":"Olomouc","address":null,"covered":false,"access":null,"website":null,"phone":null,"source":"OpenStreetMap/node/12273018341","sourceUpdatedAt":null,"verifiedAt":null}},{"type":"Feature","geometry":{"type":"Point","coordinates":[17.2615417,49.5979456]},"properties":{"id":"bikerack:9bf6215e-d7c8-4061-8318-1cf5b79f5010","kind":"bikerack","longitude":17.2615417,"latitude":49.5979456,"name":"Bicycle Parking","city":"Olomouc","address":null,"covered":false,"access":null,"website":null,"phone":null,"source":"OpenStreetMap/node/13669115364","sourceUpdatedAt":null,"verifiedAt":null}},{"type":"Feature","geometry":{"type":"Point","coordinates":[17.2580551,49.595833]},"properties":{"id":"bikerack:9c009831-d894-4807-88c1-64b77ad9ff0e","kind":"bikerack","longitude":17.2580551,"latitude":49.595833,"name":"Bicycle Parking","city":"Olomouc","address":null,"covered":false,"access":null,"website":null,"phone":null,"source":"OpenStreetMap/node/4620736277","sourceUpdatedAt":null,"verifiedAt":null}},{"type":"Feature","geometry":{"type":"Point","coordinates":[17.2490255,49.595498]},"properties":{"id":"bikerack:9e32cd06-a5b0-4d93-97ec-2ee00f41a043","kind":"bikerack","longitude":17.2490255,"latitude":49.595498,"name":"Bicycle Parking","city":"Olomouc","address":null,"covered":false,"access":null,"website":null,"phone":null,"source":"OpenStreetMap/node/4644145086","sourceUpdatedAt":null,"verifiedAt":null}},{"type":"Feature","geometry":{"type":"Point","coordinates":[17.2580685,49.5928022]},"properties":{"id":"bikerack:a3bf5263-e931-4681-a58f-e996eed54047","kind":"bikerack","longitude":17.2580685,"latitude":49.5928022,"name":"Bicycle Parking","city":"Olomouc","address":null,"covered":false,"access":null,"website":null,"phone":null,"source":"OpenStreetMap/node/7599096679","sourceUpdatedAt":null,"verifiedAt":null}},{"type":"Feature","geometry":{"type":"Point","coordinates":[17.2527179,49.6024864]},"properties":{"id":"bikerack:a5b6e3be-be15-43f0-955b-60b9cc5233c1","kind":"bikerack","longitude":17.2527179,"latitude":49.6024864,"name":"Bicycle Parking","city":"Olomouc","address":null,"covered":false,"access":null,"website":null,"phone":null,"source":"OpenStreetMap/node/4648180536","sourceUpdatedAt":null,"verifiedAt":null}},{"type":"Feature","geometry":{"type":"Point","coordinates":[17.2474549,49.6006369]},"properties":{"id":"bikerack:a602fd4e-b8e0-4964-a0da-766d7e154be5","kind":"bikerack","longitude":17.2474549,"latitude":49.6006369,"name":"Bicycle Parking","city":"Olomouc","address":null,"covered":false,"access":null,"website":null,"phone":null,"source":"OpenStreetMap/node/7599039714","sourceUpdatedAt":null,"verifiedAt":null}},{"type":"Feature","geometry":{"type":"Point","coordinates":[17.2580798,49.5928114]},"properties":{"id":"bikerack:a6900f3a-c191-4c38-9626-65051e329c7e","kind":"bikerack","longitude":17.2580798,"latitude":49.5928114,"name":"Bicycle Parking","city":"Olomouc","address":null,"covered":false,"access":null,"website":null,"phone":null,"source":"OpenStreetMap/node/4741512902","sourceUpdatedAt":null,"verifiedAt":null}},{"type":"Feature","geometry":{"type":"Point","coordinates":[17.2442081,49.5991382]},"properties":{"id":"bikerack:a8dfedbb-21ec-4b99-b055-68019f1f10a9","kind":"bikerack","longitude":17.2442081,"latitude":49.5991382,"name":"Bicycle Parking","city":"Olomouc","address":null,"covered":false,"access":null,"website":null,"phone":null,"source":"OpenStreetMap/node/4648180544","sourceUpdatedAt":null,"verifiedAt":null}},{"type":"Feature","geometry":{"type":"Point","coordinates":[17.2533963,49.5914272]},"properties":{"id":"bikerack:a93bb5ae-bd31-43c9-b0e7-0e49c6a3198d","kind":"bikerack","longitude":17.2533963,"latitude":49.5914272,"name":"Bicycle Parking","city":"Olomouc","address":null,"covered":false,"access":null,"website":null,"phone":null,"source":"OpenStreetMap/node/4047696148","sourceUpdatedAt":null,"verifiedAt":null}},{"type":"Feature","geometry":{"type":"Point","coordinates":[17.2471323,49.5936408]},"properties":{"id":"bikerack:ac3f1ad8-2a66-45a7-8089-d4c7b46c0936","kind":"bikerack","longitude":17.2471323,"latitude":49.5936408,"name":"Bicycle Parking","city":"Olomouc","address":null,"covered":false,"access":null,"website":null,"phone":null,"source":"OpenStreetMap/node/1722725341","sourceUpdatedAt":null,"verifiedAt":null}},{"type":"Feature","geometry":{"type":"Point","coordinates":[17.2453686,49.5984221]},"properties":{"id":"bikerack:ac8be96d-b148-49b1-b3d9-97683f838d4b","kind":"bikerack","longitude":17.2453686,"latitude":49.5984221,"name":"Bicycle Parking","city":"Olomouc","address":null,"covered":false,"access":null,"website":null,"phone":null,"source":"OpenStreetMap/node/7919802029","sourceUpdatedAt":null,"verifiedAt":null}},{"type":"Feature","geometry":{"type":"Point","coordinates":[17.2443476,49.5991111]},"properties":{"id":"bikerack:b0ee7318-6b10-42d5-85ce-306bd187f254","kind":"bikerack","longitude":17.2443476,"latitude":49.5991111,"name":"Bicycle Parking","city":"Olomouc","address":null,"covered":false,"access":null,"website":null,"phone":null,"source":"OpenStreetMap/node/4620736281","sourceUpdatedAt":null,"verifiedAt":null}},{"type":"Feature","geometry":{"type":"Point","coordinates":[17.2434056,49.5949395]},"properties":{"id":"bikerack:b0f904d0-5dac-45c4-8ab7-64cada447a86","kind":"bikerack","longitude":17.2434056,"latitude":49.5949395,"name":"Bicycle Parking","city":"Olomouc","address":null,"covered":false,"access":null,"website":null,"phone":null,"source":"OpenStreetMap/node/4620736279","sourceUpdatedAt":null,"verifiedAt":null}},{"type":"Feature","geometry":{"type":"Point","coordinates":[17.2469551,49.5931497]},"properties":{"id":"bikerack:b1338207-8c84-4abf-b204-69882e88c7b6","kind":"bikerack","longitude":17.2469551,"latitude":49.5931497,"name":"Bicycle Parking","city":"Olomouc","address":null,"covered":false,"access":null,"website":null,"phone":null,"source":"OpenStreetMap/node/7596132753","sourceUpdatedAt":null,"verifiedAt":null}},{"type":"Feature","geometry":{"type":"Point","coordinates":[17.2413036,49.6021478]},"properties":{"id":"bikerack:b1a914f7-bd12-4b77-84a4-ea44213ccedf","kind":"bikerack","longitude":17.2413036,"latitude":49.6021478,"name":"Bicycle Parking","city":"Olomouc","address":null,"covered":false,"access":null,"website":null,"phone":null,"source":"OpenStreetMap/node/4648180542","sourceUpdatedAt":null,"verifiedAt":null}},{"type":"Feature","geometry":{"type":"Point","coordinates":[17.2437468,49.5960111]},"properties":{"id":"bikerack:b4247bb5-4726-4161-b684-10f6948948e4","kind":"bikerack","longitude":17.2437468,"latitude":49.5960111,"name":"Bicycle Parking","city":"Olomouc","address":null,"covered":true,"access":null,"website":null,"phone":null,"source":"OpenStreetMap/node/4713121957","sourceUpdatedAt":null,"verifiedAt":null}},{"type":"Feature","geometry":{"type":"Point","coordinates":[17.2437255,49.5945788]},"properties":{"id":"bikerack:b6598473-2a86-40f7-b470-859ffc28c389","kind":"bikerack","longitude":17.2437255,"latitude":49.5945788,"name":"Bicycle Parking","city":"Olomouc","address":null,"covered":false,"access":null,"website":null,"phone":null,"source":"OpenStreetMap/node/7575632750","sourceUpdatedAt":null,"verifiedAt":null}},{"type":"Feature","geometry":{"type":"Point","coordinates":[17.2632917,49.5906769]},"properties":{"id":"bikerack:b6e012ea-3e38-4eff-a537-a8a97bf36c9d","kind":"bikerack","longitude":17.2632917,"latitude":49.5906769,"name":"Bicycle Parking","city":"Olomouc","address":null,"covered":false,"access":null,"website":null,"phone":null,"source":"OpenStreetMap/node/13319299933","sourceUpdatedAt":null,"verifiedAt":null}},{"type":"Feature","geometry":{"type":"Point","coordinates":[17.2354998,49.5866559]},"properties":{"id":"bikerack:b7683769-961c-4316-8507-271422d1d856","kind":"bikerack","longitude":17.2354998,"latitude":49.5866559,"name":"Bicycle Parking","city":"Olomouc","address":null,"covered":false,"access":null,"website":null,"phone":null,"source":"OpenStreetMap/node/4647981924","sourceUpdatedAt":null,"verifiedAt":null}},{"type":"Feature","geometry":{"type":"Point","coordinates":[17.2458444,49.5975278]},"properties":{"id":"bikerack:b8d81297-7477-470d-8cc0-1fd4ba85951c","kind":"bikerack","longitude":17.2458444,"latitude":49.5975278,"name":"Bicycle Parking","city":"Olomouc","address":null,"covered":false,"access":null,"website":null,"phone":null,"source":"OpenStreetMap/node/7599110686","sourceUpdatedAt":null,"verifiedAt":null}},{"type":"Feature","geometry":{"type":"Point","coordinates":[17.2511161,49.5943593]},"properties":{"id":"bikerack:ba97ffcc-da0b-4124-96ee-4ebe8060210a","kind":"bikerack","longitude":17.2511161,"latitude":49.5943593,"name":"Bicycle Parking","city":"Olomouc","address":null,"covered":false,"access":null,"website":null,"phone":null,"source":"OpenStreetMap/node/4620736259","sourceUpdatedAt":null,"verifiedAt":null}},{"type":"Feature","geometry":{"type":"Point","coordinates":[17.2536669,49.591802]},"properties":{"id":"bikerack:baf23bec-00ee-48c0-857c-c0d69cc5f0a4","kind":"bikerack","longitude":17.2536669,"latitude":49.591802,"name":"Bicycle Parking","city":"Olomouc","address":null,"covered":false,"access":null,"website":null,"phone":null,"source":"OpenStreetMap/node/5329663123","sourceUpdatedAt":null,"verifiedAt":null}},{"type":"Feature","geometry":{"type":"Point","coordinates":[17.2577113,49.6018577]},"properties":{"id":"bikerack:bb1ee495-f95c-42e3-8539-41471ada3c14","kind":"bikerack","longitude":17.2577113,"latitude":49.6018577,"name":"Bicycle Parking","city":"Olomouc","address":null,"covered":false,"access":null,"website":null,"phone":null,"source":"OpenStreetMap/node/7599039717","sourceUpdatedAt":null,"verifiedAt":null}},{"type":"Feature","geometry":{"type":"Point","coordinates":[17.2303463,49.5872461]},"properties":{"id":"bikerack:bcb2753c-06a5-4c87-a583-4b9a6263f5b3","kind":"bikerack","longitude":17.2303463,"latitude":49.5872461,"name":"Bicycle Parking","city":"Olomouc","address":null,"covered":false,"access":null,"website":null,"phone":null,"source":"OpenStreetMap/node/7591923890","sourceUpdatedAt":null,"verifiedAt":null}},{"type":"Feature","geometry":{"type":"Point","coordinates":[17.2579412,49.5962661]},"properties":{"id":"bikerack:bcd14701-5ea9-4584-9f17-5f03c0c37b32","kind":"bikerack","longitude":17.2579412,"latitude":49.5962661,"name":"Bicycle Parking","city":"Olomouc","address":null,"covered":false,"access":null,"website":null,"phone":null,"source":"OpenStreetMap/node/4620736276","sourceUpdatedAt":null,"verifiedAt":null}},{"type":"Feature","geometry":{"type":"Point","coordinates":[17.244761,49.5960382]},"properties":{"id":"bikerack:bcd6ccf0-d9ee-42af-91be-3030e5766a04","kind":"bikerack","longitude":17.244761,"latitude":49.5960382,"name":"Bicycle Parking","city":"Olomouc","address":null,"covered":false,"access":null,"website":null,"phone":null,"source":"OpenStreetMap/node/5280605033","sourceUpdatedAt":null,"verifiedAt":null}},{"type":"Feature","geometry":{"type":"Point","coordinates":[17.2488701,49.5916958]},"properties":{"id":"bikerack:c03f7784-0fc5-480a-9c65-b63a9e92ffb4","kind":"bikerack","longitude":17.2488701,"latitude":49.5916958,"name":"Bicycle Parking","city":"Olomouc","address":null,"covered":false,"access":null,"website":null,"phone":null,"source":"OpenStreetMap/node/7599096682","sourceUpdatedAt":null,"verifiedAt":null}},{"type":"Feature","geometry":{"type":"Point","coordinates":[17.2323309,49.5915362]},"properties":{"id":"bikerack:c3e21f80-ea70-4b6b-b67d-51fb2bd2cdb9","kind":"bikerack","longitude":17.2323309,"latitude":49.5915362,"name":"Bicycle Parking","city":"Olomouc","address":null,"covered":false,"access":null,"website":null,"phone":null,"source":"OpenStreetMap/node/7599039705","sourceUpdatedAt":null,"verifiedAt":null}},{"type":"Feature","geometry":{"type":"Point","coordinates":[17.2573809,49.5849812]},"properties":{"id":"bikerack:c9ce5e38-e970-4e60-8b21-85740f005f9a","kind":"bikerack","longitude":17.2573809,"latitude":49.5849812,"name":"Bicycle Parking","city":"Olomouc","address":null,"covered":false,"access":null,"website":null,"phone":null,"source":"OpenStreetMap/node/13011244094","sourceUpdatedAt":null,"verifiedAt":null}},{"type":"Feature","geometry":{"type":"Point","coordinates":[17.2592503,49.6045084]},"properties":{"id":"bikerack:ca8b3d10-0f71-4ec8-9a7c-9d3ee25d1e78","kind":"bikerack","longitude":17.2592503,"latitude":49.6045084,"name":"Bicycle Parking","city":"Olomouc","address":null,"covered":false,"access":null,"website":null,"phone":null,"source":"OpenStreetMap/node/7599039696","sourceUpdatedAt":null,"verifiedAt":null}},{"type":"Feature","geometry":{"type":"Point","coordinates":[17.2485392,49.5972751]},"properties":{"id":"bikerack:cbb739da-4f97-41d2-812a-2feb127c3788","kind":"bikerack","longitude":17.2485392,"latitude":49.5972751,"name":"Bicycle Parking","city":"Olomouc","address":null,"covered":true,"access":null,"website":null,"phone":null,"source":"OpenStreetMap/node/4860482164","sourceUpdatedAt":null,"verifiedAt":null}},{"type":"Feature","geometry":{"type":"Point","coordinates":[17.2493059,49.5873213]},"properties":{"id":"bikerack:ce036b33-e0d7-44b4-b1ee-11310975d314","kind":"bikerack","longitude":17.2493059,"latitude":49.5873213,"name":"Bicycle Parking","city":"Olomouc","address":null,"covered":false,"access":null,"website":null,"phone":null,"source":"OpenStreetMap/node/7599110688","sourceUpdatedAt":null,"verifiedAt":null}},{"type":"Feature","geometry":{"type":"Point","coordinates":[17.2500538,49.596566]},"properties":{"id":"bikerack:d0f86315-19fc-4768-92af-c000353d100e","kind":"bikerack","longitude":17.2500538,"latitude":49.596566,"name":"Bicycle Parking","city":"Olomouc","address":null,"covered":false,"access":null,"website":null,"phone":null,"source":"OpenStreetMap/node/4860482167","sourceUpdatedAt":null,"verifiedAt":null}},{"type":"Feature","geometry":{"type":"Point","coordinates":[17.2569238,49.5880054]},"properties":{"id":"bikerack:d527f7c4-aaff-452e-9bbd-f66e9a15c23b","kind":"bikerack","longitude":17.2569238,"latitude":49.5880054,"name":"Bicycle Parking","city":"Olomouc","address":null,"covered":false,"access":null,"website":null,"phone":null,"source":"OpenStreetMap/node/5242459660","sourceUpdatedAt":null,"verifiedAt":null}},{"type":"Feature","geometry":{"type":"Point","coordinates":[17.2478154,49.5957238]},"properties":{"id":"bikerack:d5c67fae-d7ff-447f-a5bb-bc4938f76e1c","kind":"bikerack","longitude":17.2478154,"latitude":49.5957238,"name":"Bicycle Parking","city":"Olomouc","address":null,"covered":false,"access":null,"website":null,"phone":null,"source":"OpenStreetMap/node/4620456278","sourceUpdatedAt":null,"verifiedAt":null}},{"type":"Feature","geometry":{"type":"Point","coordinates":[17.2487492,49.5924291]},"properties":{"id":"bikerack:d5fc04d7-98df-41bd-9362-fe9bc52b6ba7","kind":"bikerack","longitude":17.2487492,"latitude":49.5924291,"name":"Bicycle Parking","city":"Olomouc","address":null,"covered":false,"access":null,"website":null,"phone":null,"source":"OpenStreetMap/node/13301397646","sourceUpdatedAt":null,"verifiedAt":null}},{"type":"Feature","geometry":{"type":"Point","coordinates":[17.247033,49.5957825]},"properties":{"id":"bikerack:d70ee5fa-0635-4791-b0fe-d0c55673e6bd","kind":"bikerack","longitude":17.247033,"latitude":49.5957825,"name":"Bicycle Parking","city":"Olomouc","address":null,"covered":false,"access":null,"website":null,"phone":null,"source":"OpenStreetMap/node/4620456276","sourceUpdatedAt":null,"verifiedAt":null}},{"type":"Feature","geometry":{"type":"Point","coordinates":[17.2285195,49.5929918]},"properties":{"id":"bikerack:dce11fb5-c43b-4dcf-9194-9fbde45f82f3","kind":"bikerack","longitude":17.2285195,"latitude":49.5929918,"name":"Bicycle Parking","city":"Olomouc","address":null,"covered":false,"access":null,"website":null,"phone":null,"source":"OpenStreetMap/node/7591923891","sourceUpdatedAt":null,"verifiedAt":null}},{"type":"Feature","geometry":{"type":"Point","coordinates":[17.2702189,49.5894055]},"properties":{"id":"bikerack:dfc51ffc-bddd-4950-9b46-076b14e83795","kind":"bikerack","longitude":17.2702189,"latitude":49.5894055,"name":"Bicycle Parking","city":"Olomouc","address":null,"covered":false,"access":null,"website":null,"phone":null,"source":"OpenStreetMap/node/4620736272","sourceUpdatedAt":null,"verifiedAt":null}},{"type":"Feature","geometry":{"type":"Point","coordinates":[17.2637291,49.5924512]},"properties":{"id":"bikerack:e144d722-9e50-4bc8-a570-e59a9ab82ca7","kind":"bikerack","longitude":17.2637291,"latitude":49.5924512,"name":"Bicycle Parking","city":"Olomouc","address":null,"covered":true,"access":null,"website":null,"phone":null,"source":"OpenStreetMap/node/4060015531","sourceUpdatedAt":null,"verifiedAt":null}},{"type":"Feature","geometry":{"type":"Point","coordinates":[17.2543157,49.5972012]},"properties":{"id":"bikerack:e5260e5f-8ef7-4ade-9046-156bb2b45d4b","kind":"bikerack","longitude":17.2543157,"latitude":49.5972012,"name":"Bicycle Parking","city":"Olomouc","address":null,"covered":true,"access":null,"website":null,"phone":null,"source":"OpenStreetMap/node/4741512914","sourceUpdatedAt":null,"verifiedAt":null}},{"type":"Feature","geometry":{"type":"Point","coordinates":[17.2560183,49.5848239]},"properties":{"id":"bikerack:e5bc521b-f6da-4272-aa5b-283404e5ebeb","kind":"bikerack","longitude":17.2560183,"latitude":49.5848239,"name":"Bicycle Parking","city":"Olomouc","address":null,"covered":false,"access":null,"website":null,"phone":null,"source":"OpenStreetMap/node/4620736262","sourceUpdatedAt":null,"verifiedAt":null}},{"type":"Feature","geometry":{"type":"Point","coordinates":[17.2668139,49.5889439]},"properties":{"id":"bikerack:e81b8227-98e1-4f0a-bfff-24af3e0afaf8","kind":"bikerack","longitude":17.2668139,"latitude":49.5889439,"name":"Bicycle Parking","city":"Olomouc","address":null,"covered":false,"access":null,"website":null,"phone":null,"source":"OpenStreetMap/node/4648180539","sourceUpdatedAt":null,"verifiedAt":null}},{"type":"Feature","geometry":{"type":"Point","coordinates":[17.2636626,49.5924572]},"properties":{"id":"bikerack:ec0dc132-9eff-46b8-9ea3-70961dd2c564","kind":"bikerack","longitude":17.2636626,"latitude":49.5924572,"name":"Bicycle Parking","city":"Olomouc","address":null,"covered":true,"access":null,"website":null,"phone":null,"source":"OpenStreetMap/node/11708054666","sourceUpdatedAt":null,"verifiedAt":null}},{"type":"Feature","geometry":{"type":"Point","coordinates":[17.2538055,49.5890592]},"properties":{"id":"bikerack:ec46c72d-c62a-4bca-a931-d0742ab6e86a","kind":"bikerack","longitude":17.2538055,"latitude":49.5890592,"name":"Bicycle Parking","city":"Olomouc","address":null,"covered":false,"access":null,"website":null,"phone":null,"source":"OpenStreetMap/node/7596132760","sourceUpdatedAt":null,"verifiedAt":null}},{"type":"Feature","geometry":{"type":"Point","coordinates":[17.2435484,49.5958405]},"properties":{"id":"bikerack:ecfdfc03-dfd5-490b-94db-2e87b4eac213","kind":"bikerack","longitude":17.2435484,"latitude":49.5958405,"name":"Bicycle Parking","city":"Olomouc","address":null,"covered":false,"access":null,"website":null,"phone":null,"source":"OpenStreetMap/node/7596132751","sourceUpdatedAt":null,"verifiedAt":null}},{"type":"Feature","geometry":{"type":"Point","coordinates":[17.2559246,49.5897585]},"properties":{"id":"bikerack:ed1a423f-3d54-4078-8709-f3b5c0ab3789","kind":"bikerack","longitude":17.2559246,"latitude":49.5897585,"name":"Bicycle Parking","city":"Olomouc","address":null,"covered":false,"access":null,"website":null,"phone":null,"source":"OpenStreetMap/node/4648180537","sourceUpdatedAt":null,"verifiedAt":null}},{"type":"Feature","geometry":{"type":"Point","coordinates":[17.2545918,49.5897297]},"properties":{"id":"bikerack:ee5548c4-a484-47d3-9397-7fee57c05189","kind":"bikerack","longitude":17.2545918,"latitude":49.5897297,"name":"Bicycle Parking","city":"Olomouc","address":null,"covered":false,"access":null,"website":null,"phone":null,"source":"OpenStreetMap/node/4620736263","sourceUpdatedAt":null,"verifiedAt":null}},{"type":"Feature","geometry":{"type":"Point","coordinates":[17.2517108,49.5937839]},"properties":{"id":"bikerack:eea5a6db-e612-40a3-8190-74f6f9f07bf2","kind":"bikerack","longitude":17.2517108,"latitude":49.5937839,"name":"Bicycle Parking","city":"Olomouc","address":null,"covered":false,"access":null,"website":null,"phone":null,"source":"OpenStreetMap/node/13107637283","sourceUpdatedAt":null,"verifiedAt":null}},{"type":"Feature","geometry":{"type":"Point","coordinates":[17.2388214,49.5865863]},"properties":{"id":"bikerack:efb19412-0c7d-4d85-b6de-57408503b2cc","kind":"bikerack","longitude":17.2388214,"latitude":49.5865863,"name":"Bicycle Parking","city":"Olomouc","address":null,"covered":false,"access":null,"website":null,"phone":null,"source":"OpenStreetMap/node/7599039701","sourceUpdatedAt":null,"verifiedAt":null}},{"type":"Feature","geometry":{"type":"Point","coordinates":[17.2346198,49.5915729]},"properties":{"id":"bikerack:f0d77dd9-94b2-40e4-819a-af111f34c5b8","kind":"bikerack","longitude":17.2346198,"latitude":49.5915729,"name":"Bicycle Parking","city":"Olomouc","address":null,"covered":false,"access":null,"website":null,"phone":null,"source":"OpenStreetMap/node/4648180540","sourceUpdatedAt":null,"verifiedAt":null}},{"type":"Feature","geometry":{"type":"Point","coordinates":[17.2375849,49.5857703]},"properties":{"id":"bikerack:f24c0702-e5b2-437f-bce5-b2d3bf58e5a4","kind":"bikerack","longitude":17.2375849,"latitude":49.5857703,"name":"Bicycle Parking","city":"Olomouc","address":null,"covered":false,"access":null,"website":null,"phone":null,"source":"OpenStreetMap/node/8556686965","sourceUpdatedAt":null,"verifiedAt":null}},{"type":"Feature","geometry":{"type":"Point","coordinates":[17.2471198,49.5998256]},"properties":{"id":"bikerack:f28c44c7-269a-495e-89ba-f2e064a2c064","kind":"bikerack","longitude":17.2471198,"latitude":49.5998256,"name":"Bicycle Parking","city":"Olomouc","address":null,"covered":false,"access":null,"website":null,"phone":null,"source":"OpenStreetMap/node/7599039715","sourceUpdatedAt":null,"verifiedAt":null}},{"type":"Feature","geometry":{"type":"Point","coordinates":[17.2420824,49.5946115]},"properties":{"id":"bikerack:f5feee5b-54c6-4d35-9f67-735f6855b341","kind":"bikerack","longitude":17.2420824,"latitude":49.5946115,"name":"Bicycle Parking","city":"Olomouc","address":null,"covered":false,"access":null,"website":null,"phone":null,"source":"OpenStreetMap/node/7599039695","sourceUpdatedAt":null,"verifiedAt":null}},{"type":"Feature","geometry":{"type":"Point","coordinates":[17.2566716,49.5904344]},"properties":{"id":"bikerack:f97249e6-d400-4581-ba42-4d52124ab3c9","kind":"bikerack","longitude":17.2566716,"latitude":49.5904344,"name":"Bicycle Parking","city":"Olomouc","address":null,"covered":false,"access":null,"website":null,"phone":null,"source":"OpenStreetMap/node/5242810235","sourceUpdatedAt":null,"verifiedAt":null}},{"type":"Feature","geometry":{"type":"Point","coordinates":[17.2688415,49.589629]},"properties":{"id":"bikerack:f9f13cbd-9ebd-42ba-858e-dee7cca175a2","kind":"bikerack","longitude":17.2688415,"latitude":49.589629,"name":"Bicycle Parking","city":"Olomouc","address":null,"covered":true,"access":null,"website":null,"phone":null,"source":"OpenStreetMap/node/5057970971","sourceUpdatedAt":null,"verifiedAt":null}},{"type":"Feature","geometry":{"type":"Point","coordinates":[17.2591352,49.5867403]},"properties":{"id":"bikerack:fc7d31e0-2bab-4e15-b68f-a0cb0e0e8668","kind":"bikerack","longitude":17.2591352,"latitude":49.5867403,"name":"Bicycle Parking","city":"Olomouc","address":null,"covered":false,"access":null,"website":null,"phone":null,"source":"OpenStreetMap/node/5242459656","sourceUpdatedAt":null,"verifiedAt":null}},{"type":"Feature","geometry":{"type":"Point","coordinates":[17.260972,49.5948017]},"properties":{"id":"bikerack:ff9da167-7fe9-46e1-841f-2357afb12f83","kind":"bikerack","longitude":17.260972,"latitude":49.5948017,"name":"Bicycle Parking","city":"Olomouc","address":null,"covered":false,"access":null,"website":null,"phone":null,"source":"OpenStreetMap/node/4620736265","sourceUpdatedAt":null,"verifiedAt":null}},{"type":"Feature","geometry":{"type":"Point","coordinates":[17.2554994,49.5949131]},"properties":{"id":"repair:90aa7a1e-c21f-4dda-955f-19cdbac2167d","kind":"repair","longitude":17.2554994,"latitude":49.5949131,"name":"Bicycle Repair Station","city":"Olomouc","address":null,"covered":false,"access":null,"website":null,"phone":null,"source":"OpenStreetMap/node/10586604600","sourceUpdatedAt":null,"verifiedAt":null}},{"type":"Feature","geometry":{"type":"Point","coordinates":[17.2623702,49.5905661]},"properties":{"id":"repair:fa5ad21f-2d84-4237-9c35-74c6e62cccac","kind":"repair","longitude":17.2623702,"latitude":49.5905661,"name":"Bicycle Repair Station","city":"Olomouc","address":null,"covered":false,"access":null,"website":null,"phone":null,"source":"OpenStreetMap/node/13666867167","sourceUpdatedAt":null,"verifiedAt":null}},{"type":"Feature","geometry":{"type":"Point","coordinates":[17.2498026,49.6024833]},"properties":{"id":"service:10f48cff-2be5-44e0-bc31-6ab8d717dd14","kind":"service","longitude":17.2498026,"latitude":49.6024833,"name":"OTOSPORT 1993 s.r.o.","city":"Olomouc","address":null,"covered":null,"access":null,"website":null,"phone":null,"source":"OpenStreetMap/node/4644145063","sourceUpdatedAt":null,"verifiedAt":null}},{"type":"Feature","geometry":{"type":"Point","coordinates":[17.2417139,49.5953111]},"properties":{"id":"service:6ef8b4e3-cdc9-4489-9f62-d07451170dcb","kind":"service","longitude":17.2417139,"latitude":49.5953111,"name":"Moolbike","city":"Olomouc","address":null,"covered":null,"access":null,"website":null,"phone":null,"source":"OpenStreetMap/node/2306891442","sourceUpdatedAt":null,"verifiedAt":null}},{"type":"Feature","geometry":{"type":"Point","coordinates":[17.2567638,49.5836672]},"properties":{"id":"service:7a07930f-e153-42c1-bd9c-843b56f65f31","kind":"service","longitude":17.2567638,"latitude":49.5836672,"name":"Ctirad Hloch","city":"Olomouc","address":null,"covered":null,"access":null,"website":null,"phone":null,"source":"OpenStreetMap/node/1903997936","sourceUpdatedAt":null,"verifiedAt":null}},{"type":"Feature","geometry":{"type":"Point","coordinates":[17.2352655,49.6069014]},"properties":{"id":"service:9a56ec7c-9173-4dde-8b93-360ac0115cda","kind":"service","longitude":17.2352655,"latitude":49.6069014,"name":"kolobezky.bike","city":"Olomouc","address":null,"covered":null,"access":null,"website":null,"phone":null,"source":"OpenStreetMap/node/4644145061","sourceUpdatedAt":null,"verifiedAt":null}},{"type":"Feature","geometry":{"type":"Point","coordinates":[17.2461116,49.5869183]},"properties":{"id":"service:b091579c-0e8b-4439-898c-da5f3a139dfd","kind":"service","longitude":17.2461116,"latitude":49.5869183,"name":"CYKLO Matesa","city":"Olomouc","address":null,"covered":null,"access":null,"website":null,"phone":null,"source":"OpenStreetMap/node/3437787268","sourceUpdatedAt":null,"verifiedAt":null}},{"type":"Feature","geometry":{"type":"Point","coordinates":[17.2519358,49.6088336]},"properties":{"id":"service:b4ac59d9-a82c-4365-b942-759cff569f53","kind":"service","longitude":17.2519358,"latitude":49.6088336,"name":"Jízdní kola Řehulka","city":"Olomouc","address":null,"covered":null,"access":null,"website":null,"phone":null,"source":"OpenStreetMap/node/4644144990","sourceUpdatedAt":null,"verifiedAt":null}},{"type":"Feature","geometry":{"type":"Point","coordinates":[17.2487561,49.590838]},"properties":{"id":"service:ba75ff73-e7a9-4ab6-8607-1c2df404fa51","kind":"service","longitude":17.2487561,"latitude":49.590838,"name":"Bajkazyl Olomouc","city":"Olomouc","address":null,"covered":null,"access":null,"website":null,"phone":null,"source":"OpenStreetMap/node/4644145076","sourceUpdatedAt":null,"verifiedAt":null}},{"type":"Feature","geometry":{"type":"Point","coordinates":[17.2614471,49.5892461]},"properties":{"id":"service:d298c01e-e203-4108-949d-7425dbc7ee06","kind":"service","longitude":17.2614471,"latitude":49.5892461,"name":"Endorphin Republic","city":"Olomouc","address":null,"covered":null,"access":null,"website":null,"phone":null,"source":"OpenStreetMap/node/10129102693","sourceUpdatedAt":null,"verifiedAt":null}},{"type":"Feature","geometry":{"type":"Point","coordinates":[17.2546655,49.5892849]},"properties":{"id":"water:17aaafc8-833a-49cc-94fa-c9bea2953909","kind":"water","longitude":17.2546655,"latitude":49.5892849,"name":"Drinking Fountain","city":"Olomouc","address":null,"covered":null,"access":null,"website":null,"phone":null,"source":"OpenStreetMap/node/10940523275","sourceUpdatedAt":null,"verifiedAt":null}},{"type":"Feature","geometry":{"type":"Point","coordinates":[17.2531039,49.5918346]},"properties":{"id":"water:8f504c37-de95-4793-b9dc-0dabc76c0055","kind":"water","longitude":17.2531039,"latitude":49.5918346,"name":"Drinking Fountain","city":"Olomouc","address":null,"covered":null,"access":null,"website":null,"phone":null,"source":"OpenStreetMap/node/5621431154","sourceUpdatedAt":null,"verifiedAt":null}},{"type":"Feature","geometry":{"type":"Point","coordinates":[17.2509611,49.5934485]},"properties":{"id":"water:c348d67a-0914-4b5c-aec9-666a1a91775c","kind":"water","longitude":17.2509611,"latitude":49.5934485,"name":"Drinking Fountain","city":"Olomouc","address":null,"covered":null,"access":null,"website":null,"phone":null,"source":"OpenStreetMap/node/5621431153","sourceUpdatedAt":null,"verifiedAt":null}},{"type":"Feature","geometry":{"type":"Point","coordinates":[17.2394785,49.5893511]},"properties":{"id":"water:f7fe6336-78a6-45cf-9ac1-d413c31007b2","kind":"water","longitude":17.2394785,"latitude":49.5893511,"name":"Pítko","city":"Olomouc","address":null,"covered":null,"access":null,"website":null,"phone":null,"source":"OpenStreetMap/node/12926419501","sourceUpdatedAt":null,"verifiedAt":null}},{"type":"Feature","geometry":{"type":"Point","coordinates":[17.2563077,49.5906923]},"properties":{"id":"water:ff274165-abef-4fcc-a868-540193fc9805","kind":"water","longitude":17.2563077,"latitude":49.5906923,"name":"Drinking Fountain","city":"Olomouc","address":null,"covered":null,"access":null,"website":null,"phone":null,"source":"OpenStreetMap/node/13072858409","sourceUpdatedAt":null,"verifiedAt":null}}]}