{"type":"FeatureCollection","features":[{"type":"Feature","geometry":{"type":"Point","coordinates":[17.2619717,48.8646362]},"properties":{"id":"bikerack:8ef31f03-1c94-4566-84b7-419e2bd2fe09","kind":"bikerack","longitude":17.2619717,"latitude":48.8646362,"name":"Bicycle Parking","city":"Sudomerice","address":null,"covered":false,"access":null,"website":null,"phone":null,"source":"OpenStreetMap/node/9131477875","sourceUpdatedAt":null,"verifiedAt":null}},{"type":"Feature","geometry":{"type":"Point","coordinates":[17.2315156,48.8397377]},"properties":{"id":"service:1df1c561-9358-42aa-a1bc-4b3b5716df51","kind":"service","longitude":17.2315156,"latitude":48.8397377,"name":"Hertlsport","city":"Skalica","address":null,"covered":null,"access":null,"website":null,"phone":null,"source":"OpenStreetMap/node/5274255229","sourceUpdatedAt":null,"verifiedAt":null}},{"type":"Feature","geometry":{"type":"Point","coordinates":[17.2336851,48.8453489]},"properties":{"id":"service:289c57c0-0905-4d99-9e31-4570ad26b77e","kind":"service","longitude":17.2336851,"latitude":48.8453489,"name":"Zavkol","city":"Skalica","address":null,"covered":null,"access":null,"website":null,"phone":null,"source":"OpenStreetMap/node/5601177767","sourceUpdatedAt":null,"verifiedAt":null}}]}