{"type":"FeatureCollection","features":[{"type":"Feature","geometry":{"type":"Point","coordinates":[17.270055,48.2826617]},"properties":{"id":"bikerack:13a3aaff-83d3-431d-9ec8-2d69fe15f931","kind":"bikerack","longitude":17.270055,"latitude":48.2826617,"name":"Biciklitároló","city":"Pezinok","address":null,"covered":true,"access":null,"website":null,"phone":null,"source":"OpenStreetMap/node/3461322940","sourceUpdatedAt":null,"verifiedAt":null}},{"type":"Feature","geometry":{"type":"Point","coordinates":[17.2561084,48.2789688]},"properties":{"id":"bikerack:2e8dadfa-b017-44d2-9ac5-658a1080eb52","kind":"bikerack","longitude":17.2561084,"latitude":48.2789688,"name":"Biciklitároló","city":"Pezinok","address":null,"covered":false,"access":null,"website":null,"phone":null,"source":"OpenStreetMap/node/5922605570","sourceUpdatedAt":null,"verifiedAt":null}},{"type":"Feature","geometry":{"type":"Point","coordinates":[17.2555196,48.2780915]},"properties":{"id":"bikerack:7038eec7-6c65-486b-bfc8-3dccddf32bb2","kind":"bikerack","longitude":17.2555196,"latitude":48.2780915,"name":"Biciklitároló","city":"Pezinok","address":null,"covered":false,"access":null,"website":null,"phone":null,"source":"OpenStreetMap/node/5922605593","sourceUpdatedAt":null,"verifiedAt":null}},{"type":"Feature","geometry":{"type":"Point","coordinates":[17.269992,48.2825098]},"properties":{"id":"bikerack:7d495c51-06af-4f50-903f-0a2301d82168","kind":"bikerack","longitude":17.269992,"latitude":48.2825098,"name":"Biciklitároló","city":"Pezinok","address":null,"covered":true,"access":null,"website":null,"phone":null,"source":"OpenStreetMap/node/3452356116","sourceUpdatedAt":null,"verifiedAt":null}},{"type":"Feature","geometry":{"type":"Point","coordinates":[17.25634,48.2788769]},"properties":{"id":"bikerack:dac69b35-d91b-4243-980a-c6815960d785","kind":"bikerack","longitude":17.25634,"latitude":48.2788769,"name":"Biciklitároló","city":"Pezinok","address":null,"covered":false,"access":null,"website":null,"phone":null,"source":"OpenStreetMap/node/5922605571","sourceUpdatedAt":null,"verifiedAt":null}},{"type":"Feature","geometry":{"type":"Point","coordinates":[17.2343023,48.2734517]},"properties":{"id":"repair:f6cfca51-457e-4e6d-bee4-44629148d038","kind":"repair","longitude":17.2343023,"latitude":48.2734517,"name":"Kerékpár szervizállomás","city":"Svaty Jur","address":null,"covered":false,"access":null,"website":null,"phone":null,"source":"OpenStreetMap/node/9990103157","sourceUpdatedAt":null,"verifiedAt":null}}]}