{"type":"FeatureCollection","features":[{"type":"Feature","geometry":{"type":"Point","coordinates":[9.7643339,47.2428277]},"properties":{"id":"water:5f0839c9-1ac9-41ad-b13a-98697406918c","kind":"water","longitude":9.7643339,"latitude":47.2428277,"name":"Ivókút","city":"Schnifis","address":null,"covered":null,"access":null,"website":null,"phone":null,"source":"OpenStreetMap/node/1452660650","sourceUpdatedAt":null,"verifiedAt":null}},{"type":"Feature","geometry":{"type":"Point","coordinates":[9.7644642,47.2431303]},"properties":{"id":"water:5f135cb6-b272-4db3-a5b8-d4ec7ca2182d","kind":"water","longitude":9.7644642,"latitude":47.2431303,"name":"Ivókút","city":"Schnifis","address":null,"covered":null,"access":null,"website":null,"phone":null,"source":"OpenStreetMap/node/1452661213","sourceUpdatedAt":null,"verifiedAt":null}},{"type":"Feature","geometry":{"type":"Point","coordinates":[9.7681085,47.2225255]},"properties":{"id":"water:bfd3fc2a-bb31-4ed8-9adb-d74617f6aabf","kind":"water","longitude":9.7681085,"latitude":47.2225255,"name":"Ivókút","city":"Thuringen","address":null,"covered":null,"access":null,"website":null,"phone":null,"source":"OpenStreetMap/node/1883980266","sourceUpdatedAt":null,"verifiedAt":null}},{"type":"Feature","geometry":{"type":"Point","coordinates":[9.7684281,47.2490352]},"properties":{"id":"water:d20f662c-0a40-4d9f-ab60-e58e3f6cc719","kind":"water","longitude":9.7684281,"latitude":47.2490352,"name":"Ivókút","city":"Schnifis","address":null,"covered":null,"access":null,"website":null,"phone":null,"source":"OpenStreetMap/node/1452661748","sourceUpdatedAt":null,"verifiedAt":null}}]}