{"type":"FeatureCollection","features":[{"type":"Feature","geometry":{"type":"Point","coordinates":[9.795447,46.4601036]},"properties":{"id":"water:2f6122cc-76ed-4cfa-a427-15a2b960307a","kind":"water","longitude":9.795447,"latitude":46.4601036,"name":"Drinking Fountain","city":"Silvaplana","address":null,"covered":null,"access":null,"website":null,"phone":null,"source":"OpenStreetMap/node/1965223022","sourceUpdatedAt":null,"verifiedAt":null}},{"type":"Feature","geometry":{"type":"Point","coordinates":[9.7943675,46.4582272]},"properties":{"id":"water:9690a908-d0c5-482a-aa18-620210624160","kind":"water","longitude":9.7943675,"latitude":46.4582272,"name":"Drinking Fountain","city":"Silvaplana","address":null,"covered":null,"access":null,"website":null,"phone":null,"source":"OpenStreetMap/node/9980160333","sourceUpdatedAt":null,"verifiedAt":null}}]}