{"type":"FeatureCollection","features":[{"type":"Feature","geometry":{"type":"Point","coordinates":[9.7872839,45.3770676]},"properties":{"id":"bikerack:c4e32f31-562a-453e-aa20-e93e94319076","kind":"bikerack","longitude":9.7872839,"latitude":45.3770676,"name":"Parcheggio bici","city":"Romanengo","address":null,"covered":false,"access":null,"website":null,"phone":null,"source":"OpenStreetMap/node/3517587390","sourceUpdatedAt":null,"verifiedAt":null}},{"type":"Feature","geometry":{"type":"Point","coordinates":[9.7838804,45.3774222]},"properties":{"id":"water:2efd9ea9-a2d5-47bb-80d1-956055a4e9e2","kind":"water","longitude":9.7838804,"latitude":45.3774222,"name":"Fontanella","city":"Romanengo","address":null,"covered":null,"access":null,"website":null,"phone":null,"source":"OpenStreetMap/node/7541756654","sourceUpdatedAt":null,"verifiedAt":null}},{"type":"Feature","geometry":{"type":"Point","coordinates":[9.7871531,45.3841008]},"properties":{"id":"water:c7101cad-bacf-404f-9522-ba45c5518d60","kind":"water","longitude":9.7871531,"latitude":45.3841008,"name":"Fontanella","city":"Romanengo","address":null,"covered":null,"access":null,"website":null,"phone":null,"source":"OpenStreetMap/node/6747948359","sourceUpdatedAt":null,"verifiedAt":null}},{"type":"Feature","geometry":{"type":"Point","coordinates":[9.7846983,45.3786767]},"properties":{"id":"water:cb826ec8-e0cd-4644-8ce9-479812253d6e","kind":"water","longitude":9.7846983,"latitude":45.3786767,"name":"Fontanella","city":"Romanengo","address":null,"covered":null,"access":null,"website":null,"phone":null,"source":"OpenStreetMap/node/3517490171","sourceUpdatedAt":null,"verifiedAt":null}}]}