{"type":"FeatureCollection","features":[{"type":"Feature","geometry":{"type":"Point","coordinates":[21.6604569,49.2031539]},"properties":{"id":"water:79990527-68c7-4274-86a3-f74b814a1dcc","kind":"water","longitude":21.6604569,"latitude":49.2031539,"name":"Ivókút","city":"Stropkov","address":null,"covered":null,"access":null,"website":null,"phone":null,"source":"OpenStreetMap/node/283212932","sourceUpdatedAt":null,"verifiedAt":null}},{"type":"Feature","geometry":{"type":"Point","coordinates":[21.6586076,49.2025859]},"properties":{"id":"water:7bb62668-584d-403f-8948-1f8211945bd4","kind":"water","longitude":21.6586076,"latitude":49.2025859,"name":"Ivókút","city":"Stropkov","address":null,"covered":null,"access":null,"website":null,"phone":null,"source":"OpenStreetMap/node/8293825925","sourceUpdatedAt":null,"verifiedAt":null}}]}