{"type":"FeatureCollection","features":[{"type":"Feature","geometry":{"type":"Point","coordinates":[12.350614,51.2386853]},"properties":{"id":"bikerack:5126e635-760a-4caa-bcc7-c668a2c816bb","kind":"bikerack","longitude":12.350614,"latitude":51.2386853,"name":"Fahrradabstellplatz","city":"Zwenkau","address":null,"covered":false,"access":null,"website":null,"phone":null,"source":"OpenStreetMap/node/12160701445","sourceUpdatedAt":null,"verifiedAt":null}},{"type":"Feature","geometry":{"type":"Point","coordinates":[12.3773081,51.2605782]},"properties":{"id":"bikerack:68fb8be8-3909-4b11-8c4c-a199ef01b38f","kind":"bikerack","longitude":12.3773081,"latitude":51.2605782,"name":"Fahrradabstellplatz","city":"Markkleeberg","address":null,"covered":false,"access":null,"website":null,"phone":null,"source":"OpenStreetMap/node/12344819766","sourceUpdatedAt":null,"verifiedAt":null}},{"type":"Feature","geometry":{"type":"Point","coordinates":[12.3871316,51.2389864]},"properties":{"id":"bikerack:8814813f-d5e2-48ad-adce-74558c22d599","kind":"bikerack","longitude":12.3871316,"latitude":51.2389864,"name":"Fahrradabstellplatz","city":"Bohlen","address":null,"covered":false,"access":null,"website":null,"phone":null,"source":"OpenStreetMap/node/7557049736","sourceUpdatedAt":null,"verifiedAt":null}},{"type":"Feature","geometry":{"type":"Point","coordinates":[12.3797159,51.2498977]},"properties":{"id":"bikerack:a61b0f5a-5298-4865-a778-5375a1ea9a2d","kind":"bikerack","longitude":12.3797159,"latitude":51.2498977,"name":"Fahrradabstellplatz","city":"Markkleeberg","address":null,"covered":true,"access":null,"website":null,"phone":null,"source":"OpenStreetMap/way/834673110","sourceUpdatedAt":null,"verifiedAt":null}},{"type":"Feature","geometry":{"type":"Point","coordinates":[12.37991,51.2512766]},"properties":{"id":"bikerack:a81d13d4-8ec8-47cf-8a48-850a14185e8e","kind":"bikerack","longitude":12.37991,"latitude":51.2512766,"name":"Fahrradabstellplatz","city":"Markkleeberg","address":null,"covered":false,"access":null,"website":null,"phone":null,"source":"OpenStreetMap/node/11532152214","sourceUpdatedAt":null,"verifiedAt":null}},{"type":"Feature","geometry":{"type":"Point","coordinates":[12.3543184,51.2556003]},"properties":{"id":"bikerack:adb623ae-fd26-4517-9cc7-b60c67451146","kind":"bikerack","longitude":12.3543184,"latitude":51.2556003,"name":"Fahrradabstellplatz","city":"Markkleeberg","address":null,"covered":false,"access":null,"website":null,"phone":null,"source":"OpenStreetMap/node/1142259495","sourceUpdatedAt":null,"verifiedAt":null}}]}