{"type":"FeatureCollection","features":[{"type":"Feature","geometry":{"type":"Point","coordinates":[12.3595702,48.4489966]},"properties":{"id":"bikerack:0b53ece1-a97b-46b5-8ede-0994cacc8b8e","kind":"bikerack","longitude":12.3595702,"latitude":48.4489966,"name":"Fahrradabstellplatz","city":"Vilsbiburg","address":null,"covered":false,"access":null,"website":null,"phone":null,"source":"OpenStreetMap/node/4211575348","sourceUpdatedAt":null,"verifiedAt":null}},{"type":"Feature","geometry":{"type":"Point","coordinates":[12.3557469,48.4484941]},"properties":{"id":"bikerack:3681ca59-203c-4f34-a841-60ddd981d389","kind":"bikerack","longitude":12.3557469,"latitude":48.4484941,"name":"Fahrradabstellplatz","city":"Vilsbiburg","address":null,"covered":false,"access":null,"website":null,"phone":null,"source":"OpenStreetMap/node/3711679084","sourceUpdatedAt":null,"verifiedAt":null}},{"type":"Feature","geometry":{"type":"Point","coordinates":[12.3597177,48.4488685]},"properties":{"id":"bikerack:36f2e0ca-7b5b-46f0-b7a2-96fd3708353a","kind":"bikerack","longitude":12.3597177,"latitude":48.4488685,"name":"Fahrradabstellplatz","city":"Vilsbiburg","address":null,"covered":false,"access":null,"website":null,"phone":null,"source":"OpenStreetMap/node/4211575345","sourceUpdatedAt":null,"verifiedAt":null}},{"type":"Feature","geometry":{"type":"Point","coordinates":[12.3544791,48.4491086]},"properties":{"id":"bikerack:45370f93-573c-446c-8941-794e30b2d9fd","kind":"bikerack","longitude":12.3544791,"latitude":48.4491086,"name":"Fahrradabstellplatz","city":"Vilsbiburg","address":null,"covered":false,"access":null,"website":null,"phone":null,"source":"OpenStreetMap/node/3936954662","sourceUpdatedAt":null,"verifiedAt":null}},{"type":"Feature","geometry":{"type":"Point","coordinates":[12.354718,48.4491425]},"properties":{"id":"bikerack:5762ed41-3355-43ef-8b49-36195b054c52","kind":"bikerack","longitude":12.354718,"latitude":48.4491425,"name":"Fahrradabstellplatz","city":"Vilsbiburg","address":null,"covered":false,"access":null,"website":null,"phone":null,"source":"OpenStreetMap/node/3936954663","sourceUpdatedAt":null,"verifiedAt":null}},{"type":"Feature","geometry":{"type":"Point","coordinates":[12.353712,48.4496682]},"properties":{"id":"bikerack:69eea424-4c51-4840-bb0e-4f76898a2e1c","kind":"bikerack","longitude":12.353712,"latitude":48.4496682,"name":"Fahrradabstellplatz","city":"Vilsbiburg","address":null,"covered":false,"access":null,"website":null,"phone":null,"source":"OpenStreetMap/node/3917590252","sourceUpdatedAt":null,"verifiedAt":null}},{"type":"Feature","geometry":{"type":"Point","coordinates":[12.3555171,48.4519214]},"properties":{"id":"bikerack:75923ba6-f54b-4899-ba9a-9fb6f8124b81","kind":"bikerack","longitude":12.3555171,"latitude":48.4519214,"name":"Fahrradabstellplatz","city":"Vilsbiburg","address":null,"covered":false,"access":null,"website":null,"phone":null,"source":"OpenStreetMap/node/3913364516","sourceUpdatedAt":null,"verifiedAt":null}},{"type":"Feature","geometry":{"type":"Point","coordinates":[12.355608,48.4516221]},"properties":{"id":"bikerack:801f212b-dd1b-4c18-92e1-7f24d0e289bf","kind":"bikerack","longitude":12.355608,"latitude":48.4516221,"name":"Fahrradabstellplatz","city":"Vilsbiburg","address":null,"covered":false,"access":null,"website":null,"phone":null,"source":"OpenStreetMap/node/3913364441","sourceUpdatedAt":null,"verifiedAt":null}},{"type":"Feature","geometry":{"type":"Point","coordinates":[12.3548027,48.4486172]},"properties":{"id":"bikerack:9529df20-d09d-4e0c-a84a-44a490f98e3c","kind":"bikerack","longitude":12.3548027,"latitude":48.4486172,"name":"Fahrradabstellplatz","city":"Vilsbiburg","address":null,"covered":false,"access":null,"website":null,"phone":null,"source":"OpenStreetMap/node/3924148142","sourceUpdatedAt":null,"verifiedAt":null}},{"type":"Feature","geometry":{"type":"Point","coordinates":[12.3567919,48.451747]},"properties":{"id":"bikerack:b49dad5b-b831-4b8e-9d22-46dba4cc2ebd","kind":"bikerack","longitude":12.3567919,"latitude":48.451747,"name":"Fahrradabstellplatz","city":"Vilsbiburg","address":null,"covered":true,"access":null,"website":null,"phone":null,"source":"OpenStreetMap/way/388133166","sourceUpdatedAt":null,"verifiedAt":null}},{"type":"Feature","geometry":{"type":"Point","coordinates":[12.3545407,48.4492338]},"properties":{"id":"bikerack:b6e21f2a-9a67-4a03-89cd-7e36d23d68fd","kind":"bikerack","longitude":12.3545407,"latitude":48.4492338,"name":"Fahrradabstellplatz","city":"Vilsbiburg","address":null,"covered":false,"access":null,"website":null,"phone":null,"source":"OpenStreetMap/node/3936954666","sourceUpdatedAt":null,"verifiedAt":null}},{"type":"Feature","geometry":{"type":"Point","coordinates":[12.3541883,48.4518867]},"properties":{"id":"bikerack:d1f0ba8a-74b5-42bc-839d-16df643c8028","kind":"bikerack","longitude":12.3541883,"latitude":48.4518867,"name":"Fahrradabstellplatz","city":"Vilsbiburg","address":null,"covered":true,"access":null,"website":null,"phone":null,"source":"OpenStreetMap/way/388133170","sourceUpdatedAt":null,"verifiedAt":null}},{"type":"Feature","geometry":{"type":"Point","coordinates":[12.3542411,48.4494185]},"properties":{"id":"bikerack:e9ff94f7-f61c-4d01-95c3-c3bd4591e6f9","kind":"bikerack","longitude":12.3542411,"latitude":48.4494185,"name":"Fahrradabstellplatz","city":"Vilsbiburg","address":null,"covered":false,"access":null,"website":null,"phone":null,"source":"OpenStreetMap/node/3936954667","sourceUpdatedAt":null,"verifiedAt":null}},{"type":"Feature","geometry":{"type":"Point","coordinates":[12.3541361,48.4494739]},"properties":{"id":"bikerack:f73c8781-dc8d-4e99-a26a-f157196e6b7e","kind":"bikerack","longitude":12.3541361,"latitude":48.4494739,"name":"Fahrradabstellplatz","city":"Vilsbiburg","address":null,"covered":false,"access":null,"website":null,"phone":null,"source":"OpenStreetMap/node/3917590251","sourceUpdatedAt":null,"verifiedAt":null}},{"type":"Feature","geometry":{"type":"Point","coordinates":[12.3551042,48.4479673]},"properties":{"id":"repair:7e0b5e1e-fcb4-4845-977d-824c8d8f0263","kind":"repair","longitude":12.3551042,"latitude":48.4479673,"name":"Fahrradreparaturstation","city":"Vilsbiburg","address":null,"covered":false,"access":null,"website":null,"phone":null,"source":"OpenStreetMap/node/13313734029","sourceUpdatedAt":null,"verifiedAt":null}},{"type":"Feature","geometry":{"type":"Point","coordinates":[12.3527656,48.4505859]},"properties":{"id":"service:7b4a924d-5e6a-44dc-8387-f6d0495d988e","kind":"service","longitude":12.3527656,"latitude":48.4505859,"name":"Fahrrad Stelzenberger","city":"Vilsbiburg","address":null,"covered":null,"access":null,"website":null,"phone":null,"source":"OpenStreetMap/node/2330429597","sourceUpdatedAt":null,"verifiedAt":null}},{"type":"Feature","geometry":{"type":"Point","coordinates":[12.3521592,48.4512807]},"properties":{"id":"service:8d9c8069-1d90-403b-9622-c65bb367c4db","kind":"service","longitude":12.3521592,"latitude":48.4512807,"name":"Vilstal-Bikes Baier","city":"Vilsbiburg","address":null,"covered":null,"access":null,"website":null,"phone":null,"source":"OpenStreetMap/node/11389960988","sourceUpdatedAt":null,"verifiedAt":null}},{"type":"Feature","geometry":{"type":"Point","coordinates":[12.3545943,48.4492278]},"properties":{"id":"water:b7ec886f-f588-44c1-8fa3-bb87e3cc8890","kind":"water","longitude":12.3545943,"latitude":48.4492278,"name":"Trinkwasser","city":"Vilsbiburg","address":null,"covered":null,"access":null,"website":null,"phone":null,"source":"OpenStreetMap/node/5736695137","sourceUpdatedAt":null,"verifiedAt":null}}]}