{"type":"FeatureCollection","features":[{"type":"Feature","geometry":{"type":"Point","coordinates":[12.3914719,45.4268994]},"properties":{"id":"bikerack:03c72c48-3639-4a73-9101-73e3f19da1ee","kind":"bikerack","longitude":12.3914719,"latitude":45.4268994,"name":"Parcheggio bici","city":"Lido","address":null,"covered":false,"access":null,"website":null,"phone":null,"source":"OpenStreetMap/way/1089312861","sourceUpdatedAt":null,"verifiedAt":null}},{"type":"Feature","geometry":{"type":"Point","coordinates":[12.3701589,45.4165379]},"properties":{"id":"bikerack:3198315f-a826-4e0a-9e53-5bc9321639e5","kind":"bikerack","longitude":12.3701589,"latitude":45.4165379,"name":"Parcheggio bici","city":"Lido","address":null,"covered":false,"access":null,"website":null,"phone":null,"source":"OpenStreetMap/node/7746338312","sourceUpdatedAt":null,"verifiedAt":null}},{"type":"Feature","geometry":{"type":"Point","coordinates":[12.3786777,45.4258655]},"properties":{"id":"bikerack:442ab904-b722-4937-afc9-85c120203006","kind":"bikerack","longitude":12.3786777,"latitude":45.4258655,"name":"Parcheggio bici","city":"Lido","address":null,"covered":false,"access":null,"website":null,"phone":null,"source":"OpenStreetMap/node/10839908269","sourceUpdatedAt":null,"verifiedAt":null}},{"type":"Feature","geometry":{"type":"Point","coordinates":[12.3759331,45.414837]},"properties":{"id":"bikerack:885f9bec-901e-457c-9aae-94629aa302d3","kind":"bikerack","longitude":12.3759331,"latitude":45.414837,"name":"Parcheggio bici","city":"Lido","address":null,"covered":false,"access":null,"website":null,"phone":null,"source":"OpenStreetMap/node/12755905649","sourceUpdatedAt":null,"verifiedAt":null}},{"type":"Feature","geometry":{"type":"Point","coordinates":[12.3807559,45.4193591]},"properties":{"id":"bikerack:8b725ec5-7401-4a8c-8156-e947891514dd","kind":"bikerack","longitude":12.3807559,"latitude":45.4193591,"name":"Parcheggio bici","city":"Lido","address":null,"covered":false,"access":null,"website":null,"phone":null,"source":"OpenStreetMap/node/9022546121","sourceUpdatedAt":null,"verifiedAt":null}},{"type":"Feature","geometry":{"type":"Point","coordinates":[12.3681007,45.4164224]},"properties":{"id":"bikerack:f7f256a0-f5fd-4eb0-88d0-413507f43394","kind":"bikerack","longitude":12.3681007,"latitude":45.4164224,"name":"Parcheggio bici","city":"Lido","address":null,"covered":false,"access":null,"website":null,"phone":null,"source":"OpenStreetMap/node/1791248222","sourceUpdatedAt":null,"verifiedAt":null}},{"type":"Feature","geometry":{"type":"Point","coordinates":[12.3669518,45.4053193]},"properties":{"id":"repair:9b5d9ce0-d9ae-4479-acd2-2751901d1d92","kind":"repair","longitude":12.3669518,"latitude":45.4053193,"name":"Stazione di riparazione bici","city":"Lido","address":null,"covered":false,"access":null,"website":null,"phone":null,"source":"OpenStreetMap/node/3851371363","sourceUpdatedAt":null,"verifiedAt":null}},{"type":"Feature","geometry":{"type":"Point","coordinates":[12.3695529,45.4177361]},"properties":{"id":"service:3a8341df-e459-492b-97a6-fb2019e2dfb3","kind":"service","longitude":12.3695529,"latitude":45.4177361,"name":"Gardin - Bike Rental","city":"Lido","address":null,"covered":null,"access":null,"website":null,"phone":null,"source":"OpenStreetMap/node/6446288292","sourceUpdatedAt":null,"verifiedAt":null}},{"type":"Feature","geometry":{"type":"Point","coordinates":[12.374969,45.4151975]},"properties":{"id":"service:ca88fd1f-9543-4994-9783-8fb199f4c60d","kind":"service","longitude":12.374969,"latitude":45.4151975,"name":"Negozio di biciclette","city":"Lido","address":null,"covered":null,"access":null,"website":null,"phone":null,"source":"OpenStreetMap/node/5161848619","sourceUpdatedAt":null,"verifiedAt":null}},{"type":"Feature","geometry":{"type":"Point","coordinates":[12.3567213,45.4291837]},"properties":{"id":"water:011759cd-7e8c-4842-a5d3-bf14aa57f4c6","kind":"water","longitude":12.3567213,"latitude":45.4291837,"name":"Fontanella","city":"Lido","address":null,"covered":null,"access":null,"website":null,"phone":null,"source":"OpenStreetMap/node/13006709855","sourceUpdatedAt":null,"verifiedAt":null}},{"type":"Feature","geometry":{"type":"Point","coordinates":[12.3770882,45.4152991]},"properties":{"id":"water:0760d5e8-3566-4d60-a3d8-5e16a2d2de90","kind":"water","longitude":12.3770882,"latitude":45.4152991,"name":"Fontanella","city":"Lido","address":null,"covered":null,"access":null,"website":null,"phone":null,"source":"OpenStreetMap/node/2425118800","sourceUpdatedAt":null,"verifiedAt":null}},{"type":"Feature","geometry":{"type":"Point","coordinates":[12.3798961,45.4185758]},"properties":{"id":"water:1e2131c7-2e48-48df-992c-0c6b65a5c26a","kind":"water","longitude":12.3798961,"latitude":45.4185758,"name":"Fontanella","city":"Lido","address":null,"covered":null,"access":null,"website":null,"phone":null,"source":"OpenStreetMap/node/7856229032","sourceUpdatedAt":null,"verifiedAt":null}},{"type":"Feature","geometry":{"type":"Point","coordinates":[12.373716,45.4153344]},"properties":{"id":"water:21c55bbf-0ee2-4860-825c-53e648348e59","kind":"water","longitude":12.373716,"latitude":45.4153344,"name":"Fontanella","city":"Lido","address":null,"covered":null,"access":null,"website":null,"phone":null,"source":"OpenStreetMap/node/4955472977","sourceUpdatedAt":null,"verifiedAt":null}},{"type":"Feature","geometry":{"type":"Point","coordinates":[12.368413,45.40707]},"properties":{"id":"water:3afb9880-ca50-4245-979c-0333de1346da","kind":"water","longitude":12.368413,"latitude":45.40707,"name":"Fontanella","city":"Lido","address":null,"covered":null,"access":null,"website":null,"phone":null,"source":"OpenStreetMap/node/2477391527","sourceUpdatedAt":null,"verifiedAt":null}},{"type":"Feature","geometry":{"type":"Point","coordinates":[12.3705578,45.4083246]},"properties":{"id":"water:4c97b589-576b-401d-aea6-7cba03ce55d0","kind":"water","longitude":12.3705578,"latitude":45.4083246,"name":"Fontanella","city":"Lido","address":null,"covered":null,"access":null,"website":null,"phone":null,"source":"OpenStreetMap/node/7743887598","sourceUpdatedAt":null,"verifiedAt":null}},{"type":"Feature","geometry":{"type":"Point","coordinates":[12.3777492,45.4244312]},"properties":{"id":"water:4cb52dd4-da57-4845-8589-02ab50c38a04","kind":"water","longitude":12.3777492,"latitude":45.4244312,"name":"Fontanella","city":"Lido","address":null,"covered":null,"access":null,"website":null,"phone":null,"source":"OpenStreetMap/node/1303944111","sourceUpdatedAt":null,"verifiedAt":null}},{"type":"Feature","geometry":{"type":"Point","coordinates":[12.3802942,45.4280252]},"properties":{"id":"water:5df6201d-5f71-487b-8c8c-3eddd48cb5df","kind":"water","longitude":12.3802942,"latitude":45.4280252,"name":"Fontanella","city":"Lido","address":null,"covered":null,"access":null,"website":null,"phone":null,"source":"OpenStreetMap/node/1303944192","sourceUpdatedAt":null,"verifiedAt":null}},{"type":"Feature","geometry":{"type":"Point","coordinates":[12.371279,45.41588]},"properties":{"id":"water:78b9f957-6d6a-4679-8eef-2148fc161168","kind":"water","longitude":12.371279,"latitude":45.41588,"name":"Fontanella","city":"Lido","address":null,"covered":null,"access":null,"website":null,"phone":null,"source":"OpenStreetMap/node/2425118801","sourceUpdatedAt":null,"verifiedAt":null}},{"type":"Feature","geometry":{"type":"Point","coordinates":[12.3692222,45.417678]},"properties":{"id":"water:9b131d97-a56a-4f93-8492-cdb3996acdb7","kind":"water","longitude":12.3692222,"latitude":45.417678,"name":"Fontanella","city":"Lido","address":null,"covered":null,"access":null,"website":null,"phone":null,"source":"OpenStreetMap/node/11127540174","sourceUpdatedAt":null,"verifiedAt":null}},{"type":"Feature","geometry":{"type":"Point","coordinates":[12.3566516,45.4291525]},"properties":{"id":"water:a36c4371-87d3-4dde-b6af-330ea791f6cd","kind":"water","longitude":12.3566516,"latitude":45.4291525,"name":"Fontanella","city":"Lido","address":null,"covered":null,"access":null,"website":null,"phone":null,"source":"OpenStreetMap/node/5361310224","sourceUpdatedAt":null,"verifiedAt":null}},{"type":"Feature","geometry":{"type":"Point","coordinates":[12.3683227,45.4074232]},"properties":{"id":"water:adfc4729-7ea1-4ff2-9823-2fc419a5cf27","kind":"water","longitude":12.3683227,"latitude":45.4074232,"name":"Fontanella","city":"Lido","address":null,"covered":null,"access":null,"website":null,"phone":null,"source":"OpenStreetMap/node/10145237401","sourceUpdatedAt":null,"verifiedAt":null}},{"type":"Feature","geometry":{"type":"Point","coordinates":[12.373929,45.4151]},"properties":{"id":"water:bf7d6ea5-9895-459e-a303-0b6bbfe62d62","kind":"water","longitude":12.373929,"latitude":45.4151,"name":"Fontanella","city":"Lido","address":null,"covered":null,"access":null,"website":null,"phone":null,"source":"OpenStreetMap/node/2425118798","sourceUpdatedAt":null,"verifiedAt":null}},{"type":"Feature","geometry":{"type":"Point","coordinates":[12.3609421,45.4027]},"properties":{"id":"water:e8195223-ce05-4acd-b503-1b84c55f93bb","kind":"water","longitude":12.3609421,"latitude":45.4027,"name":"Fontanella","city":"Lido","address":null,"covered":null,"access":null,"website":null,"phone":null,"source":"OpenStreetMap/node/13353079193","sourceUpdatedAt":null,"verifiedAt":null}}]}