{"type":"FeatureCollection","features":[{"type":"Feature","geometry":{"type":"Point","coordinates":[18.8278126,53.5050349]},"properties":{"id":"bikerack:1b3541f2-b515-454c-86d7-6f20a6c9e1ef","kind":"bikerack","longitude":18.8278126,"latitude":53.5050349,"name":"Biciklitároló","city":"Grudziadz","address":null,"covered":true,"access":null,"website":null,"phone":null,"source":"OpenStreetMap/node/8998455625","sourceUpdatedAt":null,"verifiedAt":null}},{"type":"Feature","geometry":{"type":"Point","coordinates":[18.8253992,53.4920519]},"properties":{"id":"bikerack:58c3a544-fb67-4d28-8b8f-e799d0ae88e0","kind":"bikerack","longitude":18.8253992,"latitude":53.4920519,"name":"Biciklitároló","city":"Grudziadz","address":null,"covered":false,"access":null,"website":null,"phone":null,"source":"OpenStreetMap/node/10317043115","sourceUpdatedAt":null,"verifiedAt":null}}]}