{"type":"FeatureCollection","features":[{"type":"Feature","geometry":{"type":"Point","coordinates":[18.8194688,50.3186446]},"properties":{"id":"bikerack:04c516b4-e649-4cf4-aeb8-21de0ab9aecd","kind":"bikerack","longitude":18.8194688,"latitude":50.3186446,"name":"Biciklitároló","city":"Zabrze","address":null,"covered":false,"access":null,"website":null,"phone":null,"source":"OpenStreetMap/node/9445297780","sourceUpdatedAt":null,"verifiedAt":null}},{"type":"Feature","geometry":{"type":"Point","coordinates":[18.8139115,50.3174634]},"properties":{"id":"bikerack:2d0d0536-2e1d-48fe-a331-cc1c47134036","kind":"bikerack","longitude":18.8139115,"latitude":50.3174634,"name":"Biciklitároló","city":"Zabrze","address":null,"covered":false,"access":null,"website":null,"phone":null,"source":"OpenStreetMap/node/7383034301","sourceUpdatedAt":null,"verifiedAt":null}},{"type":"Feature","geometry":{"type":"Point","coordinates":[18.8182222,50.3179855]},"properties":{"id":"bikerack:f7dbc47d-5994-4b3d-ada0-48d4aadf88a2","kind":"bikerack","longitude":18.8182222,"latitude":50.3179855,"name":"Biciklitároló","city":"Zabrze","address":null,"covered":false,"access":null,"website":null,"phone":null,"source":"OpenStreetMap/node/7383034303","sourceUpdatedAt":null,"verifiedAt":null}}]}