{"type":"FeatureCollection","features":[{"type":"Feature","geometry":{"type":"Point","coordinates":[18.8344077,47.4040006]},"properties":{"id":"bikerack:139621ed-7625-4aa1-bc98-dbd1f9717e0b","kind":"bikerack","longitude":18.8344077,"latitude":47.4040006,"name":"Biciklitároló","city":"Soskut","address":null,"covered":false,"access":null,"website":null,"phone":null,"source":"OpenStreetMap/node/4729428934","sourceUpdatedAt":null,"verifiedAt":null}},{"type":"Feature","geometry":{"type":"Point","coordinates":[18.8321537,47.4089235]},"properties":{"id":"bikerack:92cd9b93-ae3d-4402-9262-beea310c1f6f","kind":"bikerack","longitude":18.8321537,"latitude":47.4089235,"name":"Biciklitároló","city":"Soskut","address":null,"covered":false,"access":null,"website":null,"phone":null,"source":"OpenStreetMap/node/4729431291","sourceUpdatedAt":null,"verifiedAt":null}},{"type":"Feature","geometry":{"type":"Point","coordinates":[18.82807,47.4027316]},"properties":{"id":"water:3ccac131-2fd1-4851-bae8-6034d18fee0c","kind":"water","longitude":18.82807,"latitude":47.4027316,"name":"Ivókút","city":null,"address":null,"covered":null,"access":null,"website":null,"phone":null,"source":"OpenStreetMap","sourceUpdatedAt":null,"verifiedAt":null}},{"type":"Feature","geometry":{"type":"Point","coordinates":[18.8303309,47.4078734]},"properties":{"id":"water:723d39de-959f-4951-9858-eda2dfeed218","kind":"water","longitude":18.8303309,"latitude":47.4078734,"name":"Ivókút","city":null,"address":null,"covered":null,"access":null,"website":null,"phone":null,"source":"OpenStreetMap","sourceUpdatedAt":null,"verifiedAt":null}},{"type":"Feature","geometry":{"type":"Point","coordinates":[18.8270485,47.402342]},"properties":{"id":"water:853d9e30-cbb7-4c07-abcb-0dcbd78c412b","kind":"water","longitude":18.8270485,"latitude":47.402342,"name":"Ivókút","city":null,"address":null,"covered":null,"access":null,"website":null,"phone":null,"source":"OpenStreetMap","sourceUpdatedAt":null,"verifiedAt":null}},{"type":"Feature","geometry":{"type":"Point","coordinates":[18.8266712,47.404048]},"properties":{"id":"water:8e96bad5-31ec-4845-942b-5135340ef32c","kind":"water","longitude":18.8266712,"latitude":47.404048,"name":"Ivókút","city":null,"address":null,"covered":null,"access":null,"website":null,"phone":null,"source":"OpenStreetMap","sourceUpdatedAt":null,"verifiedAt":null}},{"type":"Feature","geometry":{"type":"Point","coordinates":[18.8272275,47.4099009]},"properties":{"id":"water:fa9aa792-512a-495d-80d9-0deae0a1ba94","kind":"water","longitude":18.8272275,"latitude":47.4099009,"name":"Ivókút","city":null,"address":null,"covered":null,"access":null,"website":null,"phone":null,"source":"OpenStreetMap","sourceUpdatedAt":null,"verifiedAt":null}}]}