{"type":"FeatureCollection","features":[{"type":"Feature","geometry":{"type":"Point","coordinates":[13.5408652,51.0594129]},"properties":{"id":"bikerack:1890bf1c-e321-404a-8352-15fd54bcd21d","kind":"bikerack","longitude":13.5408652,"latitude":51.0594129,"name":"Fahrradabstellplatz","city":"Wilsdruff","address":null,"covered":true,"access":null,"website":null,"phone":null,"source":"OpenStreetMap/way/463414140","sourceUpdatedAt":null,"verifiedAt":null}},{"type":"Feature","geometry":{"type":"Point","coordinates":[13.5529293,51.0585729]},"properties":{"id":"bikerack:3a0cf6a7-1b56-477f-808e-cfa67c31fb0c","kind":"bikerack","longitude":13.5529293,"latitude":51.0585729,"name":"Fahrradabstellplatz","city":"Wilsdruff","address":null,"covered":true,"access":null,"website":null,"phone":null,"source":"OpenStreetMap/way/465213092","sourceUpdatedAt":null,"verifiedAt":null}}]}