{"type":"FeatureCollection","features":[{"type":"Feature","geometry":{"type":"Point","coordinates":[13.5479846,45.8416996]},"properties":{"id":"water:a1ba50b4-7bec-4eb4-a06e-d87897b25736","kind":"water","longitude":13.5479846,"latitude":45.8416996,"name":"Fontanella","city":"Doberdo del Lago","address":null,"covered":null,"access":null,"website":null,"phone":null,"source":"OpenStreetMap/node/5876976041","sourceUpdatedAt":null,"verifiedAt":null}},{"type":"Feature","geometry":{"type":"Point","coordinates":[13.5375944,45.845795]},"properties":{"id":"water:f646abc2-0525-4605-a4c1-a8b501536c9d","kind":"water","longitude":13.5375944,"latitude":45.845795,"name":"Fontanella","city":"Doberdo del Lago","address":null,"covered":null,"access":null,"website":null,"phone":null,"source":"OpenStreetMap/node/12263151838","sourceUpdatedAt":null,"verifiedAt":null}}]}