{"type":"FeatureCollection","features":[{"type":"Feature","geometry":{"type":"Point","coordinates":[15.620072,51.118906]},"properties":{"id":"bikerack:3538f36a-e8a1-47f1-9ebf-3873d79fa38e","kind":"bikerack","longitude":15.620072,"latitude":51.118906,"name":"Biciklitároló","city":"Lwowek Slaski","address":null,"covered":false,"access":null,"website":null,"phone":null,"source":"OpenStreetMap/node/11192831780","sourceUpdatedAt":null,"verifiedAt":null}},{"type":"Feature","geometry":{"type":"Point","coordinates":[15.614932,51.1174023]},"properties":{"id":"bikerack:b79c7e07-11db-4514-b870-52c0ac9df812","kind":"bikerack","longitude":15.614932,"latitude":51.1174023,"name":"Biciklitároló","city":"Lwowek Slaski","address":null,"covered":false,"access":null,"website":null,"phone":null,"source":"OpenStreetMap/node/4053569039","sourceUpdatedAt":null,"verifiedAt":null}}]}