{"type":"FeatureCollection","features":[{"type":"Feature","geometry":{"type":"Point","coordinates":[15.6364232,49.9637102]},"properties":{"id":"bikerack:47db7fcf-2f00-4804-9fd9-155f70aa6743","kind":"bikerack","longitude":15.6364232,"latitude":49.9637102,"name":"Bicycle Parking","city":"Hermanuv Mestec","address":null,"covered":false,"access":null,"website":null,"phone":null,"source":"OpenStreetMap/node/13308193365","sourceUpdatedAt":null,"verifiedAt":null}},{"type":"Feature","geometry":{"type":"Point","coordinates":[15.6363184,49.9636848]},"properties":{"id":"bikerack:96a8f322-defd-4cb1-b852-c1315df7064e","kind":"bikerack","longitude":15.6363184,"latitude":49.9636848,"name":"Bicycle Parking","city":"Hermanuv Mestec","address":null,"covered":false,"access":null,"website":null,"phone":null,"source":"OpenStreetMap/node/13308217521","sourceUpdatedAt":null,"verifiedAt":null}}]}