{"type":"FeatureCollection","features":[{"type":"Feature","geometry":{"type":"Point","coordinates":[15.634415,46.5498763]},"properties":{"id":"bikerack:0f23848a-0902-4dde-87fc-1ea951ab1188","kind":"bikerack","longitude":15.634415,"latitude":46.5498763,"name":"Biciklitároló","city":"Maribor","address":null,"covered":false,"access":null,"website":null,"phone":null,"source":"OpenStreetMap/node/13624119559","sourceUpdatedAt":null,"verifiedAt":null}},{"type":"Feature","geometry":{"type":"Point","coordinates":[15.6403444,46.540547]},"properties":{"id":"bikerack:172fba67-23ba-4839-b4d0-96ea517d2bee","kind":"bikerack","longitude":15.6403444,"latitude":46.540547,"name":"Biciklitároló","city":"Maribor","address":null,"covered":false,"access":null,"website":null,"phone":null,"source":"OpenStreetMap/node/3530786193","sourceUpdatedAt":null,"verifiedAt":null}},{"type":"Feature","geometry":{"type":"Point","coordinates":[15.6342101,46.5424647]},"properties":{"id":"bikerack:1a36dbb3-72bb-45bb-9e71-2d2807ee3010","kind":"bikerack","longitude":15.6342101,"latitude":46.5424647,"name":"Biciklitároló","city":"Maribor","address":null,"covered":false,"access":null,"website":null,"phone":null,"source":"OpenStreetMap/node/6140717375","sourceUpdatedAt":null,"verifiedAt":null}},{"type":"Feature","geometry":{"type":"Point","coordinates":[15.6193132,46.5460262]},"properties":{"id":"bikerack:1eddda89-26a8-4627-98b1-569919f4d325","kind":"bikerack","longitude":15.6193132,"latitude":46.5460262,"name":"Biciklitároló","city":"Pekre","address":null,"covered":false,"access":null,"website":null,"phone":null,"source":"OpenStreetMap/node/13230544994","sourceUpdatedAt":null,"verifiedAt":null}},{"type":"Feature","geometry":{"type":"Point","coordinates":[15.6413412,46.5571416]},"properties":{"id":"bikerack:242dd3d4-88d5-4df7-9a59-0401a1d0578b","kind":"bikerack","longitude":15.6413412,"latitude":46.5571416,"name":"Biciklitároló","city":"Maribor","address":null,"covered":false,"access":null,"website":null,"phone":null,"source":"OpenStreetMap/node/8963757617","sourceUpdatedAt":null,"verifiedAt":null}},{"type":"Feature","geometry":{"type":"Point","coordinates":[15.6286874,46.5528383]},"properties":{"id":"bikerack:3876dfb5-0b9d-4b17-9d04-823141704462","kind":"bikerack","longitude":15.6286874,"latitude":46.5528383,"name":"Biciklitároló","city":"Maribor","address":null,"covered":false,"access":null,"website":null,"phone":null,"source":"OpenStreetMap/node/6140717381","sourceUpdatedAt":null,"verifiedAt":null}},{"type":"Feature","geometry":{"type":"Point","coordinates":[15.621434,46.5477102]},"properties":{"id":"bikerack:5269077c-3cac-40c6-b9d7-f86e4a175858","kind":"bikerack","longitude":15.621434,"latitude":46.5477102,"name":"Biciklitároló","city":"Pekre","address":null,"covered":false,"access":null,"website":null,"phone":null,"source":"OpenStreetMap/node/13520590945","sourceUpdatedAt":null,"verifiedAt":null}},{"type":"Feature","geometry":{"type":"Point","coordinates":[15.6441799,46.5564977]},"properties":{"id":"bikerack:60df75a8-14c3-4b14-bd9b-79b19f6ee1e3","kind":"bikerack","longitude":15.6441799,"latitude":46.5564977,"name":"Biciklitároló","city":"Maribor","address":null,"covered":false,"access":null,"website":null,"phone":null,"source":"OpenStreetMap/node/13039715046","sourceUpdatedAt":null,"verifiedAt":null}},{"type":"Feature","geometry":{"type":"Point","coordinates":[15.6410452,46.5572967]},"properties":{"id":"bikerack:648c2372-0b31-426e-b43a-af4c375770f8","kind":"bikerack","longitude":15.6410452,"latitude":46.5572967,"name":"Biciklitároló","city":"Maribor","address":null,"covered":false,"access":null,"website":null,"phone":null,"source":"OpenStreetMap/node/8963757517","sourceUpdatedAt":null,"verifiedAt":null}},{"type":"Feature","geometry":{"type":"Point","coordinates":[15.6408912,46.5515565]},"properties":{"id":"bikerack:68de7b6a-38be-49ed-ad13-60fc5eec4590","kind":"bikerack","longitude":15.6408912,"latitude":46.5515565,"name":"Biciklitároló","city":"Maribor","address":null,"covered":false,"access":null,"website":null,"phone":null,"source":"OpenStreetMap/node/13629746077","sourceUpdatedAt":null,"verifiedAt":null}},{"type":"Feature","geometry":{"type":"Point","coordinates":[15.625025,46.5356467]},"properties":{"id":"bikerack:6c204556-5ec7-4404-bb4b-78e47b0236bd","kind":"bikerack","longitude":15.625025,"latitude":46.5356467,"name":"Biciklitároló","city":"Razvanje","address":null,"covered":false,"access":null,"website":null,"phone":null,"source":"OpenStreetMap/node/11390140609","sourceUpdatedAt":null,"verifiedAt":null}},{"type":"Feature","geometry":{"type":"Point","coordinates":[15.6414293,46.558023]},"properties":{"id":"bikerack:845fe4b9-01d5-4689-a18f-01321265816b","kind":"bikerack","longitude":15.6414293,"latitude":46.558023,"name":"Biciklitároló","city":"Maribor","address":null,"covered":false,"access":null,"website":null,"phone":null,"source":"OpenStreetMap/node/5226808279","sourceUpdatedAt":null,"verifiedAt":null}},{"type":"Feature","geometry":{"type":"Point","coordinates":[15.642334,46.5495834]},"properties":{"id":"bikerack:8bf55a33-391d-41cc-a15f-d71f35177faa","kind":"bikerack","longitude":15.642334,"latitude":46.5495834,"name":"Biciklitároló","city":"Maribor","address":null,"covered":false,"access":null,"website":null,"phone":null,"source":"OpenStreetMap/node/2613566832","sourceUpdatedAt":null,"verifiedAt":null}},{"type":"Feature","geometry":{"type":"Point","coordinates":[15.6258486,46.5399507]},"properties":{"id":"bikerack:905d771c-4bd8-41cb-9cbe-28002d413b9e","kind":"bikerack","longitude":15.6258486,"latitude":46.5399507,"name":"Biciklitároló","city":"Maribor","address":null,"covered":false,"access":null,"website":null,"phone":null,"source":"OpenStreetMap/node/12174908298","sourceUpdatedAt":null,"verifiedAt":null}},{"type":"Feature","geometry":{"type":"Point","coordinates":[15.6211586,46.5515457]},"properties":{"id":"bikerack:a7d55225-a3a5-41d4-b24a-05034594b159","kind":"bikerack","longitude":15.6211586,"latitude":46.5515457,"name":"Biciklitároló","city":"Kamnica","address":null,"covered":false,"access":null,"website":null,"phone":null,"source":"OpenStreetMap/node/2489710403","sourceUpdatedAt":null,"verifiedAt":null}},{"type":"Feature","geometry":{"type":"Point","coordinates":[15.6189666,46.5450759]},"properties":{"id":"bikerack:ad0fb264-2eb8-4178-8a3d-ce0bb8d480ab","kind":"bikerack","longitude":15.6189666,"latitude":46.5450759,"name":"Biciklitároló","city":"Pekre","address":null,"covered":false,"access":null,"website":null,"phone":null,"source":"OpenStreetMap/node/5538415922","sourceUpdatedAt":null,"verifiedAt":null}},{"type":"Feature","geometry":{"type":"Point","coordinates":[15.6417264,46.5586313]},"properties":{"id":"bikerack:b99c037e-af4b-4b53-bcf8-3206216dffa2","kind":"bikerack","longitude":15.6417264,"latitude":46.5586313,"name":"Biciklitároló","city":"Maribor","address":null,"covered":false,"access":null,"website":null,"phone":null,"source":"OpenStreetMap/node/8985098621","sourceUpdatedAt":null,"verifiedAt":null}},{"type":"Feature","geometry":{"type":"Point","coordinates":[15.6437078,46.5485072]},"properties":{"id":"bikerack:ddb5c9a5-172e-457f-b8a7-779eafd57dc4","kind":"bikerack","longitude":15.6437078,"latitude":46.5485072,"name":"Biciklitároló","city":"Maribor","address":null,"covered":false,"access":null,"website":null,"phone":null,"source":"OpenStreetMap/node/5263033109","sourceUpdatedAt":null,"verifiedAt":null}},{"type":"Feature","geometry":{"type":"Point","coordinates":[15.6441752,46.5576504]},"properties":{"id":"bikerack:e4fa9e7e-7aa7-4b13-8af2-321a74f707f5","kind":"bikerack","longitude":15.6441752,"latitude":46.5576504,"name":"Biciklitároló","city":"Maribor","address":null,"covered":false,"access":null,"website":null,"phone":null,"source":"OpenStreetMap/node/10054070304","sourceUpdatedAt":null,"verifiedAt":null}},{"type":"Feature","geometry":{"type":"Point","coordinates":[15.6347522,46.5334085]},"properties":{"id":"bikerack:ea0fb719-e5ba-4c76-812e-952203ad2490","kind":"bikerack","longitude":15.6347522,"latitude":46.5334085,"name":"Biciklitároló","city":"Razvanje","address":null,"covered":false,"access":null,"website":null,"phone":null,"source":"OpenStreetMap/node/13322033397","sourceUpdatedAt":null,"verifiedAt":null}},{"type":"Feature","geometry":{"type":"Point","coordinates":[15.6435017,46.5588427]},"properties":{"id":"bikerack:ef6a1760-ae6b-4b15-a88d-39e681eb2f46","kind":"bikerack","longitude":15.6435017,"latitude":46.5588427,"name":"Biciklitároló","city":"Maribor","address":null,"covered":false,"access":null,"website":null,"phone":null,"source":"OpenStreetMap/node/6194415018","sourceUpdatedAt":null,"verifiedAt":null}},{"type":"Feature","geometry":{"type":"Point","coordinates":[15.6440122,46.556507]},"properties":{"id":"bikerack:f50eb32c-057e-4e7a-9733-c8010470cd88","kind":"bikerack","longitude":15.6440122,"latitude":46.556507,"name":"Biciklitároló","city":"Maribor","address":null,"covered":false,"access":null,"website":null,"phone":null,"source":"OpenStreetMap/node/13039766089","sourceUpdatedAt":null,"verifiedAt":null}},{"type":"Feature","geometry":{"type":"Point","coordinates":[15.6422762,46.5578915]},"properties":{"id":"service:217920fe-3bd5-4e30-b390-7aa749720c52","kind":"service","longitude":15.6422762,"latitude":46.5578915,"name":"Bi-cikel trgovina in servis","city":"Maribor","address":null,"covered":null,"access":null,"website":null,"phone":null,"source":"OpenStreetMap/node/5227211491","sourceUpdatedAt":null,"verifiedAt":null}},{"type":"Feature","geometry":{"type":"Point","coordinates":[15.6053969,46.5392275]},"properties":{"id":"service:272b4322-c5fa-48aa-8fdd-63e36e1edf31","kind":"service","longitude":15.6053969,"latitude":46.5392275,"name":"Freestyle","city":"Pekre","address":null,"covered":null,"access":null,"website":null,"phone":null,"source":"OpenStreetMap/node/847070578","sourceUpdatedAt":null,"verifiedAt":null}},{"type":"Feature","geometry":{"type":"Point","coordinates":[15.6409032,46.5514964]},"properties":{"id":"service:5375faa9-f5c0-4bc3-906a-d16d7a738c04","kind":"service","longitude":15.6409032,"latitude":46.5514964,"name":"DEN","city":"Maribor","address":null,"covered":null,"access":null,"website":null,"phone":null,"source":"OpenStreetMap/node/2520037467","sourceUpdatedAt":null,"verifiedAt":null}},{"type":"Feature","geometry":{"type":"Point","coordinates":[15.622955,46.5529763]},"properties":{"id":"service:69f44301-04ea-4277-af80-9b8c42a9e802","kind":"service","longitude":15.622955,"latitude":46.5529763,"name":"Bike Center","city":"Maribor","address":null,"covered":null,"access":null,"website":null,"phone":null,"source":"OpenStreetMap/node/2470923968","sourceUpdatedAt":null,"verifiedAt":null}},{"type":"Feature","geometry":{"type":"Point","coordinates":[15.6369681,46.5500761]},"properties":{"id":"water:0e55f66c-3201-4158-ab46-3557907b60f0","kind":"water","longitude":15.6369681,"latitude":46.5500761,"name":"Ivókút","city":"Maribor","address":null,"covered":null,"access":null,"website":null,"phone":null,"source":"OpenStreetMap/node/9104213654","sourceUpdatedAt":null,"verifiedAt":null}},{"type":"Feature","geometry":{"type":"Point","coordinates":[15.6368864,46.5375793]},"properties":{"id":"water:6f39e8cc-1f7f-4452-af98-b4959758a91b","kind":"water","longitude":15.6368864,"latitude":46.5375793,"name":"Ivókút","city":"Maribor","address":null,"covered":null,"access":null,"website":null,"phone":null,"source":"OpenStreetMap/node/12089115412","sourceUpdatedAt":null,"verifiedAt":null}},{"type":"Feature","geometry":{"type":"Point","coordinates":[15.6052174,46.5351052]},"properties":{"id":"water:76eb0575-df13-49b0-8976-9a4561e258b8","kind":"water","longitude":15.6052174,"latitude":46.5351052,"name":"Ivókút","city":"Pekre","address":null,"covered":null,"access":null,"website":null,"phone":null,"source":"OpenStreetMap/node/13039906974","sourceUpdatedAt":null,"verifiedAt":null}}]}