{"type":"FeatureCollection","features":[{"type":"Feature","geometry":{"type":"Point","coordinates":[11.2197737,47.9750263]},"properties":{"id":"bikerack:45955947-150c-415a-9b6c-1ce249285e21","kind":"bikerack","longitude":11.2197737,"latitude":47.9750263,"name":"Fahrradabstellplatz","city":"Andechs","address":null,"covered":false,"access":null,"website":null,"phone":null,"source":"OpenStreetMap/node/5646160025","sourceUpdatedAt":null,"verifiedAt":null}},{"type":"Feature","geometry":{"type":"Point","coordinates":[11.2223783,47.9737303]},"properties":{"id":"bikerack:4667e1d4-0c1d-4965-9645-95d07f34f3d2","kind":"bikerack","longitude":11.2223783,"latitude":47.9737303,"name":"Fahrradabstellplatz","city":"Andechs","address":null,"covered":false,"access":null,"website":null,"phone":null,"source":"OpenStreetMap/node/5646160024","sourceUpdatedAt":null,"verifiedAt":null}}]}