{"type":"FeatureCollection","features":[{"type":"Feature","geometry":{"type":"Point","coordinates":[21.0107008,48.8920106]},"properties":{"id":"bikerack:b55dfaec-1009-49ec-aa5e-ff73873cc406","kind":"bikerack","longitude":21.0107008,"latitude":48.8920106,"name":"Biciklitároló","city":"Gelnica","address":null,"covered":false,"access":null,"website":null,"phone":null,"source":"OpenStreetMap/node/6238872006","sourceUpdatedAt":null,"verifiedAt":null}},{"type":"Feature","geometry":{"type":"Point","coordinates":[21.0117696,48.8927045]},"properties":{"id":"bikerack:e1a1b14d-160c-4c48-b25d-d7f4448da28d","kind":"bikerack","longitude":21.0117696,"latitude":48.8927045,"name":"Biciklitároló","city":"Gelnica","address":null,"covered":false,"access":null,"website":null,"phone":null,"source":"OpenStreetMap/node/6238871989","sourceUpdatedAt":null,"verifiedAt":null}},{"type":"Feature","geometry":{"type":"Point","coordinates":[21.0451001,48.8818765]},"properties":{"id":"water:6b808d95-8a6f-4650-8383-17dc415ca08d","kind":"water","longitude":21.0451001,"latitude":48.8818765,"name":"Ivókút","city":"Gelnica","address":null,"covered":null,"access":null,"website":null,"phone":null,"source":"OpenStreetMap/node/4996161932","sourceUpdatedAt":null,"verifiedAt":null}}]}