{"type":"FeatureCollection","features":[{"type":"Feature","geometry":{"type":"Point","coordinates":[8.4548063,54.6989351]},"properties":{"id":"bikerack:16a54971-e577-4472-8a9a-1e0cfd9141ff","kind":"bikerack","longitude":8.4548063,"latitude":54.6989351,"name":"Fahrradabstellplatz","city":"Borgsum","address":null,"covered":false,"access":null,"website":null,"phone":null,"source":"OpenStreetMap/node/4300126211","sourceUpdatedAt":null,"verifiedAt":null}},{"type":"Feature","geometry":{"type":"Point","coordinates":[8.4551126,54.6989757]},"properties":{"id":"bikerack:69c7c163-5f6f-4db4-b3b8-2298d11553b1","kind":"bikerack","longitude":8.4551126,"latitude":54.6989757,"name":"Fahrradabstellplatz","city":"Borgsum","address":null,"covered":false,"access":null,"website":null,"phone":null,"source":"OpenStreetMap/node/4300126214","sourceUpdatedAt":null,"verifiedAt":null}},{"type":"Feature","geometry":{"type":"Point","coordinates":[8.4583667,54.6895469]},"properties":{"id":"bikerack:dc1d68fb-3cba-4302-be1d-db039f04a6af","kind":"bikerack","longitude":8.4583667,"latitude":54.6895469,"name":"FKK Strand","city":"Borgsum","address":null,"covered":false,"access":null,"website":null,"phone":null,"source":"OpenStreetMap/node/1867741085","sourceUpdatedAt":null,"verifiedAt":null}},{"type":"Feature","geometry":{"type":"Point","coordinates":[8.4678828,54.6840773]},"properties":{"id":"bikerack:fceb5168-2e32-4786-aeff-2fb7494cdf42","kind":"bikerack","longitude":8.4678828,"latitude":54.6840773,"name":"Fahrradabstellplatz","city":"Borgsum","address":null,"covered":false,"access":null,"website":null,"phone":null,"source":"OpenStreetMap/node/11016143488","sourceUpdatedAt":null,"verifiedAt":null}},{"type":"Feature","geometry":{"type":"Point","coordinates":[8.470426,54.6839921]},"properties":{"id":"bikerack:fe715e34-e458-4031-bc70-e05de921b9e5","kind":"bikerack","longitude":8.470426,"latitude":54.6839921,"name":"Kliff Cafe","city":"Borgsum","address":null,"covered":false,"access":null,"website":null,"phone":null,"source":"OpenStreetMap/way/356318919","sourceUpdatedAt":null,"verifiedAt":null}}]}