{"type":"FeatureCollection","features":[{"type":"Feature","geometry":{"type":"Point","coordinates":[8.4710293,49.6388624]},"properties":{"id":"bikerack:bfc5b03e-3f56-4b0e-ab3f-6de6bd51d81b","kind":"bikerack","longitude":8.4710293,"latitude":49.6388624,"name":"Fahrradabstellplatz","city":"Burstadt","address":null,"covered":false,"access":null,"website":null,"phone":null,"source":"OpenStreetMap/node/13415525861","sourceUpdatedAt":null,"verifiedAt":null}},{"type":"Feature","geometry":{"type":"Point","coordinates":[8.4587805,49.6383526]},"properties":{"id":"bikerack:dd5e7056-e895-4c38-bd8a-0fb120c63bb9","kind":"bikerack","longitude":8.4587805,"latitude":49.6383526,"name":"Fahrradabstellplatz","city":"Burstadt","address":null,"covered":false,"access":null,"website":null,"phone":null,"source":"OpenStreetMap/node/13415515133","sourceUpdatedAt":null,"verifiedAt":null}}]}