{"type":"FeatureCollection","features":[{"type":"Feature","geometry":{"type":"Point","coordinates":[8.4761191,49.2803081]},"properties":{"id":"bikerack:01ca17d8-c2a7-49f6-addb-ac717b510983","kind":"bikerack","longitude":8.4761191,"latitude":49.2803081,"name":"Fahrradabstellplatz","city":"Oberhausen-Rheinhausen","address":null,"covered":false,"access":null,"website":null,"phone":null,"source":"OpenStreetMap/node/3276461765","sourceUpdatedAt":null,"verifiedAt":null}},{"type":"Feature","geometry":{"type":"Point","coordinates":[8.4732418,49.2811733]},"properties":{"id":"bikerack:136c8706-0da0-4d73-b056-26fe8d246940","kind":"bikerack","longitude":8.4732418,"latitude":49.2811733,"name":"Fahrradabstellplatz","city":"Oberhausen-Rheinhausen","address":null,"covered":false,"access":null,"website":null,"phone":null,"source":"OpenStreetMap/node/3461551621","sourceUpdatedAt":null,"verifiedAt":null}},{"type":"Feature","geometry":{"type":"Point","coordinates":[8.4754616,49.2807415]},"properties":{"id":"bikerack:2445b9d6-4c9e-4113-a562-ecf93825f73e","kind":"bikerack","longitude":8.4754616,"latitude":49.2807415,"name":"Fahrradabstellplatz","city":"Oberhausen-Rheinhausen","address":null,"covered":true,"access":null,"website":null,"phone":null,"source":"OpenStreetMap/way/785326559","sourceUpdatedAt":null,"verifiedAt":null}},{"type":"Feature","geometry":{"type":"Point","coordinates":[8.4735639,49.2742707]},"properties":{"id":"bikerack:2949570f-32fa-4e67-aef2-2d7bc7cabb2b","kind":"bikerack","longitude":8.4735639,"latitude":49.2742707,"name":"Fahrradabstellplatz","city":"Oberhausen-Rheinhausen","address":null,"covered":false,"access":null,"website":null,"phone":null,"source":"OpenStreetMap/node/1696735170","sourceUpdatedAt":null,"verifiedAt":null}},{"type":"Feature","geometry":{"type":"Point","coordinates":[8.4750827,49.2806378]},"properties":{"id":"bikerack:2c5093d7-13ce-4c8c-a2cc-b237d631ad67","kind":"bikerack","longitude":8.4750827,"latitude":49.2806378,"name":"Fahrradabstellplatz","city":"Oberhausen-Rheinhausen","address":null,"covered":false,"access":null,"website":null,"phone":null,"source":"OpenStreetMap/node/2721374102","sourceUpdatedAt":null,"verifiedAt":null}},{"type":"Feature","geometry":{"type":"Point","coordinates":[8.4732371,49.2808901]},"properties":{"id":"bikerack:33d65e7e-bbe5-4555-85b1-718de77c3f9c","kind":"bikerack","longitude":8.4732371,"latitude":49.2808901,"name":"Fahrradabstellplatz","city":"Oberhausen-Rheinhausen","address":null,"covered":false,"access":null,"website":null,"phone":null,"source":"OpenStreetMap/node/1696735184","sourceUpdatedAt":null,"verifiedAt":null}},{"type":"Feature","geometry":{"type":"Point","coordinates":[8.4729704,49.281556]},"properties":{"id":"bikerack:3414ec3f-d3c8-4860-85ec-ea35dd686798","kind":"bikerack","longitude":8.4729704,"latitude":49.281556,"name":"Fahrradabstellplatz","city":"Oberhausen-Rheinhausen","address":null,"covered":false,"access":null,"website":null,"phone":null,"source":"OpenStreetMap/way/233944086","sourceUpdatedAt":null,"verifiedAt":null}},{"type":"Feature","geometry":{"type":"Point","coordinates":[8.4739266,49.280263]},"properties":{"id":"bikerack:4f809f91-6e64-430a-946d-dc0561acd1c4","kind":"bikerack","longitude":8.4739266,"latitude":49.280263,"name":"Fahrradabstellplatz","city":"Oberhausen-Rheinhausen","address":null,"covered":false,"access":null,"website":null,"phone":null,"source":"OpenStreetMap/node/2619887541","sourceUpdatedAt":null,"verifiedAt":null}},{"type":"Feature","geometry":{"type":"Point","coordinates":[8.4762265,49.2696341]},"properties":{"id":"bikerack:5319fdc9-8588-4684-a3b8-bee8510aef67","kind":"bikerack","longitude":8.4762265,"latitude":49.2696341,"name":"Fahrradabstellplatz","city":"Oberhausen-Rheinhausen","address":null,"covered":false,"access":null,"website":null,"phone":null,"source":"OpenStreetMap/way/409597590","sourceUpdatedAt":null,"verifiedAt":null}},{"type":"Feature","geometry":{"type":"Point","coordinates":[8.4733917,49.2802539]},"properties":{"id":"bikerack:6ca45355-6a6d-419c-a54a-5686a9d14dcb","kind":"bikerack","longitude":8.4733917,"latitude":49.2802539,"name":"Fahrradabstellplatz","city":"Oberhausen-Rheinhausen","address":null,"covered":false,"access":null,"website":null,"phone":null,"source":"OpenStreetMap/node/679493408","sourceUpdatedAt":null,"verifiedAt":null}},{"type":"Feature","geometry":{"type":"Point","coordinates":[8.4754543,49.280567]},"properties":{"id":"bikerack:6e6d7b48-9a84-4d5d-a792-a3bd93572547","kind":"bikerack","longitude":8.4754543,"latitude":49.280567,"name":"Fahrradabstellplatz","city":"Oberhausen-Rheinhausen","address":null,"covered":false,"access":null,"website":null,"phone":null,"source":"OpenStreetMap/way/785326556","sourceUpdatedAt":null,"verifiedAt":null}},{"type":"Feature","geometry":{"type":"Point","coordinates":[8.475016,49.2804352]},"properties":{"id":"bikerack:8579055c-5d6b-4f03-8001-8857410fcd7e","kind":"bikerack","longitude":8.475016,"latitude":49.2804352,"name":"Fahrradabstellplatz","city":"Oberhausen-Rheinhausen","address":null,"covered":false,"access":null,"website":null,"phone":null,"source":"OpenStreetMap/node/3293300170","sourceUpdatedAt":null,"verifiedAt":null}},{"type":"Feature","geometry":{"type":"Point","coordinates":[8.4748111,49.2799483]},"properties":{"id":"bikerack:bc57fd7e-156a-4af2-b491-b356acd78beb","kind":"bikerack","longitude":8.4748111,"latitude":49.2799483,"name":"Fahrradabstellplatz","city":"Oberhausen-Rheinhausen","address":null,"covered":false,"access":null,"website":null,"phone":null,"source":"OpenStreetMap/way/821038642","sourceUpdatedAt":null,"verifiedAt":null}},{"type":"Feature","geometry":{"type":"Point","coordinates":[8.4730725,49.2791497]},"properties":{"id":"bikerack:bc98e741-89f3-45c8-9be8-4814aa45c4f4","kind":"bikerack","longitude":8.4730725,"latitude":49.2791497,"name":"Fahrradabstellplatz","city":"Oberhausen-Rheinhausen","address":null,"covered":false,"access":null,"website":null,"phone":null,"source":"OpenStreetMap/node/4183668799","sourceUpdatedAt":null,"verifiedAt":null}},{"type":"Feature","geometry":{"type":"Point","coordinates":[8.4733119,49.2780365]},"properties":{"id":"bikerack:e8b20cc7-0e3d-4e80-8934-362ef7a63411","kind":"bikerack","longitude":8.4733119,"latitude":49.2780365,"name":"Fahrradabstellplatz","city":"Oberhausen-Rheinhausen","address":null,"covered":false,"access":null,"website":null,"phone":null,"source":"OpenStreetMap/way/326497821","sourceUpdatedAt":null,"verifiedAt":null}},{"type":"Feature","geometry":{"type":"Point","coordinates":[8.4771243,49.2697175]},"properties":{"id":"bikerack:e969a37c-e9ee-4efd-9e37-ad7a3e3a7fff","kind":"bikerack","longitude":8.4771243,"latitude":49.2697175,"name":"Fahrradabstellplatz","city":"Oberhausen-Rheinhausen","address":null,"covered":false,"access":null,"website":null,"phone":null,"source":"OpenStreetMap/node/8829653078","sourceUpdatedAt":null,"verifiedAt":null}},{"type":"Feature","geometry":{"type":"Point","coordinates":[8.4733937,49.2818158]},"properties":{"id":"repair:febe6dc7-bf41-4ce7-843f-bf9958c88f09","kind":"repair","longitude":8.4733937,"latitude":49.2818158,"name":"ADAC Radservice-Station","city":"Oberhausen-Rheinhausen","address":null,"covered":false,"access":null,"website":null,"phone":null,"source":"OpenStreetMap/node/12291596763","sourceUpdatedAt":null,"verifiedAt":null}},{"type":"Feature","geometry":{"type":"Point","coordinates":[8.4735515,49.2691443]},"properties":{"id":"service:e2f980dc-97d3-467d-9b85-3e4f8ef5dd04","kind":"service","longitude":8.4735515,"latitude":49.2691443,"name":"Radsporthaus Maier","city":"Oberhausen-Rheinhausen","address":null,"covered":null,"access":null,"website":null,"phone":null,"source":"OpenStreetMap/way/125367130","sourceUpdatedAt":null,"verifiedAt":null}}]}