{"type":"FeatureCollection","features":[{"type":"Feature","geometry":{"type":"Point","coordinates":[8.4441084,45.3054914]},"properties":{"id":"bikerack:25502805-28f7-4d5f-a03e-3487b87abb3a","kind":"bikerack","longitude":8.4441084,"latitude":45.3054914,"name":"Parcheggio bici","city":"Vercelli","address":null,"covered":false,"access":null,"website":null,"phone":null,"source":"OpenStreetMap/node/2019637530","sourceUpdatedAt":null,"verifiedAt":null}},{"type":"Feature","geometry":{"type":"Point","coordinates":[8.4470684,45.3044552]},"properties":{"id":"bikerack:829140c8-4610-49a1-824a-8d50c0c0c288","kind":"bikerack","longitude":8.4470684,"latitude":45.3044552,"name":"Parcheggio bici","city":"Vercelli","address":null,"covered":false,"access":null,"website":null,"phone":null,"source":"OpenStreetMap/node/10815186150","sourceUpdatedAt":null,"verifiedAt":null}},{"type":"Feature","geometry":{"type":"Point","coordinates":[8.4469209,45.3047189]},"properties":{"id":"bikerack:9ac6c32f-5b70-4d89-8b95-87735a3154c0","kind":"bikerack","longitude":8.4469209,"latitude":45.3047189,"name":"Parcheggio bici","city":"Vercelli","address":null,"covered":false,"access":null,"website":null,"phone":null,"source":"OpenStreetMap/node/13124195047","sourceUpdatedAt":null,"verifiedAt":null}},{"type":"Feature","geometry":{"type":"Point","coordinates":[8.4424244,45.3042816]},"properties":{"id":"bikerack:da22d90d-e227-4e6a-ae10-79b2d58811e3","kind":"bikerack","longitude":8.4424244,"latitude":45.3042816,"name":"Parcheggio bici","city":"Vercelli","address":null,"covered":false,"access":null,"website":null,"phone":null,"source":"OpenStreetMap/node/2019637516","sourceUpdatedAt":null,"verifiedAt":null}},{"type":"Feature","geometry":{"type":"Point","coordinates":[8.4493278,45.3034209]},"properties":{"id":"bikerack:f6111879-c558-48a9-a743-219caf4ba7fd","kind":"bikerack","longitude":8.4493278,"latitude":45.3034209,"name":"Parcheggio bici","city":"Vercelli","address":null,"covered":false,"access":null,"website":null,"phone":null,"source":"OpenStreetMap/node/2453153197","sourceUpdatedAt":null,"verifiedAt":null}},{"type":"Feature","geometry":{"type":"Point","coordinates":[8.4777942,45.2816801]},"properties":{"id":"water:2c4e6748-06b3-4d97-86e7-dbc81649f5e8","kind":"water","longitude":8.4777942,"latitude":45.2816801,"name":"Chitamai","city":"Prarolo","address":null,"covered":null,"access":null,"website":null,"phone":null,"source":"OpenStreetMap/node/1956904984","sourceUpdatedAt":null,"verifiedAt":null}},{"type":"Feature","geometry":{"type":"Point","coordinates":[8.4497861,45.3022773]},"properties":{"id":"water:45052431-7264-442e-95dd-c546045a23b0","kind":"water","longitude":8.4497861,"latitude":45.3022773,"name":"Fontanella","city":"Prarolo","address":null,"covered":null,"access":null,"website":null,"phone":null,"source":"OpenStreetMap/node/2158762450","sourceUpdatedAt":null,"verifiedAt":null}},{"type":"Feature","geometry":{"type":"Point","coordinates":[8.4470896,45.3044115]},"properties":{"id":"water:58593457-5c54-4754-b098-6e141103a52f","kind":"water","longitude":8.4470896,"latitude":45.3044115,"name":"Fontanella","city":"Vercelli","address":null,"covered":null,"access":null,"website":null,"phone":null,"source":"OpenStreetMap/node/2197924294","sourceUpdatedAt":null,"verifiedAt":null}},{"type":"Feature","geometry":{"type":"Point","coordinates":[8.4533119,45.3025084]},"properties":{"id":"water:5cffaf8c-7643-40fe-8d78-dc2fbcc4a8e8","kind":"water","longitude":8.4533119,"latitude":45.3025084,"name":"Fontanella","city":"Prarolo","address":null,"covered":null,"access":null,"website":null,"phone":null,"source":"OpenStreetMap/node/1993976871","sourceUpdatedAt":null,"verifiedAt":null}},{"type":"Feature","geometry":{"type":"Point","coordinates":[8.4495958,45.303657]},"properties":{"id":"water:5df22b05-8e9e-4635-b503-12f91c83bd52","kind":"water","longitude":8.4495958,"latitude":45.303657,"name":"Fontanella","city":"Vercelli","address":null,"covered":null,"access":null,"website":null,"phone":null,"source":"OpenStreetMap/node/2453153244","sourceUpdatedAt":null,"verifiedAt":null}},{"type":"Feature","geometry":{"type":"Point","coordinates":[8.4431415,45.3056994]},"properties":{"id":"water:834acb52-d62a-4f5e-b944-49c2a20010d3","kind":"water","longitude":8.4431415,"latitude":45.3056994,"name":"Fontanella","city":"Vercelli","address":null,"covered":null,"access":null,"website":null,"phone":null,"source":"OpenStreetMap/node/1958250350","sourceUpdatedAt":null,"verifiedAt":null}},{"type":"Feature","geometry":{"type":"Point","coordinates":[8.4472007,45.3046178]},"properties":{"id":"water:a0cd584f-3ab8-42ce-b90d-0d3e6473b002","kind":"water","longitude":8.4472007,"latitude":45.3046178,"name":"Fontanella","city":"Vercelli","address":null,"covered":null,"access":null,"website":null,"phone":null,"source":"OpenStreetMap/node/5198339366","sourceUpdatedAt":null,"verifiedAt":null}},{"type":"Feature","geometry":{"type":"Point","coordinates":[8.4451223,45.3052847]},"properties":{"id":"water:c0f82f84-6e63-45c1-8d60-dc8b3836afc0","kind":"water","longitude":8.4451223,"latitude":45.3052847,"name":"Fontanella","city":"Vercelli","address":null,"covered":null,"access":null,"website":null,"phone":null,"source":"OpenStreetMap/node/2453153322","sourceUpdatedAt":null,"verifiedAt":null}},{"type":"Feature","geometry":{"type":"Point","coordinates":[8.4499764,45.3041789]},"properties":{"id":"water:f2671ec6-2b09-42f2-8c5b-a4519fdc63cd","kind":"water","longitude":8.4499764,"latitude":45.3041789,"name":"Fontanella","city":"Vercelli","address":null,"covered":null,"access":null,"website":null,"phone":null,"source":"OpenStreetMap/node/2778866400","sourceUpdatedAt":null,"verifiedAt":null}}]}