{"type":"FeatureCollection","features":[{"type":"Feature","geometry":{"type":"Point","coordinates":[12.2438435,46.2387519]},"properties":{"id":"water:33cfa42f-12ea-4921-a1dd-10f4e1e76843","kind":"water","longitude":12.2438435,"latitude":46.2387519,"name":"Fontanella","city":"Ponte nelle Alpi-Polpet","address":null,"covered":null,"access":null,"website":null,"phone":null,"source":"OpenStreetMap/node/1261980885","sourceUpdatedAt":null,"verifiedAt":null}},{"type":"Feature","geometry":{"type":"Point","coordinates":[12.2415335,46.2289497]},"properties":{"id":"water:e90cdeed-7f0e-451d-9a11-b435303f2ce0","kind":"water","longitude":12.2415335,"latitude":46.2289497,"name":"Fontanella","city":"Ponte nelle Alpi-Polpet","address":null,"covered":null,"access":null,"website":null,"phone":null,"source":"OpenStreetMap/node/10936530047","sourceUpdatedAt":null,"verifiedAt":null}}]}