{"type":"FeatureCollection","features":[{"type":"Feature","geometry":{"type":"Point","coordinates":[12.2352992,46.0886012]},"properties":{"id":"water:04d88020-6c72-4a59-a39a-603c507facc2","kind":"water","longitude":12.2352992,"latitude":46.0886012,"name":"Fontanella","city":"Castion","address":null,"covered":null,"access":null,"website":null,"phone":null,"source":"OpenStreetMap/node/12142692414","sourceUpdatedAt":null,"verifiedAt":null}},{"type":"Feature","geometry":{"type":"Point","coordinates":[12.2339844,46.086218]},"properties":{"id":"water:71729e98-a62c-40eb-b741-53739b904cfe","kind":"water","longitude":12.2339844,"latitude":46.086218,"name":"Fontanella","city":"Castion","address":null,"covered":null,"access":null,"website":null,"phone":null,"source":"OpenStreetMap/node/4211391952","sourceUpdatedAt":null,"verifiedAt":null}}]}