{"type":"FeatureCollection","features":[{"type":"Feature","geometry":{"type":"Point","coordinates":[16.8707164,48.7629384]},"properties":{"id":"bikerack:28d5e135-a7de-4670-b6ab-5597e2d2a143","kind":"bikerack","longitude":16.8707164,"latitude":48.7629384,"name":"Bicycle Parking","city":"Breclav","address":null,"covered":false,"access":null,"website":null,"phone":null,"source":"OpenStreetMap/node/11085816274","sourceUpdatedAt":null,"verifiedAt":null}},{"type":"Feature","geometry":{"type":"Point","coordinates":[16.8688826,48.7508064]},"properties":{"id":"service:afa71d81-5f6f-4ed1-97ec-1605243fbc93","kind":"service","longitude":16.8688826,"latitude":48.7508064,"name":"B+M Velo","city":"Břeclav","address":null,"covered":null,"access":null,"website":null,"phone":null,"source":"OpenStreetMap/node/2469159451","sourceUpdatedAt":null,"verifiedAt":null}},{"type":"Feature","geometry":{"type":"Point","coordinates":[16.8706406,48.7629824]},"properties":{"id":"water:411e6b01-3689-42df-a275-868f8fc9988d","kind":"water","longitude":16.8706406,"latitude":48.7629824,"name":"Drinking Fountain","city":"Breclav","address":null,"covered":null,"access":null,"website":null,"phone":null,"source":"OpenStreetMap/node/4295925690","sourceUpdatedAt":null,"verifiedAt":null}}]}