{"type":"FeatureCollection","features":[{"type":"Feature","geometry":{"type":"Point","coordinates":[11.4623594,49.311499]},"properties":{"id":"bikerack:0a750c9d-1925-4301-b120-5192008938d8","kind":"bikerack","longitude":11.4623594,"latitude":49.311499,"name":"Fahrradabstellplatz","city":"Neumarkt in der Oberpfalz","address":null,"covered":false,"access":null,"website":null,"phone":null,"source":"OpenStreetMap/node/12230326808","sourceUpdatedAt":null,"verifiedAt":null}},{"type":"Feature","geometry":{"type":"Point","coordinates":[11.4543069,49.318154]},"properties":{"id":"bikerack:8c41f125-a83e-47d5-84df-a43627f4f91e","kind":"bikerack","longitude":11.4543069,"latitude":49.318154,"name":"Fahrradabstellplatz","city":"Neumarkt in der Oberpfalz","address":null,"covered":false,"access":null,"website":null,"phone":null,"source":"OpenStreetMap/node/7897722038","sourceUpdatedAt":null,"verifiedAt":null}},{"type":"Feature","geometry":{"type":"Point","coordinates":[11.4555691,49.3120152]},"properties":{"id":"bikerack:92046d43-746c-4d2e-b6d9-1fbdcd51a270","kind":"bikerack","longitude":11.4555691,"latitude":49.3120152,"name":"Fahrradabstellplatz","city":"Neumarkt in der Oberpfalz","address":null,"covered":false,"access":null,"website":null,"phone":null,"source":"OpenStreetMap/node/7993256057","sourceUpdatedAt":null,"verifiedAt":null}},{"type":"Feature","geometry":{"type":"Point","coordinates":[11.4497343,49.3174827]},"properties":{"id":"bikerack:e3fc97c4-ea71-4a4c-8127-5f927faef5b0","kind":"bikerack","longitude":11.4497343,"latitude":49.3174827,"name":"Fahrradabstellplatz","city":"Neumarkt in der Oberpfalz","address":null,"covered":false,"access":null,"website":null,"phone":null,"source":"OpenStreetMap/node/9828764718","sourceUpdatedAt":null,"verifiedAt":null}},{"type":"Feature","geometry":{"type":"Point","coordinates":[11.4591877,49.3011078]},"properties":{"id":"service:e30e97d7-0119-4a39-9ded-91d42ec77c22","kind":"service","longitude":11.4591877,"latitude":49.3011078,"name":"Sport & More","city":"Neumarkt in der Oberpfalz","address":null,"covered":null,"access":null,"website":null,"phone":null,"source":"OpenStreetMap/way/61241012","sourceUpdatedAt":null,"verifiedAt":null}},{"type":"Feature","geometry":{"type":"Point","coordinates":[11.4691859,49.29842]},"properties":{"id":"service:fdbfbbe2-2a41-45cc-8056-a4b553fcdafa","kind":"service","longitude":11.4691859,"latitude":49.29842,"name":"Zweirad-Center Stadler","city":"Neumarkt in der Oberpfalz","address":null,"covered":null,"access":null,"website":null,"phone":null,"source":"OpenStreetMap/way/541490454","sourceUpdatedAt":null,"verifiedAt":null}}]}