{"type":"FeatureCollection","features":[{"type":"Feature","geometry":{"type":"Point","coordinates":[11.458922,49.1428065]},"properties":{"id":"water:8cb192ab-0925-4d32-a438-2654763ad6e6","kind":"water","longitude":11.458922,"latitude":49.1428065,"name":"Trinkwasser","city":"Muhlhausen","address":null,"covered":null,"access":null,"website":null,"phone":null,"source":"OpenStreetMap/node/8460852807","sourceUpdatedAt":null,"verifiedAt":null}},{"type":"Feature","geometry":{"type":"Point","coordinates":[11.4579801,49.1416662]},"properties":{"id":"water:fe1a7dcc-639c-49f7-bf74-107d9d597bd3","kind":"water","longitude":11.4579801,"latitude":49.1416662,"name":"Trinkwasser","city":"Muhlhausen","address":null,"covered":null,"access":null,"website":null,"phone":null,"source":"OpenStreetMap/node/4883400175","sourceUpdatedAt":null,"verifiedAt":null}}]}