{"type":"FeatureCollection","features":[{"type":"Feature","geometry":{"type":"Point","coordinates":[11.442803,48.7462424]},"properties":{"id":"bikerack:285076f8-0927-4cc8-bad7-d5909c647829","kind":"bikerack","longitude":11.442803,"latitude":48.7462424,"name":"Fahrradabstellplatz","city":"Ingolstadt","address":null,"covered":false,"access":null,"website":null,"phone":null,"source":"OpenStreetMap/way/1462923357","sourceUpdatedAt":null,"verifiedAt":null}},{"type":"Feature","geometry":{"type":"Point","coordinates":[11.4370979,48.7435355]},"properties":{"id":"bikerack:511f0bfc-ae67-4211-9575-359216afdfc0","kind":"bikerack","longitude":11.4370979,"latitude":48.7435355,"name":"Fahrradabstellplatz","city":"Ingolstadt","address":null,"covered":true,"access":null,"website":null,"phone":null,"source":"OpenStreetMap/node/3698295446","sourceUpdatedAt":null,"verifiedAt":null}},{"type":"Feature","geometry":{"type":"Point","coordinates":[11.432504,48.7439897]},"properties":{"id":"bikerack:666b37a1-5ad3-4423-90fa-590cd874259a","kind":"bikerack","longitude":11.432504,"latitude":48.7439897,"name":"Fahrradabstellplatz","city":"Ingolstadt","address":null,"covered":false,"access":null,"website":null,"phone":null,"source":"OpenStreetMap/node/10827890120","sourceUpdatedAt":null,"verifiedAt":null}},{"type":"Feature","geometry":{"type":"Point","coordinates":[11.4397794,48.7438157]},"properties":{"id":"bikerack:6ec32301-19ce-488a-8453-fab496774061","kind":"bikerack","longitude":11.4397794,"latitude":48.7438157,"name":"Fahrradabstellplatz","city":"Ingolstadt","address":null,"covered":false,"access":null,"website":null,"phone":null,"source":"OpenStreetMap/way/359550697","sourceUpdatedAt":null,"verifiedAt":null}},{"type":"Feature","geometry":{"type":"Point","coordinates":[11.4366348,48.745335]},"properties":{"id":"bikerack:c9ba370a-bb5a-476c-81c4-ba2f2bec3513","kind":"bikerack","longitude":11.4366348,"latitude":48.745335,"name":"Fahrradabstellplatz","city":"Ingolstadt","address":null,"covered":true,"access":null,"website":null,"phone":null,"source":"OpenStreetMap/way/365823133","sourceUpdatedAt":null,"verifiedAt":null}},{"type":"Feature","geometry":{"type":"Point","coordinates":[11.4429879,48.7461301]},"properties":{"id":"bikerack:e451a11b-3457-4647-af4c-1604254c786a","kind":"bikerack","longitude":11.4429879,"latitude":48.7461301,"name":"Fahrradabstellplatz","city":"Ingolstadt","address":null,"covered":false,"access":null,"website":null,"phone":null,"source":"OpenStreetMap/way/1462923356","sourceUpdatedAt":null,"verifiedAt":null}},{"type":"Feature","geometry":{"type":"Point","coordinates":[11.4360317,48.7458023]},"properties":{"id":"bikerack:e867f070-9b9c-483d-990f-24cba027ae62","kind":"bikerack","longitude":11.4360317,"latitude":48.7458023,"name":"Fahrradabstellplatz","city":"Ingolstadt","address":null,"covered":true,"access":null,"website":null,"phone":null,"source":"OpenStreetMap/way/213530805","sourceUpdatedAt":null,"verifiedAt":null}},{"type":"Feature","geometry":{"type":"Point","coordinates":[11.4399231,48.744828]},"properties":{"id":"bikerack:f340ecad-5079-4e4e-bc07-a9f108821f0d","kind":"bikerack","longitude":11.4399231,"latitude":48.744828,"name":"Fahrradabstellplatz","city":"Ingolstadt","address":null,"covered":true,"access":null,"website":null,"phone":null,"source":"OpenStreetMap/node/3251327761","sourceUpdatedAt":null,"verifiedAt":null}},{"type":"Feature","geometry":{"type":"Point","coordinates":[11.4367531,48.7436921]},"properties":{"id":"repair:8cc88963-96e3-4040-ab43-a37e5bbbe8c0","kind":"repair","longitude":11.4367531,"latitude":48.7436921,"name":"Fahrradreparaturstation","city":"Ingolstadt","address":null,"covered":false,"access":null,"website":null,"phone":null,"source":"OpenStreetMap/node/12870633340","sourceUpdatedAt":null,"verifiedAt":null}},{"type":"Feature","geometry":{"type":"Point","coordinates":[11.4463265,48.7279092]},"properties":{"id":"service:7641007f-9e9b-4835-a6d0-20ff39669f0e","kind":"service","longitude":11.4463265,"latitude":48.7279092,"name":"Fahrrad Brenner","city":"Ingolstadt","address":null,"covered":null,"access":null,"website":null,"phone":null,"source":"OpenStreetMap/way/207343910","sourceUpdatedAt":null,"verifiedAt":null}},{"type":"Feature","geometry":{"type":"Point","coordinates":[11.4545796,48.7459605]},"properties":{"id":"service:800dd3fd-17fe-43e3-b3e3-871fb34e0b0f","kind":"service","longitude":11.4545796,"latitude":48.7459605,"name":"Rainer Möckel","city":"Ingolstadt","address":null,"covered":null,"access":null,"website":null,"phone":null,"source":"OpenStreetMap/way/101940673","sourceUpdatedAt":null,"verifiedAt":null}}]}