{"type":"FeatureCollection","features":[{"type":"Feature","geometry":{"type":"Point","coordinates":[11.4645033,48.1803265]},"properties":{"id":"bikerack:030bbf25-87f9-4fce-970a-90fc2261ab37","kind":"bikerack","longitude":11.4645033,"latitude":48.1803265,"name":"Fahrradabstellplatz","city":"Karlsfeld","address":null,"covered":true,"access":null,"website":null,"phone":null,"source":"OpenStreetMap/way/174580933","sourceUpdatedAt":null,"verifiedAt":null}},{"type":"Feature","geometry":{"type":"Point","coordinates":[11.443113,48.176961]},"properties":{"id":"bikerack:11bcada1-4356-4cfc-a53d-30ebe28f7a0a","kind":"bikerack","longitude":11.443113,"latitude":48.176961,"name":"Fahrradabstellplatz","city":"Pasing","address":null,"covered":false,"access":null,"website":null,"phone":null,"source":"OpenStreetMap/node/12458994018","sourceUpdatedAt":null,"verifiedAt":null}},{"type":"Feature","geometry":{"type":"Point","coordinates":[11.4643831,48.1805356]},"properties":{"id":"bikerack:21053f9f-ff85-4a79-988b-36e4bdaab6bf","kind":"bikerack","longitude":11.4643831,"latitude":48.1805356,"name":"Fahrradabstellplatz","city":"Karlsfeld","address":null,"covered":true,"access":null,"website":null,"phone":null,"source":"OpenStreetMap/way/174580927","sourceUpdatedAt":null,"verifiedAt":null}},{"type":"Feature","geometry":{"type":"Point","coordinates":[11.4346352,48.176434]},"properties":{"id":"bikerack:2704ca38-159c-4015-ba08-650b62855be8","kind":"bikerack","longitude":11.4346352,"latitude":48.176434,"name":"Fahrradabstellplatz","city":"Pasing","address":null,"covered":false,"access":null,"website":null,"phone":null,"source":"OpenStreetMap/node/8831747823","sourceUpdatedAt":null,"verifiedAt":null}},{"type":"Feature","geometry":{"type":"Point","coordinates":[11.4646052,48.1800418]},"properties":{"id":"bikerack:30084d73-33a3-48d9-9366-de20ec1c7bb9","kind":"bikerack","longitude":11.4646052,"latitude":48.1800418,"name":"Fahrradabstellplatz","city":"Karlsfeld","address":null,"covered":false,"access":null,"website":null,"phone":null,"source":"OpenStreetMap/way/945281902","sourceUpdatedAt":null,"verifiedAt":null}},{"type":"Feature","geometry":{"type":"Point","coordinates":[11.4345162,48.1763964]},"properties":{"id":"bikerack:33146a2a-1d29-4506-aa3e-6752b9759065","kind":"bikerack","longitude":11.4345162,"latitude":48.1763964,"name":"Fahrradabstellplatz","city":"Pasing","address":null,"covered":false,"access":null,"website":null,"phone":null,"source":"OpenStreetMap/node/8831747817","sourceUpdatedAt":null,"verifiedAt":null}},{"type":"Feature","geometry":{"type":"Point","coordinates":[11.4428476,48.1767846]},"properties":{"id":"bikerack:4518c752-f500-4361-80ff-69016949fc11","kind":"bikerack","longitude":11.4428476,"latitude":48.1767846,"name":"Fahrradabstellplatz","city":"Pasing","address":null,"covered":false,"access":null,"website":null,"phone":null,"source":"OpenStreetMap/node/2999785894","sourceUpdatedAt":null,"verifiedAt":null}},{"type":"Feature","geometry":{"type":"Point","coordinates":[11.4586698,48.1673873]},"properties":{"id":"bikerack:468ca7c7-29b2-4185-b621-40fe3e87b152","kind":"bikerack","longitude":11.4586698,"latitude":48.1673873,"name":"Fahrradabstellplatz","city":"Pasing","address":null,"covered":false,"access":null,"website":null,"phone":null,"source":"OpenStreetMap/node/12941908752","sourceUpdatedAt":null,"verifiedAt":null}},{"type":"Feature","geometry":{"type":"Point","coordinates":[11.4686337,48.1904531]},"properties":{"id":"bikerack:523e1051-2761-4f04-999c-efa6f9eae2d3","kind":"bikerack","longitude":11.4686337,"latitude":48.1904531,"name":"Fahrradabstellplatz","city":"Karlsfeld","address":null,"covered":true,"access":null,"website":null,"phone":null,"source":"OpenStreetMap/way/319553768","sourceUpdatedAt":null,"verifiedAt":null}},{"type":"Feature","geometry":{"type":"Point","coordinates":[11.4345477,48.176348]},"properties":{"id":"bikerack:8e21b512-8916-4134-ae06-253f62ded710","kind":"bikerack","longitude":11.4345477,"latitude":48.176348,"name":"Fahrradabstellplatz","city":"Pasing","address":null,"covered":true,"access":null,"website":null,"phone":null,"source":"OpenStreetMap/node/8831747818","sourceUpdatedAt":null,"verifiedAt":null}},{"type":"Feature","geometry":{"type":"Point","coordinates":[11.4676939,48.1901747]},"properties":{"id":"bikerack:a32d9c03-b0ab-48f7-9108-0c7aeebb5ba2","kind":"bikerack","longitude":11.4676939,"latitude":48.1901747,"name":"Fahrradabstellplatz","city":"Karlsfeld","address":null,"covered":true,"access":null,"website":null,"phone":null,"source":"OpenStreetMap/way/741909691","sourceUpdatedAt":null,"verifiedAt":null}},{"type":"Feature","geometry":{"type":"Point","coordinates":[11.4678645,48.1896999]},"properties":{"id":"bikerack:b96b2519-10b8-41cf-91f5-f715cd700dc0","kind":"bikerack","longitude":11.4678645,"latitude":48.1896999,"name":"Fahrradabstellplatz","city":"Karlsfeld","address":null,"covered":true,"access":null,"website":null,"phone":null,"source":"OpenStreetMap/way/741905936","sourceUpdatedAt":null,"verifiedAt":null}},{"type":"Feature","geometry":{"type":"Point","coordinates":[11.4623506,48.1789864]},"properties":{"id":"bikerack:cb3fff03-b75b-41d2-9eb8-b48078b84a33","kind":"bikerack","longitude":11.4623506,"latitude":48.1789864,"name":"Fahrradabstellplatz","city":"Karlsfeld","address":null,"covered":true,"access":null,"website":null,"phone":null,"source":"OpenStreetMap/way/174580936","sourceUpdatedAt":null,"verifiedAt":null}},{"type":"Feature","geometry":{"type":"Point","coordinates":[11.4625009,48.1790359]},"properties":{"id":"bikerack:e49bfa67-5dc3-4f0a-80f0-713579826d41","kind":"bikerack","longitude":11.4625009,"latitude":48.1790359,"name":"Fahrradabstellplatz","city":"Karlsfeld","address":null,"covered":false,"access":null,"website":null,"phone":null,"source":"OpenStreetMap/way/294698946","sourceUpdatedAt":null,"verifiedAt":null}},{"type":"Feature","geometry":{"type":"Point","coordinates":[11.4639923,48.1793436]},"properties":{"id":"bikerack:edf7bab0-307d-4e1d-bc96-268a3e0cfeb8","kind":"bikerack","longitude":11.4639923,"latitude":48.1793436,"name":"Fahrradabstellplatz","city":"Karlsfeld","address":null,"covered":false,"access":null,"website":null,"phone":null,"source":"OpenStreetMap/way/174580932","sourceUpdatedAt":null,"verifiedAt":null}},{"type":"Feature","geometry":{"type":"Point","coordinates":[11.4600342,48.1902752]},"properties":{"id":"repair:e2280c66-3a90-4a24-825f-5de1e1e6274a","kind":"repair","longitude":11.4600342,"latitude":48.1902752,"name":"Fahrradreparaturstation","city":"Karlsfeld","address":null,"covered":false,"access":null,"website":null,"phone":null,"source":"OpenStreetMap/node/12616458839","sourceUpdatedAt":null,"verifiedAt":null}}]}