{"type":"FeatureCollection","features":[{"type":"Feature","geometry":{"type":"Point","coordinates":[11.4611755,46.111718]},"properties":{"id":"water:653154e0-0b3f-4a44-83be-1ff205fb7f2b","kind":"water","longitude":11.4611755,"latitude":46.111718,"name":"Fontanella","city":"Torcegno","address":null,"covered":null,"access":null,"website":null,"phone":null,"source":"OpenStreetMap/node/11007000912","sourceUpdatedAt":null,"verifiedAt":null}},{"type":"Feature","geometry":{"type":"Point","coordinates":[11.4577249,46.1177368]},"properties":{"id":"water:8e083bc1-3084-477d-a114-da6f8c83d465","kind":"water","longitude":11.4577249,"latitude":46.1177368,"name":"Fontanella","city":"Torcegno","address":null,"covered":null,"access":null,"website":null,"phone":null,"source":"OpenStreetMap/node/11007000911","sourceUpdatedAt":null,"verifiedAt":null}}]}