{"type":"FeatureCollection","features":[{"type":"Feature","geometry":{"type":"Point","coordinates":[8.679788,53.884146]},"properties":{"id":"bikerack:0f4d721f-4a0f-4bb9-a845-0310c2d2ecdb","kind":"bikerack","longitude":8.679788,"latitude":53.884146,"name":"Fahrradabstellplatz","city":"Cuxhaven","address":null,"covered":false,"access":null,"website":null,"phone":null,"source":"OpenStreetMap/node/2258959464","sourceUpdatedAt":null,"verifiedAt":null}},{"type":"Feature","geometry":{"type":"Point","coordinates":[8.6783065,53.8837458]},"properties":{"id":"bikerack:4a478786-4ecf-4c06-9184-674163b0dcd0","kind":"bikerack","longitude":8.6783065,"latitude":53.8837458,"name":"Fahrradabstellplatz","city":"Cuxhaven","address":null,"covered":false,"access":null,"website":null,"phone":null,"source":"OpenStreetMap/node/2258959458","sourceUpdatedAt":null,"verifiedAt":null}},{"type":"Feature","geometry":{"type":"Point","coordinates":[8.6669431,53.8898465]},"properties":{"id":"bikerack:4c35667f-748f-4baf-b7c3-3575d670ec60","kind":"bikerack","longitude":8.6669431,"latitude":53.8898465,"name":"Fahrradabstellplatz","city":"Cuxhaven","address":null,"covered":false,"access":null,"website":null,"phone":null,"source":"OpenStreetMap/way/1446567857","sourceUpdatedAt":null,"verifiedAt":null}},{"type":"Feature","geometry":{"type":"Point","coordinates":[8.6810687,53.8885265]},"properties":{"id":"bikerack:4ef30eb9-b7f6-42a9-99ce-1823e46ed6a2","kind":"bikerack","longitude":8.6810687,"latitude":53.8885265,"name":"Fahrradabstellplatz","city":"Cuxhaven","address":null,"covered":false,"access":null,"website":null,"phone":null,"source":"OpenStreetMap/node/11142945106","sourceUpdatedAt":null,"verifiedAt":null}},{"type":"Feature","geometry":{"type":"Point","coordinates":[8.6715402,53.8813691]},"properties":{"id":"bikerack:6b1b218f-46b5-450d-b474-413b5abe3c40","kind":"bikerack","longitude":8.6715402,"latitude":53.8813691,"name":"Fahrradabstellplatz","city":"Cuxhaven","address":null,"covered":false,"access":null,"website":null,"phone":null,"source":"OpenStreetMap/node/12733539074","sourceUpdatedAt":null,"verifiedAt":null}},{"type":"Feature","geometry":{"type":"Point","coordinates":[8.6805336,53.885262]},"properties":{"id":"bikerack:6c8077f3-b51d-4535-aa33-4164d62a51bc","kind":"bikerack","longitude":8.6805336,"latitude":53.885262,"name":"Fahrradabstellplatz","city":"Cuxhaven","address":null,"covered":false,"access":null,"website":null,"phone":null,"source":"OpenStreetMap/node/2258959471","sourceUpdatedAt":null,"verifiedAt":null}},{"type":"Feature","geometry":{"type":"Point","coordinates":[8.6717697,53.8816702]},"properties":{"id":"bikerack:7e6a46b4-f9ce-44ff-8687-ab2047e92ff2","kind":"bikerack","longitude":8.6717697,"latitude":53.8816702,"name":"Fahrradabstellplatz","city":"Cuxhaven","address":null,"covered":false,"access":null,"website":null,"phone":null,"source":"OpenStreetMap/node/12733539083","sourceUpdatedAt":null,"verifiedAt":null}},{"type":"Feature","geometry":{"type":"Point","coordinates":[8.6822086,53.8915562]},"properties":{"id":"bikerack:a5d0c862-e6ae-4efb-b066-bbd18def8d61","kind":"bikerack","longitude":8.6822086,"latitude":53.8915562,"name":"Fahrradabstellplatz","city":"Cuxhaven","address":null,"covered":false,"access":null,"website":null,"phone":null,"source":"OpenStreetMap/way/1213789325","sourceUpdatedAt":null,"verifiedAt":null}},{"type":"Feature","geometry":{"type":"Point","coordinates":[8.6719371,53.8815849]},"properties":{"id":"bikerack:b93e6305-594f-457a-a56e-583c40137034","kind":"bikerack","longitude":8.6719371,"latitude":53.8815849,"name":"Fahrradabstellplatz","city":"Cuxhaven","address":null,"covered":false,"access":null,"website":null,"phone":null,"source":"OpenStreetMap/node/12733539084","sourceUpdatedAt":null,"verifiedAt":null}},{"type":"Feature","geometry":{"type":"Point","coordinates":[8.678652,53.8911131]},"properties":{"id":"bikerack:c483bfdd-5652-4346-bc19-1c29515c7f65","kind":"bikerack","longitude":8.678652,"latitude":53.8911131,"name":"Fahrradabstellplatz","city":"Cuxhaven","address":null,"covered":false,"access":null,"website":null,"phone":null,"source":"OpenStreetMap/node/6353633412","sourceUpdatedAt":null,"verifiedAt":null}},{"type":"Feature","geometry":{"type":"Point","coordinates":[8.6798412,53.8840928]},"properties":{"id":"bikerack:e42f3174-7575-48f4-afc8-77ccffc59c4d","kind":"bikerack","longitude":8.6798412,"latitude":53.8840928,"name":"Fahrradabstellplatz","city":"Cuxhaven","address":null,"covered":false,"access":null,"website":null,"phone":null,"source":"OpenStreetMap/node/2258959460","sourceUpdatedAt":null,"verifiedAt":null}},{"type":"Feature","geometry":{"type":"Point","coordinates":[8.6806103,53.8862384]},"properties":{"id":"bikerack:eca5e34b-d0f7-4df0-b725-bbdfe6f8effe","kind":"bikerack","longitude":8.6806103,"latitude":53.8862384,"name":"Fahrradabstellplatz","city":"Cuxhaven","address":null,"covered":false,"access":null,"website":null,"phone":null,"source":"OpenStreetMap/node/2258959474","sourceUpdatedAt":null,"verifiedAt":null}}]}