{"type":"FeatureCollection","features":[{"type":"Feature","geometry":{"type":"Point","coordinates":[8.6944771,50.7600111]},"properties":{"id":"bikerack:4a945a40-9a5c-4bbf-b427-bc50c4bf0201","kind":"bikerack","longitude":8.6944771,"latitude":50.7600111,"name":"Fahrradabstellplatz","city":"Fronhausen","address":null,"covered":false,"access":null,"website":null,"phone":null,"source":"OpenStreetMap/node/5238600408","sourceUpdatedAt":null,"verifiedAt":null}},{"type":"Feature","geometry":{"type":"Point","coordinates":[8.700941,50.7381952]},"properties":{"id":"bikerack:4c594032-dc0e-4596-9ee1-ce31bf589af8","kind":"bikerack","longitude":8.700941,"latitude":50.7381952,"name":"Fahrradabstellplatz","city":"Fronhausen","address":null,"covered":false,"access":null,"website":null,"phone":null,"source":"OpenStreetMap/node/7701604867","sourceUpdatedAt":null,"verifiedAt":null}},{"type":"Feature","geometry":{"type":"Point","coordinates":[8.6977413,50.7594961]},"properties":{"id":"bikerack:9dcb5f3e-fc47-4c86-bf6e-70bce78017dd","kind":"bikerack","longitude":8.6977413,"latitude":50.7594961,"name":"Fahrradabstellplatz","city":"Fronhausen","address":null,"covered":false,"access":null,"website":null,"phone":null,"source":"OpenStreetMap/node/5238600410","sourceUpdatedAt":null,"verifiedAt":null}}]}