{"type":"FeatureCollection","features":[{"type":"Feature","geometry":{"type":"Point","coordinates":[8.6663952,49.9958061]},"properties":{"id":"bikerack:06c7a408-b206-4084-8459-fbb874073a35","kind":"bikerack","longitude":8.6663952,"latitude":49.9958061,"name":"Fahrradabstellplatz","city":"Langen","address":null,"covered":true,"access":null,"website":null,"phone":null,"source":"OpenStreetMap/way/1178303902","sourceUpdatedAt":null,"verifiedAt":null}},{"type":"Feature","geometry":{"type":"Point","coordinates":[8.6763071,49.9888677]},"properties":{"id":"bikerack:09a098ab-42d5-4bd2-b41b-a343ee444e56","kind":"bikerack","longitude":8.6763071,"latitude":49.9888677,"name":"Fahrradabstellplatz","city":"Langen","address":null,"covered":false,"access":null,"website":null,"phone":null,"source":"OpenStreetMap/node/12744843260","sourceUpdatedAt":null,"verifiedAt":null}},{"type":"Feature","geometry":{"type":"Point","coordinates":[8.6736984,49.99059]},"properties":{"id":"bikerack:154108fc-8f29-4b0d-9a3a-bb728e6ec49c","kind":"bikerack","longitude":8.6736984,"latitude":49.99059,"name":"Fahrradabstellplatz","city":"Langen","address":null,"covered":false,"access":null,"website":null,"phone":null,"source":"OpenStreetMap/node/1445319894","sourceUpdatedAt":null,"verifiedAt":null}},{"type":"Feature","geometry":{"type":"Point","coordinates":[8.6666089,49.9870907]},"properties":{"id":"bikerack:16137ba3-6212-46b3-9641-11025980ebe2","kind":"bikerack","longitude":8.6666089,"latitude":49.9870907,"name":"Fahrradabstellplatz","city":"Langen","address":null,"covered":false,"access":null,"website":null,"phone":null,"source":"OpenStreetMap/node/8255999879","sourceUpdatedAt":null,"verifiedAt":null}},{"type":"Feature","geometry":{"type":"Point","coordinates":[8.6753652,49.9893938]},"properties":{"id":"bikerack:16332ecd-b6f8-4865-9ea6-099b540bcbc7","kind":"bikerack","longitude":8.6753652,"latitude":49.9893938,"name":"Fahrradabstellplatz","city":"Langen","address":null,"covered":false,"access":null,"website":null,"phone":null,"source":"OpenStreetMap/node/1445319889","sourceUpdatedAt":null,"verifiedAt":null}},{"type":"Feature","geometry":{"type":"Point","coordinates":[8.6660304,49.9902945]},"properties":{"id":"bikerack:1a9ba760-96b3-4329-8163-f148b25e8905","kind":"bikerack","longitude":8.6660304,"latitude":49.9902945,"name":"Fahrradabstellplatz","city":"Langen","address":null,"covered":false,"access":null,"website":null,"phone":null,"source":"OpenStreetMap/node/12311668648","sourceUpdatedAt":null,"verifiedAt":null}},{"type":"Feature","geometry":{"type":"Point","coordinates":[8.657621,49.9940292]},"properties":{"id":"bikerack:1c228976-69fc-4c55-96a7-04b49a68706b","kind":"bikerack","longitude":8.657621,"latitude":49.9940292,"name":"Fahrradabstellplatz","city":"Langen","address":null,"covered":true,"access":null,"website":null,"phone":null,"source":"OpenStreetMap/node/1157252552","sourceUpdatedAt":null,"verifiedAt":null}},{"type":"Feature","geometry":{"type":"Point","coordinates":[8.6579952,49.99438]},"properties":{"id":"bikerack:1cb0b5f4-d7e6-44b9-b846-8b1759252193","kind":"bikerack","longitude":8.6579952,"latitude":49.99438,"name":"Fahrradabstellplatz","city":"Langen","address":null,"covered":false,"access":null,"website":null,"phone":null,"source":"OpenStreetMap/node/13205335105","sourceUpdatedAt":null,"verifiedAt":null}},{"type":"Feature","geometry":{"type":"Point","coordinates":[8.6748469,49.9895845]},"properties":{"id":"bikerack:1fadadd1-c275-4fdc-a799-6b7ce2c47a77","kind":"bikerack","longitude":8.6748469,"latitude":49.9895845,"name":"Fahrradabstellplatz","city":"Langen","address":null,"covered":false,"access":null,"website":null,"phone":null,"source":"OpenStreetMap/node/9553128328","sourceUpdatedAt":null,"verifiedAt":null}},{"type":"Feature","geometry":{"type":"Point","coordinates":[8.6587511,49.9954235]},"properties":{"id":"bikerack:22bd94e4-17d4-4d12-b8ca-12d87a9461a5","kind":"bikerack","longitude":8.6587511,"latitude":49.9954235,"name":"Fahrradabstellplatz","city":"Langen","address":null,"covered":false,"access":null,"website":null,"phone":null,"source":"OpenStreetMap/node/8441510488","sourceUpdatedAt":null,"verifiedAt":null}},{"type":"Feature","geometry":{"type":"Point","coordinates":[8.659426,49.9958946]},"properties":{"id":"bikerack:2c24dc1b-cab2-4035-a003-8af5d645e62f","kind":"bikerack","longitude":8.659426,"latitude":49.9958946,"name":"Fahrradabstellplatz","city":"Langen","address":null,"covered":false,"access":null,"website":null,"phone":null,"source":"OpenStreetMap/node/8174089871","sourceUpdatedAt":null,"verifiedAt":null}},{"type":"Feature","geometry":{"type":"Point","coordinates":[8.6829845,49.9995318]},"properties":{"id":"bikerack:2e6c5be2-70b8-447b-8cdd-1fddcb8fce11","kind":"bikerack","longitude":8.6829845,"latitude":49.9995318,"name":"Fahrradabstellplatz","city":"Langen","address":null,"covered":true,"access":null,"website":null,"phone":null,"source":"OpenStreetMap/node/5764481127","sourceUpdatedAt":null,"verifiedAt":null}},{"type":"Feature","geometry":{"type":"Point","coordinates":[8.6783561,49.9812753]},"properties":{"id":"bikerack:2f0128ea-6741-47d4-9412-c4bf47ae1a2d","kind":"bikerack","longitude":8.6783561,"latitude":49.9812753,"name":"Fahrradabstellplatz","city":"Langen","address":null,"covered":false,"access":null,"website":null,"phone":null,"source":"OpenStreetMap/node/7001812677","sourceUpdatedAt":null,"verifiedAt":null}},{"type":"Feature","geometry":{"type":"Point","coordinates":[8.7010595,50.007199]},"properties":{"id":"bikerack:314620bb-67d7-4666-89ff-a8cd6506b256","kind":"bikerack","longitude":8.7010595,"latitude":50.007199,"name":"Fahrradabstellplatz","city":"Dreieich","address":null,"covered":true,"access":null,"website":null,"phone":null,"source":"OpenStreetMap/node/1468812540","sourceUpdatedAt":null,"verifiedAt":null}},{"type":"Feature","geometry":{"type":"Point","coordinates":[8.6665149,49.9959767]},"properties":{"id":"bikerack:319977a4-5c21-4ccb-a3e4-5ec6b6c5435d","kind":"bikerack","longitude":8.6665149,"latitude":49.9959767,"name":"Fahrradabstellplatz","city":"Langen","address":null,"covered":true,"access":null,"website":null,"phone":null,"source":"OpenStreetMap/way/1178303904","sourceUpdatedAt":null,"verifiedAt":null}},{"type":"Feature","geometry":{"type":"Point","coordinates":[8.6585643,49.9875887]},"properties":{"id":"bikerack:3266af45-a463-4bb1-b6ee-c88ba2dc4e3a","kind":"bikerack","longitude":8.6585643,"latitude":49.9875887,"name":"Fahrradabstellplatz","city":"Langen","address":null,"covered":true,"access":null,"website":null,"phone":null,"source":"OpenStreetMap/way/1309378980","sourceUpdatedAt":null,"verifiedAt":null}},{"type":"Feature","geometry":{"type":"Point","coordinates":[8.6757478,49.989563]},"properties":{"id":"bikerack:372c2f0b-420f-4c0f-b4d7-952f7dfdeb1b","kind":"bikerack","longitude":8.6757478,"latitude":49.989563,"name":"Fahrradabstellplatz","city":"Langen","address":null,"covered":false,"access":null,"website":null,"phone":null,"source":"OpenStreetMap/node/1445319891","sourceUpdatedAt":null,"verifiedAt":null}},{"type":"Feature","geometry":{"type":"Point","coordinates":[8.6751315,49.9898479]},"properties":{"id":"bikerack:41886c1b-1bc1-479a-b6e3-1d41bb9e1057","kind":"bikerack","longitude":8.6751315,"latitude":49.9898479,"name":"Fahrradabstellplatz","city":"Langen","address":null,"covered":false,"access":null,"website":null,"phone":null,"source":"OpenStreetMap/node/12174661166","sourceUpdatedAt":null,"verifiedAt":null}},{"type":"Feature","geometry":{"type":"Point","coordinates":[8.6826513,49.9850717]},"properties":{"id":"bikerack:43df08d0-d2ed-4b89-b640-0034b1a86ef2","kind":"bikerack","longitude":8.6826513,"latitude":49.9850717,"name":"Fahrradabstellplatz","city":"Langen","address":null,"covered":true,"access":null,"website":null,"phone":null,"source":"OpenStreetMap/node/11091697944","sourceUpdatedAt":null,"verifiedAt":null}},{"type":"Feature","geometry":{"type":"Point","coordinates":[8.6702389,49.9898888]},"properties":{"id":"bikerack:456d629d-837b-41d0-90a9-077d3f8f409b","kind":"bikerack","longitude":8.6702389,"latitude":49.9898888,"name":"Fahrradabstellplatz","city":"Langen","address":null,"covered":false,"access":null,"website":null,"phone":null,"source":"OpenStreetMap/node/3906616422","sourceUpdatedAt":null,"verifiedAt":null}},{"type":"Feature","geometry":{"type":"Point","coordinates":[8.6926234,49.9820057]},"properties":{"id":"bikerack:497bd276-659e-46e1-968e-0f2eb7c85a3d","kind":"bikerack","longitude":8.6926234,"latitude":49.9820057,"name":"Fahrradabstellplatz","city":"Egelsbach","address":null,"covered":false,"access":null,"website":null,"phone":null,"source":"OpenStreetMap/node/7853202134","sourceUpdatedAt":null,"verifiedAt":null}},{"type":"Feature","geometry":{"type":"Point","coordinates":[8.6579163,49.9949077]},"properties":{"id":"bikerack:4c17ce0e-538b-462a-ac34-37d0a8e3cf36","kind":"bikerack","longitude":8.6579163,"latitude":49.9949077,"name":"Fahrradabstellplatz","city":"Langen","address":null,"covered":false,"access":null,"website":null,"phone":null,"source":"OpenStreetMap/node/8391945409","sourceUpdatedAt":null,"verifiedAt":null}},{"type":"Feature","geometry":{"type":"Point","coordinates":[8.6659592,49.990636]},"properties":{"id":"bikerack:4cd5ee1f-f549-415d-84b7-58a5195bd2ea","kind":"bikerack","longitude":8.6659592,"latitude":49.990636,"name":"Fahrradabstellplatz","city":"Langen","address":null,"covered":false,"access":null,"website":null,"phone":null,"source":"OpenStreetMap/node/12311663274","sourceUpdatedAt":null,"verifiedAt":null}},{"type":"Feature","geometry":{"type":"Point","coordinates":[8.6778423,49.9951325]},"properties":{"id":"bikerack:5f7f2a38-1b46-48b0-b23b-717853e88007","kind":"bikerack","longitude":8.6778423,"latitude":49.9951325,"name":"Fahrradabstellplatz","city":"Langen","address":null,"covered":false,"access":null,"website":null,"phone":null,"source":"OpenStreetMap/node/9356516064","sourceUpdatedAt":null,"verifiedAt":null}},{"type":"Feature","geometry":{"type":"Point","coordinates":[8.6734422,49.9895499]},"properties":{"id":"bikerack:63621a0e-b866-4376-bbba-6d80706985df","kind":"bikerack","longitude":8.6734422,"latitude":49.9895499,"name":"Fahrradabstellplatz","city":"Langen","address":null,"covered":false,"access":null,"website":null,"phone":null,"source":"OpenStreetMap/node/12174618299","sourceUpdatedAt":null,"verifiedAt":null}},{"type":"Feature","geometry":{"type":"Point","coordinates":[8.67959,49.9885955]},"properties":{"id":"bikerack:6c3aaad2-18e5-47e1-9dfb-da01f61fc5a0","kind":"bikerack","longitude":8.67959,"latitude":49.9885955,"name":"Fahrradabstellplatz","city":"Langen","address":null,"covered":false,"access":null,"website":null,"phone":null,"source":"OpenStreetMap/node/8922727539","sourceUpdatedAt":null,"verifiedAt":null}},{"type":"Feature","geometry":{"type":"Point","coordinates":[8.6779629,49.9845475]},"properties":{"id":"bikerack:77418320-4474-488b-90f7-cd5cc22cab89","kind":"bikerack","longitude":8.6779629,"latitude":49.9845475,"name":"Fahrradabstellplatz","city":"Langen","address":null,"covered":false,"access":null,"website":null,"phone":null,"source":"OpenStreetMap/node/10209388709","sourceUpdatedAt":null,"verifiedAt":null}},{"type":"Feature","geometry":{"type":"Point","coordinates":[8.6713272,49.9888705]},"properties":{"id":"bikerack:7f1b4070-d91a-4b5c-b0d6-3ac0748bac74","kind":"bikerack","longitude":8.6713272,"latitude":49.9888705,"name":"Fahrradabstellplatz","city":"Langen","address":null,"covered":false,"access":null,"website":null,"phone":null,"source":"OpenStreetMap/node/12977419586","sourceUpdatedAt":null,"verifiedAt":null}},{"type":"Feature","geometry":{"type":"Point","coordinates":[8.7011717,49.9959066]},"properties":{"id":"bikerack:8c62cb48-db4e-4de3-a2be-668167f483e6","kind":"bikerack","longitude":8.7011717,"latitude":49.9959066,"name":"Fahrradabstellplatz","city":"Dreieich","address":null,"covered":false,"access":null,"website":null,"phone":null,"source":"OpenStreetMap/node/9914694706","sourceUpdatedAt":null,"verifiedAt":null}},{"type":"Feature","geometry":{"type":"Point","coordinates":[8.6778452,49.9952731]},"properties":{"id":"bikerack:9233f19f-0053-489e-ac9f-bdbd9935d688","kind":"bikerack","longitude":8.6778452,"latitude":49.9952731,"name":"Fahrradabstellplatz","city":"Langen","address":null,"covered":false,"access":null,"website":null,"phone":null,"source":"OpenStreetMap/node/9975762313","sourceUpdatedAt":null,"verifiedAt":null}},{"type":"Feature","geometry":{"type":"Point","coordinates":[8.6693561,49.9948003]},"properties":{"id":"bikerack:9f37dcb2-afd4-431c-8749-5647987ef3ee","kind":"bikerack","longitude":8.6693561,"latitude":49.9948003,"name":"Fahrradabstellplatz","city":"Langen","address":null,"covered":false,"access":null,"website":null,"phone":null,"source":"OpenStreetMap/node/9689497953","sourceUpdatedAt":null,"verifiedAt":null}},{"type":"Feature","geometry":{"type":"Point","coordinates":[8.6695423,49.9948402]},"properties":{"id":"bikerack:9f86b687-cae6-45b1-b8d0-6604f77ea6ab","kind":"bikerack","longitude":8.6695423,"latitude":49.9948402,"name":"Fahrradabstellplatz","city":"Langen","address":null,"covered":false,"access":null,"website":null,"phone":null,"source":"OpenStreetMap/node/9689497952","sourceUpdatedAt":null,"verifiedAt":null}},{"type":"Feature","geometry":{"type":"Point","coordinates":[8.6580509,49.9949675]},"properties":{"id":"bikerack:a31b59d6-047d-43c5-9b9f-799b14e12625","kind":"bikerack","longitude":8.6580509,"latitude":49.9949675,"name":"Fahrradabstellplatz","city":"Langen","address":null,"covered":false,"access":null,"website":null,"phone":null,"source":"OpenStreetMap/node/11525714767","sourceUpdatedAt":null,"verifiedAt":null}},{"type":"Feature","geometry":{"type":"Point","coordinates":[8.6828174,49.9906491]},"properties":{"id":"bikerack:a73c8d89-dc99-44be-936d-56222aa27760","kind":"bikerack","longitude":8.6828174,"latitude":49.9906491,"name":"Fahrradabstellplatz","city":"Langen","address":null,"covered":false,"access":null,"website":null,"phone":null,"source":"OpenStreetMap/node/10304770514","sourceUpdatedAt":null,"verifiedAt":null}},{"type":"Feature","geometry":{"type":"Point","coordinates":[8.6853871,49.9883103]},"properties":{"id":"bikerack:ab7ada99-07b6-4a8f-89e7-cf646849e74c","kind":"bikerack","longitude":8.6853871,"latitude":49.9883103,"name":"Fahrradabstellplatz","city":"Langen","address":null,"covered":false,"access":null,"website":null,"phone":null,"source":"OpenStreetMap/node/9025474800","sourceUpdatedAt":null,"verifiedAt":null}},{"type":"Feature","geometry":{"type":"Point","coordinates":[8.6697112,49.9948763]},"properties":{"id":"bikerack:ad8f1abc-cbe5-4b93-94ab-25eacdf00221","kind":"bikerack","longitude":8.6697112,"latitude":49.9948763,"name":"Fahrradabstellplatz","city":"Langen","address":null,"covered":false,"access":null,"website":null,"phone":null,"source":"OpenStreetMap/node/9689497951","sourceUpdatedAt":null,"verifiedAt":null}},{"type":"Feature","geometry":{"type":"Point","coordinates":[8.6659584,49.9959985]},"properties":{"id":"bikerack:b688d528-c3fd-412d-b3c9-792b1288d4cc","kind":"bikerack","longitude":8.6659584,"latitude":49.9959985,"name":"Fahrradabstellplatz","city":"Langen","address":null,"covered":true,"access":null,"website":null,"phone":null,"source":"OpenStreetMap/way/1178303903","sourceUpdatedAt":null,"verifiedAt":null}},{"type":"Feature","geometry":{"type":"Point","coordinates":[8.6717588,49.9894612]},"properties":{"id":"bikerack:baaf3efe-3d41-48f9-993e-3afa432592ad","kind":"bikerack","longitude":8.6717588,"latitude":49.9894612,"name":"Fahrradabstellplatz","city":"Langen","address":null,"covered":false,"access":null,"website":null,"phone":null,"source":"OpenStreetMap/node/10289878743","sourceUpdatedAt":null,"verifiedAt":null}},{"type":"Feature","geometry":{"type":"Point","coordinates":[8.6574172,49.9940438]},"properties":{"id":"bikerack:d31ddff0-7f1d-4906-b994-9d5f6a94c810","kind":"bikerack","longitude":8.6574172,"latitude":49.9940438,"name":"Fahrradabstellplatz","city":"Langen","address":null,"covered":true,"access":null,"website":null,"phone":null,"source":"OpenStreetMap/node/1444983176","sourceUpdatedAt":null,"verifiedAt":null}},{"type":"Feature","geometry":{"type":"Point","coordinates":[8.6737503,49.9959315]},"properties":{"id":"bikerack:d53d688d-a943-43d7-b69d-d1744c96270e","kind":"bikerack","longitude":8.6737503,"latitude":49.9959315,"name":"Fahrradabstellplatz","city":"Langen","address":null,"covered":true,"access":null,"website":null,"phone":null,"source":"OpenStreetMap/node/12206787976","sourceUpdatedAt":null,"verifiedAt":null}},{"type":"Feature","geometry":{"type":"Point","coordinates":[8.675737,49.9894858]},"properties":{"id":"bikerack:d6652eba-4560-4caf-bd34-1f4fd064f696","kind":"bikerack","longitude":8.675737,"latitude":49.9894858,"name":"Fahrradabstellplatz","city":"Langen","address":null,"covered":false,"access":null,"website":null,"phone":null,"source":"OpenStreetMap/node/1445319890","sourceUpdatedAt":null,"verifiedAt":null}},{"type":"Feature","geometry":{"type":"Point","coordinates":[8.6931249,50.0041714]},"properties":{"id":"bikerack:daa9a6c1-0b18-42ed-832f-d4cdf3e0b189","kind":"bikerack","longitude":8.6931249,"latitude":50.0041714,"name":"Fahrradabstellplatz","city":"Dreieich","address":null,"covered":true,"access":null,"website":null,"phone":null,"source":"OpenStreetMap/way/1087872631","sourceUpdatedAt":null,"verifiedAt":null}},{"type":"Feature","geometry":{"type":"Point","coordinates":[8.66482,49.9906614]},"properties":{"id":"bikerack:dbf982d6-f13c-412b-b309-03eeb25704c3","kind":"bikerack","longitude":8.66482,"latitude":49.9906614,"name":"Fahrradabstellplatz","city":"Langen","address":null,"covered":false,"access":null,"website":null,"phone":null,"source":"OpenStreetMap/node/9346333539","sourceUpdatedAt":null,"verifiedAt":null}},{"type":"Feature","geometry":{"type":"Point","coordinates":[8.6718706,49.9888605]},"properties":{"id":"bikerack:dc1663fd-feb5-4ccd-9c6c-aaa68f25c85a","kind":"bikerack","longitude":8.6718706,"latitude":49.9888605,"name":"Fahrradabstellplatz","city":"Langen","address":null,"covered":false,"access":null,"website":null,"phone":null,"source":"OpenStreetMap/node/11525751081","sourceUpdatedAt":null,"verifiedAt":null}},{"type":"Feature","geometry":{"type":"Point","coordinates":[8.6668019,49.9903141]},"properties":{"id":"bikerack:e286da02-5427-4d75-88b6-90a0378fe4fc","kind":"bikerack","longitude":8.6668019,"latitude":49.9903141,"name":"Fahrradabstellplatz","city":"Langen","address":null,"covered":false,"access":null,"website":null,"phone":null,"source":"OpenStreetMap/node/12311622296","sourceUpdatedAt":null,"verifiedAt":null}},{"type":"Feature","geometry":{"type":"Point","coordinates":[8.6586989,49.9940598]},"properties":{"id":"bikerack:e8feebb3-9ad8-42e0-a5bd-69029dc2a230","kind":"bikerack","longitude":8.6586989,"latitude":49.9940598,"name":"Fahrradabstellplatz","city":"Langen","address":null,"covered":false,"access":null,"website":null,"phone":null,"source":"OpenStreetMap/node/11832927123","sourceUpdatedAt":null,"verifiedAt":null}},{"type":"Feature","geometry":{"type":"Point","coordinates":[8.6628918,49.99674]},"properties":{"id":"bikerack:eae4b2fb-4f96-4608-9de3-27a5b1213cd6","kind":"bikerack","longitude":8.6628918,"latitude":49.99674,"name":"Fahrradabstellplatz","city":"Langen","address":null,"covered":false,"access":null,"website":null,"phone":null,"source":"OpenStreetMap/node/8494333170","sourceUpdatedAt":null,"verifiedAt":null}},{"type":"Feature","geometry":{"type":"Point","coordinates":[8.6576424,49.9930675]},"properties":{"id":"bikerack:eb2824f4-5c01-4c98-a3cb-b2bb4cdde550","kind":"bikerack","longitude":8.6576424,"latitude":49.9930675,"name":"Fahrradabstellplatz","city":"Langen","address":null,"covered":false,"access":null,"website":null,"phone":null,"source":"OpenStreetMap/node/1445322937","sourceUpdatedAt":null,"verifiedAt":null}},{"type":"Feature","geometry":{"type":"Point","coordinates":[8.6853066,49.9881654]},"properties":{"id":"bikerack:ef8ba144-a0f5-49eb-93ac-e2254c13476a","kind":"bikerack","longitude":8.6853066,"latitude":49.9881654,"name":"Fahrradabstellplatz","city":"Langen","address":null,"covered":false,"access":null,"website":null,"phone":null,"source":"OpenStreetMap/node/9025474801","sourceUpdatedAt":null,"verifiedAt":null}},{"type":"Feature","geometry":{"type":"Point","coordinates":[8.658727,49.9940634]},"properties":{"id":"bikerack:f0eaeeac-3d61-4ccb-9b94-6f986badcb48","kind":"bikerack","longitude":8.658727,"latitude":49.9940634,"name":"Fahrradabstellplatz","city":"Langen","address":null,"covered":false,"access":null,"website":null,"phone":null,"source":"OpenStreetMap/node/11832927122","sourceUpdatedAt":null,"verifiedAt":null}},{"type":"Feature","geometry":{"type":"Point","coordinates":[8.6661429,49.9905833]},"properties":{"id":"bikerack:f24cf045-543c-4f05-afd8-7aa9bbda11eb","kind":"bikerack","longitude":8.6661429,"latitude":49.9905833,"name":"Fahrradabstellplatz","city":"Langen","address":null,"covered":false,"access":null,"website":null,"phone":null,"source":"OpenStreetMap/node/12311668265","sourceUpdatedAt":null,"verifiedAt":null}},{"type":"Feature","geometry":{"type":"Point","coordinates":[8.6781321,49.9947927]},"properties":{"id":"bikerack:f87f0b4e-1fc3-461a-ae5c-ca398b6c552f","kind":"bikerack","longitude":8.6781321,"latitude":49.9947927,"name":"Fahrradabstellplatz","city":"Langen","address":null,"covered":false,"access":null,"website":null,"phone":null,"source":"OpenStreetMap/node/11348060692","sourceUpdatedAt":null,"verifiedAt":null}},{"type":"Feature","geometry":{"type":"Point","coordinates":[8.6783168,49.9873205]},"properties":{"id":"bikerack:fc49237f-64e2-40e3-9789-9887defdbf8b","kind":"bikerack","longitude":8.6783168,"latitude":49.9873205,"name":"Fahrradabstellplatz","city":"Langen","address":null,"covered":true,"access":null,"website":null,"phone":null,"source":"OpenStreetMap/node/13689155675","sourceUpdatedAt":null,"verifiedAt":null}},{"type":"Feature","geometry":{"type":"Point","coordinates":[8.6749865,49.9896306]},"properties":{"id":"repair:dd51fa5e-4308-4950-aeff-f12d864efe2e","kind":"repair","longitude":8.6749865,"latitude":49.9896306,"name":"Fahrradreparaturstation","city":"Langen","address":null,"covered":false,"access":null,"website":null,"phone":null,"source":"OpenStreetMap/node/13455645272","sourceUpdatedAt":null,"verifiedAt":null}},{"type":"Feature","geometry":{"type":"Point","coordinates":[8.6644851,49.992489]},"properties":{"id":"service:0612e36c-7172-43a5-8b4f-9167f8001bea","kind":"service","longitude":8.6644851,"latitude":49.992489,"name":"Zweirad Schneider","city":"Langen (Hessen)","address":null,"covered":null,"access":null,"website":null,"phone":null,"source":"OpenStreetMap/node/292969648","sourceUpdatedAt":null,"verifiedAt":null}},{"type":"Feature","geometry":{"type":"Point","coordinates":[8.6807304,49.990724]},"properties":{"id":"service:cde177d9-4a3d-4e1b-866c-9f441f84974b","kind":"service","longitude":8.6807304,"latitude":49.990724,"name":"Werner & Dutiné","city":"Langen","address":null,"covered":null,"access":null,"website":null,"phone":null,"source":"OpenStreetMap/node/290865815","sourceUpdatedAt":null,"verifiedAt":null}},{"type":"Feature","geometry":{"type":"Point","coordinates":[8.6575078,49.993228]},"properties":{"id":"water:13d71779-998c-4b68-8e69-979b8802cac3","kind":"water","longitude":8.6575078,"latitude":49.993228,"name":"Trinkwasser","city":"Langen","address":null,"covered":null,"access":null,"website":null,"phone":null,"source":"OpenStreetMap/node/5103270049","sourceUpdatedAt":null,"verifiedAt":null}},{"type":"Feature","geometry":{"type":"Point","coordinates":[8.6679426,49.9901652]},"properties":{"id":"water:5ea9d164-e2c5-4572-9b0c-d1bc03d6dc62","kind":"water","longitude":8.6679426,"latitude":49.9901652,"name":"Trinkwasser","city":"Langen","address":null,"covered":null,"access":null,"website":null,"phone":null,"source":"OpenStreetMap/node/7726966776","sourceUpdatedAt":null,"verifiedAt":null}},{"type":"Feature","geometry":{"type":"Point","coordinates":[8.6595708,49.9914688]},"properties":{"id":"water:df0d22c3-6cc5-44bf-b2f1-6453f2176703","kind":"water","longitude":8.6595708,"latitude":49.9914688,"name":"Keßlerbrunnen","city":"Langen","address":null,"covered":null,"access":null,"website":null,"phone":null,"source":"OpenStreetMap/node/8274233267","sourceUpdatedAt":null,"verifiedAt":null}}]}