{"type":"FeatureCollection","features":[{"type":"Feature","geometry":{"type":"Point","coordinates":[8.6647661,49.9326732]},"properties":{"id":"bikerack:0d440020-e155-4081-b237-cf739518d1f3","kind":"bikerack","longitude":8.6647661,"latitude":49.9326732,"name":"Fahrradabstellplatz","city":"Erzhausen","address":null,"covered":false,"access":null,"website":null,"phone":null,"source":"OpenStreetMap/node/11977595872","sourceUpdatedAt":null,"verifiedAt":null}},{"type":"Feature","geometry":{"type":"Point","coordinates":[8.6587259,49.93146]},"properties":{"id":"bikerack:342bc531-390b-4ed7-bb60-dc22698ad1be","kind":"bikerack","longitude":8.6587259,"latitude":49.93146,"name":"Fahrradabstellplatz","city":"Erzhausen","address":null,"covered":false,"access":null,"website":null,"phone":null,"source":"OpenStreetMap/node/10702042231","sourceUpdatedAt":null,"verifiedAt":null}},{"type":"Feature","geometry":{"type":"Point","coordinates":[8.6797103,49.9310113]},"properties":{"id":"bikerack:4b31dabc-8ab8-4d34-8bc8-2f2bc5e036e6","kind":"bikerack","longitude":8.6797103,"latitude":49.9310113,"name":"Fahrradabstellplatz","city":"Erzhausen","address":null,"covered":false,"access":null,"website":null,"phone":null,"source":"OpenStreetMap/node/13694995148","sourceUpdatedAt":null,"verifiedAt":null}},{"type":"Feature","geometry":{"type":"Point","coordinates":[8.6947937,49.9247827]},"properties":{"id":"bikerack:58fd681d-c422-439b-80a5-296db1b3aac0","kind":"bikerack","longitude":8.6947937,"latitude":49.9247827,"name":"Fahrradabstellplatz","city":"Messel","address":null,"covered":false,"access":null,"website":null,"phone":null,"source":"OpenStreetMap/node/12150559882","sourceUpdatedAt":null,"verifiedAt":null}},{"type":"Feature","geometry":{"type":"Point","coordinates":[8.6786308,49.9308628]},"properties":{"id":"bikerack:6e2bea6c-cdbb-4403-9093-e5a5db83d3f8","kind":"bikerack","longitude":8.6786308,"latitude":49.9308628,"name":"Fahrradabstellplatz","city":"Erzhausen","address":null,"covered":false,"access":null,"website":null,"phone":null,"source":"OpenStreetMap/node/13694995146","sourceUpdatedAt":null,"verifiedAt":null}},{"type":"Feature","geometry":{"type":"Point","coordinates":[8.6788926,49.9310226]},"properties":{"id":"bikerack:7dd72c29-5fc9-498f-a7a4-f72fc3083cff","kind":"bikerack","longitude":8.6788926,"latitude":49.9310226,"name":"Fahrradabstellplatz","city":"Erzhausen","address":null,"covered":false,"access":null,"website":null,"phone":null,"source":"OpenStreetMap/node/13694995147","sourceUpdatedAt":null,"verifiedAt":null}},{"type":"Feature","geometry":{"type":"Point","coordinates":[8.6621035,49.9313028]},"properties":{"id":"bikerack:82705aed-710d-4859-871b-22118713bc5f","kind":"bikerack","longitude":8.6621035,"latitude":49.9313028,"name":"Fahrradabstellplatz","city":"Erzhausen","address":null,"covered":false,"access":null,"website":null,"phone":null,"source":"OpenStreetMap/node/3673568554","sourceUpdatedAt":null,"verifiedAt":null}},{"type":"Feature","geometry":{"type":"Point","coordinates":[8.6788315,49.9326933]},"properties":{"id":"bikerack:bad3ed61-4dd8-4c91-9097-1560bd3d375f","kind":"bikerack","longitude":8.6788315,"latitude":49.9326933,"name":"Fahrradabstellplatz","city":"Erzhausen","address":null,"covered":true,"access":null,"website":null,"phone":null,"source":"OpenStreetMap/way/237784690","sourceUpdatedAt":null,"verifiedAt":null}},{"type":"Feature","geometry":{"type":"Point","coordinates":[8.6778531,49.9323117]},"properties":{"id":"bikerack:d348d263-d522-4b95-a220-b39d98c22b42","kind":"bikerack","longitude":8.6778531,"latitude":49.9323117,"name":"Fahrradabstellplatz","city":"Erzhausen","address":null,"covered":true,"access":null,"website":null,"phone":null,"source":"OpenStreetMap/way/237785919","sourceUpdatedAt":null,"verifiedAt":null}},{"type":"Feature","geometry":{"type":"Point","coordinates":[8.6773518,49.9311691]},"properties":{"id":"bikerack:e0d9e617-595e-400b-b89d-141d3bbb7f12","kind":"bikerack","longitude":8.6773518,"latitude":49.9311691,"name":"Fahrradabstellplatz","city":"Erzhausen","address":null,"covered":true,"access":null,"website":null,"phone":null,"source":"OpenStreetMap/node/13698713190","sourceUpdatedAt":null,"verifiedAt":null}},{"type":"Feature","geometry":{"type":"Point","coordinates":[8.6788965,49.9308748]},"properties":{"id":"bikerack:fc9ed07e-cc88-4929-9621-9217229bebe0","kind":"bikerack","longitude":8.6788965,"latitude":49.9308748,"name":"Fahrradabstellplatz","city":"Erzhausen","address":null,"covered":false,"access":null,"website":null,"phone":null,"source":"OpenStreetMap/node/13694995149","sourceUpdatedAt":null,"verifiedAt":null}},{"type":"Feature","geometry":{"type":"Point","coordinates":[8.677116,49.9310714]},"properties":{"id":"repair:a4e18d81-27c1-470f-89ed-ce10792e2cd3","kind":"repair","longitude":8.677116,"latitude":49.9310714,"name":"Fahrradreparaturstation","city":"Erzhausen","address":null,"covered":false,"access":null,"website":null,"phone":null,"source":"OpenStreetMap/node/9147790563","sourceUpdatedAt":null,"verifiedAt":null}}]}