{"type":"FeatureCollection","features":[{"type":"Feature","geometry":{"type":"Point","coordinates":[8.6796088,47.7730746]},"properties":{"id":"water:134a609b-9191-4731-8aa8-a8e0ed14d84c","kind":"water","longitude":8.6796088,"latitude":47.7730746,"name":"Drinking Fountain","city":"Stetten","address":null,"covered":null,"access":null,"website":null,"phone":null,"source":"OpenStreetMap/node/4350302619","sourceUpdatedAt":null,"verifiedAt":null}},{"type":"Feature","geometry":{"type":"Point","coordinates":[8.6688491,47.7608444]},"properties":{"id":"water:47b5c950-fb3e-46a9-bd32-3f52d973899c","kind":"water","longitude":8.6688491,"latitude":47.7608444,"name":"Drinking Fountain","city":"Stetten","address":null,"covered":null,"access":null,"website":null,"phone":null,"source":"OpenStreetMap/node/3202431159","sourceUpdatedAt":null,"verifiedAt":null}},{"type":"Feature","geometry":{"type":"Point","coordinates":[8.6774319,47.7725865]},"properties":{"id":"water:85f44cec-3329-4c7b-a45a-c54aa191ce27","kind":"water","longitude":8.6774319,"latitude":47.7725865,"name":"Drinking Fountain","city":"Stetten","address":null,"covered":null,"access":null,"website":null,"phone":null,"source":"OpenStreetMap/node/4350299074","sourceUpdatedAt":null,"verifiedAt":null}},{"type":"Feature","geometry":{"type":"Point","coordinates":[8.677906,47.7733874]},"properties":{"id":"water:8c37560a-73cc-433b-9993-2fed0fa3ded3","kind":"water","longitude":8.677906,"latitude":47.7733874,"name":"Drinking Fountain","city":"Stetten","address":null,"covered":null,"access":null,"website":null,"phone":null,"source":"OpenStreetMap/node/4350303538","sourceUpdatedAt":null,"verifiedAt":null}},{"type":"Feature","geometry":{"type":"Point","coordinates":[8.6713818,47.757555]},"properties":{"id":"water:a4bc939a-858b-48c3-b77e-79bbcb0f5564","kind":"water","longitude":8.6713818,"latitude":47.757555,"name":"Brunnen","city":"Stetten","address":null,"covered":null,"access":null,"website":null,"phone":null,"source":"OpenStreetMap/node/4429533159","sourceUpdatedAt":null,"verifiedAt":null}},{"type":"Feature","geometry":{"type":"Point","coordinates":[8.6708219,47.7551248]},"properties":{"id":"water:c413c2bc-be15-4c9f-abbe-75c084fc98ad","kind":"water","longitude":8.6708219,"latitude":47.7551248,"name":"Schulhausbrunnen","city":"Stetten","address":null,"covered":null,"access":null,"website":null,"phone":null,"source":"OpenStreetMap/node/3409716853","sourceUpdatedAt":null,"verifiedAt":null}},{"type":"Feature","geometry":{"type":"Point","coordinates":[8.6710969,47.7566134]},"properties":{"id":"water:c5d93be0-cc04-4fe0-adc5-d53f6a2041f0","kind":"water","longitude":8.6710969,"latitude":47.7566134,"name":"Dorfbrunnen","city":"Stetten","address":null,"covered":null,"access":null,"website":null,"phone":null,"source":"OpenStreetMap/node/4429382799","sourceUpdatedAt":null,"verifiedAt":null}}]}