{"type":"FeatureCollection","features":[{"type":"Feature","geometry":{"type":"Point","coordinates":[8.6851539,47.5639549]},"properties":{"id":"bikerack:3189c43c-cf6b-490d-8af4-dae66a1c660c","kind":"bikerack","longitude":8.6851539,"latitude":47.5639549,"name":"Bicycle Parking","city":"Henggart","address":null,"covered":false,"access":null,"website":null,"phone":null,"source":"OpenStreetMap/way/1497347044","sourceUpdatedAt":null,"verifiedAt":null}},{"type":"Feature","geometry":{"type":"Point","coordinates":[8.6851304,47.5640075]},"properties":{"id":"bikerack:4765374c-a9e1-4a05-ac92-7222618a76bf","kind":"bikerack","longitude":8.6851304,"latitude":47.5640075,"name":"Bicycle Parking","city":"Henggart","address":null,"covered":false,"access":null,"website":null,"phone":null,"source":"OpenStreetMap/way/1497347045","sourceUpdatedAt":null,"verifiedAt":null}},{"type":"Feature","geometry":{"type":"Point","coordinates":[8.6851741,47.5639099]},"properties":{"id":"bikerack:c40c95d5-9309-4521-90f6-a212fa6934bc","kind":"bikerack","longitude":8.6851741,"latitude":47.5639099,"name":"Bicycle Parking","city":"Henggart","address":null,"covered":false,"access":null,"website":null,"phone":null,"source":"OpenStreetMap/way/1497347043","sourceUpdatedAt":null,"verifiedAt":null}},{"type":"Feature","geometry":{"type":"Point","coordinates":[8.6722026,47.5762796]},"properties":{"id":"water:47f6df1f-f1c3-4e55-97e4-f8d19105ca5c","kind":"water","longitude":8.6722026,"latitude":47.5762796,"name":"Drinking Fountain","city":"Henggart","address":null,"covered":null,"access":null,"website":null,"phone":null,"source":"OpenStreetMap/node/8804015571","sourceUpdatedAt":null,"verifiedAt":null}},{"type":"Feature","geometry":{"type":"Point","coordinates":[8.68534,47.5511161]},"properties":{"id":"water:6eaf3aed-3b4e-4086-8d7d-5c13dfcf3682","kind":"water","longitude":8.68534,"latitude":47.5511161,"name":"Drinking Fountain","city":"Henggart","address":null,"covered":null,"access":null,"website":null,"phone":null,"source":"OpenStreetMap/node/8500343669","sourceUpdatedAt":null,"verifiedAt":null}},{"type":"Feature","geometry":{"type":"Point","coordinates":[8.6859895,47.5585077]},"properties":{"id":"water:8627a983-5783-4d49-a54a-51ccd9ca886a","kind":"water","longitude":8.6859895,"latitude":47.5585077,"name":"Drinking Fountain","city":"Henggart","address":null,"covered":null,"access":null,"website":null,"phone":null,"source":"OpenStreetMap/node/12982593137","sourceUpdatedAt":null,"verifiedAt":null}},{"type":"Feature","geometry":{"type":"Point","coordinates":[8.6830615,47.562381]},"properties":{"id":"water:c8a178f6-c628-4387-b2d9-e20538d72d9c","kind":"water","longitude":8.6830615,"latitude":47.562381,"name":"Drinking Fountain","city":"Henggart","address":null,"covered":null,"access":null,"website":null,"phone":null,"source":"OpenStreetMap/node/11951962729","sourceUpdatedAt":null,"verifiedAt":null}},{"type":"Feature","geometry":{"type":"Point","coordinates":[8.6818445,47.5611455]},"properties":{"id":"water:da57425d-8fac-4aa7-a51a-05993b132430","kind":"water","longitude":8.6818445,"latitude":47.5611455,"name":"Drinking Fountain","city":"Henggart","address":null,"covered":null,"access":null,"website":null,"phone":null,"source":"OpenStreetMap/node/8500343665","sourceUpdatedAt":null,"verifiedAt":null}},{"type":"Feature","geometry":{"type":"Point","coordinates":[8.6678845,47.5524541]},"properties":{"id":"water:dff6fbd4-c19c-489e-ab7d-7e563036e1e0","kind":"water","longitude":8.6678845,"latitude":47.5524541,"name":"Drinking Fountain","city":"Henggart","address":null,"covered":null,"access":null,"website":null,"phone":null,"source":"OpenStreetMap/node/8798071554","sourceUpdatedAt":null,"verifiedAt":null}}]}