{"type":"FeatureCollection","features":[{"type":"Feature","geometry":{"type":"Point","coordinates":[8.6722263,47.2194523]},"properties":{"id":"bikerack:07ee2f16-7d9f-484e-923e-810b9fea0efa","kind":"bikerack","longitude":8.6722263,"latitude":47.2194523,"name":"Bicycle Parking","city":"Waedenswil / Eichweid","address":null,"covered":true,"access":null,"website":null,"phone":null,"source":"OpenStreetMap/way/686742209","sourceUpdatedAt":null,"verifiedAt":null}},{"type":"Feature","geometry":{"type":"Point","coordinates":[8.672206,47.2183971]},"properties":{"id":"bikerack:1c1ab3fe-a1ae-43e1-ac46-9368bc9b807b","kind":"bikerack","longitude":8.672206,"latitude":47.2183971,"name":"Bicycle Parking","city":"Waedenswil / Eichweid","address":null,"covered":false,"access":null,"website":null,"phone":null,"source":"OpenStreetMap/way/699989706","sourceUpdatedAt":null,"verifiedAt":null}},{"type":"Feature","geometry":{"type":"Point","coordinates":[8.6639521,47.2136679]},"properties":{"id":"bikerack:2a6592a8-ef76-4411-a029-fa5e3a3df55b","kind":"bikerack","longitude":8.6639521,"latitude":47.2136679,"name":"Bicycle Parking","city":"Waedenswil / Eichweid","address":null,"covered":false,"access":null,"website":null,"phone":null,"source":"OpenStreetMap/way/699998513","sourceUpdatedAt":null,"verifiedAt":null}},{"type":"Feature","geometry":{"type":"Point","coordinates":[8.6792847,47.2185252]},"properties":{"id":"bikerack:2ef76c7a-6cf6-4020-8274-9b0897faf9a3","kind":"bikerack","longitude":8.6792847,"latitude":47.2185252,"name":"Bicycle Parking","city":"Waedenswil / Eichweid","address":null,"covered":true,"access":null,"website":null,"phone":null,"source":"OpenStreetMap/node/11363184878","sourceUpdatedAt":null,"verifiedAt":null}},{"type":"Feature","geometry":{"type":"Point","coordinates":[8.6865538,47.1913356]},"properties":{"id":"bikerack:5924e6c6-1fee-4ceb-9fea-d995d06ffc3a","kind":"bikerack","longitude":8.6865538,"latitude":47.1913356,"name":"Bicycle Parking","city":"Richterswil","address":null,"covered":true,"access":null,"website":null,"phone":null,"source":"OpenStreetMap/way/153854457","sourceUpdatedAt":null,"verifiedAt":null}},{"type":"Feature","geometry":{"type":"Point","coordinates":[8.6925683,47.208532]},"properties":{"id":"bikerack:68065e8c-4cb5-4ff4-acf7-d0e2d7249600","kind":"bikerack","longitude":8.6925683,"latitude":47.208532,"name":"Bicycle Parking","city":"Richterswil / Burghalde","address":null,"covered":true,"access":null,"website":null,"phone":null,"source":"OpenStreetMap/way/1321992628","sourceUpdatedAt":null,"verifiedAt":null}},{"type":"Feature","geometry":{"type":"Point","coordinates":[8.6799231,47.2179199]},"properties":{"id":"bikerack:b65cdcc5-96a2-4b64-bbdd-914b556bc8e4","kind":"bikerack","longitude":8.6799231,"latitude":47.2179199,"name":"Bicycle Parking","city":"Waedenswil / Boller-Giessen","address":null,"covered":false,"access":null,"website":null,"phone":null,"source":"OpenStreetMap/node/11300307822","sourceUpdatedAt":null,"verifiedAt":null}},{"type":"Feature","geometry":{"type":"Point","coordinates":[8.6852536,47.2033248]},"properties":{"id":"bikerack:bbad7fd6-7c48-4f0c-9d4e-77a6173f559a","kind":"bikerack","longitude":8.6852536,"latitude":47.2033248,"name":"Bicycle Parking","city":"Richterswil / Burghalde","address":null,"covered":false,"access":null,"website":null,"phone":null,"source":"OpenStreetMap/node/2294897659","sourceUpdatedAt":null,"verifiedAt":null}},{"type":"Feature","geometry":{"type":"Point","coordinates":[8.6808141,47.2178208]},"properties":{"id":"bikerack:e041877c-0ca3-46a9-a21b-14bb1db125dd","kind":"bikerack","longitude":8.6808141,"latitude":47.2178208,"name":"Bicycle Parking","city":"Waedenswil / Boller-Giessen","address":null,"covered":false,"access":null,"website":null,"phone":null,"source":"OpenStreetMap/way/1118428873","sourceUpdatedAt":null,"verifiedAt":null}},{"type":"Feature","geometry":{"type":"Point","coordinates":[8.6792358,47.2185553]},"properties":{"id":"repair:c97d63b8-b521-413f-889b-3744efdf43e5","kind":"repair","longitude":8.6792358,"latitude":47.2185553,"name":"Bicycle Repair Station","city":"Waedenswil / Eichweid","address":null,"covered":false,"access":null,"website":null,"phone":null,"source":"OpenStreetMap/node/11331378196","sourceUpdatedAt":null,"verifiedAt":null}},{"type":"Feature","geometry":{"type":"Point","coordinates":[8.6802334,47.191643]},"properties":{"id":"service:34f57c3c-d0d6-405a-b709-f5fd82e8febe","kind":"service","longitude":8.6802334,"latitude":47.191643,"name":"Rad 'n' Roll","city":"Samstagern","address":null,"covered":null,"access":null,"website":null,"phone":null,"source":"OpenStreetMap/node/413990462","sourceUpdatedAt":null,"verifiedAt":null}},{"type":"Feature","geometry":{"type":"Point","coordinates":[8.6875663,47.2034876]},"properties":{"id":"service:3a90622a-9565-456b-99c9-0bfbc9ea7e59","kind":"service","longitude":8.6875663,"latitude":47.2034876,"name":"Velo Reichmuth AG","city":"Richterswil","address":null,"covered":null,"access":null,"website":null,"phone":null,"source":"OpenStreetMap/node/281041507","sourceUpdatedAt":null,"verifiedAt":null}},{"type":"Feature","geometry":{"type":"Point","coordinates":[8.6606205,47.2187128]},"properties":{"id":"water:14dc96c0-dc99-40bb-8144-4153c44c1b37","kind":"water","longitude":8.6606205,"latitude":47.2187128,"name":"Drinking Fountain","city":"Waedenswil / Untermosen-Fuhr","address":null,"covered":null,"access":null,"website":null,"phone":null,"source":"OpenStreetMap/node/11544711397","sourceUpdatedAt":null,"verifiedAt":null}},{"type":"Feature","geometry":{"type":"Point","coordinates":[8.6990303,47.1993852]},"properties":{"id":"water:1525db14-d90e-4f99-9870-fdc7626c45ba","kind":"water","longitude":8.6990303,"latitude":47.1993852,"name":"Drinking Fountain","city":"Richterswil","address":null,"covered":null,"access":null,"website":null,"phone":null,"source":"OpenStreetMap/node/566472227","sourceUpdatedAt":null,"verifiedAt":null}},{"type":"Feature","geometry":{"type":"Point","coordinates":[8.698231,47.2152874]},"properties":{"id":"water:16db5b96-7fdf-49b3-921f-9ae3c164dd73","kind":"water","longitude":8.698231,"latitude":47.2152874,"name":"Drinking Fountain","city":"Richterswil / Burghalde","address":null,"covered":null,"access":null,"website":null,"phone":null,"source":"OpenStreetMap/node/566472221","sourceUpdatedAt":null,"verifiedAt":null}},{"type":"Feature","geometry":{"type":"Point","coordinates":[8.6979505,47.2081483]},"properties":{"id":"water:3fcdffe8-de6a-4292-8563-fd9c61f1ab6a","kind":"water","longitude":8.6979505,"latitude":47.2081483,"name":"Drinking Fountain","city":"Richterswil","address":null,"covered":null,"access":null,"website":null,"phone":null,"source":"OpenStreetMap/node/577242788","sourceUpdatedAt":null,"verifiedAt":null}},{"type":"Feature","geometry":{"type":"Point","coordinates":[8.687961,47.2148775]},"properties":{"id":"water:9a170f7f-403c-478a-9bcb-73e8e722c9f3","kind":"water","longitude":8.687961,"latitude":47.2148775,"name":"Drinking Fountain","city":"Richterswil / Burghalde","address":null,"covered":null,"access":null,"website":null,"phone":null,"source":"OpenStreetMap/node/568465011","sourceUpdatedAt":null,"verifiedAt":null}},{"type":"Feature","geometry":{"type":"Point","coordinates":[8.6900373,47.2086345]},"properties":{"id":"water:9be6a98e-1c42-40ca-8da8-927bdc7f1654","kind":"water","longitude":8.6900373,"latitude":47.2086345,"name":"Drinking Fountain","city":"Richterswil / Burghalde","address":null,"covered":null,"access":null,"website":null,"phone":null,"source":"OpenStreetMap/node/577242804","sourceUpdatedAt":null,"verifiedAt":null}},{"type":"Feature","geometry":{"type":"Point","coordinates":[8.6800499,47.2178004]},"properties":{"id":"water:adbb04cf-8cd8-47bd-aa5f-08367fabe94e","kind":"water","longitude":8.6800499,"latitude":47.2178004,"name":"Drinking Fountain","city":"Waedenswil / Boller-Giessen","address":null,"covered":null,"access":null,"website":null,"phone":null,"source":"OpenStreetMap/node/11300147093","sourceUpdatedAt":null,"verifiedAt":null}},{"type":"Feature","geometry":{"type":"Point","coordinates":[8.6943855,47.2125142]},"properties":{"id":"water:ce938188-9021-4fc9-b480-a4cb616452e3","kind":"water","longitude":8.6943855,"latitude":47.2125142,"name":"Drinking Fountain","city":"Richterswil / Burghalde","address":null,"covered":null,"access":null,"website":null,"phone":null,"source":"OpenStreetMap/node/577243020","sourceUpdatedAt":null,"verifiedAt":null}}]}