{"type":"FeatureCollection","features":[{"type":"Feature","geometry":{"type":"Point","coordinates":[8.6947225,47.0343192]},"properties":{"id":"water:079de749-6385-4c83-b9a0-5e9f28f240f9","kind":"water","longitude":8.6947225,"latitude":47.0343192,"name":"Drinking Fountain","city":"Schwyz","address":null,"covered":null,"access":null,"website":null,"phone":null,"source":"OpenStreetMap/node/5190978421","sourceUpdatedAt":null,"verifiedAt":null}},{"type":"Feature","geometry":{"type":"Point","coordinates":[8.6666986,47.015739]},"properties":{"id":"water:08523f50-7e3a-408e-8835-b903f8f01574","kind":"water","longitude":8.6666986,"latitude":47.015739,"name":"Drinking Fountain","city":"Schwyz","address":null,"covered":null,"access":null,"website":null,"phone":null,"source":"OpenStreetMap/node/8583525566","sourceUpdatedAt":null,"verifiedAt":null}},{"type":"Feature","geometry":{"type":"Point","coordinates":[8.6589445,47.0244024]},"properties":{"id":"water:291c184d-0d2a-4382-9914-fff0835a0ab0","kind":"water","longitude":8.6589445,"latitude":47.0244024,"name":"Drinking Fountain","city":"Schwyz","address":null,"covered":null,"access":null,"website":null,"phone":null,"source":"OpenStreetMap/node/6080658633","sourceUpdatedAt":null,"verifiedAt":null}},{"type":"Feature","geometry":{"type":"Point","coordinates":[8.6716987,47.0199399]},"properties":{"id":"water:3c8fa1b2-2964-4091-a6a1-570dc4861fa3","kind":"water","longitude":8.6716987,"latitude":47.0199399,"name":"Drinking Fountain","city":"Schwyz","address":null,"covered":null,"access":null,"website":null,"phone":null,"source":"OpenStreetMap/node/9139438993","sourceUpdatedAt":null,"verifiedAt":null}},{"type":"Feature","geometry":{"type":"Point","coordinates":[8.6819974,47.0301838]},"properties":{"id":"water:6d0ebfc4-9a91-480d-b1d9-a07ade56a1ab","kind":"water","longitude":8.6819974,"latitude":47.0301838,"name":"Drinking Fountain","city":"Schwyz","address":null,"covered":null,"access":null,"website":null,"phone":null,"source":"OpenStreetMap/node/2939314641","sourceUpdatedAt":null,"verifiedAt":null}},{"type":"Feature","geometry":{"type":"Point","coordinates":[8.6597258,47.0239958]},"properties":{"id":"water:941a855a-0099-4123-9762-bc8e7d997d49","kind":"water","longitude":8.6597258,"latitude":47.0239958,"name":"Drinking Fountain","city":"Schwyz","address":null,"covered":null,"access":null,"website":null,"phone":null,"source":"OpenStreetMap/node/5793371215","sourceUpdatedAt":null,"verifiedAt":null}},{"type":"Feature","geometry":{"type":"Point","coordinates":[8.6666913,47.0161917]},"properties":{"id":"water:bd1798ca-190b-4cae-b43b-9f21e3aef185","kind":"water","longitude":8.6666913,"latitude":47.0161917,"name":"Drinking Fountain","city":"Schwyz","address":null,"covered":null,"access":null,"website":null,"phone":null,"source":"OpenStreetMap/node/6173537445","sourceUpdatedAt":null,"verifiedAt":null}},{"type":"Feature","geometry":{"type":"Point","coordinates":[8.6680274,47.0159482]},"properties":{"id":"water:c761aecf-9e5e-4c7d-b6eb-52ec07270d31","kind":"water","longitude":8.6680274,"latitude":47.0159482,"name":"Drinking Fountain","city":"Schwyz","address":null,"covered":null,"access":null,"website":null,"phone":null,"source":"OpenStreetMap/node/5793371209","sourceUpdatedAt":null,"verifiedAt":null}},{"type":"Feature","geometry":{"type":"Point","coordinates":[8.6613265,47.0231996]},"properties":{"id":"water:fc48f3ef-b85a-4ff8-9285-04efc32a786b","kind":"water","longitude":8.6613265,"latitude":47.0231996,"name":"Drinking Fountain","city":"Schwyz","address":null,"covered":null,"access":null,"website":null,"phone":null,"source":"OpenStreetMap/node/2939376366","sourceUpdatedAt":null,"verifiedAt":null}}]}