{"type":"FeatureCollection","features":[{"type":"Feature","geometry":{"type":"Point","coordinates":[8.6791094,46.3152745]},"properties":{"id":"water:2957186c-235d-4b8d-8cc4-86d2cb8725c0","kind":"water","longitude":8.6791094,"latitude":46.3152745,"name":"Drinking Fountain","city":"Cevio","address":null,"covered":null,"access":null,"website":null,"phone":null,"source":"OpenStreetMap/node/1777389067","sourceUpdatedAt":null,"verifiedAt":null}},{"type":"Feature","geometry":{"type":"Point","coordinates":[8.6621151,46.2877922]},"properties":{"id":"water:4002ac50-8337-43b2-8ce8-54449a1c610b","kind":"water","longitude":8.6621151,"latitude":46.2877922,"name":"Drinking Fountain","city":"Cevio","address":null,"covered":null,"access":null,"website":null,"phone":null,"source":"OpenStreetMap/node/8015755890","sourceUpdatedAt":null,"verifiedAt":null}}]}