{"type":"FeatureCollection","features":[{"type":"Feature","geometry":{"type":"Point","coordinates":[8.6695915,46.0606003]},"properties":{"id":"bikerack:167f917e-a0d3-4382-a2c3-56cd249e5c24","kind":"bikerack","longitude":8.6695915,"latitude":46.0606003,"name":"Parcheggio bici","city":"Trarego","address":null,"covered":false,"access":null,"website":null,"phone":null,"source":"OpenStreetMap/node/7637365251","sourceUpdatedAt":null,"verifiedAt":null}},{"type":"Feature","geometry":{"type":"Point","coordinates":[8.6985621,46.067776]},"properties":{"id":"bikerack:4c54f0c6-b538-4a4d-bacb-ce1d1d9542e3","kind":"bikerack","longitude":8.6985621,"latitude":46.067776,"name":"Parcheggio bici","city":"Cannobio","address":null,"covered":false,"access":null,"website":null,"phone":null,"source":"OpenStreetMap/node/11049078369","sourceUpdatedAt":null,"verifiedAt":null}},{"type":"Feature","geometry":{"type":"Point","coordinates":[8.6688581,46.061338]},"properties":{"id":"bikerack:8b8d9ae0-2440-4835-84ac-8b68a3b66b17","kind":"bikerack","longitude":8.6688581,"latitude":46.061338,"name":"Parcheggio bici","city":"Trarego","address":null,"covered":false,"access":null,"website":null,"phone":null,"source":"OpenStreetMap/node/8711692797","sourceUpdatedAt":null,"verifiedAt":null}},{"type":"Feature","geometry":{"type":"Point","coordinates":[8.6795238,46.0576335]},"properties":{"id":"bikerack:fbf2e409-ab24-4297-a4df-4aafccbe7f17","kind":"bikerack","longitude":8.6795238,"latitude":46.0576335,"name":"Parcheggio bici","city":"Cannobio","address":null,"covered":false,"access":null,"website":null,"phone":null,"source":"OpenStreetMap/node/7637366822","sourceUpdatedAt":null,"verifiedAt":null}},{"type":"Feature","geometry":{"type":"Point","coordinates":[8.6978231,46.0611102]},"properties":{"id":"service:e873de0e-53bd-40e0-b1ba-fd25157e5936","kind":"service","longitude":8.6978231,"latitude":46.0611102,"name":"De Angelis","city":"Cannobio","address":null,"covered":null,"access":null,"website":null,"phone":null,"source":"OpenStreetMap/node/10994748739","sourceUpdatedAt":null,"verifiedAt":null}},{"type":"Feature","geometry":{"type":"Point","coordinates":[8.6862876,46.0708421]},"properties":{"id":"water:17d8869d-db52-4f26-9eb0-2a6834a604a3","kind":"water","longitude":8.6862876,"latitude":46.0708421,"name":"Fontanella","city":"Cannobio","address":null,"covered":null,"access":null,"website":null,"phone":null,"source":"OpenStreetMap/node/8731435997","sourceUpdatedAt":null,"verifiedAt":null}},{"type":"Feature","geometry":{"type":"Point","coordinates":[8.6994199,46.0666524]},"properties":{"id":"water:2de0c61e-43a2-458c-a8cf-a4adbf5a1137","kind":"water","longitude":8.6994199,"latitude":46.0666524,"name":"Fontanella","city":"Cannobio","address":null,"covered":null,"access":null,"website":null,"phone":null,"source":"OpenStreetMap/node/8731400985","sourceUpdatedAt":null,"verifiedAt":null}},{"type":"Feature","geometry":{"type":"Point","coordinates":[8.6780597,46.061114]},"properties":{"id":"water:49bb28b4-8768-471e-a17f-fa93d26390b2","kind":"water","longitude":8.6780597,"latitude":46.061114,"name":"Fontanella","city":"Cannobio","address":null,"covered":null,"access":null,"website":null,"phone":null,"source":"OpenStreetMap/node/8711692790","sourceUpdatedAt":null,"verifiedAt":null}},{"type":"Feature","geometry":{"type":"Point","coordinates":[8.7004252,46.0643263]},"properties":{"id":"water:4b24f3b5-eba1-4b50-b59b-c06cddc6ed66","kind":"water","longitude":8.7004252,"latitude":46.0643263,"name":"Fontanella","city":"Cannobio","address":null,"covered":null,"access":null,"website":null,"phone":null,"source":"OpenStreetMap/node/7629837715","sourceUpdatedAt":null,"verifiedAt":null}},{"type":"Feature","geometry":{"type":"Point","coordinates":[8.658945,46.056896]},"properties":{"id":"water:56c326ce-3437-466f-9d6f-91942f61243b","kind":"water","longitude":8.658945,"latitude":46.056896,"name":"Fontanella","city":"Trarego","address":null,"covered":null,"access":null,"website":null,"phone":null,"source":"OpenStreetMap/node/2375324916","sourceUpdatedAt":null,"verifiedAt":null}},{"type":"Feature","geometry":{"type":"Point","coordinates":[8.6602613,46.0536188]},"properties":{"id":"water:5b57f6bb-8cc6-48de-ae7f-7336213f62c4","kind":"water","longitude":8.6602613,"latitude":46.0536188,"name":"Fontanella","city":"Trarego","address":null,"covered":null,"access":null,"website":null,"phone":null,"source":"OpenStreetMap/node/13706188101","sourceUpdatedAt":null,"verifiedAt":null}},{"type":"Feature","geometry":{"type":"Point","coordinates":[8.6774365,46.0604869]},"properties":{"id":"water:7033ec8e-01bc-4667-a001-33b1590218bf","kind":"water","longitude":8.6774365,"latitude":46.0604869,"name":"Fontanella","city":"Cannobio","address":null,"covered":null,"access":null,"website":null,"phone":null,"source":"OpenStreetMap/node/8711523060","sourceUpdatedAt":null,"verifiedAt":null}},{"type":"Feature","geometry":{"type":"Point","coordinates":[8.6903502,46.0670538]},"properties":{"id":"water:7a9479c1-dbab-48d0-83ca-2e2b7cc4ec4a","kind":"water","longitude":8.6903502,"latitude":46.0670538,"name":"Fontanella","city":"Cannobio","address":null,"covered":null,"access":null,"website":null,"phone":null,"source":"OpenStreetMap/node/8024799686","sourceUpdatedAt":null,"verifiedAt":null}},{"type":"Feature","geometry":{"type":"Point","coordinates":[8.6734238,46.0610838]},"properties":{"id":"water:7e441c98-3ec9-4b67-98c5-a0defeb8b271","kind":"water","longitude":8.6734238,"latitude":46.0610838,"name":"Fontanella","city":"Cannobio","address":null,"covered":null,"access":null,"website":null,"phone":null,"source":"OpenStreetMap/node/8728819939","sourceUpdatedAt":null,"verifiedAt":null}},{"type":"Feature","geometry":{"type":"Point","coordinates":[8.6994637,46.0664187]},"properties":{"id":"water:85e85bdb-d92f-4248-b1a2-88db8acc4ab8","kind":"water","longitude":8.6994637,"latitude":46.0664187,"name":"Fontanella","city":"Cannobio","address":null,"covered":null,"access":null,"website":null,"phone":null,"source":"OpenStreetMap/node/11049114363","sourceUpdatedAt":null,"verifiedAt":null}},{"type":"Feature","geometry":{"type":"Point","coordinates":[8.6688404,46.061296]},"properties":{"id":"water:88b2aa53-7554-4130-8946-5e377dc6fc1c","kind":"water","longitude":8.6688404,"latitude":46.061296,"name":"Fontanella","city":"Trarego","address":null,"covered":null,"access":null,"website":null,"phone":null,"source":"OpenStreetMap/node/8711523068","sourceUpdatedAt":null,"verifiedAt":null}},{"type":"Feature","geometry":{"type":"Point","coordinates":[8.6971643,46.0614464]},"properties":{"id":"water:9711ddfe-18a7-47c1-8b10-7d3e71f13136","kind":"water","longitude":8.6971643,"latitude":46.0614464,"name":"Fontanella","city":"Cannobio","address":null,"covered":null,"access":null,"website":null,"phone":null,"source":"OpenStreetMap/node/415272096","sourceUpdatedAt":null,"verifiedAt":null}},{"type":"Feature","geometry":{"type":"Point","coordinates":[8.7005788,46.0542441]},"properties":{"id":"water:aa54a426-9792-4e30-a027-5f8956506db3","kind":"water","longitude":8.7005788,"latitude":46.0542441,"name":"Fontanella","city":"Cannobio","address":null,"covered":null,"access":null,"website":null,"phone":null,"source":"OpenStreetMap/node/2373579541","sourceUpdatedAt":null,"verifiedAt":null}},{"type":"Feature","geometry":{"type":"Point","coordinates":[8.6860844,46.070017]},"properties":{"id":"water:ab2d129b-9765-43c8-aaac-6ca0da582b5f","kind":"water","longitude":8.6860844,"latitude":46.070017,"name":"Fontanella","city":"Cannobio","address":null,"covered":null,"access":null,"website":null,"phone":null,"source":"OpenStreetMap/node/7633242906","sourceUpdatedAt":null,"verifiedAt":null}},{"type":"Feature","geometry":{"type":"Point","coordinates":[8.6907893,46.062495]},"properties":{"id":"water:aee55847-c598-4fd3-a9b9-14ea9f425701","kind":"water","longitude":8.6907893,"latitude":46.062495,"name":"Fontanella","city":"Cannobio","address":null,"covered":null,"access":null,"website":null,"phone":null,"source":"OpenStreetMap/node/2017182942","sourceUpdatedAt":null,"verifiedAt":null}},{"type":"Feature","geometry":{"type":"Point","coordinates":[8.7003969,46.0670538]},"properties":{"id":"water:b18fdc6c-899c-4957-b075-d5b434b6fe35","kind":"water","longitude":8.7003969,"latitude":46.0670538,"name":"Fontanella","city":"Cannobio","address":null,"covered":null,"access":null,"website":null,"phone":null,"source":"OpenStreetMap/node/10094970488","sourceUpdatedAt":null,"verifiedAt":null}},{"type":"Feature","geometry":{"type":"Point","coordinates":[8.6830804,46.0570192]},"properties":{"id":"water:d545330e-531c-4172-99d2-56072f73e10d","kind":"water","longitude":8.6830804,"latitude":46.0570192,"name":"Fonte Carlina","city":"Cannobio","address":null,"covered":null,"access":null,"website":null,"phone":null,"source":"OpenStreetMap/node/1414937160","sourceUpdatedAt":null,"verifiedAt":null}},{"type":"Feature","geometry":{"type":"Point","coordinates":[8.6797343,46.0575441]},"properties":{"id":"water:dafaaa63-e4ba-4ae2-ac77-f0b396502974","kind":"water","longitude":8.6797343,"latitude":46.0575441,"name":"Fontanella","city":"Cannobio","address":null,"covered":null,"access":null,"website":null,"phone":null,"source":"OpenStreetMap/node/7637366821","sourceUpdatedAt":null,"verifiedAt":null}},{"type":"Feature","geometry":{"type":"Point","coordinates":[8.6687319,46.0611875]},"properties":{"id":"water:f15c5d6d-e36a-409f-a9c6-32b1b6a93a53","kind":"water","longitude":8.6687319,"latitude":46.0611875,"name":"Fontanella","city":"Trarego","address":null,"covered":null,"access":null,"website":null,"phone":null,"source":"OpenStreetMap/node/7637349902","sourceUpdatedAt":null,"verifiedAt":null}}]}