{"type":"FeatureCollection","features":[{"type":"Feature","geometry":{"type":"Point","coordinates":[8.6693654,45.3493524]},"properties":{"id":"bikerack:a497ad59-2669-4080-b7cd-c8ec7f5ca974","kind":"bikerack","longitude":8.6693654,"latitude":45.3493524,"name":"Parcheggio bici","city":"Vespolate","address":null,"covered":false,"access":null,"website":null,"phone":null,"source":"OpenStreetMap/node/11878606602","sourceUpdatedAt":null,"verifiedAt":null}},{"type":"Feature","geometry":{"type":"Point","coordinates":[8.669595,45.350536]},"properties":{"id":"water:a679d98e-faaa-400d-a1c1-ce00fdc022ce","kind":"water","longitude":8.669595,"latitude":45.350536,"name":"Fontanella","city":"Vespolate","address":null,"covered":null,"access":null,"website":null,"phone":null,"source":"OpenStreetMap/node/2351682936","sourceUpdatedAt":null,"verifiedAt":null}}]}