{"type":"FeatureCollection","features":[{"type":"Feature","geometry":{"type":"Point","coordinates":[13.7913897,50.7782038]},"properties":{"id":"bikerack:083c45ac-9386-4411-8a34-fe776b4303bc","kind":"bikerack","longitude":13.7913897,"latitude":50.7782038,"name":"Fahrradabstellplatz","city":"Geising","address":null,"covered":false,"access":null,"website":null,"phone":null,"source":"OpenStreetMap/node/10126488927","sourceUpdatedAt":null,"verifiedAt":null}},{"type":"Feature","geometry":{"type":"Point","coordinates":[13.7566972,50.7670705]},"properties":{"id":"bikerack:67edbbce-1f57-462a-a259-048770479be6","kind":"bikerack","longitude":13.7566972,"latitude":50.7670705,"name":"Fahrradabstellplatz","city":"Altenberg","address":null,"covered":true,"access":null,"website":null,"phone":null,"source":"OpenStreetMap/way/249388593","sourceUpdatedAt":null,"verifiedAt":null}},{"type":"Feature","geometry":{"type":"Point","coordinates":[13.7914207,50.7783419]},"properties":{"id":"bikerack:77bb6a3d-8efb-4665-a56f-7609edd2c016","kind":"bikerack","longitude":13.7914207,"latitude":50.7783419,"name":"Fahrradabstellplatz","city":"Geising","address":null,"covered":false,"access":null,"website":null,"phone":null,"source":"OpenStreetMap/way/1106634439","sourceUpdatedAt":null,"verifiedAt":null}},{"type":"Feature","geometry":{"type":"Point","coordinates":[13.7551189,50.7686218]},"properties":{"id":"bikerack:983773fa-9192-4cc5-8072-91186ad8179f","kind":"bikerack","longitude":13.7551189,"latitude":50.7686218,"name":"Fahrradabstellplatz","city":"Altenberg","address":null,"covered":false,"access":null,"website":null,"phone":null,"source":"OpenStreetMap/node/2953906693","sourceUpdatedAt":null,"verifiedAt":null}},{"type":"Feature","geometry":{"type":"Point","coordinates":[13.7578728,50.7653708]},"properties":{"id":"service:e8f7ac7e-8b8d-4713-86f8-568f25adb718","kind":"service","longitude":13.7578728,"latitude":50.7653708,"name":"Bikezeit Altenberg","city":"Altenberg","address":null,"covered":null,"access":null,"website":null,"phone":null,"source":"OpenStreetMap/node/2552757773","sourceUpdatedAt":null,"verifiedAt":null}}]}