{"type":"FeatureCollection","features":[{"type":"Feature","geometry":{"type":"Point","coordinates":[13.7771398,46.7667712]},"properties":{"id":"water:40cde570-a773-494f-b9c4-dbb922cb3290","kind":"water","longitude":13.7771398,"latitude":46.7667712,"name":"Ivókút","city":"Feld am See","address":null,"covered":null,"access":null,"website":null,"phone":null,"source":"OpenStreetMap/node/13130537924","sourceUpdatedAt":null,"verifiedAt":null}},{"type":"Feature","geometry":{"type":"Point","coordinates":[13.7592534,46.7688444]},"properties":{"id":"water:77f9ffe6-42ab-48fa-ab89-5f0e06e16154","kind":"water","longitude":13.7592534,"latitude":46.7688444,"name":"Ivókút","city":"Feld am See","address":null,"covered":null,"access":null,"website":null,"phone":null,"source":"OpenStreetMap/node/294193534","sourceUpdatedAt":null,"verifiedAt":null}}]}