{"type":"FeatureCollection","features":[{"type":"Feature","geometry":{"type":"Point","coordinates":[14.6648453,49.419302]},"properties":{"id":"bikerack:07998b29-a7f3-4431-b4ae-d4ead9377312","kind":"bikerack","longitude":14.6648453,"latitude":49.419302,"name":"Bicycle Parking","city":"Tabor","address":null,"covered":false,"access":null,"website":null,"phone":null,"source":"OpenStreetMap/node/12087312509","sourceUpdatedAt":null,"verifiedAt":null}},{"type":"Feature","geometry":{"type":"Point","coordinates":[14.6763684,49.4140831]},"properties":{"id":"bikerack:270e641d-0c37-45bd-9352-0230bff0ba39","kind":"bikerack","longitude":14.6763684,"latitude":49.4140831,"name":"Bicycle Parking","city":"Tabor","address":null,"covered":false,"access":null,"website":null,"phone":null,"source":"OpenStreetMap/node/4335299981","sourceUpdatedAt":null,"verifiedAt":null}},{"type":"Feature","geometry":{"type":"Point","coordinates":[14.6636519,49.4126144]},"properties":{"id":"bikerack:c4d1679d-d72a-4246-8f91-885cc4ca6a56","kind":"bikerack","longitude":14.6636519,"latitude":49.4126144,"name":"Bicycle Parking","city":"Tabor","address":null,"covered":false,"access":null,"website":null,"phone":null,"source":"OpenStreetMap/node/12836730131","sourceUpdatedAt":null,"verifiedAt":null}},{"type":"Feature","geometry":{"type":"Point","coordinates":[14.6735771,49.4112627]},"properties":{"id":"service:4c195801-9911-4f25-be8f-2410b89c993c","kind":"service","longitude":14.6735771,"latitude":49.4112627,"name":"Bicycle Shop","city":"Tabor","address":null,"covered":null,"access":null,"website":null,"phone":null,"source":"OpenStreetMap/node/599672122","sourceUpdatedAt":null,"verifiedAt":null}},{"type":"Feature","geometry":{"type":"Point","coordinates":[14.6672057,49.412395]},"properties":{"id":"service:b551912c-7c90-45f3-a52a-b4832104f0df","kind":"service","longitude":14.6672057,"latitude":49.412395,"name":"MiraSport","city":"Tabor","address":null,"covered":null,"access":null,"website":null,"phone":null,"source":"OpenStreetMap/node/1478197759","sourceUpdatedAt":null,"verifiedAt":null}},{"type":"Feature","geometry":{"type":"Point","coordinates":[14.6710982,49.4134128]},"properties":{"id":"service:c1535595-1808-4590-bacc-e2de76669235","kind":"service","longitude":14.6710982,"latitude":49.4134128,"name":"Apex bike","city":"Tabor","address":null,"covered":null,"access":null,"website":null,"phone":null,"source":"OpenStreetMap/node/3579322725","sourceUpdatedAt":null,"verifiedAt":null}},{"type":"Feature","geometry":{"type":"Point","coordinates":[14.6498327,49.420006]},"properties":{"id":"water:08759dc9-2c71-4d77-9e67-5ad4e8bc6225","kind":"water","longitude":14.6498327,"latitude":49.420006,"name":"Drinking Fountain","city":"Tabor","address":null,"covered":null,"access":null,"website":null,"phone":null,"source":"OpenStreetMap/node/5338512143","sourceUpdatedAt":null,"verifiedAt":null}},{"type":"Feature","geometry":{"type":"Point","coordinates":[14.6641703,49.4130356]},"properties":{"id":"water:09d6f9a0-63c2-441d-87f2-daac90c55f2c","kind":"water","longitude":14.6641703,"latitude":49.4130356,"name":"Drinking Fountain","city":"Tabor","address":null,"covered":null,"access":null,"website":null,"phone":null,"source":"OpenStreetMap/node/6886365316","sourceUpdatedAt":null,"verifiedAt":null}},{"type":"Feature","geometry":{"type":"Point","coordinates":[14.6593451,49.4156588]},"properties":{"id":"water:43afb92f-3889-4f17-bd3e-f009b8805c93","kind":"water","longitude":14.6593451,"latitude":49.4156588,"name":"Drinking Fountain","city":"Tabor","address":null,"covered":null,"access":null,"website":null,"phone":null,"source":"OpenStreetMap/node/12836841018","sourceUpdatedAt":null,"verifiedAt":null}},{"type":"Feature","geometry":{"type":"Point","coordinates":[14.6695178,49.4148757]},"properties":{"id":"water:6bab8b7d-49a5-423c-b708-e9a4db14e4cc","kind":"water","longitude":14.6695178,"latitude":49.4148757,"name":"Drinking Fountain","city":"Tabor","address":null,"covered":null,"access":null,"website":null,"phone":null,"source":"OpenStreetMap/node/4335299947","sourceUpdatedAt":null,"verifiedAt":null}}]}