{"type":"FeatureCollection","features":[{"type":"Feature","geometry":{"type":"Point","coordinates":[15.3449649,46.9693458]},"properties":{"id":"bikerack:00cd5240-a8c2-44bd-90bd-206641fd4232","kind":"bikerack","longitude":15.3449649,"latitude":46.9693458,"name":"Biciklitároló","city":"Lieboch","address":null,"covered":false,"access":null,"website":null,"phone":null,"source":"OpenStreetMap/node/3861515733","sourceUpdatedAt":null,"verifiedAt":null}},{"type":"Feature","geometry":{"type":"Point","coordinates":[15.3452653,46.9691275]},"properties":{"id":"bikerack:23705d46-3cf5-44ff-878c-8409f55fba3d","kind":"bikerack","longitude":15.3452653,"latitude":46.9691275,"name":"Biciklitároló","city":"Lieboch","address":null,"covered":true,"access":null,"website":null,"phone":null,"source":"OpenStreetMap/node/13482242077","sourceUpdatedAt":null,"verifiedAt":null}},{"type":"Feature","geometry":{"type":"Point","coordinates":[15.3452116,46.9691032]},"properties":{"id":"bikerack:af4e9653-458e-4bcf-8539-25f6456a7c65","kind":"bikerack","longitude":15.3452116,"latitude":46.9691032,"name":"Biciklitároló","city":"Lieboch","address":null,"covered":true,"access":null,"website":null,"phone":null,"source":"OpenStreetMap/node/1798802035","sourceUpdatedAt":null,"verifiedAt":null}},{"type":"Feature","geometry":{"type":"Point","coordinates":[15.3456865,46.968555]},"properties":{"id":"bikerack:bb37f8b8-a04e-42a0-8d85-52bbbf9b7a8b","kind":"bikerack","longitude":15.3456865,"latitude":46.968555,"name":"Biciklitároló","city":"Lieboch","address":null,"covered":false,"access":null,"website":null,"phone":null,"source":"OpenStreetMap/node/13482242081","sourceUpdatedAt":null,"verifiedAt":null}},{"type":"Feature","geometry":{"type":"Point","coordinates":[15.345154,46.96818]},"properties":{"id":"bikerack:c60aea8a-4286-4f0f-a0b0-5b5055d6e9ed","kind":"bikerack","longitude":15.345154,"latitude":46.96818,"name":"Biciklitároló","city":"Lieboch","address":null,"covered":false,"access":null,"website":null,"phone":null,"source":"OpenStreetMap/node/10183042248","sourceUpdatedAt":null,"verifiedAt":null}},{"type":"Feature","geometry":{"type":"Point","coordinates":[15.3458582,46.9684821]},"properties":{"id":"bikerack:ca1aa574-99a1-4898-a906-12273e355837","kind":"bikerack","longitude":15.3458582,"latitude":46.9684821,"name":"Biciklitároló","city":"Lieboch","address":null,"covered":true,"access":null,"website":null,"phone":null,"source":"OpenStreetMap/node/9763815281","sourceUpdatedAt":null,"verifiedAt":null}},{"type":"Feature","geometry":{"type":"Point","coordinates":[15.3449754,46.9678443]},"properties":{"id":"bikerack:cb5a78d9-ffb7-44d5-9cce-08cacf60b0ac","kind":"bikerack","longitude":15.3449754,"latitude":46.9678443,"name":"Biciklitároló","city":"Lieboch","address":null,"covered":true,"access":null,"website":null,"phone":null,"source":"OpenStreetMap/way/1470086075","sourceUpdatedAt":null,"verifiedAt":null}},{"type":"Feature","geometry":{"type":"Point","coordinates":[15.3413413,46.9710575]},"properties":{"id":"service:82e8313f-7c4b-4091-beb5-725552506cbf","kind":"service","longitude":15.3413413,"latitude":46.9710575,"name":"Positionsanalyse-Radfachhandel Andreas Knapp","city":"Lieboch","address":null,"covered":null,"access":null,"website":null,"phone":null,"source":"OpenStreetMap/node/9706087236","sourceUpdatedAt":null,"verifiedAt":null}},{"type":"Feature","geometry":{"type":"Point","coordinates":[15.338449,46.9727609]},"properties":{"id":"water:46574838-d29e-454b-bfdb-671af0dae493","kind":"water","longitude":15.338449,"latitude":46.9727609,"name":"Ivókút","city":"Lieboch","address":null,"covered":null,"access":null,"website":null,"phone":null,"source":"OpenStreetMap/node/13680154578","sourceUpdatedAt":null,"verifiedAt":null}}]}