{"type":"FeatureCollection","features":[{"type":"Feature","geometry":{"type":"Point","coordinates":[19.4877857,47.6346936]},"properties":{"id":"water:03e4cedc-8b05-48df-98cb-0d20445ee742","kind":"water","longitude":19.4877857,"latitude":47.6346936,"name":"Ivókút","city":null,"address":null,"covered":null,"access":null,"website":null,"phone":null,"source":"OpenStreetMap","sourceUpdatedAt":null,"verifiedAt":null}},{"type":"Feature","geometry":{"type":"Point","coordinates":[19.4947224,47.6333558]},"properties":{"id":"water:214ab12e-5bfd-4b25-bbf3-3ec85c1180ad","kind":"water","longitude":19.4947224,"latitude":47.6333558,"name":"Ivókút","city":null,"address":null,"covered":null,"access":null,"website":null,"phone":null,"source":"OpenStreetMap","sourceUpdatedAt":null,"verifiedAt":null}},{"type":"Feature","geometry":{"type":"Point","coordinates":[19.4956448,47.6330596]},"properties":{"id":"water:958eda35-31e1-4988-bafc-e9f64c7e90ec","kind":"water","longitude":19.4956448,"latitude":47.6330596,"name":"Ivókút","city":null,"address":null,"covered":null,"access":null,"website":null,"phone":null,"source":"OpenStreetMap","sourceUpdatedAt":null,"verifiedAt":null}},{"type":"Feature","geometry":{"type":"Point","coordinates":[19.493515,47.6336154]},"properties":{"id":"water:c0ce18a4-7783-4217-828c-a74d43175771","kind":"water","longitude":19.493515,"latitude":47.6336154,"name":"Ivókút","city":null,"address":null,"covered":null,"access":null,"website":null,"phone":null,"source":"OpenStreetMap","sourceUpdatedAt":null,"verifiedAt":null}},{"type":"Feature","geometry":{"type":"Point","coordinates":[19.496336,47.6328959]},"properties":{"id":"water:d66de0a7-533a-4302-b933-12002af182bb","kind":"water","longitude":19.496336,"latitude":47.6328959,"name":"Ivókút","city":null,"address":null,"covered":null,"access":null,"website":null,"phone":null,"source":"OpenStreetMap","sourceUpdatedAt":null,"verifiedAt":null}}]}