{"type":"FeatureCollection","features":[{"type":"Feature","geometry":{"type":"Point","coordinates":[14.351969,50.0891664]},"properties":{"id":"bikerack:02070305-072a-47ef-8a2f-704067bf2d69","kind":"bikerack","longitude":14.351969,"latitude":50.0891664,"name":"Bicycle Parking","city":"Horomerice","address":null,"covered":false,"access":null,"website":null,"phone":null,"source":"OpenStreetMap/node/11597778660","sourceUpdatedAt":null,"verifiedAt":null}},{"type":"Feature","geometry":{"type":"Point","coordinates":[14.3431279,50.0821352]},"properties":{"id":"bikerack:05f2ea18-d034-4d4a-9a1f-85dbad3a9e0c","kind":"bikerack","longitude":14.3431279,"latitude":50.0821352,"name":"Bicycle Parking","city":"Horomerice","address":null,"covered":false,"access":null,"website":null,"phone":null,"source":"OpenStreetMap/node/9970659907","sourceUpdatedAt":null,"verifiedAt":null}},{"type":"Feature","geometry":{"type":"Point","coordinates":[14.3630381,50.0900109]},"properties":{"id":"bikerack:2357cbfd-6e94-44ce-a542-354001ed07f3","kind":"bikerack","longitude":14.3630381,"latitude":50.0900109,"name":"Bicycle Parking","city":"Mala Strana","address":null,"covered":true,"access":null,"website":null,"phone":null,"source":"OpenStreetMap/node/3581338614","sourceUpdatedAt":null,"verifiedAt":null}},{"type":"Feature","geometry":{"type":"Point","coordinates":[14.3362637,50.0656294]},"properties":{"id":"bikerack:28bacaf8-4318-42ea-8305-1f7a5962350f","kind":"bikerack","longitude":14.3362637,"latitude":50.0656294,"name":"Bicycle Parking","city":"Horomerice","address":null,"covered":true,"access":null,"website":null,"phone":null,"source":"OpenStreetMap/node/11804308334","sourceUpdatedAt":null,"verifiedAt":null}},{"type":"Feature","geometry":{"type":"Point","coordinates":[14.3468564,50.0889109]},"properties":{"id":"bikerack:2a8697dd-3643-49c5-ba92-a7f5d6865eb5","kind":"bikerack","longitude":14.3468564,"latitude":50.0889109,"name":"Bicycle Parking","city":"Horomerice","address":null,"covered":false,"access":null,"website":null,"phone":null,"source":"OpenStreetMap/node/11513718489","sourceUpdatedAt":null,"verifiedAt":null}},{"type":"Feature","geometry":{"type":"Point","coordinates":[14.3422477,50.0876935]},"properties":{"id":"bikerack:3504c686-ce2f-4fb5-a0e8-1acbe848b450","kind":"bikerack","longitude":14.3422477,"latitude":50.0876935,"name":"Bicycle Parking","city":"Horomerice","address":null,"covered":false,"access":null,"website":null,"phone":null,"source":"OpenStreetMap/node/11059006656","sourceUpdatedAt":null,"verifiedAt":null}},{"type":"Feature","geometry":{"type":"Point","coordinates":[14.3685268,50.0792244]},"properties":{"id":"bikerack:3e13bc63-d1b9-4c78-bf9d-8d6498b36810","kind":"bikerack","longitude":14.3685268,"latitude":50.0792244,"name":"Bicycle Parking","city":"Mala Strana","address":null,"covered":false,"access":null,"website":null,"phone":null,"source":"OpenStreetMap/node/8089471003","sourceUpdatedAt":null,"verifiedAt":null}},{"type":"Feature","geometry":{"type":"Point","coordinates":[14.3513323,50.0887277]},"properties":{"id":"bikerack:44f0f6c5-96d0-402f-bd91-ec46eb6c95b6","kind":"bikerack","longitude":14.3513323,"latitude":50.0887277,"name":"Bicycle Parking","city":"Horomerice","address":null,"covered":true,"access":null,"website":null,"phone":null,"source":"OpenStreetMap/node/11583909208","sourceUpdatedAt":null,"verifiedAt":null}},{"type":"Feature","geometry":{"type":"Point","coordinates":[14.326452,50.0832426]},"properties":{"id":"bikerack:4a0a3194-4ba5-4a9e-9399-075d99dcce60","kind":"bikerack","longitude":14.326452,"latitude":50.0832426,"name":"Bicycle Parking","city":"Horomerice","address":null,"covered":false,"access":null,"website":null,"phone":null,"source":"OpenStreetMap/node/8617824794","sourceUpdatedAt":null,"verifiedAt":null}},{"type":"Feature","geometry":{"type":"Point","coordinates":[14.3463596,50.0847928]},"properties":{"id":"bikerack:519c63ed-8d74-4159-baf8-e45ef03a8811","kind":"bikerack","longitude":14.3463596,"latitude":50.0847928,"name":"Bicycle Parking","city":"Horomerice","address":null,"covered":false,"access":null,"website":null,"phone":null,"source":"OpenStreetMap/node/3732787615","sourceUpdatedAt":null,"verifiedAt":null}},{"type":"Feature","geometry":{"type":"Point","coordinates":[14.3538335,50.0883618]},"properties":{"id":"bikerack:55a2104e-c716-472a-a6eb-a2d9dd2260d8","kind":"bikerack","longitude":14.3538335,"latitude":50.0883618,"name":"Bicycle Parking","city":"Horomerice","address":null,"covered":false,"access":null,"website":null,"phone":null,"source":"OpenStreetMap/node/8569298101","sourceUpdatedAt":null,"verifiedAt":null}},{"type":"Feature","geometry":{"type":"Point","coordinates":[14.3665584,50.084642]},"properties":{"id":"bikerack:5dba0d16-e8a0-4b9f-85bc-b495dc27dc58","kind":"bikerack","longitude":14.3665584,"latitude":50.084642,"name":"Bicycle Parking","city":"Mala Strana","address":null,"covered":false,"access":null,"website":null,"phone":null,"source":"OpenStreetMap/node/2499136043","sourceUpdatedAt":null,"verifiedAt":null}},{"type":"Feature","geometry":{"type":"Point","coordinates":[14.3421605,50.0809902]},"properties":{"id":"bikerack:67f50609-caef-4ee5-a675-050e99f71485","kind":"bikerack","longitude":14.3421605,"latitude":50.0809902,"name":"Bicycle Parking","city":"Horomerice","address":null,"covered":false,"access":null,"website":null,"phone":null,"source":"OpenStreetMap/node/8838168820","sourceUpdatedAt":null,"verifiedAt":null}},{"type":"Feature","geometry":{"type":"Point","coordinates":[14.3608704,50.0837369]},"properties":{"id":"bikerack:79cc2fb6-ff0b-49f2-a65f-3c0d5cb0a875","kind":"bikerack","longitude":14.3608704,"latitude":50.0837369,"name":"Bicycle Parking","city":"Mala Strana","address":null,"covered":false,"access":null,"website":null,"phone":null,"source":"OpenStreetMap/node/2499136041","sourceUpdatedAt":null,"verifiedAt":null}},{"type":"Feature","geometry":{"type":"Point","coordinates":[14.334696,50.0781485]},"properties":{"id":"bikerack:950bebc8-1bdf-4c74-a57d-e320279a66c3","kind":"bikerack","longitude":14.334696,"latitude":50.0781485,"name":"Bicycle Parking","city":"Horomerice","address":null,"covered":false,"access":null,"website":null,"phone":null,"source":"OpenStreetMap/node/8042327144","sourceUpdatedAt":null,"verifiedAt":null}},{"type":"Feature","geometry":{"type":"Point","coordinates":[14.3461979,50.0906751]},"properties":{"id":"bikerack:95843ef5-94ed-4ace-90b9-80ca520708b3","kind":"bikerack","longitude":14.3461979,"latitude":50.0906751,"name":"Bicycle Parking","city":"Horomerice","address":null,"covered":false,"access":null,"website":null,"phone":null,"source":"OpenStreetMap/node/9288642959","sourceUpdatedAt":null,"verifiedAt":null}},{"type":"Feature","geometry":{"type":"Point","coordinates":[14.3540053,50.0754313]},"properties":{"id":"bikerack:98b55f59-8a01-42ea-9ace-777d1f53873c","kind":"bikerack","longitude":14.3540053,"latitude":50.0754313,"name":"Bicycle Parking","city":"Mala Strana","address":null,"covered":false,"access":null,"website":null,"phone":null,"source":"OpenStreetMap/node/2739048000","sourceUpdatedAt":null,"verifiedAt":null}},{"type":"Feature","geometry":{"type":"Point","coordinates":[14.3615068,50.0670409]},"properties":{"id":"bikerack:9b003c3e-e5b3-4717-ae02-a52ac1620ffb","kind":"bikerack","longitude":14.3615068,"latitude":50.0670409,"name":"Bicycle Parking","city":"Mala Strana","address":null,"covered":false,"access":null,"website":null,"phone":null,"source":"OpenStreetMap/node/2499163375","sourceUpdatedAt":null,"verifiedAt":null}},{"type":"Feature","geometry":{"type":"Point","coordinates":[14.3397959,50.0770927]},"properties":{"id":"bikerack:a76ec459-b4d9-49d3-a97b-67db9227bde0","kind":"bikerack","longitude":14.3397959,"latitude":50.0770927,"name":"Bicycle Parking","city":"Horomerice","address":null,"covered":false,"access":null,"website":null,"phone":null,"source":"OpenStreetMap/node/2499136026","sourceUpdatedAt":null,"verifiedAt":null}},{"type":"Feature","geometry":{"type":"Point","coordinates":[14.341783,50.0856921]},"properties":{"id":"bikerack:ab247bcc-6c70-432a-b49a-14daafaea737","kind":"bikerack","longitude":14.341783,"latitude":50.0856921,"name":"Bicycle Parking","city":"Horomerice","address":null,"covered":false,"access":null,"website":null,"phone":null,"source":"OpenStreetMap/node/12493324496","sourceUpdatedAt":null,"verifiedAt":null}},{"type":"Feature","geometry":{"type":"Point","coordinates":[14.3410527,50.0751191]},"properties":{"id":"bikerack:b47557ce-597a-4873-9328-47a4af237f1d","kind":"bikerack","longitude":14.3410527,"latitude":50.0751191,"name":"Bicycle Parking","city":"Horomerice","address":null,"covered":false,"access":null,"website":null,"phone":null,"source":"OpenStreetMap/node/3443269563","sourceUpdatedAt":null,"verifiedAt":null}},{"type":"Feature","geometry":{"type":"Point","coordinates":[14.3488914,50.0874422]},"properties":{"id":"bikerack:b8395aca-d2e8-4a4a-9fab-bd5ee7b9d702","kind":"bikerack","longitude":14.3488914,"latitude":50.0874422,"name":"Bicycle Parking","city":"Horomerice","address":null,"covered":false,"access":null,"website":null,"phone":null,"source":"OpenStreetMap/node/2499163477","sourceUpdatedAt":null,"verifiedAt":null}},{"type":"Feature","geometry":{"type":"Point","coordinates":[14.3449233,50.0903881]},"properties":{"id":"bikerack:ba40d088-67cc-47e0-8040-32706d92755e","kind":"bikerack","longitude":14.3449233,"latitude":50.0903881,"name":"Bicycle Parking","city":"Horomerice","address":null,"covered":false,"access":null,"website":null,"phone":null,"source":"OpenStreetMap/node/7276392097","sourceUpdatedAt":null,"verifiedAt":null}},{"type":"Feature","geometry":{"type":"Point","coordinates":[14.3439063,50.0882211]},"properties":{"id":"bikerack:bb9bef1e-2a10-4566-91a7-c0b436c6d378","kind":"bikerack","longitude":14.3439063,"latitude":50.0882211,"name":"Bicycle Parking","city":"Horomerice","address":null,"covered":false,"access":null,"website":null,"phone":null,"source":"OpenStreetMap/node/8331244350","sourceUpdatedAt":null,"verifiedAt":null}},{"type":"Feature","geometry":{"type":"Point","coordinates":[14.3517188,50.0887467]},"properties":{"id":"bikerack:cd1b8774-2caa-4d69-9487-cef59b01866e","kind":"bikerack","longitude":14.3517188,"latitude":50.0887467,"name":"Bicycle Parking","city":"Horomerice","address":null,"covered":true,"access":null,"website":null,"phone":null,"source":"OpenStreetMap/node/11421711453","sourceUpdatedAt":null,"verifiedAt":null}},{"type":"Feature","geometry":{"type":"Point","coordinates":[14.3568832,50.0788788]},"properties":{"id":"bikerack:d45f1480-dfe5-434c-8770-50951c14e6d8","kind":"bikerack","longitude":14.3568832,"latitude":50.0788788,"name":"Bicycle Parking","city":"Mala Strana","address":null,"covered":false,"access":null,"website":null,"phone":null,"source":"OpenStreetMap/node/8088596237","sourceUpdatedAt":null,"verifiedAt":null}},{"type":"Feature","geometry":{"type":"Point","coordinates":[14.3463387,50.0847181]},"properties":{"id":"bikerack:d9657253-7947-480e-8b95-965a5451ce04","kind":"bikerack","longitude":14.3463387,"latitude":50.0847181,"name":"Bicycle Parking","city":"Horomerice","address":null,"covered":false,"access":null,"website":null,"phone":null,"source":"OpenStreetMap/node/9309271793","sourceUpdatedAt":null,"verifiedAt":null}},{"type":"Feature","geometry":{"type":"Point","coordinates":[14.3659868,50.0875743]},"properties":{"id":"bikerack:e5b03eaa-9f24-4eba-916a-f17beafc34af","kind":"bikerack","longitude":14.3659868,"latitude":50.0875743,"name":"Bicycle Parking","city":"Mala Strana","address":null,"covered":false,"access":null,"website":null,"phone":null,"source":"OpenStreetMap/node/3888863965","sourceUpdatedAt":null,"verifiedAt":null}},{"type":"Feature","geometry":{"type":"Point","coordinates":[14.3651155,50.0875092]},"properties":{"id":"bikerack:e8838ab8-0334-44c5-8ece-b747da4c53b2","kind":"bikerack","longitude":14.3651155,"latitude":50.0875092,"name":"Bicycle Parking","city":"Mala Strana","address":null,"covered":false,"access":null,"website":null,"phone":null,"source":"OpenStreetMap/node/10092479279","sourceUpdatedAt":null,"verifiedAt":null}},{"type":"Feature","geometry":{"type":"Point","coordinates":[14.3329348,50.07699]},"properties":{"id":"bikerack:eeec174f-11b8-4721-a023-5617691587f3","kind":"bikerack","longitude":14.3329348,"latitude":50.07699,"name":"Bicycle Parking","city":"Horomerice","address":null,"covered":false,"access":null,"website":null,"phone":null,"source":"OpenStreetMap/way/1265313839","sourceUpdatedAt":null,"verifiedAt":null}},{"type":"Feature","geometry":{"type":"Point","coordinates":[14.3561829,50.0786386]},"properties":{"id":"bikerack:f2c91e4c-65eb-4028-a306-94c92c3317d8","kind":"bikerack","longitude":14.3561829,"latitude":50.0786386,"name":"Bicycle Parking","city":"Mala Strana","address":null,"covered":false,"access":null,"website":null,"phone":null,"source":"OpenStreetMap/node/2499136028","sourceUpdatedAt":null,"verifiedAt":null}},{"type":"Feature","geometry":{"type":"Point","coordinates":[14.3562164,50.078669]},"properties":{"id":"bikerack:ff9dfa53-fb1e-4181-aae1-e758d34eac24","kind":"bikerack","longitude":14.3562164,"latitude":50.078669,"name":"Bicycle Parking","city":"Mala Strana","address":null,"covered":false,"access":null,"website":null,"phone":null,"source":"OpenStreetMap/node/8089471002","sourceUpdatedAt":null,"verifiedAt":null}},{"type":"Feature","geometry":{"type":"Point","coordinates":[14.3568264,50.0788749]},"properties":{"id":"repair:00f0b2f7-8b17-4def-b319-59e24ee2b455","kind":"repair","longitude":14.3568264,"latitude":50.0788749,"name":"Bicycle Repair Station","city":"Mala Strana","address":null,"covered":false,"access":null,"website":null,"phone":null,"source":"OpenStreetMap/node/8089471001","sourceUpdatedAt":null,"verifiedAt":null}},{"type":"Feature","geometry":{"type":"Point","coordinates":[14.3457385,50.089019]},"properties":{"id":"water:9468e355-d672-441a-9e4a-91810cbda795","kind":"water","longitude":14.3457385,"latitude":50.089019,"name":"Drinking Fountain","city":"Horomerice","address":null,"covered":null,"access":null,"website":null,"phone":null,"source":"OpenStreetMap/node/4188877391","sourceUpdatedAt":null,"verifiedAt":null}},{"type":"Feature","geometry":{"type":"Point","coordinates":[14.336166,50.084762]},"properties":{"id":"water:cef55bde-39aa-414d-bb23-2007c7ec6d11","kind":"water","longitude":14.336166,"latitude":50.084762,"name":"Drinking Fountain","city":"Horomerice","address":null,"covered":null,"access":null,"website":null,"phone":null,"source":"OpenStreetMap/node/13084387839","sourceUpdatedAt":null,"verifiedAt":null}}]}