{"type":"FeatureCollection","features":[{"type":"Feature","geometry":{"type":"Point","coordinates":[14.352827,46.1025776]},"properties":{"id":"water:0bc4bbdc-573f-4ae1-9290-bd9fb8f26052","kind":"water","longitude":14.352827,"latitude":46.1025776,"name":"Ivókút","city":"Dobrova","address":null,"covered":null,"access":null,"website":null,"phone":null,"source":"OpenStreetMap/node/3868765813","sourceUpdatedAt":null,"verifiedAt":null}},{"type":"Feature","geometry":{"type":"Point","coordinates":[14.3398128,46.0924327]},"properties":{"id":"water:14336f9d-52ab-45f0-a5a5-71d04f4132c0","kind":"water","longitude":14.3398128,"latitude":46.0924327,"name":"Ivókút","city":"Dobrova","address":null,"covered":null,"access":null,"website":null,"phone":null,"source":"OpenStreetMap/node/3089999103","sourceUpdatedAt":null,"verifiedAt":null}},{"type":"Feature","geometry":{"type":"Point","coordinates":[14.3699793,46.0923749]},"properties":{"id":"water:3a7a2b0e-cf12-4926-a02d-9c862095b598","kind":"water","longitude":14.3699793,"latitude":46.0923749,"name":"Ivókút","city":"Dobrova","address":null,"covered":null,"access":null,"website":null,"phone":null,"source":"OpenStreetMap/node/9074408986","sourceUpdatedAt":null,"verifiedAt":null}},{"type":"Feature","geometry":{"type":"Point","coordinates":[14.3399919,46.0922314]},"properties":{"id":"water:6717d768-bb8a-43f6-a698-a7da05e9bd01","kind":"water","longitude":14.3399919,"latitude":46.0922314,"name":"Ivókút","city":"Dobrova","address":null,"covered":null,"access":null,"website":null,"phone":null,"source":"OpenStreetMap/node/3089999073","sourceUpdatedAt":null,"verifiedAt":null}},{"type":"Feature","geometry":{"type":"Point","coordinates":[14.3407017,46.0923655]},"properties":{"id":"water:786edea3-ef30-49fe-8322-b2fc6992cf8e","kind":"water","longitude":14.3407017,"latitude":46.0923655,"name":"Ivókút","city":"Dobrova","address":null,"covered":null,"access":null,"website":null,"phone":null,"source":"OpenStreetMap/node/3089999098","sourceUpdatedAt":null,"verifiedAt":null}},{"type":"Feature","geometry":{"type":"Point","coordinates":[14.3543808,46.1004619]},"properties":{"id":"water:8fb1ee40-4426-45de-acd7-c1068c6f76c1","kind":"water","longitude":14.3543808,"latitude":46.1004619,"name":"KS Trnovec","city":"Dobrova","address":null,"covered":null,"access":null,"website":null,"phone":null,"source":"OpenStreetMap/node/4695153425","sourceUpdatedAt":null,"verifiedAt":null}}]}