{"type":"FeatureCollection","features":[{"type":"Feature","geometry":{"type":"Point","coordinates":[15.9854205,48.9205141]},"properties":{"id":"bikerack:142e9239-19c9-496a-acc3-052f4265728a","kind":"bikerack","longitude":15.9854205,"latitude":48.9205141,"name":"Bicycle Parking","city":"Jevisovice","address":null,"covered":false,"access":null,"website":null,"phone":null,"source":"OpenStreetMap/node/11062231433","sourceUpdatedAt":null,"verifiedAt":null}},{"type":"Feature","geometry":{"type":"Point","coordinates":[15.9868178,48.9212515]},"properties":{"id":"bikerack:7fedbe46-c0f1-4822-9d5b-ce15cc92fa82","kind":"bikerack","longitude":15.9868178,"latitude":48.9212515,"name":"Bicycle Parking","city":"Jevisovice","address":null,"covered":false,"access":null,"website":null,"phone":null,"source":"OpenStreetMap/node/11062231435","sourceUpdatedAt":null,"verifiedAt":null}}]}