{"type":"FeatureCollection","features":[{"type":"Feature","geometry":{"type":"Point","coordinates":[15.9763868,48.4691962]},"properties":{"id":"bikerack:a2b35efe-9ce2-4f1e-a56e-f6c379cfa75e","kind":"bikerack","longitude":15.9763868,"latitude":48.4691962,"name":"Biciklitároló","city":"Grossweikersdorf","address":null,"covered":true,"access":null,"website":null,"phone":null,"source":"OpenStreetMap/way/1103561432","sourceUpdatedAt":null,"verifiedAt":null}},{"type":"Feature","geometry":{"type":"Point","coordinates":[15.9822258,48.4729505]},"properties":{"id":"water:89cbee8a-4be5-4a91-8dcc-6cfb787c1aac","kind":"water","longitude":15.9822258,"latitude":48.4729505,"name":"Ivókút","city":"Grossweikersdorf","address":null,"covered":null,"access":null,"website":null,"phone":null,"source":"OpenStreetMap/node/6760399412","sourceUpdatedAt":null,"verifiedAt":null}}]}