{"type":"FeatureCollection","features":[{"type":"Feature","geometry":{"type":"Point","coordinates":[15.9816773,48.1734437]},"properties":{"id":"bikerack:2ab98069-d432-46f6-a7b5-098b19894a74","kind":"bikerack","longitude":15.9816773,"latitude":48.1734437,"name":"Biciklitároló","city":"Eichgraben","address":null,"covered":true,"access":null,"website":null,"phone":null,"source":"OpenStreetMap/way/374334316","sourceUpdatedAt":null,"verifiedAt":null}},{"type":"Feature","geometry":{"type":"Point","coordinates":[15.9807153,48.1732757]},"properties":{"id":"bikerack:c0fbe308-99f6-4f5b-9aac-9c2cd58a4fae","kind":"bikerack","longitude":15.9807153,"latitude":48.1732757,"name":"Biciklitároló","city":"Eichgraben","address":null,"covered":false,"access":null,"website":null,"phone":null,"source":"OpenStreetMap/node/9759314472","sourceUpdatedAt":null,"verifiedAt":null}},{"type":"Feature","geometry":{"type":"Point","coordinates":[15.9833754,48.1726486]},"properties":{"id":"water:b61251ba-7ccb-45d0-8ade-c097f68ecb3b","kind":"water","longitude":15.9833754,"latitude":48.1726486,"name":"Ivókút","city":"Eichgraben","address":null,"covered":null,"access":null,"website":null,"phone":null,"source":"OpenStreetMap/node/12969809019","sourceUpdatedAt":null,"verifiedAt":null}}]}