{"type":"FeatureCollection","features":[{"type":"Feature","geometry":{"type":"Point","coordinates":[15.9715917,45.0494492]},"properties":{"id":"water:5226f37b-8947-44c6-98d3-b7249d250621","kind":"water","longitude":15.9715917,"latitude":45.0494492,"name":"Drinking Fountain","city":"Gornja Koprivna","address":null,"covered":null,"access":null,"website":null,"phone":null,"source":"OpenStreetMap/node/13193587023","sourceUpdatedAt":null,"verifiedAt":null}},{"type":"Feature","geometry":{"type":"Point","coordinates":[15.9951935,45.0368347]},"properties":{"id":"water:864eefe7-3967-4e1d-93c6-0a7db907b1ce","kind":"water","longitude":15.9951935,"latitude":45.0368347,"name":"Drinking Fountain","city":"Buzim","address":null,"covered":null,"access":null,"website":null,"phone":null,"source":"OpenStreetMap/node/13105878004","sourceUpdatedAt":null,"verifiedAt":null}}]}