{"type":"FeatureCollection","features":[{"type":"Feature","geometry":{"type":"Point","coordinates":[15.2856161,47.9516095]},"properties":{"id":"bikerack:696081c5-b06f-43bb-8a30-34665ed7563c","kind":"bikerack","longitude":15.2856161,"latitude":47.9516095,"name":"Biciklitároló","city":"Puchenstuben","address":null,"covered":true,"access":null,"website":null,"phone":null,"source":"OpenStreetMap/way/628143664","sourceUpdatedAt":null,"verifiedAt":null}},{"type":"Feature","geometry":{"type":"Point","coordinates":[15.2855474,47.9515843]},"properties":{"id":"repair:96292c8c-6fcf-433b-98c0-f2d2391f6384","kind":"repair","longitude":15.2855474,"latitude":47.9515843,"name":"Kerékpár szervizállomás","city":"Puchenstuben","address":null,"covered":false,"access":null,"website":null,"phone":null,"source":"OpenStreetMap/node/13465017008","sourceUpdatedAt":null,"verifiedAt":null}}]}