{"type":"FeatureCollection","features":[{"type":"Feature","geometry":{"type":"Point","coordinates":[23.2651328,53.9050561]},"properties":{"id":"bikerack:61895233-6065-44d6-8be2-4938c5320295","kind":"bikerack","longitude":23.2651328,"latitude":53.9050561,"name":"Biciklitároló","city":"Sejny","address":null,"covered":false,"access":null,"website":null,"phone":null,"source":"OpenStreetMap/node/5884597501","sourceUpdatedAt":null,"verifiedAt":null}},{"type":"Feature","geometry":{"type":"Point","coordinates":[23.2699269,53.9077466]},"properties":{"id":"bikerack:ccc134b6-2df9-47f3-9a10-a9da585df7fb","kind":"bikerack","longitude":23.2699269,"latitude":53.9077466,"name":"Biciklitároló","city":"Sejny","address":null,"covered":true,"access":null,"website":null,"phone":null,"source":"OpenStreetMap/node/12547561622","sourceUpdatedAt":null,"verifiedAt":null}},{"type":"Feature","geometry":{"type":"Point","coordinates":[23.2652482,53.9049817]},"properties":{"id":"service:f2a90683-c10f-4947-8b96-5aa60597e479","kind":"service","longitude":23.2652482,"latitude":53.9049817,"name":"Bicikli szervíz","city":"Sejny","address":null,"covered":null,"access":null,"website":null,"phone":null,"source":"OpenStreetMap/node/4941599569","sourceUpdatedAt":null,"verifiedAt":null}}]}