{"type":"FeatureCollection","features":[{"type":"Feature","geometry":{"type":"Point","coordinates":[23.2582459,53.125124]},"properties":{"id":"bikerack:8826add2-b4ed-47f5-aa7d-2ecc9eb0da95","kind":"bikerack","longitude":23.2582459,"latitude":53.125124,"name":"Biciklitároló","city":"Wasilkow","address":null,"covered":false,"access":null,"website":null,"phone":null,"source":"OpenStreetMap/node/13031168839","sourceUpdatedAt":null,"verifiedAt":null}},{"type":"Feature","geometry":{"type":"Point","coordinates":[23.2681238,53.1257806]},"properties":{"id":"bikerack:8ceca1e3-5337-4113-8c0f-df15524a85ea","kind":"bikerack","longitude":23.2681238,"latitude":53.1257806,"name":"Biciklitároló","city":"Wasilkow","address":null,"covered":false,"access":null,"website":null,"phone":null,"source":"OpenStreetMap/node/13232672123","sourceUpdatedAt":null,"verifiedAt":null}},{"type":"Feature","geometry":{"type":"Point","coordinates":[23.2620295,53.1294526]},"properties":{"id":"bikerack:af2df222-0ef8-4344-b41d-e5e7bb1bab79","kind":"bikerack","longitude":23.2620295,"latitude":53.1294526,"name":"Biciklitároló","city":"Wasilkow","address":null,"covered":false,"access":null,"website":null,"phone":null,"source":"OpenStreetMap/node/13232651227","sourceUpdatedAt":null,"verifiedAt":null}},{"type":"Feature","geometry":{"type":"Point","coordinates":[23.2619755,53.1299985]},"properties":{"id":"bikerack:d5430c49-f77e-42bb-9f37-d96e36f14cb6","kind":"bikerack","longitude":23.2619755,"latitude":53.1299985,"name":"Biciklitároló","city":"Wasilkow","address":null,"covered":false,"access":null,"website":null,"phone":null,"source":"OpenStreetMap/node/13232651216","sourceUpdatedAt":null,"verifiedAt":null}},{"type":"Feature","geometry":{"type":"Point","coordinates":[23.2575492,53.1285164]},"properties":{"id":"bikerack:d5a073a4-a7c5-4175-8713-98f0439aacb2","kind":"bikerack","longitude":23.2575492,"latitude":53.1285164,"name":"Biciklitároló","city":"Wasilkow","address":null,"covered":false,"access":null,"website":null,"phone":null,"source":"OpenStreetMap/node/13031168837","sourceUpdatedAt":null,"verifiedAt":null}}]}