{"type":"FeatureCollection","features":[{"type":"Feature","geometry":{"type":"Point","coordinates":[21.4270802,52.5994297]},"properties":{"id":"bikerack:0e2c846d-8b41-4624-866d-d0550b87804b","kind":"bikerack","longitude":21.4270802,"latitude":52.5994297,"name":"Biciklitároló","city":"Wyszkow","address":null,"covered":false,"access":null,"website":null,"phone":null,"source":"OpenStreetMap/node/12739080620","sourceUpdatedAt":null,"verifiedAt":null}},{"type":"Feature","geometry":{"type":"Point","coordinates":[21.441639,52.6063701]},"properties":{"id":"bikerack:1d9cef6b-a7c7-432f-af80-78951971b30c","kind":"bikerack","longitude":21.441639,"latitude":52.6063701,"name":"Biciklitároló","city":"Wyszkow","address":null,"covered":false,"access":null,"website":null,"phone":null,"source":"OpenStreetMap/node/12495900916","sourceUpdatedAt":null,"verifiedAt":null}},{"type":"Feature","geometry":{"type":"Point","coordinates":[21.4422194,52.591484]},"properties":{"id":"service:11da5da6-ca69-446a-96cc-bf5b164ceecf","kind":"service","longitude":21.4422194,"latitude":52.591484,"name":"Sport Atelier","city":"Wyszkow","address":null,"covered":null,"access":null,"website":null,"phone":null,"source":"OpenStreetMap/node/11761080258","sourceUpdatedAt":null,"verifiedAt":null}}]}