{"type":"FeatureCollection","features":[{"type":"Feature","geometry":{"type":"Point","coordinates":[21.4407524,48.4989877]},"properties":{"id":"water:389a9c1b-6dfc-4a81-a166-cfe966a8e9e1","kind":"water","longitude":21.4407524,"latitude":48.4989877,"name":"Ivókút","city":null,"address":null,"covered":null,"access":null,"website":null,"phone":null,"source":"OpenStreetMap","sourceUpdatedAt":null,"verifiedAt":null}},{"type":"Feature","geometry":{"type":"Point","coordinates":[21.44342,48.49923]},"properties":{"id":"water:73786ac1-1bf8-4fe8-94f4-dc6f6a66c623","kind":"water","longitude":21.44342,"latitude":48.49923,"name":"Ivókút","city":null,"address":null,"covered":null,"access":null,"website":null,"phone":null,"source":"OpenStreetMap","sourceUpdatedAt":null,"verifiedAt":null}},{"type":"Feature","geometry":{"type":"Point","coordinates":[21.4451314,48.4977127]},"properties":{"id":"water:8bae91b3-daee-41e2-baa0-64f1ff492d90","kind":"water","longitude":21.4451314,"latitude":48.4977127,"name":"Ivókút","city":null,"address":null,"covered":null,"access":null,"website":null,"phone":null,"source":"OpenStreetMap","sourceUpdatedAt":null,"verifiedAt":null}},{"type":"Feature","geometry":{"type":"Point","coordinates":[21.4359798,48.4991435]},"properties":{"id":"water:8fb6e74c-2fe9-4a7b-8c48-f50bf2025885","kind":"water","longitude":21.4359798,"latitude":48.4991435,"name":"Ivókút","city":null,"address":null,"covered":null,"access":null,"website":null,"phone":null,"source":"OpenStreetMap","sourceUpdatedAt":null,"verifiedAt":null}},{"type":"Feature","geometry":{"type":"Point","coordinates":[21.4372833,48.4993514]},"properties":{"id":"water:b53d8458-ea31-43d8-80cc-58690da7bc66","kind":"water","longitude":21.4372833,"latitude":48.4993514,"name":"Ivókút","city":null,"address":null,"covered":null,"access":null,"website":null,"phone":null,"source":"OpenStreetMap","sourceUpdatedAt":null,"verifiedAt":null}}]}