{"type":"FeatureCollection","features":[{"type":"Feature","geometry":{"type":"Point","coordinates":[16.8115305,49.432353]},"properties":{"id":"bikerack:2f863087-1ee5-4c0f-a446-7616e7a712ee","kind":"bikerack","longitude":16.8115305,"latitude":49.432353,"name":"Bicycle Parking","city":"Lipovec","address":null,"covered":false,"access":null,"website":null,"phone":null,"source":"OpenStreetMap/node/10587593546","sourceUpdatedAt":null,"verifiedAt":null}},{"type":"Feature","geometry":{"type":"Point","coordinates":[16.8108034,49.4322729]},"properties":{"id":"bikerack:44b827bc-08d3-415a-8997-0fac1044537e","kind":"bikerack","longitude":16.8108034,"latitude":49.4322729,"name":"Bicycle Parking","city":"Lipovec","address":null,"covered":false,"access":null,"website":null,"phone":null,"source":"OpenStreetMap/node/10587593544","sourceUpdatedAt":null,"verifiedAt":null}},{"type":"Feature","geometry":{"type":"Point","coordinates":[16.7981722,49.4308482]},"properties":{"id":"bikerack:5ba431f4-3d76-4aec-93ef-6b751537299d","kind":"bikerack","longitude":16.7981722,"latitude":49.4308482,"name":"Bicycle Parking","city":"Lipovec","address":null,"covered":false,"access":null,"website":null,"phone":null,"source":"OpenStreetMap/node/12532417938","sourceUpdatedAt":null,"verifiedAt":null}}]}