{"type":"FeatureCollection","features":[{"type":"Feature","geometry":{"type":"Point","coordinates":[16.8078583,49.1293945]},"properties":{"id":"bikerack:38bb2730-5078-4997-ba4e-ab30c4f71090","kind":"bikerack","longitude":16.8078583,"latitude":49.1293945,"name":"Bicycle Parking","city":"Krenovice","address":null,"covered":false,"access":null,"website":null,"phone":null,"source":"OpenStreetMap/node/12748758119","sourceUpdatedAt":null,"verifiedAt":null}},{"type":"Feature","geometry":{"type":"Point","coordinates":[16.8248602,49.1439088]},"properties":{"id":"bikerack:460f7e2b-90c0-4fa3-8eb3-2808230fb3a2","kind":"bikerack","longitude":16.8248602,"latitude":49.1439088,"name":"Bicycle Parking","city":"Krenovice","address":null,"covered":false,"access":null,"website":null,"phone":null,"source":"OpenStreetMap/node/12522396838","sourceUpdatedAt":null,"verifiedAt":null}}]}