{"type":"FeatureCollection","features":[{"type":"Feature","geometry":{"type":"Point","coordinates":[22.4062248,50.2701295]},"properties":{"id":"bikerack:051edb18-ed73-496e-a4c2-4ec4cd9325ff","kind":"bikerack","longitude":22.4062248,"latitude":50.2701295,"name":"Biciklitároló","city":"Lezajsk","address":null,"covered":false,"access":null,"website":null,"phone":null,"source":"OpenStreetMap/node/5929068585","sourceUpdatedAt":null,"verifiedAt":null}},{"type":"Feature","geometry":{"type":"Point","coordinates":[22.4063793,50.2701402]},"properties":{"id":"bikerack:5f2cdc76-5a09-475d-8c16-06f44a5b37de","kind":"bikerack","longitude":22.4063793,"latitude":50.2701402,"name":"Biciklitároló","city":"Lezajsk","address":null,"covered":false,"access":null,"website":null,"phone":null,"source":"OpenStreetMap/node/5929068586","sourceUpdatedAt":null,"verifiedAt":null}},{"type":"Feature","geometry":{"type":"Point","coordinates":[22.4078232,50.2697991]},"properties":{"id":"bikerack:c59b2ecc-4ea3-4323-ad0e-c35f6524e895","kind":"bikerack","longitude":22.4078232,"latitude":50.2697991,"name":"Biciklitároló","city":"Lezajsk","address":null,"covered":false,"access":null,"website":null,"phone":null,"source":"OpenStreetMap/node/11592781556","sourceUpdatedAt":null,"verifiedAt":null}},{"type":"Feature","geometry":{"type":"Point","coordinates":[22.4101669,50.2688502]},"properties":{"id":"bikerack:ca2e4fdb-198b-4339-8697-31fba2986bd1","kind":"bikerack","longitude":22.4101669,"latitude":50.2688502,"name":"Biciklitároló","city":"Lezajsk","address":null,"covered":false,"access":null,"website":null,"phone":null,"source":"OpenStreetMap/node/6299219749","sourceUpdatedAt":null,"verifiedAt":null}},{"type":"Feature","geometry":{"type":"Point","coordinates":[22.4079146,50.2698933]},"properties":{"id":"bikerack:d23480ab-5f1c-44ed-a43a-a5011d20dc2a","kind":"bikerack","longitude":22.4079146,"latitude":50.2698933,"name":"Biciklitároló","city":"Lezajsk","address":null,"covered":false,"access":null,"website":null,"phone":null,"source":"OpenStreetMap/node/2125461710","sourceUpdatedAt":null,"verifiedAt":null}}]}