{"type":"FeatureCollection","features":[{"type":"Feature","geometry":{"type":"Point","coordinates":[16.4002752,45.4785315]},"properties":{"id":"bikerack:12df6cd3-5662-4648-9187-413a7f251337","kind":"bikerack","longitude":16.4002752,"latitude":45.4785315,"name":"Biciklitároló","city":"Sisak","address":null,"covered":true,"access":null,"website":null,"phone":null,"source":"OpenStreetMap/node/13511290669","sourceUpdatedAt":null,"verifiedAt":null}},{"type":"Feature","geometry":{"type":"Point","coordinates":[16.4002898,45.4785615]},"properties":{"id":"bikerack:8e7d97f5-a995-4cbe-9342-15c868ae40c6","kind":"bikerack","longitude":16.4002898,"latitude":45.4785615,"name":"Biciklitároló","city":"Sisak","address":null,"covered":true,"access":null,"website":null,"phone":null,"source":"OpenStreetMap/node/13685207363","sourceUpdatedAt":null,"verifiedAt":null}},{"type":"Feature","geometry":{"type":"Point","coordinates":[16.4025396,45.4808052]},"properties":{"id":"bikerack:cf4d689a-a942-474a-813f-33c920a521a5","kind":"bikerack","longitude":16.4025396,"latitude":45.4808052,"name":"Biciklitároló","city":"Sisak","address":null,"covered":false,"access":null,"website":null,"phone":null,"source":"OpenStreetMap/node/13264716376","sourceUpdatedAt":null,"verifiedAt":null}}]}