{"type":"FeatureCollection","features":[{"type":"Feature","geometry":{"type":"Point","coordinates":[21.946024,51.3218576]},"properties":{"id":"bikerack:075718ba-538c-446a-990b-acc8585acb0e","kind":"bikerack","longitude":21.946024,"latitude":51.3218576,"name":"Biciklitároló","city":"Kazimierz Dolny","address":null,"covered":false,"access":null,"website":null,"phone":null,"source":"OpenStreetMap/node/7989012592","sourceUpdatedAt":null,"verifiedAt":null}},{"type":"Feature","geometry":{"type":"Point","coordinates":[21.9459002,51.3219577]},"properties":{"id":"bikerack:496bb4ab-3c56-456a-8053-aae2617d6a49","kind":"bikerack","longitude":21.9459002,"latitude":51.3219577,"name":"Biciklitároló","city":"Kazimierz Dolny","address":null,"covered":false,"access":null,"website":null,"phone":null,"source":"OpenStreetMap/node/7989012593","sourceUpdatedAt":null,"verifiedAt":null}},{"type":"Feature","geometry":{"type":"Point","coordinates":[21.9596189,51.3317038]},"properties":{"id":"bikerack:99add284-b42e-4ee4-8235-ddab390d637e","kind":"bikerack","longitude":21.9596189,"latitude":51.3317038,"name":"Biciklitároló","city":"Kazimierz Dolny","address":null,"covered":false,"access":null,"website":null,"phone":null,"source":"OpenStreetMap/node/11234840249","sourceUpdatedAt":null,"verifiedAt":null}},{"type":"Feature","geometry":{"type":"Point","coordinates":[21.9481102,51.3218664]},"properties":{"id":"bikerack:aada566f-3e34-402d-8f4a-6acc8c66096d","kind":"bikerack","longitude":21.9481102,"latitude":51.3218664,"name":"Biciklitároló","city":"Kazimierz Dolny","address":null,"covered":false,"access":null,"website":null,"phone":null,"source":"OpenStreetMap/node/7988991459","sourceUpdatedAt":null,"verifiedAt":null}},{"type":"Feature","geometry":{"type":"Point","coordinates":[21.9414177,51.3197967]},"properties":{"id":"water:14a845d2-5697-47a0-b3e6-9d6d27b03d82","kind":"water","longitude":21.9414177,"latitude":51.3197967,"name":"Ivókút","city":"Kazimierz Dolny","address":null,"covered":null,"access":null,"website":null,"phone":null,"source":"OpenStreetMap/node/1799248523","sourceUpdatedAt":null,"verifiedAt":null}},{"type":"Feature","geometry":{"type":"Point","coordinates":[21.9474407,51.3221177]},"properties":{"id":"water:30c06eab-f31d-4d28-986a-74f9773706ec","kind":"water","longitude":21.9474407,"latitude":51.3221177,"name":"Ivókút","city":"Kazimierz Dolny","address":null,"covered":null,"access":null,"website":null,"phone":null,"source":"OpenStreetMap/node/9863904545","sourceUpdatedAt":null,"verifiedAt":null}}]}