{"type":"FeatureCollection","features":[{"type":"Feature","geometry":{"type":"Point","coordinates":[21.9724888,50.259166]},"properties":{"id":"bikerack:498e3fa9-bf03-4918-af41-b5f5db71497d","kind":"bikerack","longitude":21.9724888,"latitude":50.259166,"name":"Biciklitároló","city":"Ranizow","address":null,"covered":false,"access":null,"website":null,"phone":null,"source":"OpenStreetMap/node/10961563880","sourceUpdatedAt":null,"verifiedAt":null}},{"type":"Feature","geometry":{"type":"Point","coordinates":[21.9723567,50.2586885]},"properties":{"id":"bikerack:8ba296c0-93d2-44bd-b7c3-8b1351293c95","kind":"bikerack","longitude":21.9723567,"latitude":50.2586885,"name":"Biciklitároló","city":"Ranizow","address":null,"covered":false,"access":null,"website":null,"phone":null,"source":"OpenStreetMap/node/12296948003","sourceUpdatedAt":null,"verifiedAt":null}},{"type":"Feature","geometry":{"type":"Point","coordinates":[21.9707881,50.2586176]},"properties":{"id":"bikerack:9ef799a6-faf2-4834-87b4-81c4ff3e352e","kind":"bikerack","longitude":21.9707881,"latitude":50.2586176,"name":"Biciklitároló","city":"Ranizow","address":null,"covered":false,"access":null,"website":null,"phone":null,"source":"OpenStreetMap/node/10961563866","sourceUpdatedAt":null,"verifiedAt":null}},{"type":"Feature","geometry":{"type":"Point","coordinates":[21.9698989,50.2586882]},"properties":{"id":"bikerack:b497bd0a-a467-4666-902e-31089f52c75f","kind":"bikerack","longitude":21.9698989,"latitude":50.2586882,"name":"Biciklitároló","city":"Ranizow","address":null,"covered":false,"access":null,"website":null,"phone":null,"source":"OpenStreetMap/node/10961563865","sourceUpdatedAt":null,"verifiedAt":null}},{"type":"Feature","geometry":{"type":"Point","coordinates":[21.9692927,50.2587715]},"properties":{"id":"bikerack:e9c84faf-8fcc-4795-88bc-5f35e282bb19","kind":"bikerack","longitude":21.9692927,"latitude":50.2587715,"name":"Biciklitároló","city":"Ranizow","address":null,"covered":false,"access":null,"website":null,"phone":null,"source":"OpenStreetMap/node/10961563864","sourceUpdatedAt":null,"verifiedAt":null}}]}