{"type":"FeatureCollection","features":[{"type":"Feature","geometry":{"type":"Point","coordinates":[8.6447088,52.7924184]},"properties":{"id":"bikerack:0183a53e-8c67-4fb2-a28a-6ae7d6e759d3","kind":"bikerack","longitude":8.6447088,"latitude":52.7924184,"name":"Am Bahnhof – Fahrradabstellplatz","city":"Twistringen","address":null,"covered":true,"access":null,"website":null,"phone":null,"source":"OpenStreetMap/way/305073926","sourceUpdatedAt":null,"verifiedAt":null}},{"type":"Feature","geometry":{"type":"Point","coordinates":[8.6448005,52.7922145]},"properties":{"id":"bikerack:0424dc5b-deb4-4d6b-835b-01af86c3cb5a","kind":"bikerack","longitude":8.6448005,"latitude":52.7922145,"name":"Am Bahnhof – Fahrradabstellplatz","city":"Twistringen","address":null,"covered":true,"access":null,"website":null,"phone":null,"source":"OpenStreetMap/node/1569015764","sourceUpdatedAt":null,"verifiedAt":null}},{"type":"Feature","geometry":{"type":"Point","coordinates":[8.6448294,52.7921913]},"properties":{"id":"bikerack:19461874-2317-4821-81f4-30485d9a1a03","kind":"bikerack","longitude":8.6448294,"latitude":52.7921913,"name":"Am Bahnhof – Fahrradabstellplatz","city":"Twistringen","address":null,"covered":true,"access":null,"website":null,"phone":null,"source":"OpenStreetMap/node/1569015760","sourceUpdatedAt":null,"verifiedAt":null}},{"type":"Feature","geometry":{"type":"Point","coordinates":[8.638724,52.8000087]},"properties":{"id":"bikerack:2daff232-a2cd-46e4-a27e-f9b9e1636f11","kind":"bikerack","longitude":8.638724,"latitude":52.8000087,"name":"Fahrradabstellplatz","city":"Twistringen","address":null,"covered":true,"access":null,"website":null,"phone":null,"source":"OpenStreetMap/node/9244036413","sourceUpdatedAt":null,"verifiedAt":null}},{"type":"Feature","geometry":{"type":"Point","coordinates":[8.6392571,52.8003207]},"properties":{"id":"bikerack:8856c3ca-9633-4685-984e-8aa1c63a7302","kind":"bikerack","longitude":8.6392571,"latitude":52.8003207,"name":"Fahrradabstellplatz","city":"Twistringen","address":null,"covered":false,"access":null,"website":null,"phone":null,"source":"OpenStreetMap/node/9246507919","sourceUpdatedAt":null,"verifiedAt":null}},{"type":"Feature","geometry":{"type":"Point","coordinates":[8.6446637,52.7983033]},"properties":{"id":"bikerack:8ab67920-7535-4bcc-868c-20d616384903","kind":"bikerack","longitude":8.6446637,"latitude":52.7983033,"name":"Fahrradabstellplatz","city":"Twistringen","address":null,"covered":false,"access":null,"website":null,"phone":null,"source":"OpenStreetMap/way/1082072284","sourceUpdatedAt":null,"verifiedAt":null}},{"type":"Feature","geometry":{"type":"Point","coordinates":[8.6438518,52.7918519]},"properties":{"id":"bikerack:c22ce4db-403e-4630-883e-a3bdc627a08d","kind":"bikerack","longitude":8.6438518,"latitude":52.7918519,"name":"Am Bahnhof – Fahrradabstellplatz","city":"Twistringen","address":null,"covered":true,"access":null,"website":null,"phone":null,"source":"OpenStreetMap/way/305073924","sourceUpdatedAt":null,"verifiedAt":null}},{"type":"Feature","geometry":{"type":"Point","coordinates":[8.6362879,52.7980376]},"properties":{"id":"bikerack:ece7a62f-8cad-404f-8e62-6d3ca8df7554","kind":"bikerack","longitude":8.6362879,"latitude":52.7980376,"name":"Fahrradabstellplatz","city":"Twistringen","address":null,"covered":true,"access":null,"website":null,"phone":null,"source":"OpenStreetMap/node/12054725334","sourceUpdatedAt":null,"verifiedAt":null}},{"type":"Feature","geometry":{"type":"Point","coordinates":[8.631191,52.8021331]},"properties":{"id":"bikerack:f6da5602-715a-4a08-8d77-e08ed8dc95dd","kind":"bikerack","longitude":8.631191,"latitude":52.8021331,"name":"Fahrradabstellplatz","city":"Twistringen","address":null,"covered":false,"access":null,"website":null,"phone":null,"source":"OpenStreetMap/node/11964074683","sourceUpdatedAt":null,"verifiedAt":null}},{"type":"Feature","geometry":{"type":"Point","coordinates":[8.6391941,52.800272]},"properties":{"id":"repair:5b385a90-529a-4481-bd3f-75c5f8371c2c","kind":"repair","longitude":8.6391941,"latitude":52.800272,"name":"Fahrradreparaturstation","city":"Twistringen","address":null,"covered":false,"access":null,"website":null,"phone":null,"source":"OpenStreetMap/node/12144639353","sourceUpdatedAt":null,"verifiedAt":null}},{"type":"Feature","geometry":{"type":"Point","coordinates":[8.6312111,52.8021728]},"properties":{"id":"repair:b23e53a1-c262-4270-97df-5efc83c569fd","kind":"repair","longitude":8.6312111,"latitude":52.8021728,"name":"Fahrradreparaturstation","city":"Twistringen","address":null,"covered":false,"access":null,"website":null,"phone":null,"source":"OpenStreetMap/node/11964074678","sourceUpdatedAt":null,"verifiedAt":null}},{"type":"Feature","geometry":{"type":"Point","coordinates":[8.638032,52.8000991]},"properties":{"id":"service:8e821cf4-5bf9-4b87-9b6f-e6500d0cc95c","kind":"service","longitude":8.638032,"latitude":52.8000991,"name":"Zweirad Center Heuermann","city":"Twistringen","address":null,"covered":null,"access":null,"website":null,"phone":null,"source":"OpenStreetMap/node/1267584922","sourceUpdatedAt":null,"verifiedAt":null}}]}