{"type":"FeatureCollection","features":[{"type":"Feature","geometry":{"type":"Point","coordinates":[8.6281717,49.7404533]},"properties":{"id":"bikerack:594971de-f314-4d19-9506-d76cdf6adcd6","kind":"bikerack","longitude":8.6281717,"latitude":49.7404533,"name":"Fahrradabstellplatz","city":"Bickenbach","address":null,"covered":true,"access":null,"website":null,"phone":null,"source":"OpenStreetMap/node/13060067625","sourceUpdatedAt":null,"verifiedAt":null}},{"type":"Feature","geometry":{"type":"Point","coordinates":[8.6154348,49.7398595]},"properties":{"id":"bikerack:65dd7416-26e9-418e-b544-bd61278f62e0","kind":"bikerack","longitude":8.6154348,"latitude":49.7398595,"name":"Fahrradabstellplatz","city":"Zwingenberg","address":null,"covered":false,"access":null,"website":null,"phone":null,"source":"OpenStreetMap/node/1868510863","sourceUpdatedAt":null,"verifiedAt":null}},{"type":"Feature","geometry":{"type":"Point","coordinates":[8.6153196,49.7399328]},"properties":{"id":"bikerack:71d37643-e44d-4b54-8cf3-c8bb012dd903","kind":"bikerack","longitude":8.6153196,"latitude":49.7399328,"name":"Fahrradabstellplatz","city":"Zwingenberg","address":null,"covered":false,"access":null,"website":null,"phone":null,"source":"OpenStreetMap/node/1868510862","sourceUpdatedAt":null,"verifiedAt":null}},{"type":"Feature","geometry":{"type":"Point","coordinates":[8.6140882,49.7400872]},"properties":{"id":"bikerack:8db15f22-4d41-437b-971d-d96f58c91a11","kind":"bikerack","longitude":8.6140882,"latitude":49.7400872,"name":"Fahrradabstellplatz","city":"Zwingenberg","address":null,"covered":true,"access":null,"website":null,"phone":null,"source":"OpenStreetMap/way/225553219","sourceUpdatedAt":null,"verifiedAt":null}},{"type":"Feature","geometry":{"type":"Point","coordinates":[8.6152513,49.7396869]},"properties":{"id":"bikerack:963baa73-9c8f-45df-9d46-d0655946e67d","kind":"bikerack","longitude":8.6152513,"latitude":49.7396869,"name":"Fahrradabstellplatz","city":"Zwingenberg","address":null,"covered":false,"access":null,"website":null,"phone":null,"source":"OpenStreetMap/node/3699068978","sourceUpdatedAt":null,"verifiedAt":null}},{"type":"Feature","geometry":{"type":"Point","coordinates":[8.6360873,49.7247731]},"properties":{"id":"bikerack:985cb417-6059-429a-8879-1cfcae3e4b73","kind":"bikerack","longitude":8.6360873,"latitude":49.7247731,"name":"Fahrradabstellplatz","city":"Zwingenberg","address":null,"covered":false,"access":null,"website":null,"phone":null,"source":"OpenStreetMap/node/12369602129","sourceUpdatedAt":null,"verifiedAt":null}},{"type":"Feature","geometry":{"type":"Point","coordinates":[8.6276752,49.7403714]},"properties":{"id":"bikerack:a60a483c-48f9-4fa0-94b6-8e61ef873091","kind":"bikerack","longitude":8.6276752,"latitude":49.7403714,"name":"Fahrradabstellplatz","city":"Bickenbach","address":null,"covered":true,"access":null,"website":null,"phone":null,"source":"OpenStreetMap/way/1421970660","sourceUpdatedAt":null,"verifiedAt":null}},{"type":"Feature","geometry":{"type":"Point","coordinates":[8.6201515,49.746158]},"properties":{"id":"bikerack:a7d0ea48-681d-4115-85ad-53a8b9d2a92f","kind":"bikerack","longitude":8.6201515,"latitude":49.746158,"name":"Fahrradabstellplatz","city":"Bickenbach","address":null,"covered":true,"access":null,"website":null,"phone":null,"source":"OpenStreetMap/node/3069777566","sourceUpdatedAt":null,"verifiedAt":null}},{"type":"Feature","geometry":{"type":"Point","coordinates":[8.6174767,49.7528472]},"properties":{"id":"bikerack:c1a1eae0-d472-4dfa-b031-cc179425b682","kind":"bikerack","longitude":8.6174767,"latitude":49.7528472,"name":"Fahrradabstellplatz","city":"Bickenbach","address":null,"covered":false,"access":null,"website":null,"phone":null,"source":"OpenStreetMap/node/3859913249","sourceUpdatedAt":null,"verifiedAt":null}},{"type":"Feature","geometry":{"type":"Point","coordinates":[8.6200668,49.7460965]},"properties":{"id":"bikerack:cfb97f3a-da4a-42ee-9c05-1b5be697d92a","kind":"bikerack","longitude":8.6200668,"latitude":49.7460965,"name":"Fahrradabstellplatz","city":"Bickenbach","address":null,"covered":true,"access":null,"website":null,"phone":null,"source":"OpenStreetMap/node/3069777565","sourceUpdatedAt":null,"verifiedAt":null}},{"type":"Feature","geometry":{"type":"Point","coordinates":[8.6148407,49.7395618]},"properties":{"id":"bikerack:e597780a-3280-4f8d-98a5-3f56b9ad887a","kind":"bikerack","longitude":8.6148407,"latitude":49.7395618,"name":"Fahrradabstellplatz","city":"Zwingenberg","address":null,"covered":false,"access":null,"website":null,"phone":null,"source":"OpenStreetMap/node/3699093666","sourceUpdatedAt":null,"verifiedAt":null}},{"type":"Feature","geometry":{"type":"Point","coordinates":[8.613379,49.7277256]},"properties":{"id":"bikerack:e7678e3b-2905-4ad4-89aa-4df29342a5ee","kind":"bikerack","longitude":8.613379,"latitude":49.7277256,"name":"Fahrradabstellplatz","city":"Zwingenberg","address":null,"covered":false,"access":null,"website":null,"phone":null,"source":"OpenStreetMap/node/3700180918","sourceUpdatedAt":null,"verifiedAt":null}},{"type":"Feature","geometry":{"type":"Point","coordinates":[8.6140886,49.7400091]},"properties":{"id":"bikerack:ea296d66-785d-43d6-bb1b-3d45fcbbdd89","kind":"bikerack","longitude":8.6140886,"latitude":49.7400091,"name":"Fahrradabstellplatz","city":"Zwingenberg","address":null,"covered":true,"access":null,"website":null,"phone":null,"source":"OpenStreetMap/node/3077893231","sourceUpdatedAt":null,"verifiedAt":null}},{"type":"Feature","geometry":{"type":"Point","coordinates":[8.6174872,49.7398694]},"properties":{"id":"bikerack:ff06904d-62d8-45f2-b82d-b20a1fb47432","kind":"bikerack","longitude":8.6174872,"latitude":49.7398694,"name":"Fahrradabstellplatz","city":"Zwingenberg","address":null,"covered":false,"access":null,"website":null,"phone":null,"source":"OpenStreetMap/node/3699068980","sourceUpdatedAt":null,"verifiedAt":null}},{"type":"Feature","geometry":{"type":"Point","coordinates":[8.6196407,49.7285272]},"properties":{"id":"water:04e41748-ef9f-4de8-93ca-28adb9bc8967","kind":"water","longitude":8.6196407,"latitude":49.7285272,"name":"Melibokus start point","city":"Zwingenberg","address":null,"covered":null,"access":null,"website":null,"phone":null,"source":"OpenStreetMap/node/12539352301","sourceUpdatedAt":null,"verifiedAt":null}}]}