{"type":"FeatureCollection","features":[{"type":"Feature","geometry":{"type":"Point","coordinates":[8.6140624,46.9979803]},"properties":{"id":"bikerack:205acd4f-494d-4ec6-aced-a6343de9530e","kind":"bikerack","longitude":8.6140624,"latitude":46.9979803,"name":"Bicycle Parking","city":"Ingenbohl","address":null,"covered":true,"access":null,"website":null,"phone":null,"source":"OpenStreetMap/way/258835623","sourceUpdatedAt":null,"verifiedAt":null}},{"type":"Feature","geometry":{"type":"Point","coordinates":[8.6193747,47.0037378]},"properties":{"id":"service:a5fed9a4-4dab-42aa-aa4e-9e8dd83ee767","kind":"service","longitude":8.6193747,"latitude":47.0037378,"name":"MTB Sport GmbH","city":"Brunnen","address":null,"covered":null,"access":null,"website":null,"phone":null,"source":"OpenStreetMap/node/8520271463","sourceUpdatedAt":null,"verifiedAt":null}},{"type":"Feature","geometry":{"type":"Point","coordinates":[8.6185869,46.9815459]},"properties":{"id":"water:05c783df-99d1-4987-a100-c221bd489613","kind":"water","longitude":8.6185869,"latitude":46.9815459,"name":"Drinking Fountain","city":"Ingenbohl","address":null,"covered":null,"access":null,"website":null,"phone":null,"source":"OpenStreetMap/node/2098533130","sourceUpdatedAt":null,"verifiedAt":null}},{"type":"Feature","geometry":{"type":"Point","coordinates":[8.618534,46.9823202]},"properties":{"id":"water:a556eaeb-b209-4167-89df-3c34040f9042","kind":"water","longitude":8.618534,"latitude":46.9823202,"name":"Drinking Fountain","city":"Ingenbohl","address":null,"covered":null,"access":null,"website":null,"phone":null,"source":"OpenStreetMap/node/12297779002","sourceUpdatedAt":null,"verifiedAt":null}},{"type":"Feature","geometry":{"type":"Point","coordinates":[8.6151455,47.0002374]},"properties":{"id":"water:c1c402be-279a-4a77-a427-fcd906975bb7","kind":"water","longitude":8.6151455,"latitude":47.0002374,"name":"Drinking Fountain","city":"Ingenbohl","address":null,"covered":null,"access":null,"website":null,"phone":null,"source":"OpenStreetMap/node/12469005776","sourceUpdatedAt":null,"verifiedAt":null}},{"type":"Feature","geometry":{"type":"Point","coordinates":[8.6175156,46.9826745]},"properties":{"id":"water:fde7f0f7-c5ae-405e-81d4-5838564b3c37","kind":"water","longitude":8.6175156,"latitude":46.9826745,"name":"Drinking Fountain","city":"Ingenbohl","address":null,"covered":null,"access":null,"website":null,"phone":null,"source":"OpenStreetMap/node/5679738808","sourceUpdatedAt":null,"verifiedAt":null}}]}