{"type":"FeatureCollection","features":[{"type":"Feature","geometry":{"type":"Point","coordinates":[8.6284703,46.8925652]},"properties":{"id":"bikerack:3450a082-b858-4305-b91e-0fd61aef6718","kind":"bikerack","longitude":8.6284703,"latitude":46.8925652,"name":"Bicycle Parking","city":"Flueelen","address":null,"covered":false,"access":null,"website":null,"phone":null,"source":"OpenStreetMap/node/9313116614","sourceUpdatedAt":null,"verifiedAt":null}},{"type":"Feature","geometry":{"type":"Point","coordinates":[8.6223812,46.8953163]},"properties":{"id":"bikerack:69d1661f-da7e-4e7f-b31f-eaf96baf1587","kind":"bikerack","longitude":8.6223812,"latitude":46.8953163,"name":"Bicycle Parking","city":"Flueelen","address":null,"covered":true,"access":null,"website":null,"phone":null,"source":"OpenStreetMap/way/1002414353","sourceUpdatedAt":null,"verifiedAt":null}},{"type":"Feature","geometry":{"type":"Point","coordinates":[8.6241774,46.9014709]},"properties":{"id":"bikerack:c5036531-51d6-48b5-a5cc-9c3cde148f40","kind":"bikerack","longitude":8.6241774,"latitude":46.9014709,"name":"Bicycle Parking","city":"Flueelen","address":null,"covered":false,"access":null,"website":null,"phone":null,"source":"OpenStreetMap/node/10740183344","sourceUpdatedAt":null,"verifiedAt":null}},{"type":"Feature","geometry":{"type":"Point","coordinates":[8.6285225,46.8925148]},"properties":{"id":"bikerack:fc5c9b62-5381-446d-a385-8c1fe48caeb5","kind":"bikerack","longitude":8.6285225,"latitude":46.8925148,"name":"Bicycle Parking","city":"Flueelen","address":null,"covered":true,"access":null,"website":null,"phone":null,"source":"OpenStreetMap/node/9313116615","sourceUpdatedAt":null,"verifiedAt":null}},{"type":"Feature","geometry":{"type":"Point","coordinates":[8.6447667,46.9015672]},"properties":{"id":"repair:cb0b8b7d-6a7a-4dc0-b513-c44fc7474d88","kind":"repair","longitude":8.6447667,"latitude":46.9015672,"name":"Bicycle Repair Station","city":"Altdorf","address":null,"covered":false,"access":null,"website":null,"phone":null,"source":"OpenStreetMap/node/9164436546","sourceUpdatedAt":null,"verifiedAt":null}},{"type":"Feature","geometry":{"type":"Point","coordinates":[8.6177664,46.8985187]},"properties":{"id":"water:5d8947d1-0d23-4c19-96e7-5cffb0939ff0","kind":"water","longitude":8.6177664,"latitude":46.8985187,"name":"Drinking Fountain","city":"Flueelen","address":null,"covered":null,"access":null,"website":null,"phone":null,"source":"OpenStreetMap/node/3611283020","sourceUpdatedAt":null,"verifiedAt":null}},{"type":"Feature","geometry":{"type":"Point","coordinates":[8.6240483,46.9030391]},"properties":{"id":"water:5ffd3e35-01a5-412c-afb3-8eb13eca8ecf","kind":"water","longitude":8.6240483,"latitude":46.9030391,"name":"Drinking Fountain","city":"Flueelen","address":null,"covered":null,"access":null,"website":null,"phone":null,"source":"OpenStreetMap/node/5371168678","sourceUpdatedAt":null,"verifiedAt":null}},{"type":"Feature","geometry":{"type":"Point","coordinates":[8.6304142,46.892308]},"properties":{"id":"water:7d4ba97d-54b8-4ff6-b92d-b5eaf3cfc52a","kind":"water","longitude":8.6304142,"latitude":46.892308,"name":"Drinking Fountain","city":"Flueelen","address":null,"covered":null,"access":null,"website":null,"phone":null,"source":"OpenStreetMap/node/12192762665","sourceUpdatedAt":null,"verifiedAt":null}},{"type":"Feature","geometry":{"type":"Point","coordinates":[8.6232832,46.9104336]},"properties":{"id":"water:82d248fa-fbd0-4e1a-840d-20d31b1618bd","kind":"water","longitude":8.6232832,"latitude":46.9104336,"name":"Drinking Fountain","city":"Flueelen","address":null,"covered":null,"access":null,"website":null,"phone":null,"source":"OpenStreetMap/node/12125530772","sourceUpdatedAt":null,"verifiedAt":null}},{"type":"Feature","geometry":{"type":"Point","coordinates":[8.6256554,46.9016511]},"properties":{"id":"water:922637a3-6f48-4ae9-8c92-b0f80425eaf7","kind":"water","longitude":8.6256554,"latitude":46.9016511,"name":"Drinking Fountain","city":"Flueelen","address":null,"covered":null,"access":null,"website":null,"phone":null,"source":"OpenStreetMap/node/5371134391","sourceUpdatedAt":null,"verifiedAt":null}},{"type":"Feature","geometry":{"type":"Point","coordinates":[8.625375,46.9027745]},"properties":{"id":"water:b265c692-3997-44b5-8d66-715cfcc35649","kind":"water","longitude":8.625375,"latitude":46.9027745,"name":"Drinking Fountain","city":"Flueelen","address":null,"covered":null,"access":null,"website":null,"phone":null,"source":"OpenStreetMap/node/4437410542","sourceUpdatedAt":null,"verifiedAt":null}},{"type":"Feature","geometry":{"type":"Point","coordinates":[8.6237406,46.9168107]},"properties":{"id":"water:c16c933c-309b-4e9e-a7c7-9f9f2e1c74be","kind":"water","longitude":8.6237406,"latitude":46.9168107,"name":"Drinking Fountain","city":"Flueelen","address":null,"covered":null,"access":null,"website":null,"phone":null,"source":"OpenStreetMap/node/8868849082","sourceUpdatedAt":null,"verifiedAt":null}},{"type":"Feature","geometry":{"type":"Point","coordinates":[8.6384337,46.9109956]},"properties":{"id":"water:d03c943b-7536-4a3f-b209-7e7045a349b7","kind":"water","longitude":8.6384337,"latitude":46.9109956,"name":"Drinking Fountain","city":"Flueelen","address":null,"covered":null,"access":null,"website":null,"phone":null,"source":"OpenStreetMap/node/8149378285","sourceUpdatedAt":null,"verifiedAt":null}},{"type":"Feature","geometry":{"type":"Point","coordinates":[8.6252294,46.9036855]},"properties":{"id":"water:e32286f7-90ac-45c8-8371-cab0dccabd34","kind":"water","longitude":8.6252294,"latitude":46.9036855,"name":"Drinking Fountain","city":"Flueelen","address":null,"covered":null,"access":null,"website":null,"phone":null,"source":"OpenStreetMap/node/3611283028","sourceUpdatedAt":null,"verifiedAt":null}}]}