{"type":"FeatureCollection","features":[{"type":"Feature","geometry":{"type":"Point","coordinates":[8.6205224,45.9627831]},"properties":{"id":"water:079bf5f9-4879-4e9d-a97f-ec2535fbe46f","kind":"water","longitude":8.6205224,"latitude":45.9627831,"name":"Fontanella","city":"Ghiffa","address":null,"covered":null,"access":null,"website":null,"phone":null,"source":"OpenStreetMap/node/11623153090","sourceUpdatedAt":null,"verifiedAt":null}},{"type":"Feature","geometry":{"type":"Point","coordinates":[8.6163293,45.9743668]},"properties":{"id":"water:0b2bd414-37de-4275-ad92-27ad1901e115","kind":"water","longitude":8.6163293,"latitude":45.9743668,"name":"Fontanella","city":"Premeno","address":null,"covered":null,"access":null,"website":null,"phone":null,"source":"OpenStreetMap/node/10080050513","sourceUpdatedAt":null,"verifiedAt":null}},{"type":"Feature","geometry":{"type":"Point","coordinates":[8.614244,45.9770529]},"properties":{"id":"water:116748bc-7a18-457c-b0d5-f690b87d3995","kind":"water","longitude":8.614244,"latitude":45.9770529,"name":"Fontanella","city":"Premeno","address":null,"covered":null,"access":null,"website":null,"phone":null,"source":"OpenStreetMap/node/845089570","sourceUpdatedAt":null,"verifiedAt":null}},{"type":"Feature","geometry":{"type":"Point","coordinates":[8.6147167,45.9763924]},"properties":{"id":"water:287c6bb8-2ef0-44b1-982c-02123456ff38","kind":"water","longitude":8.6147167,"latitude":45.9763924,"name":"Fontanella","city":"Premeno","address":null,"covered":null,"access":null,"website":null,"phone":null,"source":"OpenStreetMap/node/1460058373","sourceUpdatedAt":null,"verifiedAt":null}},{"type":"Feature","geometry":{"type":"Point","coordinates":[8.6156103,45.9753436]},"properties":{"id":"water:2c98ca22-d39a-4084-8a13-13abece6513d","kind":"water","longitude":8.6156103,"latitude":45.9753436,"name":"Fontanella","city":"Premeno","address":null,"covered":null,"access":null,"website":null,"phone":null,"source":"OpenStreetMap/node/10079979104","sourceUpdatedAt":null,"verifiedAt":null}},{"type":"Feature","geometry":{"type":"Point","coordinates":[8.6191576,45.9582616]},"properties":{"id":"water:34c935ac-ebd7-4e50-80eb-ee5fb0823c1d","kind":"water","longitude":8.6191576,"latitude":45.9582616,"name":"Fontanella","city":"Ghiffa","address":null,"covered":null,"access":null,"website":null,"phone":null,"source":"OpenStreetMap/node/536783511","sourceUpdatedAt":null,"verifiedAt":null}},{"type":"Feature","geometry":{"type":"Point","coordinates":[8.6154935,45.9620134]},"properties":{"id":"water:384b7d5b-8fc4-4ab9-8e2c-aff714cf239d","kind":"water","longitude":8.6154935,"latitude":45.9620134,"name":"Fontanella","city":"Ghiffa","address":null,"covered":null,"access":null,"website":null,"phone":null,"source":"OpenStreetMap/node/618395711","sourceUpdatedAt":null,"verifiedAt":null}},{"type":"Feature","geometry":{"type":"Point","coordinates":[8.6174766,45.9565153]},"properties":{"id":"water:3dadea30-f507-4105-814d-7daf6c776176","kind":"water","longitude":8.6174766,"latitude":45.9565153,"name":"Fontanella","city":"Ghiffa","address":null,"covered":null,"access":null,"website":null,"phone":null,"source":"OpenStreetMap/node/560849458","sourceUpdatedAt":null,"verifiedAt":null}},{"type":"Feature","geometry":{"type":"Point","coordinates":[8.6212532,45.9601347]},"properties":{"id":"water:4ac7d2a8-36c6-4ec1-b3cd-c55d16c815b7","kind":"water","longitude":8.6212532,"latitude":45.9601347,"name":"Fontanella","city":"Ghiffa","address":null,"covered":null,"access":null,"website":null,"phone":null,"source":"OpenStreetMap/node/535505120","sourceUpdatedAt":null,"verifiedAt":null}},{"type":"Feature","geometry":{"type":"Point","coordinates":[8.6153403,45.9570257]},"properties":{"id":"water:4e651ad3-1b66-472f-94f1-62632cceff38","kind":"water","longitude":8.6153403,"latitude":45.9570257,"name":"Fontanella","city":"Ghiffa","address":null,"covered":null,"access":null,"website":null,"phone":null,"source":"OpenStreetMap/node/619395351","sourceUpdatedAt":null,"verifiedAt":null}},{"type":"Feature","geometry":{"type":"Point","coordinates":[8.6197171,45.9579868]},"properties":{"id":"water:551ebc27-0b69-45c9-9941-1c482d9d8ab9","kind":"water","longitude":8.6197171,"latitude":45.9579868,"name":"Fontanella","city":"Ghiffa","address":null,"covered":null,"access":null,"website":null,"phone":null,"source":"OpenStreetMap/node/536783541","sourceUpdatedAt":null,"verifiedAt":null}},{"type":"Feature","geometry":{"type":"Point","coordinates":[8.6198064,45.9580473]},"properties":{"id":"water:767e3dce-0cd3-419b-aa2e-1500723544c1","kind":"water","longitude":8.6198064,"latitude":45.9580473,"name":"Fontanella","city":"Ghiffa","address":null,"covered":null,"access":null,"website":null,"phone":null,"source":"OpenStreetMap/node/560849652","sourceUpdatedAt":null,"verifiedAt":null}},{"type":"Feature","geometry":{"type":"Point","coordinates":[8.6137038,45.9763571]},"properties":{"id":"water:77a8e688-b655-4c19-8187-3ad62a8b0f12","kind":"water","longitude":8.6137038,"latitude":45.9763571,"name":"Fontanella","city":"Premeno","address":null,"covered":null,"access":null,"website":null,"phone":null,"source":"OpenStreetMap/node/8882646434","sourceUpdatedAt":null,"verifiedAt":null}},{"type":"Feature","geometry":{"type":"Point","coordinates":[8.61808,45.9599704]},"properties":{"id":"water:93d90c6d-c668-456d-b3b2-1335c6d979b9","kind":"water","longitude":8.61808,"latitude":45.9599704,"name":"Fontanella","city":"Ghiffa","address":null,"covered":null,"access":null,"website":null,"phone":null,"source":"OpenStreetMap/node/514578376","sourceUpdatedAt":null,"verifiedAt":null}},{"type":"Feature","geometry":{"type":"Point","coordinates":[8.6178842,45.9569307]},"properties":{"id":"water:a6920d5b-ab8d-4e91-bc14-3e3a60a85495","kind":"water","longitude":8.6178842,"latitude":45.9569307,"name":"Fontanella","city":"Ghiffa","address":null,"covered":null,"access":null,"website":null,"phone":null,"source":"OpenStreetMap/node/560849503","sourceUpdatedAt":null,"verifiedAt":null}},{"type":"Feature","geometry":{"type":"Point","coordinates":[8.6140805,45.9545976]},"properties":{"id":"water:b134d17d-04fb-4bac-9436-5db34898d0e5","kind":"water","longitude":8.6140805,"latitude":45.9545976,"name":"Fontanella","city":"Ghiffa","address":null,"covered":null,"access":null,"website":null,"phone":null,"source":"OpenStreetMap/node/619395349","sourceUpdatedAt":null,"verifiedAt":null}},{"type":"Feature","geometry":{"type":"Point","coordinates":[8.6192074,45.961376]},"properties":{"id":"water:b67a3f81-03a5-4317-b602-4ae1b1e84256","kind":"water","longitude":8.6192074,"latitude":45.961376,"name":"Fontanella","city":"Ghiffa","address":null,"covered":null,"access":null,"website":null,"phone":null,"source":"OpenStreetMap/node/620936275","sourceUpdatedAt":null,"verifiedAt":null}},{"type":"Feature","geometry":{"type":"Point","coordinates":[8.6143468,45.9613419]},"properties":{"id":"water:cbdd9ccf-1032-4637-ae58-a1f24e158917","kind":"water","longitude":8.6143468,"latitude":45.9613419,"name":"Fontanella","city":"Ghiffa","address":null,"covered":null,"access":null,"website":null,"phone":null,"source":"OpenStreetMap/node/6256511553","sourceUpdatedAt":null,"verifiedAt":null}},{"type":"Feature","geometry":{"type":"Point","coordinates":[8.6156145,45.9753403]},"properties":{"id":"water:d9cbd5e5-b88c-46c0-b0d4-4e6b974649cd","kind":"water","longitude":8.6156145,"latitude":45.9753403,"name":"Fontanella","city":"Premeno","address":null,"covered":null,"access":null,"website":null,"phone":null,"source":"OpenStreetMap/node/9850005739","sourceUpdatedAt":null,"verifiedAt":null}},{"type":"Feature","geometry":{"type":"Point","coordinates":[8.6144177,45.961273]},"properties":{"id":"water:f61aacee-256e-462f-a7a5-78f6cfd07b93","kind":"water","longitude":8.6144177,"latitude":45.961273,"name":"Fontanella","city":"Ghiffa","address":null,"covered":null,"access":null,"website":null,"phone":null,"source":"OpenStreetMap/node/513565231","sourceUpdatedAt":null,"verifiedAt":null}}]}