{"type":"FeatureCollection","features":[{"type":"Feature","geometry":{"type":"Point","coordinates":[12.6401709,54.4446378]},"properties":{"id":"bikerack:74f19a24-0abb-4d95-bbb5-718eb99c952b","kind":"bikerack","longitude":12.6401709,"latitude":54.4446378,"name":"Fahrradabstellplatz","city":"Zingst","address":null,"covered":false,"access":null,"website":null,"phone":null,"source":"OpenStreetMap/way/1458135108","sourceUpdatedAt":null,"verifiedAt":null}},{"type":"Feature","geometry":{"type":"Point","coordinates":[12.6399847,54.4449545]},"properties":{"id":"bikerack:fa2b1639-697d-4804-9572-d521767d010a","kind":"bikerack","longitude":12.6399847,"latitude":54.4449545,"name":"Fahrradabstellplatz","city":"Zingst","address":null,"covered":false,"access":null,"website":null,"phone":null,"source":"OpenStreetMap/node/413603794","sourceUpdatedAt":null,"verifiedAt":null}}]}