{"type":"FeatureCollection","features":[{"type":"Feature","geometry":{"type":"Point","coordinates":[12.616455,46.7105712]},"properties":{"id":"water:5cfb75a5-d372-40c6-9b12-72547f56d2ee","kind":"water","longitude":12.616455,"latitude":46.7105712,"name":"Ivókút","city":"Obertilliach","address":null,"covered":null,"access":null,"website":null,"phone":null,"source":"OpenStreetMap/node/4373662410","sourceUpdatedAt":null,"verifiedAt":null}},{"type":"Feature","geometry":{"type":"Point","coordinates":[12.6417652,46.7365003]},"properties":{"id":"water:9f15ad71-aef6-42ef-b5ad-3cf6b8a58984","kind":"water","longitude":12.6417652,"latitude":46.7365003,"name":"Ivókút","city":"Obertilliach","address":null,"covered":null,"access":null,"website":null,"phone":null,"source":"OpenStreetMap/node/12142889833","sourceUpdatedAt":null,"verifiedAt":null}}]}