{"type":"FeatureCollection","features":[{"type":"Feature","geometry":{"type":"Point","coordinates":[14.0147151,48.4289814]},"properties":{"id":"bikerack:fe3d7e08-3480-41f1-90c9-79bdde8094e0","kind":"bikerack","longitude":14.0147151,"latitude":48.4289814,"name":"Biciklitároló","city":"Kleinzell im Muehlkreis","address":null,"covered":false,"access":null,"website":null,"phone":null,"source":"OpenStreetMap/node/12864846031","sourceUpdatedAt":null,"verifiedAt":null}},{"type":"Feature","geometry":{"type":"Point","coordinates":[13.9747845,48.4286482]},"properties":{"id":"water:9177f6ff-bbff-4717-aaa3-1d54400a6385","kind":"water","longitude":13.9747845,"latitude":48.4286482,"name":"Ivókút","city":"Kleinzell im Muehlkreis","address":null,"covered":null,"access":null,"website":null,"phone":null,"source":"OpenStreetMap/node/11745888416","sourceUpdatedAt":null,"verifiedAt":null}}]}