{"type":"FeatureCollection","features":[{"type":"Feature","geometry":{"type":"Point","coordinates":[14.0166572,48.1514145]},"properties":{"id":"bikerack:04864a2f-9506-48eb-9762-9e475afa59b0","kind":"bikerack","longitude":14.0166572,"latitude":48.1514145,"name":"Biciklitároló","city":"Thalheim bei Wels","address":null,"covered":true,"access":null,"website":null,"phone":null,"source":"OpenStreetMap/node/6815627813","sourceUpdatedAt":null,"verifiedAt":null}},{"type":"Feature","geometry":{"type":"Point","coordinates":[14.0176975,48.1565715]},"properties":{"id":"bikerack:25679bfa-64a0-4039-bc19-cde8966b1aeb","kind":"bikerack","longitude":14.0176975,"latitude":48.1565715,"name":"Biciklitároló","city":"Thalheim bei Wels","address":null,"covered":true,"access":null,"website":null,"phone":null,"source":"OpenStreetMap/node/13076010210","sourceUpdatedAt":null,"verifiedAt":null}},{"type":"Feature","geometry":{"type":"Point","coordinates":[13.9819299,48.158345]},"properties":{"id":"bikerack:2f69a93d-c1d2-42ea-86a6-a9ec69f63cb0","kind":"bikerack","longitude":13.9819299,"latitude":48.158345,"name":"Biciklitároló","city":"Gunskirchen","address":null,"covered":false,"access":null,"website":null,"phone":null,"source":"OpenStreetMap/way/462793728","sourceUpdatedAt":null,"verifiedAt":null}},{"type":"Feature","geometry":{"type":"Point","coordinates":[14.0020885,48.156721]},"properties":{"id":"bikerack:408b0dd6-d379-4558-af92-7b86a3c37535","kind":"bikerack","longitude":14.0020885,"latitude":48.156721,"name":"Biciklitároló","city":"Thalheim bei Wels","address":null,"covered":false,"access":null,"website":null,"phone":null,"source":"OpenStreetMap/node/12860751472","sourceUpdatedAt":null,"verifiedAt":null}},{"type":"Feature","geometry":{"type":"Point","coordinates":[14.0175406,48.1517672]},"properties":{"id":"bikerack:4ba88386-3835-4262-a784-f1859205ecc9","kind":"bikerack","longitude":14.0175406,"latitude":48.1517672,"name":"Biciklitároló","city":"Thalheim bei Wels","address":null,"covered":false,"access":null,"website":null,"phone":null,"source":"OpenStreetMap/node/12596097293","sourceUpdatedAt":null,"verifiedAt":null}},{"type":"Feature","geometry":{"type":"Point","coordinates":[14.0168415,48.1499225]},"properties":{"id":"bikerack:6187621b-b1ea-4c73-acdc-ad73cae2ce42","kind":"bikerack","longitude":14.0168415,"latitude":48.1499225,"name":"Biciklitároló","city":"Thalheim bei Wels","address":null,"covered":false,"access":null,"website":null,"phone":null,"source":"OpenStreetMap/node/12915410809","sourceUpdatedAt":null,"verifiedAt":null}},{"type":"Feature","geometry":{"type":"Point","coordinates":[14.0170096,48.1497354]},"properties":{"id":"bikerack:6fecc482-793b-43dc-a60d-a40873a34787","kind":"bikerack","longitude":14.0170096,"latitude":48.1497354,"name":"Biciklitároló","city":"Thalheim bei Wels","address":null,"covered":true,"access":null,"website":null,"phone":null,"source":"OpenStreetMap/node/6815627814","sourceUpdatedAt":null,"verifiedAt":null}},{"type":"Feature","geometry":{"type":"Point","coordinates":[14.017107,48.1517034]},"properties":{"id":"bikerack:80c0cde1-3dd4-48c6-acf9-d998df9e285d","kind":"bikerack","longitude":14.017107,"latitude":48.1517034,"name":"Biciklitároló","city":"Thalheim bei Wels","address":null,"covered":false,"access":null,"website":null,"phone":null,"source":"OpenStreetMap/node/6815627812","sourceUpdatedAt":null,"verifiedAt":null}},{"type":"Feature","geometry":{"type":"Point","coordinates":[14.0181408,48.1528208]},"properties":{"id":"bikerack:92afec83-4e5a-4c31-8c78-f32e473caec2","kind":"bikerack","longitude":14.0181408,"latitude":48.1528208,"name":"Biciklitároló","city":"Thalheim bei Wels","address":null,"covered":false,"access":null,"website":null,"phone":null,"source":"OpenStreetMap/node/9063624649","sourceUpdatedAt":null,"verifiedAt":null}},{"type":"Feature","geometry":{"type":"Point","coordinates":[14.0173501,48.1544076]},"properties":{"id":"bikerack:9e7ec807-5cde-49a7-96bb-afb9f3f43dff","kind":"bikerack","longitude":14.0173501,"latitude":48.1544076,"name":"Biciklitároló","city":"Thalheim bei Wels","address":null,"covered":false,"access":null,"website":null,"phone":null,"source":"OpenStreetMap/node/12899387647","sourceUpdatedAt":null,"verifiedAt":null}},{"type":"Feature","geometry":{"type":"Point","coordinates":[14.0174766,48.1545025]},"properties":{"id":"bikerack:a7c4aebf-8b85-41ce-885c-d9f0e4fcc7e3","kind":"bikerack","longitude":14.0174766,"latitude":48.1545025,"name":"Biciklitároló","city":"Thalheim bei Wels","address":null,"covered":false,"access":null,"website":null,"phone":null,"source":"OpenStreetMap/node/12899397844","sourceUpdatedAt":null,"verifiedAt":null}},{"type":"Feature","geometry":{"type":"Point","coordinates":[14.0178699,48.153926]},"properties":{"id":"bikerack:a88400e1-b351-4591-ba1b-6bf351e4d816","kind":"bikerack","longitude":14.0178699,"latitude":48.153926,"name":"Biciklitároló","city":"Thalheim bei Wels","address":null,"covered":false,"access":null,"website":null,"phone":null,"source":"OpenStreetMap/node/12899382574","sourceUpdatedAt":null,"verifiedAt":null}},{"type":"Feature","geometry":{"type":"Point","coordinates":[14.0079132,48.155685]},"properties":{"id":"bikerack:c0871bf8-3e32-42e9-9de2-19b484ea864b","kind":"bikerack","longitude":14.0079132,"latitude":48.155685,"name":"Biciklitároló","city":"Thalheim bei Wels","address":null,"covered":true,"access":null,"website":null,"phone":null,"source":"OpenStreetMap/way/1178437825","sourceUpdatedAt":null,"verifiedAt":null}},{"type":"Feature","geometry":{"type":"Point","coordinates":[14.0170694,48.154443]},"properties":{"id":"bikerack:dd57ee0f-872f-4e6a-9499-a46ac7990a94","kind":"bikerack","longitude":14.0170694,"latitude":48.154443,"name":"Biciklitároló","city":"Thalheim bei Wels","address":null,"covered":true,"access":null,"website":null,"phone":null,"source":"OpenStreetMap/node/12899397090","sourceUpdatedAt":null,"verifiedAt":null}},{"type":"Feature","geometry":{"type":"Point","coordinates":[13.9901204,48.1635553]},"properties":{"id":"bikerack:e092e268-1f10-4e2a-afa6-e726cfe519dc","kind":"bikerack","longitude":13.9901204,"latitude":48.1635553,"name":"Biciklitároló","city":"Wels","address":null,"covered":true,"access":null,"website":null,"phone":null,"source":"OpenStreetMap/node/13241133388","sourceUpdatedAt":null,"verifiedAt":null}},{"type":"Feature","geometry":{"type":"Point","coordinates":[14.012566,48.1479828]},"properties":{"id":"repair:c285082c-f809-416b-bb90-5fc41a96b885","kind":"repair","longitude":14.012566,"latitude":48.1479828,"name":"Kerékpár szervizállomás","city":"Thalheim bei Wels","address":null,"covered":false,"access":null,"website":null,"phone":null,"source":"OpenStreetMap/node/12218271134","sourceUpdatedAt":null,"verifiedAt":null}},{"type":"Feature","geometry":{"type":"Point","coordinates":[14.0073048,48.1539641]},"properties":{"id":"service:1409272f-bd88-4038-be07-17f5e19cc45b","kind":"service","longitude":14.0073048,"latitude":48.1539641,"name":"Multicycle Wels","city":"Wels","address":null,"covered":null,"access":null,"website":null,"phone":null,"source":"OpenStreetMap/node/13265778475","sourceUpdatedAt":null,"verifiedAt":null}},{"type":"Feature","geometry":{"type":"Point","coordinates":[13.9959425,48.1596947]},"properties":{"id":"water:135e42be-e528-4e89-aaf4-03aa4745172b","kind":"water","longitude":13.9959425,"latitude":48.1596947,"name":"Ivókút","city":"Wels","address":null,"covered":null,"access":null,"website":null,"phone":null,"source":"OpenStreetMap/node/12877653359","sourceUpdatedAt":null,"verifiedAt":null}},{"type":"Feature","geometry":{"type":"Point","coordinates":[13.9909151,48.1605758]},"properties":{"id":"water:45691b79-d9bf-4276-a751-dd148155a5e5","kind":"water","longitude":13.9909151,"latitude":48.1605758,"name":"Ivókút","city":"Wels","address":null,"covered":null,"access":null,"website":null,"phone":null,"source":"OpenStreetMap/node/13240200845","sourceUpdatedAt":null,"verifiedAt":null}},{"type":"Feature","geometry":{"type":"Point","coordinates":[13.9895774,48.1444492]},"properties":{"id":"water:6689838e-dc12-4778-ad83-b8ee63b7c280","kind":"water","longitude":13.9895774,"latitude":48.1444492,"name":"Ivókút","city":"Steinhaus","address":null,"covered":null,"access":null,"website":null,"phone":null,"source":"OpenStreetMap/node/9900123197","sourceUpdatedAt":null,"verifiedAt":null}},{"type":"Feature","geometry":{"type":"Point","coordinates":[14.0136623,48.1481506]},"properties":{"id":"water:7e4c8ad9-d902-4646-a36e-3467e6c9c3c8","kind":"water","longitude":14.0136623,"latitude":48.1481506,"name":"Ivókút","city":"Thalheim bei Wels","address":null,"covered":null,"access":null,"website":null,"phone":null,"source":"OpenStreetMap/node/12218271020","sourceUpdatedAt":null,"verifiedAt":null}},{"type":"Feature","geometry":{"type":"Point","coordinates":[14.0126176,48.1480397]},"properties":{"id":"water:8042d49e-bbe5-4bb1-af1e-b4262c2bf104","kind":"water","longitude":14.0126176,"latitude":48.1480397,"name":"Ivókút","city":"Thalheim bei Wels","address":null,"covered":null,"access":null,"website":null,"phone":null,"source":"OpenStreetMap/node/12218271019","sourceUpdatedAt":null,"verifiedAt":null}},{"type":"Feature","geometry":{"type":"Point","coordinates":[14.0000759,48.1522031]},"properties":{"id":"water:838a0ab5-e894-4fea-83ce-2d9beae7e3ae","kind":"water","longitude":14.0000759,"latitude":48.1522031,"name":"Ivókút","city":"Thalheim bei Wels","address":null,"covered":null,"access":null,"website":null,"phone":null,"source":"OpenStreetMap/node/11983060634","sourceUpdatedAt":null,"verifiedAt":null}},{"type":"Feature","geometry":{"type":"Point","coordinates":[14.018101,48.1531752]},"properties":{"id":"water:838b5a57-6ea3-4240-bf67-c65b1251d79a","kind":"water","longitude":14.018101,"latitude":48.1531752,"name":"Ivókút","city":"Thalheim bei Wels","address":null,"covered":null,"access":null,"website":null,"phone":null,"source":"OpenStreetMap/node/12847079538","sourceUpdatedAt":null,"verifiedAt":null}}]}