{"type":"FeatureCollection","features":[{"type":"Feature","geometry":{"type":"Point","coordinates":[10.6702415,52.5606275]},"properties":{"id":"bikerack:10d6c47d-985d-43f1-a58c-af4f8dc32db8","kind":"bikerack","longitude":10.6702415,"latitude":52.5606275,"name":"Fahrradabstellplatz","city":"Sassenburg","address":null,"covered":false,"access":null,"website":null,"phone":null,"source":"OpenStreetMap/node/1792951926","sourceUpdatedAt":null,"verifiedAt":null}},{"type":"Feature","geometry":{"type":"Point","coordinates":[10.6746512,52.5560544]},"properties":{"id":"bikerack:3a48a3d4-6967-4b06-ad95-e56d4fdfeaa2","kind":"bikerack","longitude":10.6746512,"latitude":52.5560544,"name":"Bürgerhaus","city":"Sassenburg","address":null,"covered":false,"access":null,"website":null,"phone":null,"source":"OpenStreetMap/node/3984806357","sourceUpdatedAt":null,"verifiedAt":null}},{"type":"Feature","geometry":{"type":"Point","coordinates":[10.6702963,52.5604903]},"properties":{"id":"bikerack:42df24f7-4e56-4ff2-a974-260f81f478e4","kind":"bikerack","longitude":10.6702963,"latitude":52.5604903,"name":"Fahrradabstellplatz","city":"Sassenburg","address":null,"covered":false,"access":null,"website":null,"phone":null,"source":"OpenStreetMap/node/4770952150","sourceUpdatedAt":null,"verifiedAt":null}},{"type":"Feature","geometry":{"type":"Point","coordinates":[10.6736195,52.5552715]},"properties":{"id":"bikerack:50c81048-6f20-4920-98a4-e50ba0b894d7","kind":"bikerack","longitude":10.6736195,"latitude":52.5552715,"name":"Friedhof der ev. luth. Kirchengemeinde Stüde","city":"Sassenburg","address":null,"covered":false,"access":null,"website":null,"phone":null,"source":"OpenStreetMap/node/2347698617","sourceUpdatedAt":null,"verifiedAt":null}},{"type":"Feature","geometry":{"type":"Point","coordinates":[10.6699689,52.560779]},"properties":{"id":"bikerack:5778533f-2902-4651-a677-9c3e9ef05a96","kind":"bikerack","longitude":10.6699689,"latitude":52.560779,"name":"Fahrradabstellplatz","city":"Sassenburg","address":null,"covered":false,"access":null,"website":null,"phone":null,"source":"OpenStreetMap/node/1792951998","sourceUpdatedAt":null,"verifiedAt":null}},{"type":"Feature","geometry":{"type":"Point","coordinates":[10.6542636,52.5568958]},"properties":{"id":"bikerack:8b2b6908-3579-46ab-8964-1ad1a7ed3bd0","kind":"bikerack","longitude":10.6542636,"latitude":52.5568958,"name":"Fahrradabstellplatz","city":"Sassenburg","address":null,"covered":false,"access":null,"website":null,"phone":null,"source":"OpenStreetMap/node/1884068577","sourceUpdatedAt":null,"verifiedAt":null}},{"type":"Feature","geometry":{"type":"Point","coordinates":[10.6702409,52.5609579]},"properties":{"id":"bikerack:a5f87e90-2c93-456a-b75d-6d9701fda51a","kind":"bikerack","longitude":10.6702409,"latitude":52.5609579,"name":"Fahrradabstellplatz","city":"Sassenburg","address":null,"covered":false,"access":null,"website":null,"phone":null,"source":"OpenStreetMap/node/3365896607","sourceUpdatedAt":null,"verifiedAt":null}}]}