{"type":"FeatureCollection","features":[{"type":"Feature","geometry":{"type":"Point","coordinates":[10.660705,50.1969]},"properties":{"id":"bikerack:70673ef8-aa69-4707-a4db-63559aa2000f","kind":"bikerack","longitude":10.660705,"latitude":50.1969,"name":"Fahrradabstellplatz","city":"Maroldsweisach","address":null,"covered":false,"access":null,"website":null,"phone":null,"source":"OpenStreetMap/node/13293960209","sourceUpdatedAt":null,"verifiedAt":null}},{"type":"Feature","geometry":{"type":"Point","coordinates":[10.6597085,50.1953044]},"properties":{"id":"bikerack:bd36470e-de4d-412c-ae61-9ca6c0ce7c5e","kind":"bikerack","longitude":10.6597085,"latitude":50.1953044,"name":"Fahrradabstellplatz","city":"Maroldsweisach","address":null,"covered":false,"access":null,"website":null,"phone":null,"source":"OpenStreetMap/node/13293926958","sourceUpdatedAt":null,"verifiedAt":null}}]}