{"type":"FeatureCollection","features":[{"type":"Feature","geometry":{"type":"Point","coordinates":[10.6705283,49.9825702]},"properties":{"id":"bikerack:7706f18c-26dc-49a8-9633-78721205af2b","kind":"bikerack","longitude":10.6705283,"latitude":49.9825702,"name":"Fahrradabstellplatz","city":"Ebelsbach","address":null,"covered":true,"access":null,"website":null,"phone":null,"source":"OpenStreetMap/way/448483110","sourceUpdatedAt":null,"verifiedAt":null}},{"type":"Feature","geometry":{"type":"Point","coordinates":[10.645861,49.9919103]},"properties":{"id":"bikerack:80f7feb0-67f8-47c6-a9ff-aa7317eb7840","kind":"bikerack","longitude":10.645861,"latitude":49.9919103,"name":"Fahrradabstellplatz","city":"Ebelsbach","address":null,"covered":false,"access":null,"website":null,"phone":null,"source":"OpenStreetMap/node/4788455896","sourceUpdatedAt":null,"verifiedAt":null}},{"type":"Feature","geometry":{"type":"Point","coordinates":[10.6362368,49.9815541]},"properties":{"id":"water:1f324c14-4fc5-4533-9f58-df1d01f2cc41","kind":"water","longitude":10.6362368,"latitude":49.9815541,"name":"Trinkwasser-Tankstelle","city":"Eltmann","address":null,"covered":null,"access":null,"website":null,"phone":null,"source":"OpenStreetMap/node/5528649734","sourceUpdatedAt":null,"verifiedAt":null}}]}