{"type":"FeatureCollection","features":[{"type":"Feature","geometry":{"type":"Point","coordinates":[10.6420748,48.255597]},"properties":{"id":"service:7e8cfeb0-35f8-4f14-b608-6f8af40d72aa","kind":"service","longitude":10.6420748,"latitude":48.255597,"name":"Bikeschmiede","city":"Fischach","address":null,"covered":null,"access":null,"website":null,"phone":null,"source":"OpenStreetMap/node/674368426","sourceUpdatedAt":null,"verifiedAt":null}},{"type":"Feature","geometry":{"type":"Point","coordinates":[10.6481714,48.2669153]},"properties":{"id":"water:8356d7b8-8326-4453-a613-145235254ea3","kind":"water","longitude":10.6481714,"latitude":48.2669153,"name":"Trinkwasser","city":"Mickhausen","address":null,"covered":null,"access":null,"website":null,"phone":null,"source":"OpenStreetMap/node/9776755563","sourceUpdatedAt":null,"verifiedAt":null}}]}