{"type":"FeatureCollection","features":[{"type":"Feature","geometry":{"type":"Point","coordinates":[10.6761373,47.8418042]},"properties":{"id":"bikerack:021373df-62e5-4292-9262-818680373012","kind":"bikerack","longitude":10.6761373,"latitude":47.8418042,"name":"Fahrradabstellplatz","city":"Mauerstetten","address":null,"covered":false,"access":null,"website":null,"phone":null,"source":"OpenStreetMap/node/5018764598","sourceUpdatedAt":null,"verifiedAt":null}},{"type":"Feature","geometry":{"type":"Point","coordinates":[10.6409057,47.8301458]},"properties":{"id":"bikerack:a01de5a4-294d-4878-b716-408b0bfa5b79","kind":"bikerack","longitude":10.6409057,"latitude":47.8301458,"name":"Fahrradabstellplatz","city":"Biessenhofen","address":null,"covered":true,"access":null,"website":null,"phone":null,"source":"OpenStreetMap/way/1205854457","sourceUpdatedAt":null,"verifiedAt":null}}]}