{"type":"FeatureCollection","features":[{"type":"Feature","geometry":{"type":"Point","coordinates":[10.6715604,47.6085453]},"properties":{"id":"bikerack:327126d7-d39e-4ba9-9a72-e0ec6fd4dd6b","kind":"bikerack","longitude":10.6715604,"latitude":47.6085453,"name":"Fahrradabstellplatz","city":"Hopferau","address":null,"covered":false,"access":null,"website":null,"phone":null,"source":"OpenStreetMap/node/12806058151","sourceUpdatedAt":null,"verifiedAt":null}},{"type":"Feature","geometry":{"type":"Point","coordinates":[10.66963,47.60828]},"properties":{"id":"bikerack:5382765c-6df2-4b50-ada4-c30e97ba88b0","kind":"bikerack","longitude":10.66963,"latitude":47.60828,"name":"Fahrradabstellplatz","city":"Hopferau","address":null,"covered":false,"access":null,"website":null,"phone":null,"source":"OpenStreetMap/node/12800785954","sourceUpdatedAt":null,"verifiedAt":null}},{"type":"Feature","geometry":{"type":"Point","coordinates":[10.6715101,47.6085545]},"properties":{"id":"bikerack:6580b434-1aa4-4ac3-95ba-75d536c28440","kind":"bikerack","longitude":10.6715101,"latitude":47.6085545,"name":"Fahrradabstellplatz","city":"Hopferau","address":null,"covered":false,"access":null,"website":null,"phone":null,"source":"OpenStreetMap/node/12800760472","sourceUpdatedAt":null,"verifiedAt":null}},{"type":"Feature","geometry":{"type":"Point","coordinates":[10.6785672,47.6077305]},"properties":{"id":"repair:b90c7932-a787-4edd-b7fb-66593da75d92","kind":"repair","longitude":10.6785672,"latitude":47.6077305,"name":"Fahrradreparaturstation","city":"Fuessen","address":null,"covered":false,"access":null,"website":null,"phone":null,"source":"OpenStreetMap/node/9988261458","sourceUpdatedAt":null,"verifiedAt":null}},{"type":"Feature","geometry":{"type":"Point","coordinates":[10.6434204,47.6065178]},"properties":{"id":"water:bae6f463-316f-4fee-a6da-87bf04c500d1","kind":"water","longitude":10.6434204,"latitude":47.6065178,"name":"Trinkwasser","city":"Hopferau","address":null,"covered":null,"access":null,"website":null,"phone":null,"source":"OpenStreetMap/node/8869353558","sourceUpdatedAt":null,"verifiedAt":null}}]}