{"type":"FeatureCollection","features":[{"type":"Feature","geometry":{"type":"Point","coordinates":[10.6634794,47.0768259]},"properties":{"id":"bikerack:49bb46ec-eb83-4b21-a333-b53df7b51db2","kind":"bikerack","longitude":10.6634794,"latitude":47.0768259,"name":"Biciklitároló","city":"Prutz","address":null,"covered":false,"access":null,"website":null,"phone":null,"source":"OpenStreetMap/way/1425818375","sourceUpdatedAt":null,"verifiedAt":null}},{"type":"Feature","geometry":{"type":"Point","coordinates":[10.6637917,47.0767179]},"properties":{"id":"bikerack:5cf899e3-ddbd-49d2-b83f-2fee3ea4d0d2","kind":"bikerack","longitude":10.6637917,"latitude":47.0767179,"name":"Biciklitároló","city":"Prutz","address":null,"covered":false,"access":null,"website":null,"phone":null,"source":"OpenStreetMap/way/1425818376","sourceUpdatedAt":null,"verifiedAt":null}},{"type":"Feature","geometry":{"type":"Point","coordinates":[10.6603168,47.0774604]},"properties":{"id":"bikerack:7f44d2ee-02f5-4380-b632-185be8e9bf44","kind":"bikerack","longitude":10.6603168,"latitude":47.0774604,"name":"Biciklitároló","city":"Prutz","address":null,"covered":true,"access":null,"website":null,"phone":null,"source":"OpenStreetMap/node/4542188094","sourceUpdatedAt":null,"verifiedAt":null}},{"type":"Feature","geometry":{"type":"Point","coordinates":[10.659571,47.0782271]},"properties":{"id":"bikerack:c554bda5-717a-428b-a98a-a21c142fda83","kind":"bikerack","longitude":10.659571,"latitude":47.0782271,"name":"Biciklitároló","city":"Prutz","address":null,"covered":false,"access":null,"website":null,"phone":null,"source":"OpenStreetMap/node/13075921256","sourceUpdatedAt":null,"verifiedAt":null}},{"type":"Feature","geometry":{"type":"Point","coordinates":[10.6637975,47.076644]},"properties":{"id":"bikerack:d1ab96c4-950e-42b2-a49e-8dec86a6afec","kind":"bikerack","longitude":10.6637975,"latitude":47.076644,"name":"Biciklitároló","city":"Prutz","address":null,"covered":false,"access":null,"website":null,"phone":null,"source":"OpenStreetMap/way/1425818377","sourceUpdatedAt":null,"verifiedAt":null}},{"type":"Feature","geometry":{"type":"Point","coordinates":[10.6590175,47.07923]},"properties":{"id":"repair:9b479ed9-198b-47c4-bd20-ec03ad7772ec","kind":"repair","longitude":10.6590175,"latitude":47.07923,"name":"Kerékpár szervizállomás","city":"Prutz","address":null,"covered":false,"access":null,"website":null,"phone":null,"source":"OpenStreetMap/node/12905849744","sourceUpdatedAt":null,"verifiedAt":null}},{"type":"Feature","geometry":{"type":"Point","coordinates":[10.66425,47.0755713]},"properties":{"id":"service:e3e4f909-27ed-432b-9278-c7da807660e1","kind":"service","longitude":10.66425,"latitude":47.0755713,"name":"Intersport Pregenzer","city":"Prutz","address":null,"covered":null,"access":null,"website":null,"phone":null,"source":"OpenStreetMap/node/8179007933","sourceUpdatedAt":null,"verifiedAt":null}},{"type":"Feature","geometry":{"type":"Point","coordinates":[10.6415648,47.075656]},"properties":{"id":"water:1173596e-0872-4ae0-b1c9-867b701f4fa1","kind":"water","longitude":10.6415648,"latitude":47.075656,"name":"Oblader Sauerbrunnen","city":"Ladis","address":null,"covered":null,"access":null,"website":null,"phone":null,"source":"OpenStreetMap/node/3360104946","sourceUpdatedAt":null,"verifiedAt":null}},{"type":"Feature","geometry":{"type":"Point","coordinates":[10.6499556,47.0759883]},"properties":{"id":"water:4427dde0-0a03-4949-be72-fa8fc728f241","kind":"water","longitude":10.6499556,"latitude":47.0759883,"name":"Nepomukbrunnen","city":"Prutz","address":null,"covered":null,"access":null,"website":null,"phone":null,"source":"OpenStreetMap/node/2691495220","sourceUpdatedAt":null,"verifiedAt":null}},{"type":"Feature","geometry":{"type":"Point","coordinates":[10.6492951,47.0760816]},"properties":{"id":"water:6a706d2e-49d7-4a71-b23e-fe84936f625b","kind":"water","longitude":10.6492951,"latitude":47.0760816,"name":"Ivókút","city":"Ladis","address":null,"covered":null,"access":null,"website":null,"phone":null,"source":"OpenStreetMap/node/5407689551","sourceUpdatedAt":null,"verifiedAt":null}},{"type":"Feature","geometry":{"type":"Point","coordinates":[10.662458,47.0778736]},"properties":{"id":"water:7028142a-28e4-43e4-ad66-5bbeb8e9371c","kind":"water","longitude":10.662458,"latitude":47.0778736,"name":"Florianibrunnen","city":"Prutz","address":null,"covered":null,"access":null,"website":null,"phone":null,"source":"OpenStreetMap/node/3360160149","sourceUpdatedAt":null,"verifiedAt":null}},{"type":"Feature","geometry":{"type":"Point","coordinates":[10.6481711,47.073805]},"properties":{"id":"water:8d58f88a-3aa2-4019-979d-2efc0cf0562c","kind":"water","longitude":10.6481711,"latitude":47.073805,"name":"Ivókút","city":"Ladis","address":null,"covered":null,"access":null,"website":null,"phone":null,"source":"OpenStreetMap/node/5748057337","sourceUpdatedAt":null,"verifiedAt":null}},{"type":"Feature","geometry":{"type":"Point","coordinates":[10.6589985,47.0790483]},"properties":{"id":"water:9ce8300c-2aec-4bc6-b19e-8a956241fc77","kind":"water","longitude":10.6589985,"latitude":47.0790483,"name":"Prutzer Sauerbrunn","city":"Prutz","address":null,"covered":null,"access":null,"website":null,"phone":null,"source":"OpenStreetMap/node/2450705036","sourceUpdatedAt":null,"verifiedAt":null}},{"type":"Feature","geometry":{"type":"Point","coordinates":[10.6640648,47.0755324]},"properties":{"id":"water:a1c06b1a-88e4-49e6-90a2-79cc03efab6d","kind":"water","longitude":10.6640648,"latitude":47.0755324,"name":"Ivókút","city":"Prutz","address":null,"covered":null,"access":null,"website":null,"phone":null,"source":"OpenStreetMap/node/8179007932","sourceUpdatedAt":null,"verifiedAt":null}},{"type":"Feature","geometry":{"type":"Point","coordinates":[10.6643163,47.078753]},"properties":{"id":"water:b7287143-3b35-4281-b806-759343405840","kind":"water","longitude":10.6643163,"latitude":47.078753,"name":"Ivókút","city":"Prutz","address":null,"covered":null,"access":null,"website":null,"phone":null,"source":"OpenStreetMap/node/12242552055","sourceUpdatedAt":null,"verifiedAt":null}},{"type":"Feature","geometry":{"type":"Point","coordinates":[10.6654648,47.0765346]},"properties":{"id":"water:baeaa715-ec79-46c8-96cd-c4c33c6a0f88","kind":"water","longitude":10.6654648,"latitude":47.0765346,"name":"Antoniusbrunnen","city":"Prutz","address":null,"covered":null,"access":null,"website":null,"phone":null,"source":"OpenStreetMap/node/8179005207","sourceUpdatedAt":null,"verifiedAt":null}},{"type":"Feature","geometry":{"type":"Point","coordinates":[10.6589933,47.0790525]},"properties":{"id":"water:c661f98c-cc9d-4b65-9618-9e70b710a5b7","kind":"water","longitude":10.6589933,"latitude":47.0790525,"name":"Ivókút","city":"Prutz","address":null,"covered":null,"access":null,"website":null,"phone":null,"source":"OpenStreetMap/node/12983341098","sourceUpdatedAt":null,"verifiedAt":null}}]}