{"type":"FeatureCollection","features":[{"type":"Feature","geometry":{"type":"Point","coordinates":[10.6378428,45.9495726]},"properties":{"id":"repair:18c111cb-4613-4fc4-9dfa-2e12dd64331d","kind":"repair","longitude":10.6378428,"latitude":45.9495726,"name":"Nina Bike Station","city":"Praso","address":null,"covered":false,"access":null,"website":null,"phone":null,"source":"OpenStreetMap/node/7146742834","sourceUpdatedAt":null,"verifiedAt":null}},{"type":"Feature","geometry":{"type":"Point","coordinates":[10.6357323,45.9280558]},"properties":{"id":"repair:41dd974f-ac23-4ef0-bcd9-d97f1616e5c3","kind":"repair","longitude":10.6357323,"latitude":45.9280558,"name":"Nina Bike Station","city":"Prezzo","address":null,"covered":false,"access":null,"website":null,"phone":null,"source":"OpenStreetMap/node/7146966492","sourceUpdatedAt":null,"verifiedAt":null}},{"type":"Feature","geometry":{"type":"Point","coordinates":[10.6351616,45.935972]},"properties":{"id":"water:004a003f-7c17-48f0-9097-2833484c0551","kind":"water","longitude":10.6351616,"latitude":45.935972,"name":"Fontanella","city":"Prezzo","address":null,"covered":null,"access":null,"website":null,"phone":null,"source":"OpenStreetMap/node/677638612","sourceUpdatedAt":null,"verifiedAt":null}},{"type":"Feature","geometry":{"type":"Point","coordinates":[10.6435067,45.9352578]},"properties":{"id":"water:0646c35b-a6ae-4490-b7b7-10dc6b7a7dae","kind":"water","longitude":10.6435067,"latitude":45.9352578,"name":"Fontanella","city":"Creto","address":null,"covered":null,"access":null,"website":null,"phone":null,"source":"OpenStreetMap/node/12546010846","sourceUpdatedAt":null,"verifiedAt":null}},{"type":"Feature","geometry":{"type":"Point","coordinates":[10.6436536,45.9339971]},"properties":{"id":"water:1410b01d-5feb-44f2-b034-3ec48aa668b2","kind":"water","longitude":10.6436536,"latitude":45.9339971,"name":"Fontanella","city":"Creto","address":null,"covered":null,"access":null,"website":null,"phone":null,"source":"OpenStreetMap/node/943779724","sourceUpdatedAt":null,"verifiedAt":null}},{"type":"Feature","geometry":{"type":"Point","coordinates":[10.6378324,45.9370348]},"properties":{"id":"water:1d026542-8ba3-4a6a-bf59-60fac8b8b021","kind":"water","longitude":10.6378324,"latitude":45.9370348,"name":"Fontanella","city":"Creto","address":null,"covered":null,"access":null,"website":null,"phone":null,"source":"OpenStreetMap/node/673945956","sourceUpdatedAt":null,"verifiedAt":null}},{"type":"Feature","geometry":{"type":"Point","coordinates":[10.6487886,45.9501464]},"properties":{"id":"water:3408d466-6163-4142-85e8-f71226a5efb0","kind":"water","longitude":10.6487886,"latitude":45.9501464,"name":"Fontanella","city":"Pieve di Bono","address":null,"covered":null,"access":null,"website":null,"phone":null,"source":"OpenStreetMap/node/3786215563","sourceUpdatedAt":null,"verifiedAt":null}},{"type":"Feature","geometry":{"type":"Point","coordinates":[10.6508103,45.9401482]},"properties":{"id":"water:419b04bd-f38f-4f76-9497-40f316c11282","kind":"water","longitude":10.6508103,"latitude":45.9401482,"name":"Fontanella","city":"Creto","address":null,"covered":null,"access":null,"website":null,"phone":null,"source":"OpenStreetMap/node/5149944394","sourceUpdatedAt":null,"verifiedAt":null}},{"type":"Feature","geometry":{"type":"Point","coordinates":[10.6350892,45.9355297]},"properties":{"id":"water:4b98586a-c093-4a1d-9ad5-0989918c2999","kind":"water","longitude":10.6350892,"latitude":45.9355297,"name":"Fontanella","city":"Prezzo","address":null,"covered":null,"access":null,"website":null,"phone":null,"source":"OpenStreetMap/node/677638602","sourceUpdatedAt":null,"verifiedAt":null}},{"type":"Feature","geometry":{"type":"Point","coordinates":[10.6473114,45.9496926]},"properties":{"id":"water:5794f715-4f3e-452f-8f3d-c09064ae4254","kind":"water","longitude":10.6473114,"latitude":45.9496926,"name":"Fontanella","city":"Pieve di Bono","address":null,"covered":null,"access":null,"website":null,"phone":null,"source":"OpenStreetMap/node/12974837568","sourceUpdatedAt":null,"verifiedAt":null}},{"type":"Feature","geometry":{"type":"Point","coordinates":[10.6675547,45.9477069]},"properties":{"id":"water:6b6e4a83-2c3d-4c34-9ac3-ec63d4d11914","kind":"water","longitude":10.6675547,"latitude":45.9477069,"name":"Fontanella","city":"Lardaro","address":null,"covered":null,"access":null,"website":null,"phone":null,"source":"OpenStreetMap/node/2433744360","sourceUpdatedAt":null,"verifiedAt":null}},{"type":"Feature","geometry":{"type":"Point","coordinates":[10.6491963,45.9396777]},"properties":{"id":"water:888badf9-25e1-4a8f-8fcb-51b2dec42568","kind":"water","longitude":10.6491963,"latitude":45.9396777,"name":"Fontanella","city":"Creto","address":null,"covered":null,"access":null,"website":null,"phone":null,"source":"OpenStreetMap/node/5149944392","sourceUpdatedAt":null,"verifiedAt":null}},{"type":"Feature","geometry":{"type":"Point","coordinates":[10.6373508,45.949416]},"properties":{"id":"water:9d222cae-50c6-47f5-b1c9-b8e7bc35cc3b","kind":"water","longitude":10.6373508,"latitude":45.949416,"name":"Fontanella","city":"Praso","address":null,"covered":null,"access":null,"website":null,"phone":null,"source":"OpenStreetMap/node/5062886537","sourceUpdatedAt":null,"verifiedAt":null}},{"type":"Feature","geometry":{"type":"Point","coordinates":[10.640603,45.9414424]},"properties":{"id":"water:a2566f7b-844f-4c49-9509-f0708da18da6","kind":"water","longitude":10.640603,"latitude":45.9414424,"name":"Fontanella","city":"Creto","address":null,"covered":null,"access":null,"website":null,"phone":null,"source":"OpenStreetMap/node/3763562110","sourceUpdatedAt":null,"verifiedAt":null}},{"type":"Feature","geometry":{"type":"Point","coordinates":[10.647976,45.9399741]},"properties":{"id":"water:b394b45b-896c-4e6f-88b2-b8733b1c9c9c","kind":"water","longitude":10.647976,"latitude":45.9399741,"name":"Fontanella","city":"Creto","address":null,"covered":null,"access":null,"website":null,"phone":null,"source":"OpenStreetMap/node/854503121","sourceUpdatedAt":null,"verifiedAt":null}},{"type":"Feature","geometry":{"type":"Point","coordinates":[10.6649863,45.9466843]},"properties":{"id":"water:b72864ee-e8cf-402d-a8ef-f65f7c4429e0","kind":"water","longitude":10.6649863,"latitude":45.9466843,"name":"Fontanella","city":"Lardaro","address":null,"covered":null,"access":null,"website":null,"phone":null,"source":"OpenStreetMap/node/5171172264","sourceUpdatedAt":null,"verifiedAt":null}},{"type":"Feature","geometry":{"type":"Point","coordinates":[10.6395271,45.9256756]},"properties":{"id":"water:c215d8b0-7b2f-406e-935e-0b88ea8900f7","kind":"water","longitude":10.6395271,"latitude":45.9256756,"name":"Fontanella","city":"Prezzo","address":null,"covered":null,"access":null,"website":null,"phone":null,"source":"OpenStreetMap/node/2568331930","sourceUpdatedAt":null,"verifiedAt":null}},{"type":"Feature","geometry":{"type":"Point","coordinates":[10.6416307,45.93041]},"properties":{"id":"water:c9325355-81f5-4a6e-ad48-a9fff97c9ce7","kind":"water","longitude":10.6416307,"latitude":45.93041,"name":"Fontanella","city":"Prezzo","address":null,"covered":null,"access":null,"website":null,"phone":null,"source":"OpenStreetMap/node/2568332294","sourceUpdatedAt":null,"verifiedAt":null}},{"type":"Feature","geometry":{"type":"Point","coordinates":[10.6371769,45.9500177]},"properties":{"id":"water:d5f09d52-e2a8-4545-b67c-844ce2662932","kind":"water","longitude":10.6371769,"latitude":45.9500177,"name":"Fontanella","city":"Praso","address":null,"covered":null,"access":null,"website":null,"phone":null,"source":"OpenStreetMap/node/5062886619","sourceUpdatedAt":null,"verifiedAt":null}},{"type":"Feature","geometry":{"type":"Point","coordinates":[10.6362908,45.949069]},"properties":{"id":"water:dc5e4cb1-20a9-4dcd-8ce3-8030ed76098d","kind":"water","longitude":10.6362908,"latitude":45.949069,"name":"Fontanella","city":"Praso","address":null,"covered":null,"access":null,"website":null,"phone":null,"source":"OpenStreetMap/node/2966618764","sourceUpdatedAt":null,"verifiedAt":null}},{"type":"Feature","geometry":{"type":"Point","coordinates":[10.6668388,45.9450208]},"properties":{"id":"water:e2fedbd1-f8f3-406a-9071-2b420b5643c3","kind":"water","longitude":10.6668388,"latitude":45.9450208,"name":"Fontanella","city":"Lardaro","address":null,"covered":null,"access":null,"website":null,"phone":null,"source":"OpenStreetMap/node/577245847","sourceUpdatedAt":null,"verifiedAt":null}},{"type":"Feature","geometry":{"type":"Point","coordinates":[10.6381089,45.9376967]},"properties":{"id":"water:ebfc2813-ead5-4168-aa25-643fcee757d3","kind":"water","longitude":10.6381089,"latitude":45.9376967,"name":"Fontanella","city":"Creto","address":null,"covered":null,"access":null,"website":null,"phone":null,"source":"OpenStreetMap/node/8849788264","sourceUpdatedAt":null,"verifiedAt":null}},{"type":"Feature","geometry":{"type":"Point","coordinates":[10.6692506,45.9270152]},"properties":{"id":"water:f30297ec-86b0-41db-baa9-5a4652f0b9a9","kind":"water","longitude":10.6692506,"latitude":45.9270152,"name":"Fontanella","city":"Creto","address":null,"covered":null,"access":null,"website":null,"phone":null,"source":"OpenStreetMap/node/3411649793","sourceUpdatedAt":null,"verifiedAt":null}},{"type":"Feature","geometry":{"type":"Point","coordinates":[10.6491768,45.9404676]},"properties":{"id":"water:f4c2d617-260b-4087-a7dd-ab909673d890","kind":"water","longitude":10.6491768,"latitude":45.9404676,"name":"Fontanella","city":"Creto","address":null,"covered":null,"access":null,"website":null,"phone":null,"source":"OpenStreetMap/node/854503122","sourceUpdatedAt":null,"verifiedAt":null}},{"type":"Feature","geometry":{"type":"Point","coordinates":[10.6469333,45.9324581]},"properties":{"id":"water:fe0da700-0529-4bb6-be99-bd6600f70a5d","kind":"water","longitude":10.6469333,"latitude":45.9324581,"name":"Fontanella","city":"Creto","address":null,"covered":null,"access":null,"website":null,"phone":null,"source":"OpenStreetMap/node/2804117023","sourceUpdatedAt":null,"verifiedAt":null}},{"type":"Feature","geometry":{"type":"Point","coordinates":[10.6692671,45.9473299]},"properties":{"id":"water:ff58b723-5bf6-4eb1-949f-526a99d0e2c5","kind":"water","longitude":10.6692671,"latitude":45.9473299,"name":"Fontanella","city":"Lardaro","address":null,"covered":null,"access":null,"website":null,"phone":null,"source":"OpenStreetMap/node/5048178994","sourceUpdatedAt":null,"verifiedAt":null}}]}