{"type":"FeatureCollection","features":[{"type":"Feature","geometry":{"type":"Point","coordinates":[10.4595465,52.3066313]},"properties":{"id":"bikerack:08164e34-76cd-468a-ab6f-df31129e9598","kind":"bikerack","longitude":10.4595465,"latitude":52.3066313,"name":"Fahrradabstellplatz","city":"Klein Schwulper","address":null,"covered":false,"access":null,"website":null,"phone":null,"source":"OpenStreetMap/node/1681869608","sourceUpdatedAt":null,"verifiedAt":null}},{"type":"Feature","geometry":{"type":"Point","coordinates":[10.4666362,52.298731]},"properties":{"id":"bikerack:0b702bed-5e08-4ba4-bad9-2a2b5afa0b60","kind":"bikerack","longitude":10.4666362,"latitude":52.298731,"name":"Fahrradabstellplatz","city":"Klein Schwulper","address":null,"covered":true,"access":null,"website":null,"phone":null,"source":"OpenStreetMap/node/11640376400","sourceUpdatedAt":null,"verifiedAt":null}},{"type":"Feature","geometry":{"type":"Point","coordinates":[10.4611368,52.2967163]},"properties":{"id":"bikerack:199d5839-029c-4043-b6e8-5944c6d20e3c","kind":"bikerack","longitude":10.4611368,"latitude":52.2967163,"name":"Fahrradabstellplatz","city":"Klein Schwulper","address":null,"covered":false,"access":null,"website":null,"phone":null,"source":"OpenStreetMap/way/1252256762","sourceUpdatedAt":null,"verifiedAt":null}},{"type":"Feature","geometry":{"type":"Point","coordinates":[10.4760656,52.3159564]},"properties":{"id":"bikerack:2d9eebb0-5bfe-4626-b062-3a0d7b1eacd9","kind":"bikerack","longitude":10.4760656,"latitude":52.3159564,"name":"Fahrradabstellplatz","city":"Klein Schwulper","address":null,"covered":true,"access":null,"website":null,"phone":null,"source":"OpenStreetMap/way/1420545072","sourceUpdatedAt":null,"verifiedAt":null}},{"type":"Feature","geometry":{"type":"Point","coordinates":[10.474535,52.3212921]},"properties":{"id":"bikerack:2ea79152-1ae5-4a96-a72d-3b06a18513d8","kind":"bikerack","longitude":10.474535,"latitude":52.3212921,"name":"Fahrradabstellplatz","city":"Klein Schwulper","address":null,"covered":false,"access":null,"website":null,"phone":null,"source":"OpenStreetMap/node/11158598949","sourceUpdatedAt":null,"verifiedAt":null}},{"type":"Feature","geometry":{"type":"Point","coordinates":[10.467333,52.3052315]},"properties":{"id":"bikerack:4121ce75-22bb-41f6-9bfc-f5f9ee988962","kind":"bikerack","longitude":10.467333,"latitude":52.3052315,"name":"Fahrradabstellplatz","city":"Klein Schwulper","address":null,"covered":false,"access":null,"website":null,"phone":null,"source":"OpenStreetMap/node/8251436017","sourceUpdatedAt":null,"verifiedAt":null}},{"type":"Feature","geometry":{"type":"Point","coordinates":[10.4602484,52.297105]},"properties":{"id":"bikerack:71d5871e-f9e8-45c2-abe8-22ccec6b2c26","kind":"bikerack","longitude":10.4602484,"latitude":52.297105,"name":"Fahrradabstellplatz","city":"Klein Schwulper","address":null,"covered":false,"access":null,"website":null,"phone":null,"source":"OpenStreetMap/way/1252256755","sourceUpdatedAt":null,"verifiedAt":null}},{"type":"Feature","geometry":{"type":"Point","coordinates":[10.4651832,52.2983143]},"properties":{"id":"bikerack:953a7282-9ce8-45d2-bff0-b3db12f5a785","kind":"bikerack","longitude":10.4651832,"latitude":52.2983143,"name":"Fahrradabstellplatz","city":"Klein Schwulper","address":null,"covered":false,"access":null,"website":null,"phone":null,"source":"OpenStreetMap/way/1392516301","sourceUpdatedAt":null,"verifiedAt":null}},{"type":"Feature","geometry":{"type":"Point","coordinates":[10.4661606,52.3055949]},"properties":{"id":"bikerack:9a1ed879-3475-45e5-a907-59c4f21ba9f2","kind":"bikerack","longitude":10.4661606,"latitude":52.3055949,"name":"Fahrradabstellplatz","city":"Klein Schwulper","address":null,"covered":false,"access":null,"website":null,"phone":null,"source":"OpenStreetMap/node/8251436117","sourceUpdatedAt":null,"verifiedAt":null}},{"type":"Feature","geometry":{"type":"Point","coordinates":[10.4605711,52.2978999]},"properties":{"id":"bikerack:aa43aeb2-9044-4a4c-a283-2c3888aeb486","kind":"bikerack","longitude":10.4605711,"latitude":52.2978999,"name":"Fahrradabstellplatz","city":"Klein Schwulper","address":null,"covered":false,"access":null,"website":null,"phone":null,"source":"OpenStreetMap/way/1392516302","sourceUpdatedAt":null,"verifiedAt":null}},{"type":"Feature","geometry":{"type":"Point","coordinates":[10.5028604,52.3102325]},"properties":{"id":"bikerack:b7d72358-6ced-4f39-b99e-cd5ffb18a8ce","kind":"bikerack","longitude":10.5028604,"latitude":52.3102325,"name":"Fahrradabstellplatz","city":"Braunschweig","address":null,"covered":false,"access":null,"website":null,"phone":null,"source":"OpenStreetMap/node/12946615251","sourceUpdatedAt":null,"verifiedAt":null}},{"type":"Feature","geometry":{"type":"Point","coordinates":[10.4791082,52.3181177]},"properties":{"id":"bikerack:b93cb042-1c15-4b75-beab-dcd4eb3ddf0a","kind":"bikerack","longitude":10.4791082,"latitude":52.3181177,"name":"Fahrradabstellplatz","city":"Klein Schwulper","address":null,"covered":false,"access":null,"website":null,"phone":null,"source":"OpenStreetMap/way/519586136","sourceUpdatedAt":null,"verifiedAt":null}},{"type":"Feature","geometry":{"type":"Point","coordinates":[10.4609756,52.3066167]},"properties":{"id":"bikerack:bda75b8a-980f-40a9-bff1-8f3ab3178677","kind":"bikerack","longitude":10.4609756,"latitude":52.3066167,"name":"Fahrradabstellplatz","city":"Klein Schwulper","address":null,"covered":false,"access":null,"website":null,"phone":null,"source":"OpenStreetMap/node/13340050327","sourceUpdatedAt":null,"verifiedAt":null}},{"type":"Feature","geometry":{"type":"Point","coordinates":[10.4594277,52.2962967]},"properties":{"id":"bikerack:cd7ba782-e0b6-4d97-871a-41d9bc2d4dd2","kind":"bikerack","longitude":10.4594277,"latitude":52.2962967,"name":"Fahrradabstellplatz","city":"Klein Schwulper","address":null,"covered":false,"access":null,"website":null,"phone":null,"source":"OpenStreetMap/way/1252256756","sourceUpdatedAt":null,"verifiedAt":null}},{"type":"Feature","geometry":{"type":"Point","coordinates":[10.4670443,52.2977606]},"properties":{"id":"bikerack:d5534292-244a-47dd-9d3d-32f85ed2387e","kind":"bikerack","longitude":10.4670443,"latitude":52.2977606,"name":"Fahrradabstellplatz","city":"Klein Schwulper","address":null,"covered":false,"access":null,"website":null,"phone":null,"source":"OpenStreetMap/way/1252256774","sourceUpdatedAt":null,"verifiedAt":null}},{"type":"Feature","geometry":{"type":"Point","coordinates":[10.4652544,52.3055767]},"properties":{"id":"bikerack:e595d3d5-ea2f-4dbc-9b80-150948730ad1","kind":"bikerack","longitude":10.4652544,"latitude":52.3055767,"name":"Fahrradabstellplatz","city":"Klein Schwulper","address":null,"covered":false,"access":null,"website":null,"phone":null,"source":"OpenStreetMap/node/8243173140","sourceUpdatedAt":null,"verifiedAt":null}},{"type":"Feature","geometry":{"type":"Point","coordinates":[10.4620187,52.2963042]},"properties":{"id":"bikerack:ee023899-a349-4279-878f-7633afcc4ac6","kind":"bikerack","longitude":10.4620187,"latitude":52.2963042,"name":"Fahrradabstellplatz","city":"Klein Schwulper","address":null,"covered":false,"access":null,"website":null,"phone":null,"source":"OpenStreetMap/way/1252256767","sourceUpdatedAt":null,"verifiedAt":null}},{"type":"Feature","geometry":{"type":"Point","coordinates":[10.4666407,52.2987222]},"properties":{"id":"bikerack:f4ee37ac-3003-4855-b816-7083bae0425a","kind":"bikerack","longitude":10.4666407,"latitude":52.2987222,"name":"Fahrradabstellplatz","city":"Klein Schwulper","address":null,"covered":false,"access":null,"website":null,"phone":null,"source":"OpenStreetMap/way/1252268516","sourceUpdatedAt":null,"verifiedAt":null}},{"type":"Feature","geometry":{"type":"Point","coordinates":[10.4621951,52.2973613]},"properties":{"id":"bikerack:fc8a2bb5-d4bc-428f-aeb4-74b736707606","kind":"bikerack","longitude":10.4621951,"latitude":52.2973613,"name":"Fahrradabstellplatz","city":"Klein Schwulper","address":null,"covered":true,"access":null,"website":null,"phone":null,"source":"OpenStreetMap/node/12222704506","sourceUpdatedAt":null,"verifiedAt":null}}]}