{"type":"FeatureCollection","features":[{"type":"Feature","geometry":{"type":"Point","coordinates":[10.4735512,46.7056309]},"properties":{"id":"water:2673f98a-0b09-4bde-b1f3-7c6d4b6db8e9","kind":"water","longitude":10.4735512,"latitude":46.7056309,"name":"Fontanella","city":"Tubre","address":null,"covered":null,"access":null,"website":null,"phone":null,"source":"OpenStreetMap/node/2421239156","sourceUpdatedAt":null,"verifiedAt":null}},{"type":"Feature","geometry":{"type":"Point","coordinates":[10.4739992,46.7053108]},"properties":{"id":"water:34bccb6b-6b7f-426f-8acc-85ab3b067020","kind":"water","longitude":10.4739992,"latitude":46.7053108,"name":"Fontanella","city":"Tubre","address":null,"covered":null,"access":null,"website":null,"phone":null,"source":"OpenStreetMap/node/2421239155","sourceUpdatedAt":null,"verifiedAt":null}}]}