{"type":"FeatureCollection","features":[{"type":"Feature","geometry":{"type":"Point","coordinates":[10.4676679,45.5717565]},"properties":{"id":"water:60b26dae-2efc-4d17-b283-1a294898cd09","kind":"water","longitude":10.4676679,"latitude":45.5717565,"name":"Fontanella","city":"Chiesa","address":null,"covered":null,"access":null,"website":null,"phone":null,"source":"OpenStreetMap/node/4768176150","sourceUpdatedAt":null,"verifiedAt":null}},{"type":"Feature","geometry":{"type":"Point","coordinates":[10.4829137,45.572477]},"properties":{"id":"water:d2994132-3e13-42fe-a436-90896622f50e","kind":"water","longitude":10.4829137,"latitude":45.572477,"name":"Fontanella","city":"San Giacomo","address":null,"covered":null,"access":null,"website":null,"phone":null,"source":"OpenStreetMap/node/5650846547","sourceUpdatedAt":null,"verifiedAt":null}}]}