{"type":"FeatureCollection","features":[{"type":"Feature","geometry":{"type":"Point","coordinates":[10.4853555,45.3902668]},"properties":{"id":"water:39b785bd-6517-4b25-960c-babd155682c4","kind":"water","longitude":10.4853555,"latitude":45.3902668,"name":"Fontanella","city":"Castiglione delle Stiviere","address":null,"covered":null,"access":null,"website":null,"phone":null,"source":"OpenStreetMap/node/10281304053","sourceUpdatedAt":null,"verifiedAt":null}},{"type":"Feature","geometry":{"type":"Point","coordinates":[10.4912886,45.3888014]},"properties":{"id":"water:4591d461-1d36-4f0a-a987-55f1b93f0710","kind":"water","longitude":10.4912886,"latitude":45.3888014,"name":"Fontanella","city":"Castiglione delle Stiviere","address":null,"covered":null,"access":null,"website":null,"phone":null,"source":"OpenStreetMap/node/2351682953","sourceUpdatedAt":null,"verifiedAt":null}},{"type":"Feature","geometry":{"type":"Point","coordinates":[10.4864154,45.3929952]},"properties":{"id":"water:6ac2912c-95e1-4cba-897d-b8b11b2acf18","kind":"water","longitude":10.4864154,"latitude":45.3929952,"name":"Fontanella","city":"Castiglione delle Stiviere","address":null,"covered":null,"access":null,"website":null,"phone":null,"source":"OpenStreetMap/node/2351682955","sourceUpdatedAt":null,"verifiedAt":null}},{"type":"Feature","geometry":{"type":"Point","coordinates":[10.4862621,45.3928308]},"properties":{"id":"water:81928c7a-8c1c-47bf-bad2-930bcab7e72b","kind":"water","longitude":10.4862621,"latitude":45.3928308,"name":"Fontanella","city":"Castiglione delle Stiviere","address":null,"covered":null,"access":null,"website":null,"phone":null,"source":"OpenStreetMap/node/10281304055","sourceUpdatedAt":null,"verifiedAt":null}},{"type":"Feature","geometry":{"type":"Point","coordinates":[10.4871011,45.3928963]},"properties":{"id":"water:fca26b98-4611-487d-88a2-79d3e90e8377","kind":"water","longitude":10.4871011,"latitude":45.3928963,"name":"Fontanella","city":"Castiglione delle Stiviere","address":null,"covered":null,"access":null,"website":null,"phone":null,"source":"OpenStreetMap/node/10281304054","sourceUpdatedAt":null,"verifiedAt":null}}]}