{"type":"FeatureCollection","features":[{"type":"Feature","geometry":{"type":"Point","coordinates":[14.0955341,54.0022869]},"properties":{"id":"bikerack:02908e02-ae85-47d5-a174-d518a6acace8","kind":"bikerack","longitude":14.0955341,"latitude":54.0022869,"name":"Fahrradabstellplatz","city":"Seebad Bansin","address":null,"covered":false,"access":null,"website":null,"phone":null,"source":"OpenStreetMap/node/13440133744","sourceUpdatedAt":null,"verifiedAt":null}},{"type":"Feature","geometry":{"type":"Point","coordinates":[14.0767841,53.9828385]},"properties":{"id":"bikerack:351c568d-9ba1-4bb0-a91b-6775bfd1172d","kind":"bikerack","longitude":14.0767841,"latitude":53.9828385,"name":"Fahrradabstellplatz","city":"Seebad Bansin","address":null,"covered":false,"access":null,"website":null,"phone":null,"source":"OpenStreetMap/node/10867880385","sourceUpdatedAt":null,"verifiedAt":null}},{"type":"Feature","geometry":{"type":"Point","coordinates":[14.0646115,54.0007585]},"properties":{"id":"bikerack:921d8ca1-834b-4135-b135-00d51130c2b1","kind":"bikerack","longitude":14.0646115,"latitude":54.0007585,"name":"Fahrradabstellplatz","city":"Loddin","address":null,"covered":false,"access":null,"website":null,"phone":null,"source":"OpenStreetMap/node/6002260733","sourceUpdatedAt":null,"verifiedAt":null}},{"type":"Feature","geometry":{"type":"Point","coordinates":[14.0778886,53.9826971]},"properties":{"id":"bikerack:a9e7b428-441f-494c-be5d-8725c43ab95e","kind":"bikerack","longitude":14.0778886,"latitude":53.9826971,"name":"Fahrradabstellplatz","city":"Seebad Bansin","address":null,"covered":false,"access":null,"website":null,"phone":null,"source":"OpenStreetMap/node/6327141042","sourceUpdatedAt":null,"verifiedAt":null}},{"type":"Feature","geometry":{"type":"Point","coordinates":[14.0912761,54.0041873]},"properties":{"id":"bikerack:b17ee87e-a4ed-4f56-aaf1-8f201495d5d4","kind":"bikerack","longitude":14.0912761,"latitude":54.0041873,"name":"Fahrradabstellplatz","city":"Seebad Bansin","address":null,"covered":false,"access":null,"website":null,"phone":null,"source":"OpenStreetMap/node/5076100066","sourceUpdatedAt":null,"verifiedAt":null}}]}