{"type":"FeatureCollection","features":[{"type":"Feature","geometry":{"type":"Point","coordinates":[14.1033608,51.8435479]},"properties":{"id":"bikerack:01cdc0cb-f359-46df-87ac-92f149105adf","kind":"bikerack","longitude":14.1033608,"latitude":51.8435479,"name":"Fahrradabstellplatz","city":"Burg","address":null,"covered":false,"access":null,"website":null,"phone":null,"source":"OpenStreetMap/node/13192276393","sourceUpdatedAt":null,"verifiedAt":null}},{"type":"Feature","geometry":{"type":"Point","coordinates":[14.0978281,51.843871]},"properties":{"id":"water:612d69f6-a65f-4e12-a54b-cfd2129e1d6f","kind":"water","longitude":14.0978281,"latitude":51.843871,"name":"Trinkwasser","city":"Burg","address":null,"covered":null,"access":null,"website":null,"phone":null,"source":"OpenStreetMap/node/7737863610","sourceUpdatedAt":null,"verifiedAt":null}}]}