{"type":"FeatureCollection","features":[{"type":"Feature","geometry":{"type":"Point","coordinates":[14.0898313,51.7080116]},"properties":{"id":"bikerack:7c985c3b-94a5-4629-b1ec-ecd0b291f6e0","kind":"bikerack","longitude":14.0898313,"latitude":51.7080116,"name":"Fahrradabstellplatz","city":"Vetschau","address":null,"covered":false,"access":null,"website":null,"phone":null,"source":"OpenStreetMap/node/10942388670","sourceUpdatedAt":null,"verifiedAt":null}},{"type":"Feature","geometry":{"type":"Point","coordinates":[14.0929323,51.7135758]},"properties":{"id":"bikerack:ea514021-7793-44d2-83f0-9dec917b4611","kind":"bikerack","longitude":14.0929323,"latitude":51.7135758,"name":"Fahrradabstellplatz","city":"Vetschau","address":null,"covered":false,"access":null,"website":null,"phone":null,"source":"OpenStreetMap/node/5225108574","sourceUpdatedAt":null,"verifiedAt":null}},{"type":"Feature","geometry":{"type":"Point","coordinates":[14.0946154,51.7105498]},"properties":{"id":"repair:20f312b3-5f69-4f72-a7d3-c245bb85fd35","kind":"repair","longitude":14.0946154,"latitude":51.7105498,"name":"ADAC Radservice-Station","city":"Vetschau","address":null,"covered":false,"access":null,"website":null,"phone":null,"source":"OpenStreetMap/node/12837069105","sourceUpdatedAt":null,"verifiedAt":null}}]}