{"type":"FeatureCollection","features":[{"type":"Feature","geometry":{"type":"Point","coordinates":[14.095101,51.2694898]},"properties":{"id":"bikerack:09529967-7f94-4b74-a1e6-91f78be79de9","kind":"bikerack","longitude":14.095101,"latitude":51.2694898,"name":"Fahrradabstellplatz","city":"Kamenz","address":null,"covered":false,"access":null,"website":null,"phone":null,"source":"OpenStreetMap/node/11073925300","sourceUpdatedAt":null,"verifiedAt":null}},{"type":"Feature","geometry":{"type":"Point","coordinates":[14.1046486,51.2833458]},"properties":{"id":"bikerack:09d0b26f-2277-4af6-b2f9-a1a9454a854c","kind":"bikerack","longitude":14.1046486,"latitude":51.2833458,"name":"Garnisonsplatz – Fahrradabstellplatz","city":"Kamenz","address":null,"covered":true,"access":null,"website":null,"phone":null,"source":"OpenStreetMap/node/3428809300","sourceUpdatedAt":null,"verifiedAt":null}},{"type":"Feature","geometry":{"type":"Point","coordinates":[14.1061688,51.2821009]},"properties":{"id":"bikerack:0a94fc47-e652-4289-b5a8-c4b7649ad34b","kind":"bikerack","longitude":14.1061688,"latitude":51.2821009,"name":"Fahrradabstellplatz","city":"Kamenz","address":null,"covered":false,"access":null,"website":null,"phone":null,"source":"OpenStreetMap/node/13388608071","sourceUpdatedAt":null,"verifiedAt":null}},{"type":"Feature","geometry":{"type":"Point","coordinates":[14.0983616,51.2757663]},"properties":{"id":"bikerack:0e90fb8c-0f8d-42a0-ad19-ad42d9e9a20b","kind":"bikerack","longitude":14.0983616,"latitude":51.2757663,"name":"Fahrradabstellplatz","city":"Kamenz","address":null,"covered":false,"access":null,"website":null,"phone":null,"source":"OpenStreetMap/node/11180785640","sourceUpdatedAt":null,"verifiedAt":null}},{"type":"Feature","geometry":{"type":"Point","coordinates":[14.0988913,51.2757667]},"properties":{"id":"bikerack:1dd4b87e-8a33-45f7-8433-18c0b288e3ff","kind":"bikerack","longitude":14.0988913,"latitude":51.2757667,"name":"Fahrradabstellplatz","city":"Kamenz","address":null,"covered":false,"access":null,"website":null,"phone":null,"source":"OpenStreetMap/node/11180785654","sourceUpdatedAt":null,"verifiedAt":null}},{"type":"Feature","geometry":{"type":"Point","coordinates":[14.1029745,51.2826537]},"properties":{"id":"bikerack:3f9c1551-2d43-47bb-9469-453761cb16bd","kind":"bikerack","longitude":14.1029745,"latitude":51.2826537,"name":"Fahrradabstellplatz","city":"Kamenz","address":null,"covered":false,"access":null,"website":null,"phone":null,"source":"OpenStreetMap/node/13452582168","sourceUpdatedAt":null,"verifiedAt":null}},{"type":"Feature","geometry":{"type":"Point","coordinates":[14.0983278,51.2708428]},"properties":{"id":"bikerack:4f500bda-bee2-4b83-aaef-c5b6395f970b","kind":"bikerack","longitude":14.0983278,"latitude":51.2708428,"name":"Fahrradabstellplatz","city":"Kamenz","address":null,"covered":false,"access":null,"website":null,"phone":null,"source":"OpenStreetMap/node/11076580979","sourceUpdatedAt":null,"verifiedAt":null}},{"type":"Feature","geometry":{"type":"Point","coordinates":[14.1063725,51.2774749]},"properties":{"id":"bikerack:5bcd3a0a-8a0c-4d94-aee3-b728381b7839","kind":"bikerack","longitude":14.1063725,"latitude":51.2774749,"name":"Fahrradabstellplatz","city":"Kamenz","address":null,"covered":true,"access":null,"website":null,"phone":null,"source":"OpenStreetMap/way/1417471854","sourceUpdatedAt":null,"verifiedAt":null}},{"type":"Feature","geometry":{"type":"Point","coordinates":[14.0912877,51.282968]},"properties":{"id":"bikerack:604ed30d-ebbc-4697-a087-e57bce9cd73b","kind":"bikerack","longitude":14.0912877,"latitude":51.282968,"name":"Fahrradabstellplatz","city":"Kamenz","address":null,"covered":true,"access":null,"website":null,"phone":null,"source":"OpenStreetMap/way/1355227173","sourceUpdatedAt":null,"verifiedAt":null}},{"type":"Feature","geometry":{"type":"Point","coordinates":[14.1062432,51.2773588]},"properties":{"id":"bikerack:65eaaef0-407a-4571-b193-5a553a4b57dd","kind":"bikerack","longitude":14.1062432,"latitude":51.2773588,"name":"Fahrradabstellplatz","city":"Kamenz","address":null,"covered":true,"access":null,"website":null,"phone":null,"source":"OpenStreetMap/way/1417471855","sourceUpdatedAt":null,"verifiedAt":null}},{"type":"Feature","geometry":{"type":"Point","coordinates":[14.099362,51.2757183]},"properties":{"id":"bikerack:a5ad0e4c-b1e4-412d-a5b6-a6d5135ec0b7","kind":"bikerack","longitude":14.099362,"latitude":51.2757183,"name":"Fahrradabstellplatz","city":"Kamenz","address":null,"covered":true,"access":null,"website":null,"phone":null,"source":"OpenStreetMap/way/1206573026","sourceUpdatedAt":null,"verifiedAt":null}},{"type":"Feature","geometry":{"type":"Point","coordinates":[14.0939593,51.2710854]},"properties":{"id":"bikerack:aa378635-892f-4f48-8d09-9de9d4098b24","kind":"bikerack","longitude":14.0939593,"latitude":51.2710854,"name":"Fahrradabstellplatz","city":"Kamenz","address":null,"covered":false,"access":null,"website":null,"phone":null,"source":"OpenStreetMap/node/13452590630","sourceUpdatedAt":null,"verifiedAt":null}},{"type":"Feature","geometry":{"type":"Point","coordinates":[14.0994281,51.2756129]},"properties":{"id":"bikerack:acf5b988-d310-45e9-87cd-486ffba4ca27","kind":"bikerack","longitude":14.0994281,"latitude":51.2756129,"name":"Fahrradabstellplatz","city":"Kamenz","address":null,"covered":true,"access":null,"website":null,"phone":null,"source":"OpenStreetMap/way/1206573028","sourceUpdatedAt":null,"verifiedAt":null}},{"type":"Feature","geometry":{"type":"Point","coordinates":[14.0993902,51.2756665]},"properties":{"id":"bikerack:b071c592-852d-44b7-8c50-f6f385481fbc","kind":"bikerack","longitude":14.0993902,"latitude":51.2756665,"name":"Fahrradabstellplatz","city":"Kamenz","address":null,"covered":true,"access":null,"website":null,"phone":null,"source":"OpenStreetMap/way/1206573027","sourceUpdatedAt":null,"verifiedAt":null}},{"type":"Feature","geometry":{"type":"Point","coordinates":[14.0982535,51.2708731]},"properties":{"id":"bikerack:dece9161-17fc-48f1-aab9-3a6542704482","kind":"bikerack","longitude":14.0982535,"latitude":51.2708731,"name":"Fahrradabstellplatz","city":"Kamenz","address":null,"covered":false,"access":null,"website":null,"phone":null,"source":"OpenStreetMap/node/11076656232","sourceUpdatedAt":null,"verifiedAt":null}},{"type":"Feature","geometry":{"type":"Point","coordinates":[14.0924259,51.2742832]},"properties":{"id":"bikerack:e294d4ae-cb10-4116-b2e3-c4b44e27f803","kind":"bikerack","longitude":14.0924259,"latitude":51.2742832,"name":"Fahrradabstellplatz","city":"Kamenz","address":null,"covered":true,"access":null,"website":null,"phone":null,"source":"OpenStreetMap/way/1408812122","sourceUpdatedAt":null,"verifiedAt":null}},{"type":"Feature","geometry":{"type":"Point","coordinates":[14.0952582,51.2860519]},"properties":{"id":"bikerack:eb2bb9d7-a2e0-4a20-804e-bc3f5af6965f","kind":"bikerack","longitude":14.0952582,"latitude":51.2860519,"name":"Fahrradabstellplatz","city":"Kamenz","address":null,"covered":false,"access":null,"website":null,"phone":null,"source":"OpenStreetMap/node/11075173763","sourceUpdatedAt":null,"verifiedAt":null}},{"type":"Feature","geometry":{"type":"Point","coordinates":[14.0992458,51.2825529]},"properties":{"id":"bikerack:f1f6b640-2dc3-43b6-8ca2-6c341d8ec41d","kind":"bikerack","longitude":14.0992458,"latitude":51.2825529,"name":"Fahrradabstellplatz","city":"Kamenz","address":null,"covered":false,"access":null,"website":null,"phone":null,"source":"OpenStreetMap/node/12184630389","sourceUpdatedAt":null,"verifiedAt":null}},{"type":"Feature","geometry":{"type":"Point","coordinates":[14.0937976,51.2732936]},"properties":{"id":"service:ecf614c4-d268-44cf-aaa1-00ab958cd3a0","kind":"service","longitude":14.0937976,"latitude":51.2732936,"name":"Knull's Bikes","city":"Kamenz","address":null,"covered":null,"access":null,"website":null,"phone":null,"source":"OpenStreetMap/node/13393010854","sourceUpdatedAt":null,"verifiedAt":null}}]}