{"type":"FeatureCollection","features":[{"type":"Feature","geometry":{"type":"Point","coordinates":[14.0793915,49.9626033]},"properties":{"id":"bikerack:3be116d2-1e14-4a23-af84-4a026265f842","kind":"bikerack","longitude":14.0793915,"latitude":49.9626033,"name":"Bicycle Parking","city":"Beroun","address":null,"covered":false,"access":null,"website":null,"phone":null,"source":"OpenStreetMap/node/3594789912","sourceUpdatedAt":null,"verifiedAt":null}},{"type":"Feature","geometry":{"type":"Point","coordinates":[14.0736894,49.9619577]},"properties":{"id":"bikerack:3d70053a-0699-4fb9-8d4d-8ec8185a663c","kind":"bikerack","longitude":14.0736894,"latitude":49.9619577,"name":"Bicycle Parking","city":"Beroun","address":null,"covered":true,"access":null,"website":null,"phone":null,"source":"OpenStreetMap/node/7772399703","sourceUpdatedAt":null,"verifiedAt":null}},{"type":"Feature","geometry":{"type":"Point","coordinates":[14.0756243,49.9578205]},"properties":{"id":"bikerack:4aa272fc-bbfd-4c77-a671-f76f32b2cf98","kind":"bikerack","longitude":14.0756243,"latitude":49.9578205,"name":"Bicycle Parking","city":"Beroun","address":null,"covered":false,"access":null,"website":null,"phone":null,"source":"OpenStreetMap/node/12311812002","sourceUpdatedAt":null,"verifiedAt":null}},{"type":"Feature","geometry":{"type":"Point","coordinates":[14.0791974,49.9626713]},"properties":{"id":"bikerack:6ca18852-0b7a-4941-8813-c58e5778ff44","kind":"bikerack","longitude":14.0791974,"latitude":49.9626713,"name":"Bicycle Parking","city":"Beroun","address":null,"covered":false,"access":null,"website":null,"phone":null,"source":"OpenStreetMap/node/3594789911","sourceUpdatedAt":null,"verifiedAt":null}},{"type":"Feature","geometry":{"type":"Point","coordinates":[14.075769,49.9579628]},"properties":{"id":"bikerack:705bbe7d-d09b-4d23-bd94-c7b406e8fdb3","kind":"bikerack","longitude":14.075769,"latitude":49.9579628,"name":"Bicycle Parking","city":"Beroun","address":null,"covered":false,"access":null,"website":null,"phone":null,"source":"OpenStreetMap/node/8635522527","sourceUpdatedAt":null,"verifiedAt":null}},{"type":"Feature","geometry":{"type":"Point","coordinates":[14.0654926,49.9590648]},"properties":{"id":"bikerack:7a18be55-9c51-4567-b807-936a8f275925","kind":"bikerack","longitude":14.0654926,"latitude":49.9590648,"name":"Bicycle Parking","city":"Beroun","address":null,"covered":false,"access":null,"website":null,"phone":null,"source":"OpenStreetMap/way/1421725808","sourceUpdatedAt":null,"verifiedAt":null}},{"type":"Feature","geometry":{"type":"Point","coordinates":[14.072465,49.9637357]},"properties":{"id":"bikerack:81a44320-297d-42e5-b8d1-8788582e1c3a","kind":"bikerack","longitude":14.072465,"latitude":49.9637357,"name":"Bicycle Parking","city":"Beroun","address":null,"covered":false,"access":null,"website":null,"phone":null,"source":"OpenStreetMap/node/1498759412","sourceUpdatedAt":null,"verifiedAt":null}},{"type":"Feature","geometry":{"type":"Point","coordinates":[14.0745886,49.9639238]},"properties":{"id":"bikerack:8e0e9efb-9070-4e67-b08a-bfc63aab905c","kind":"bikerack","longitude":14.0745886,"latitude":49.9639238,"name":"Bicycle Parking","city":"Beroun","address":null,"covered":false,"access":null,"website":null,"phone":null,"source":"OpenStreetMap/node/7832419578","sourceUpdatedAt":null,"verifiedAt":null}},{"type":"Feature","geometry":{"type":"Point","coordinates":[14.0733546,49.9626649]},"properties":{"id":"bikerack:96ee75b7-9266-49a4-8a37-5723b05c83e8","kind":"bikerack","longitude":14.0733546,"latitude":49.9626649,"name":"Bicycle Parking","city":"Beroun","address":null,"covered":false,"access":null,"website":null,"phone":null,"source":"OpenStreetMap/node/6421396717","sourceUpdatedAt":null,"verifiedAt":null}},{"type":"Feature","geometry":{"type":"Point","coordinates":[14.0705976,49.9671466]},"properties":{"id":"bikerack:b35ef9ff-20f1-46a7-b673-6c99510b8ee4","kind":"bikerack","longitude":14.0705976,"latitude":49.9671466,"name":"Bicycle Parking","city":"Beroun","address":null,"covered":true,"access":null,"website":null,"phone":null,"source":"OpenStreetMap/node/10037844802","sourceUpdatedAt":null,"verifiedAt":null}},{"type":"Feature","geometry":{"type":"Point","coordinates":[14.0750252,49.9631891]},"properties":{"id":"bikerack:b3c4ae4b-2c75-4a1f-abd9-1c3ab4651836","kind":"bikerack","longitude":14.0750252,"latitude":49.9631891,"name":"Bicycle Parking","city":"Beroun","address":null,"covered":false,"access":null,"website":null,"phone":null,"source":"OpenStreetMap/node/7772399710","sourceUpdatedAt":null,"verifiedAt":null}},{"type":"Feature","geometry":{"type":"Point","coordinates":[14.075653,49.9577228]},"properties":{"id":"bikerack:d0819e09-f7f2-4803-b21f-73127ff211ae","kind":"bikerack","longitude":14.075653,"latitude":49.9577228,"name":"BikeTower","city":"Beroun","address":null,"covered":true,"access":null,"website":null,"phone":null,"source":"OpenStreetMap/way/883787065","sourceUpdatedAt":null,"verifiedAt":null}},{"type":"Feature","geometry":{"type":"Point","coordinates":[14.0756642,49.9641944]},"properties":{"id":"bikerack:e32088ed-02a7-4ca8-9196-60a401968abc","kind":"bikerack","longitude":14.0756642,"latitude":49.9641944,"name":"Bicycle Parking","city":"Beroun","address":null,"covered":false,"access":null,"website":null,"phone":null,"source":"OpenStreetMap/node/12311812003","sourceUpdatedAt":null,"verifiedAt":null}},{"type":"Feature","geometry":{"type":"Point","coordinates":[14.075636,49.957775]},"properties":{"id":"repair:e195b9c3-0515-4696-b715-a2b85220cb1f","kind":"repair","longitude":14.075636,"latitude":49.957775,"name":"Bicycle Repair Station","city":"Beroun","address":null,"covered":false,"access":null,"website":null,"phone":null,"source":"OpenStreetMap/node/8635490392","sourceUpdatedAt":null,"verifiedAt":null}},{"type":"Feature","geometry":{"type":"Point","coordinates":[14.0705943,49.9631286]},"properties":{"id":"service:6d3e4b3b-403f-41d6-aaf3-999427f51203","kind":"service","longitude":14.0705943,"latitude":49.9631286,"name":"Cyklocentrum.cz","city":"Beroun","address":null,"covered":null,"access":null,"website":null,"phone":null,"source":"OpenStreetMap/node/1287155589","sourceUpdatedAt":null,"verifiedAt":null}},{"type":"Feature","geometry":{"type":"Point","coordinates":[14.073384,49.9655471]},"properties":{"id":"service:de3dca58-01ee-4732-934d-904f03035368","kind":"service","longitude":14.073384,"latitude":49.9655471,"name":"dhCYCLING","city":"Beroun","address":null,"covered":null,"access":null,"website":null,"phone":null,"source":"OpenStreetMap/node/3458049150","sourceUpdatedAt":null,"verifiedAt":null}}]}