{"type":"FeatureCollection","features":[{"type":"Feature","geometry":{"type":"Point","coordinates":[14.0769236,45.4236608]},"properties":{"id":"water:2b144d47-9e60-4e0b-a17b-90c3b5043d18","kind":"water","longitude":14.0769236,"latitude":45.4236608,"name":"Ivókút","city":"Buzet","address":null,"covered":null,"access":null,"website":null,"phone":null,"source":"OpenStreetMap/node/5900805422","sourceUpdatedAt":null,"verifiedAt":null}},{"type":"Feature","geometry":{"type":"Point","coordinates":[14.0956906,45.4266298]},"properties":{"id":"water:6dcffa7b-e681-49af-8c9b-0bfe1bcae24c","kind":"water","longitude":14.0956906,"latitude":45.4266298,"name":"Ivókút","city":"Buzet","address":null,"covered":null,"access":null,"website":null,"phone":null,"source":"OpenStreetMap/node/5900805434","sourceUpdatedAt":null,"verifiedAt":null}},{"type":"Feature","geometry":{"type":"Point","coordinates":[14.1030698,45.4110069]},"properties":{"id":"water:7a0c6738-7d7b-4dd9-9720-5d827d97118c","kind":"water","longitude":14.1030698,"latitude":45.4110069,"name":"Ivókút","city":"Buzet","address":null,"covered":null,"access":null,"website":null,"phone":null,"source":"OpenStreetMap/node/5900805432","sourceUpdatedAt":null,"verifiedAt":null}},{"type":"Feature","geometry":{"type":"Point","coordinates":[14.0740241,45.4240082]},"properties":{"id":"water:a21c8748-7085-4430-9133-d8e8c90b106f","kind":"water","longitude":14.0740241,"latitude":45.4240082,"name":"Ivókút","city":"Buzet","address":null,"covered":null,"access":null,"website":null,"phone":null,"source":"OpenStreetMap/node/6257447991","sourceUpdatedAt":null,"verifiedAt":null}},{"type":"Feature","geometry":{"type":"Point","coordinates":[14.0747228,45.4240072]},"properties":{"id":"water:db343c18-a819-4c3d-b88c-8092d941344f","kind":"water","longitude":14.0747228,"latitude":45.4240072,"name":"Ivókút","city":"Buzet","address":null,"covered":null,"access":null,"website":null,"phone":null,"source":"OpenStreetMap/node/6257447061","sourceUpdatedAt":null,"verifiedAt":null}}]}