{"type":"FeatureCollection","features":[{"type":"Feature","geometry":{"type":"Point","coordinates":[22.2753933,52.1837811]},"properties":{"id":"bikerack:087ab96b-3563-427b-9341-3eb12d6dbda5","kind":"bikerack","longitude":22.2753933,"latitude":52.1837811,"name":"Biciklitároló","city":"Siedlce","address":null,"covered":false,"access":null,"website":null,"phone":null,"source":"OpenStreetMap/node/9839096066","sourceUpdatedAt":null,"verifiedAt":null}},{"type":"Feature","geometry":{"type":"Point","coordinates":[22.2701815,52.1631445]},"properties":{"id":"bikerack:1ae910df-57a4-4525-b18f-75ecc1a1a345","kind":"bikerack","longitude":22.2701815,"latitude":52.1631445,"name":"Biciklitároló","city":"Siedlce","address":null,"covered":true,"access":null,"website":null,"phone":null,"source":"OpenStreetMap/node/2796008648","sourceUpdatedAt":null,"verifiedAt":null}},{"type":"Feature","geometry":{"type":"Point","coordinates":[22.2723099,52.1811272]},"properties":{"id":"bikerack:2100f221-4ccc-4f52-8223-4f2f834b4f7f","kind":"bikerack","longitude":22.2723099,"latitude":52.1811272,"name":"Biciklitároló","city":"Siedlce","address":null,"covered":false,"access":null,"website":null,"phone":null,"source":"OpenStreetMap/node/9839096071","sourceUpdatedAt":null,"verifiedAt":null}},{"type":"Feature","geometry":{"type":"Point","coordinates":[22.2752846,52.1809786]},"properties":{"id":"bikerack:276e60d3-c599-4d99-bc82-73c7e1bcb37c","kind":"bikerack","longitude":22.2752846,"latitude":52.1809786,"name":"Biciklitároló","city":"Siedlce","address":null,"covered":false,"access":null,"website":null,"phone":null,"source":"OpenStreetMap/node/9839096068","sourceUpdatedAt":null,"verifiedAt":null}},{"type":"Feature","geometry":{"type":"Point","coordinates":[22.2729122,52.1818253]},"properties":{"id":"bikerack:45c94965-7329-4e9f-8b04-48b9417c02d3","kind":"bikerack","longitude":22.2729122,"latitude":52.1818253,"name":"Biciklitároló","city":"Siedlce","address":null,"covered":false,"access":null,"website":null,"phone":null,"source":"OpenStreetMap/node/9839096069","sourceUpdatedAt":null,"verifiedAt":null}},{"type":"Feature","geometry":{"type":"Point","coordinates":[22.2684813,52.1630096]},"properties":{"id":"bikerack:4c79e663-c11d-4575-b22c-c69f7bd98d69","kind":"bikerack","longitude":22.2684813,"latitude":52.1630096,"name":"Biciklitároló","city":"Siedlce","address":null,"covered":true,"access":null,"website":null,"phone":null,"source":"OpenStreetMap/node/7616013158","sourceUpdatedAt":null,"verifiedAt":null}},{"type":"Feature","geometry":{"type":"Point","coordinates":[22.2713303,52.1689732]},"properties":{"id":"bikerack:60470ab8-c5f4-4e52-b103-8024c9c536d7","kind":"bikerack","longitude":22.2713303,"latitude":52.1689732,"name":"Biciklitároló","city":"Siedlce","address":null,"covered":false,"access":null,"website":null,"phone":null,"source":"OpenStreetMap/node/2894300864","sourceUpdatedAt":null,"verifiedAt":null}},{"type":"Feature","geometry":{"type":"Point","coordinates":[22.275845,52.1816625]},"properties":{"id":"bikerack:66ba503b-9ca3-40e4-b9dd-4c7f201bbe10","kind":"bikerack","longitude":22.275845,"latitude":52.1816625,"name":"Biciklitároló","city":"Siedlce","address":null,"covered":false,"access":null,"website":null,"phone":null,"source":"OpenStreetMap/node/9839096067","sourceUpdatedAt":null,"verifiedAt":null}},{"type":"Feature","geometry":{"type":"Point","coordinates":[22.270296,52.1620832]},"properties":{"id":"bikerack:a5084b9b-bc8f-4b5b-b1bb-496fc8b685e8","kind":"bikerack","longitude":22.270296,"latitude":52.1620832,"name":"Biciklitároló","city":"Siedlce","address":null,"covered":false,"access":null,"website":null,"phone":null,"source":"OpenStreetMap/way/981207089","sourceUpdatedAt":null,"verifiedAt":null}},{"type":"Feature","geometry":{"type":"Point","coordinates":[22.269906,52.1679795]},"properties":{"id":"bikerack:c332c71e-de60-4f5e-8d22-fa65718dcb1f","kind":"bikerack","longitude":22.269906,"latitude":52.1679795,"name":"Biciklitároló","city":"Siedlce","address":null,"covered":false,"access":null,"website":null,"phone":null,"source":"OpenStreetMap/node/7834321841","sourceUpdatedAt":null,"verifiedAt":null}},{"type":"Feature","geometry":{"type":"Point","coordinates":[22.2732714,52.1814789]},"properties":{"id":"bikerack:c89b9cce-fe38-4b3c-bed2-0f47d624694e","kind":"bikerack","longitude":22.2732714,"latitude":52.1814789,"name":"Biciklitároló","city":"Siedlce","address":null,"covered":false,"access":null,"website":null,"phone":null,"source":"OpenStreetMap/node/9839096070","sourceUpdatedAt":null,"verifiedAt":null}},{"type":"Feature","geometry":{"type":"Point","coordinates":[22.2779452,52.1769419]},"properties":{"id":"bikerack:cd9f8a5f-edc9-444e-9841-d134caa7f31c","kind":"bikerack","longitude":22.2779452,"latitude":52.1769419,"name":"Biciklitároló","city":"Siedlce","address":null,"covered":false,"access":null,"website":null,"phone":null,"source":"OpenStreetMap/node/3495325623","sourceUpdatedAt":null,"verifiedAt":null}},{"type":"Feature","geometry":{"type":"Point","coordinates":[22.2736287,52.1850792]},"properties":{"id":"bikerack:e3960c16-9d00-4f41-bace-aa95a7256292","kind":"bikerack","longitude":22.2736287,"latitude":52.1850792,"name":"Biciklitároló","city":"Siedlce","address":null,"covered":false,"access":null,"website":null,"phone":null,"source":"OpenStreetMap/node/9839096065","sourceUpdatedAt":null,"verifiedAt":null}},{"type":"Feature","geometry":{"type":"Point","coordinates":[22.2728417,52.1814145]},"properties":{"id":"bikerack:e5391d9d-914d-419c-b1eb-e4ed50718888","kind":"bikerack","longitude":22.2728417,"latitude":52.1814145,"name":"Biciklitároló","city":"Siedlce","address":null,"covered":false,"access":null,"website":null,"phone":null,"source":"OpenStreetMap/node/9839096072","sourceUpdatedAt":null,"verifiedAt":null}},{"type":"Feature","geometry":{"type":"Point","coordinates":[22.2674525,52.1632494]},"properties":{"id":"bikerack:fecfd632-72f5-485b-96d0-dab85ffb77fb","kind":"bikerack","longitude":22.2674525,"latitude":52.1632494,"name":"Biciklitároló","city":"Siedlce","address":null,"covered":false,"access":null,"website":null,"phone":null,"source":"OpenStreetMap/node/13461730336","sourceUpdatedAt":null,"verifiedAt":null}},{"type":"Feature","geometry":{"type":"Point","coordinates":[22.2488919,52.1614783]},"properties":{"id":"repair:21d0deda-38d1-4453-96d1-50f07b0d33ee","kind":"repair","longitude":22.2488919,"latitude":52.1614783,"name":"Kerékpár szervizállomás","city":"Siedlce","address":null,"covered":false,"access":null,"website":null,"phone":null,"source":"OpenStreetMap/node/7928661235","sourceUpdatedAt":null,"verifiedAt":null}},{"type":"Feature","geometry":{"type":"Point","coordinates":[22.2753833,52.1659669]},"properties":{"id":"service:8b1b692c-3417-401d-95be-d856eeae8d02","kind":"service","longitude":22.2753833,"latitude":52.1659669,"name":"Rowery","city":"Siedlce","address":null,"covered":null,"access":null,"website":null,"phone":null,"source":"OpenStreetMap/node/7837020309","sourceUpdatedAt":null,"verifiedAt":null}},{"type":"Feature","geometry":{"type":"Point","coordinates":[22.2679983,52.1675348]},"properties":{"id":"service:a4863924-3b29-4aa2-8738-cb38c1ad149d","kind":"service","longitude":22.2679983,"latitude":52.1675348,"name":"Delta Sport","city":"Siedlce","address":null,"covered":null,"access":null,"website":null,"phone":null,"source":"OpenStreetMap/way/97974454","sourceUpdatedAt":null,"verifiedAt":null}},{"type":"Feature","geometry":{"type":"Point","coordinates":[22.2516746,52.1673922]},"properties":{"id":"service:b86ec151-4101-4a9a-8707-a546667b0d88","kind":"service","longitude":22.2516746,"latitude":52.1673922,"name":"3bieg.pl","city":"Siedlce","address":null,"covered":null,"access":null,"website":null,"phone":null,"source":"OpenStreetMap/way/97971421","sourceUpdatedAt":null,"verifiedAt":null}},{"type":"Feature","geometry":{"type":"Point","coordinates":[22.2698931,52.1653378]},"properties":{"id":"service:c316ebd5-ee33-428b-9ac0-4a880e9147d2","kind":"service","longitude":22.2698931,"latitude":52.1653378,"name":"Rowery","city":"Siedlce","address":null,"covered":null,"access":null,"website":null,"phone":null,"source":"OpenStreetMap/node/3087873367","sourceUpdatedAt":null,"verifiedAt":null}},{"type":"Feature","geometry":{"type":"Point","coordinates":[22.2745564,52.1714696]},"properties":{"id":"water:6a0f5c64-8ff1-44bf-a992-7bf2b89412e0","kind":"water","longitude":22.2745564,"latitude":52.1714696,"name":"Ivókút","city":"Siedlce","address":null,"covered":null,"access":null,"website":null,"phone":null,"source":"OpenStreetMap/node/9855685384","sourceUpdatedAt":null,"verifiedAt":null}},{"type":"Feature","geometry":{"type":"Point","coordinates":[22.271861,52.1696581]},"properties":{"id":"water:fcb0ad28-1453-4a8b-af9f-d0e63c83278d","kind":"water","longitude":22.271861,"latitude":52.1696581,"name":"Ivókút","city":"Siedlce","address":null,"covered":null,"access":null,"website":null,"phone":null,"source":"OpenStreetMap/node/12168684740","sourceUpdatedAt":null,"verifiedAt":null}}]}