{"type":"FeatureCollection","features":[{"type":"Feature","geometry":{"type":"Point","coordinates":[22.241098,50.0673649]},"properties":{"id":"bikerack:0572ff00-1027-4576-b00c-66132b1a488c","kind":"bikerack","longitude":22.241098,"latitude":50.0673649,"name":"Biciklitároló","city":"Lancut","address":null,"covered":false,"access":null,"website":null,"phone":null,"source":"OpenStreetMap/node/5928603481","sourceUpdatedAt":null,"verifiedAt":null}},{"type":"Feature","geometry":{"type":"Point","coordinates":[22.2371353,50.0651197]},"properties":{"id":"bikerack:06d4a790-45b1-43df-9904-ef146b224c01","kind":"bikerack","longitude":22.2371353,"latitude":50.0651197,"name":"Biciklitároló","city":"Lancut","address":null,"covered":false,"access":null,"website":null,"phone":null,"source":"OpenStreetMap/node/11645435247","sourceUpdatedAt":null,"verifiedAt":null}},{"type":"Feature","geometry":{"type":"Point","coordinates":[22.2463804,50.081376]},"properties":{"id":"bikerack:ad7efae8-ca13-46fe-80df-dadec9a87616","kind":"bikerack","longitude":22.2463804,"latitude":50.081376,"name":"Biciklitároló","city":"Lancut","address":null,"covered":false,"access":null,"website":null,"phone":null,"source":"OpenStreetMap/node/5928700270","sourceUpdatedAt":null,"verifiedAt":null}},{"type":"Feature","geometry":{"type":"Point","coordinates":[22.2412471,50.0673993]},"properties":{"id":"bikerack:bd54fe3c-e492-431a-953c-dc25fefae188","kind":"bikerack","longitude":22.2412471,"latitude":50.0673993,"name":"Biciklitároló","city":"Lancut","address":null,"covered":false,"access":null,"website":null,"phone":null,"source":"OpenStreetMap/node/5928603482","sourceUpdatedAt":null,"verifiedAt":null}}]}