{"type":"FeatureCollection","features":[{"type":"Feature","geometry":{"type":"Point","coordinates":[22.2495645,50.0441144]},"properties":{"id":"bikerack:13833b5c-7c39-4ac9-993f-06ebe30c5281","kind":"bikerack","longitude":22.2495645,"latitude":50.0441144,"name":"Biciklitároló","city":"Wysoka","address":null,"covered":false,"access":null,"website":null,"phone":null,"source":"OpenStreetMap/node/3515531917","sourceUpdatedAt":null,"verifiedAt":null}},{"type":"Feature","geometry":{"type":"Point","coordinates":[22.2490984,50.0457488]},"properties":{"id":"bikerack:322f1726-2d91-400e-a3af-bf6593beff6f","kind":"bikerack","longitude":22.2490984,"latitude":50.0457488,"name":"Biciklitároló","city":"Wysoka","address":null,"covered":false,"access":null,"website":null,"phone":null,"source":"OpenStreetMap/node/3515531918","sourceUpdatedAt":null,"verifiedAt":null}},{"type":"Feature","geometry":{"type":"Point","coordinates":[22.2363441,50.058588]},"properties":{"id":"bikerack:b8b4ebb6-bf45-4f0e-bf40-757fad6cf762","kind":"bikerack","longitude":22.2363441,"latitude":50.058588,"name":"Biciklitároló","city":"Lancut","address":null,"covered":false,"access":null,"website":null,"phone":null,"source":"OpenStreetMap/node/6066225392","sourceUpdatedAt":null,"verifiedAt":null}}]}