{"type":"FeatureCollection","features":[{"type":"Feature","geometry":{"type":"Point","coordinates":[14.9359565,51.1378828]},"properties":{"id":"bikerack:30d417bd-31a8-4d4a-9a1c-37c1a035483d","kind":"bikerack","longitude":14.9359565,"latitude":51.1378828,"name":"Fahrradabstellplatz","city":"Markersdorf","address":null,"covered":false,"access":null,"website":null,"phone":null,"source":"OpenStreetMap/node/2453950708","sourceUpdatedAt":null,"verifiedAt":null}},{"type":"Feature","geometry":{"type":"Point","coordinates":[14.9385192,51.1450399]},"properties":{"id":"bikerack:406200d7-ba8b-4b8d-a9ca-e5effe16b634","kind":"bikerack","longitude":14.9385192,"latitude":51.1450399,"name":"Fahrradabstellplatz","city":"Goerlitz","address":null,"covered":false,"access":null,"website":null,"phone":null,"source":"OpenStreetMap/node/6833387143","sourceUpdatedAt":null,"verifiedAt":null}},{"type":"Feature","geometry":{"type":"Point","coordinates":[14.9377924,51.1440176]},"properties":{"id":"bikerack:47f53059-48d4-4e89-ae1e-0b1c7b12b151","kind":"bikerack","longitude":14.9377924,"latitude":51.1440176,"name":"Fahrradabstellplatz","city":"Goerlitz","address":null,"covered":false,"access":null,"website":null,"phone":null,"source":"OpenStreetMap/node/12140106418","sourceUpdatedAt":null,"verifiedAt":null}}]}