{"type":"FeatureCollection","features":[{"type":"Feature","geometry":{"type":"Point","coordinates":[22.6373761,51.3486665]},"properties":{"id":"bikerack:6e8742a1-3369-4f8b-9d39-b63a07eae0b6","kind":"bikerack","longitude":22.6373761,"latitude":51.3486665,"name":"Biciklitároló","city":"Niemce","address":null,"covered":false,"access":null,"website":null,"phone":null,"source":"OpenStreetMap/node/11366465353","sourceUpdatedAt":null,"verifiedAt":null}},{"type":"Feature","geometry":{"type":"Point","coordinates":[22.6427002,51.3532152]},"properties":{"id":"bikerack:f5fe0fb6-2722-4639-a80a-44e821661292","kind":"bikerack","longitude":22.6427002,"latitude":51.3532152,"name":"Biciklitároló","city":"Niemce","address":null,"covered":false,"access":null,"website":null,"phone":null,"source":"OpenStreetMap/node/11366465352","sourceUpdatedAt":null,"verifiedAt":null}}]}