{"type":"FeatureCollection","features":[{"type":"Feature","geometry":{"type":"Point","coordinates":[16.0316034,47.7909072]},"properties":{"id":"bikerack:31954f05-8379-4fe1-a320-3e4e8aff130a","kind":"bikerack","longitude":16.0316034,"latitude":47.7909072,"name":"Biciklitároló","city":"Willendorf am Steinfelde","address":null,"covered":true,"access":null,"website":null,"phone":null,"source":"OpenStreetMap/node/1691244092","sourceUpdatedAt":null,"verifiedAt":null}},{"type":"Feature","geometry":{"type":"Point","coordinates":[16.0277798,47.8018344]},"properties":{"id":"water:1c77ecaf-1814-460d-88ea-d550c65157c6","kind":"water","longitude":16.0277798,"latitude":47.8018344,"name":"Ivókút","city":"Willendorf am Steinfelde","address":null,"covered":null,"access":null,"website":null,"phone":null,"source":"OpenStreetMap/node/7900526930","sourceUpdatedAt":null,"verifiedAt":null}},{"type":"Feature","geometry":{"type":"Point","coordinates":[16.0346645,47.8041955]},"properties":{"id":"water:908bbf56-0c8b-4520-8cb9-54c50adaf90a","kind":"water","longitude":16.0346645,"latitude":47.8041955,"name":"Ivókút","city":"Willendorf am Steinfelde","address":null,"covered":null,"access":null,"website":null,"phone":null,"source":"OpenStreetMap/node/925858140","sourceUpdatedAt":null,"verifiedAt":null}},{"type":"Feature","geometry":{"type":"Point","coordinates":[16.0167268,47.8057754]},"properties":{"id":"water:e81f1c6b-19a1-4445-b203-ca9dbb893da3","kind":"water","longitude":16.0167268,"latitude":47.8057754,"name":"Ivókút","city":"Grunbach am Schneeberg","address":null,"covered":null,"access":null,"website":null,"phone":null,"source":"OpenStreetMap/node/1461406093","sourceUpdatedAt":null,"verifiedAt":null}}]}