{"type":"FeatureCollection","features":[{"type":"Feature","geometry":{"type":"Point","coordinates":[15.9992638,45.7426995]},"properties":{"id":"bikerack:6b85d06d-beaa-42a4-8b3d-820132295a8d","kind":"bikerack","longitude":15.9992638,"latitude":45.7426995,"name":"Biciklitároló","city":"Odra","address":null,"covered":true,"access":null,"website":null,"phone":null,"source":"OpenStreetMap/way/1052112612","sourceUpdatedAt":null,"verifiedAt":null}},{"type":"Feature","geometry":{"type":"Point","coordinates":[16.0201974,45.7579911]},"properties":{"id":"water:4154be6e-5715-4020-a66d-513ca5997a58","kind":"water","longitude":16.0201974,"latitude":45.7579911,"name":"Ivókút","city":"Odra","address":null,"covered":null,"access":null,"website":null,"phone":null,"source":"OpenStreetMap/node/8796494938","sourceUpdatedAt":null,"verifiedAt":null}},{"type":"Feature","geometry":{"type":"Point","coordinates":[16.0001604,45.7647184]},"properties":{"id":"water:b6be80fa-4cf8-40ed-b452-2b132c46125c","kind":"water","longitude":16.0001604,"latitude":45.7647184,"name":"Ivókút","city":"Novi Zagreb","address":null,"covered":null,"access":null,"website":null,"phone":null,"source":"OpenStreetMap/node/11993302456","sourceUpdatedAt":null,"verifiedAt":null}}]}