{"type":"FeatureCollection","features":[{"type":"Feature","geometry":{"type":"Point","coordinates":[10.7961932,54.3134289]},"properties":{"id":"bikerack:75442317-f060-40d1-a375-21d27109578b","kind":"bikerack","longitude":10.7961932,"latitude":54.3134289,"name":"Fahrradabstellplatz","city":"Wangels","address":null,"covered":false,"access":null,"website":null,"phone":null,"source":"OpenStreetMap/way/704283333","sourceUpdatedAt":null,"verifiedAt":null}},{"type":"Feature","geometry":{"type":"Point","coordinates":[10.7922773,54.3123859]},"properties":{"id":"bikerack:a4dfdf08-5c50-419b-9282-39bffd3da21f","kind":"bikerack","longitude":10.7922773,"latitude":54.3123859,"name":"Fahrradabstellplatz","city":"Wangels","address":null,"covered":false,"access":null,"website":null,"phone":null,"source":"OpenStreetMap/way/702668959","sourceUpdatedAt":null,"verifiedAt":null}},{"type":"Feature","geometry":{"type":"Point","coordinates":[10.766967,54.3061095]},"properties":{"id":"bikerack:b67a58d3-44a5-4e7d-ad96-eb5a147e08c6","kind":"bikerack","longitude":10.766967,"latitude":54.3061095,"name":"Fahrradabstellplatz","city":"Wangels","address":null,"covered":false,"access":null,"website":null,"phone":null,"source":"OpenStreetMap/node/6616051252","sourceUpdatedAt":null,"verifiedAt":null}}]}