{"type":"FeatureCollection","features":[{"type":"Feature","geometry":{"type":"Point","coordinates":[10.7934628,45.8149034]},"properties":{"id":"bikerack:17bf0a75-9b9c-4fcc-b050-fc2069a771ad","kind":"bikerack","longitude":10.7934628,"latitude":45.8149034,"name":"Parcheggio bici","city":"Limone sul Garda","address":null,"covered":false,"access":null,"website":null,"phone":null,"source":"OpenStreetMap/node/12748100682","sourceUpdatedAt":null,"verifiedAt":null}},{"type":"Feature","geometry":{"type":"Point","coordinates":[10.793682,45.8143726]},"properties":{"id":"bikerack:2034cf7b-8b5a-4c55-bd99-2ae15be047ac","kind":"bikerack","longitude":10.793682,"latitude":45.8143726,"name":"Parcheggio bici","city":"Limone sul Garda","address":null,"covered":false,"access":null,"website":null,"phone":null,"source":"OpenStreetMap/node/9999882087","sourceUpdatedAt":null,"verifiedAt":null}},{"type":"Feature","geometry":{"type":"Point","coordinates":[10.7934169,45.8149991]},"properties":{"id":"bikerack:5be98344-9300-43e4-93d7-da890d51b423","kind":"bikerack","longitude":10.7934169,"latitude":45.8149991,"name":"Parcheggio bici","city":"Limone sul Garda","address":null,"covered":false,"access":null,"website":null,"phone":null,"source":"OpenStreetMap/node/9999867280","sourceUpdatedAt":null,"verifiedAt":null}},{"type":"Feature","geometry":{"type":"Point","coordinates":[10.7935841,45.8145032]},"properties":{"id":"bikerack:8c4b40d2-684b-4994-b05d-2224dc2f6e68","kind":"bikerack","longitude":10.7935841,"latitude":45.8145032,"name":"Parcheggio bici","city":"Limone sul Garda","address":null,"covered":false,"access":null,"website":null,"phone":null,"source":"OpenStreetMap/node/9999883318","sourceUpdatedAt":null,"verifiedAt":null}},{"type":"Feature","geometry":{"type":"Point","coordinates":[10.7937228,45.8142765]},"properties":{"id":"bikerack:e4bc2e3a-8955-448a-8084-7dd9bbb479b1","kind":"bikerack","longitude":10.7937228,"latitude":45.8142765,"name":"Parcheggio bici","city":"Limone sul Garda","address":null,"covered":false,"access":null,"website":null,"phone":null,"source":"OpenStreetMap/node/9999885899","sourceUpdatedAt":null,"verifiedAt":null}},{"type":"Feature","geometry":{"type":"Point","coordinates":[10.7938572,45.8123394]},"properties":{"id":"repair:5a1fc428-11d3-44fd-88d4-820d3db4a475","kind":"repair","longitude":10.7938572,"latitude":45.8123394,"name":"Ciclopedonale del garda","city":"Limone sul Garda","address":null,"covered":false,"access":null,"website":null,"phone":null,"source":"OpenStreetMap/node/5841777313","sourceUpdatedAt":null,"verifiedAt":null}},{"type":"Feature","geometry":{"type":"Point","coordinates":[10.7919267,45.8132163]},"properties":{"id":"service:5077162f-0f79-4a1f-8d12-fd7e3c157281","kind":"service","longitude":10.7919267,"latitude":45.8132163,"name":"Bike Center Limone","city":"Limone sul Garda","address":null,"covered":null,"access":null,"website":null,"phone":null,"source":"OpenStreetMap/node/6499255795","sourceUpdatedAt":null,"verifiedAt":null}},{"type":"Feature","geometry":{"type":"Point","coordinates":[10.7932021,45.8157061]},"properties":{"id":"water:0451325d-749b-4b51-8f19-aed0628c04c5","kind":"water","longitude":10.7932021,"latitude":45.8157061,"name":"Fontanella","city":"Limone sul Garda","address":null,"covered":null,"access":null,"website":null,"phone":null,"source":"OpenStreetMap/node/2699969573","sourceUpdatedAt":null,"verifiedAt":null}},{"type":"Feature","geometry":{"type":"Point","coordinates":[10.7872882,45.8117165]},"properties":{"id":"water:0928b982-ed7d-45a5-8409-d80eb9de856e","kind":"water","longitude":10.7872882,"latitude":45.8117165,"name":"Fontanella","city":"Limone sul Garda","address":null,"covered":null,"access":null,"website":null,"phone":null,"source":"OpenStreetMap/node/12753560953","sourceUpdatedAt":null,"verifiedAt":null}},{"type":"Feature","geometry":{"type":"Point","coordinates":[10.7852933,45.8088341]},"properties":{"id":"water:3c71694d-4e11-4f0b-a5f7-db8063315d92","kind":"water","longitude":10.7852933,"latitude":45.8088341,"name":"Fontanella","city":"Limone sul Garda","address":null,"covered":null,"access":null,"website":null,"phone":null,"source":"OpenStreetMap/node/393013527","sourceUpdatedAt":null,"verifiedAt":null}},{"type":"Feature","geometry":{"type":"Point","coordinates":[10.7922848,45.8120397]},"properties":{"id":"water:51ee4f2b-50cd-4cda-986f-7c8f37e3077c","kind":"water","longitude":10.7922848,"latitude":45.8120397,"name":"Fontanella","city":"Limone sul Garda","address":null,"covered":null,"access":null,"website":null,"phone":null,"source":"OpenStreetMap/node/12079549280","sourceUpdatedAt":null,"verifiedAt":null}},{"type":"Feature","geometry":{"type":"Point","coordinates":[10.7889432,45.8071164]},"properties":{"id":"water:5a275896-f86f-4741-9635-be5cb7175695","kind":"water","longitude":10.7889432,"latitude":45.8071164,"name":"Fontanella","city":"Limone sul Garda","address":null,"covered":null,"access":null,"website":null,"phone":null,"source":"OpenStreetMap/node/12757840683","sourceUpdatedAt":null,"verifiedAt":null}},{"type":"Feature","geometry":{"type":"Point","coordinates":[10.7924906,45.8159998]},"properties":{"id":"water:66b5008d-6922-424a-8b96-f5bf0e029081","kind":"water","longitude":10.7924906,"latitude":45.8159998,"name":"Fontanella","city":"Limone sul Garda","address":null,"covered":null,"access":null,"website":null,"phone":null,"source":"OpenStreetMap/node/2699919485","sourceUpdatedAt":null,"verifiedAt":null}},{"type":"Feature","geometry":{"type":"Point","coordinates":[10.7920347,45.8154509]},"properties":{"id":"water:8ee7d2e0-3f84-46e2-89d7-cb6e380ec94a","kind":"water","longitude":10.7920347,"latitude":45.8154509,"name":"Fontanella","city":"Limone sul Garda","address":null,"covered":null,"access":null,"website":null,"phone":null,"source":"OpenStreetMap/node/2691238926","sourceUpdatedAt":null,"verifiedAt":null}},{"type":"Feature","geometry":{"type":"Point","coordinates":[10.7939004,45.8131142]},"properties":{"id":"water:a24d0dd7-e203-437f-8399-91ac4f5e0586","kind":"water","longitude":10.7939004,"latitude":45.8131142,"name":"Fontanella","city":"Limone sul Garda","address":null,"covered":null,"access":null,"website":null,"phone":null,"source":"OpenStreetMap/node/3617072736","sourceUpdatedAt":null,"verifiedAt":null}},{"type":"Feature","geometry":{"type":"Point","coordinates":[10.7911141,45.8110799]},"properties":{"id":"water:a2574c62-e0fc-47b9-a401-99850c3f45dc","kind":"water","longitude":10.7911141,"latitude":45.8110799,"name":"Fontanella","city":"Limone sul Garda","address":null,"covered":null,"access":null,"website":null,"phone":null,"source":"OpenStreetMap/node/2691216343","sourceUpdatedAt":null,"verifiedAt":null}},{"type":"Feature","geometry":{"type":"Point","coordinates":[10.7879355,45.8118243]},"properties":{"id":"water:a518addd-cff2-4de1-89ca-e936ea06f241","kind":"water","longitude":10.7879355,"latitude":45.8118243,"name":"Sorgente San Giovanni","city":"Limone sul Garda","address":null,"covered":null,"access":null,"website":null,"phone":null,"source":"OpenStreetMap/node/5044634329","sourceUpdatedAt":null,"verifiedAt":null}},{"type":"Feature","geometry":{"type":"Point","coordinates":[10.7933268,45.8151903]},"properties":{"id":"water:a6142f0a-66a8-40fd-866b-52332c60da6f","kind":"water","longitude":10.7933268,"latitude":45.8151903,"name":"Fontanella","city":"Limone sul Garda","address":null,"covered":null,"access":null,"website":null,"phone":null,"source":"OpenStreetMap/node/431526208","sourceUpdatedAt":null,"verifiedAt":null}},{"type":"Feature","geometry":{"type":"Point","coordinates":[10.7928444,45.8144832]},"properties":{"id":"water:a865dc64-4b99-4ea0-a92d-ad8fe4f38dc6","kind":"water","longitude":10.7928444,"latitude":45.8144832,"name":"Fontanella","city":"Limone sul Garda","address":null,"covered":null,"access":null,"website":null,"phone":null,"source":"OpenStreetMap/node/4480755251","sourceUpdatedAt":null,"verifiedAt":null}},{"type":"Feature","geometry":{"type":"Point","coordinates":[10.7934909,45.8140433]},"properties":{"id":"water:ab1a4a67-8bfa-4cef-b22f-c3c920905ead","kind":"water","longitude":10.7934909,"latitude":45.8140433,"name":"Fontanella","city":"Limone sul Garda","address":null,"covered":null,"access":null,"website":null,"phone":null,"source":"OpenStreetMap/node/4314244994","sourceUpdatedAt":null,"verifiedAt":null}},{"type":"Feature","geometry":{"type":"Point","coordinates":[10.7883268,45.8049371]},"properties":{"id":"water:bdda84a1-884f-48b7-8acc-029b874caa63","kind":"water","longitude":10.7883268,"latitude":45.8049371,"name":"Fontanella","city":"Limone sul Garda","address":null,"covered":null,"access":null,"website":null,"phone":null,"source":"OpenStreetMap/node/2424373559","sourceUpdatedAt":null,"verifiedAt":null}},{"type":"Feature","geometry":{"type":"Point","coordinates":[10.791958,45.8150066]},"properties":{"id":"water:c0d9baab-5cac-4906-a0eb-4835455c4121","kind":"water","longitude":10.791958,"latitude":45.8150066,"name":"Fontanella","city":"Limone sul Garda","address":null,"covered":null,"access":null,"website":null,"phone":null,"source":"OpenStreetMap/node/393013148","sourceUpdatedAt":null,"verifiedAt":null}},{"type":"Feature","geometry":{"type":"Point","coordinates":[10.7924993,45.815194]},"properties":{"id":"water:c26162f1-e294-4b0c-9915-9c62c330cddc","kind":"water","longitude":10.7924993,"latitude":45.815194,"name":"Fontanella","city":"Limone sul Garda","address":null,"covered":null,"access":null,"website":null,"phone":null,"source":"OpenStreetMap/node/2699918033","sourceUpdatedAt":null,"verifiedAt":null}},{"type":"Feature","geometry":{"type":"Point","coordinates":[10.7924041,45.8142795]},"properties":{"id":"water:c49387d2-c25f-4da3-9164-331801bc0502","kind":"water","longitude":10.7924041,"latitude":45.8142795,"name":"Fontanella","city":"Limone sul Garda","address":null,"covered":null,"access":null,"website":null,"phone":null,"source":"OpenStreetMap/node/2694574846","sourceUpdatedAt":null,"verifiedAt":null}},{"type":"Feature","geometry":{"type":"Point","coordinates":[10.7972192,45.8190325]},"properties":{"id":"water:c83d4e44-e701-4695-827a-83dab6af4526","kind":"water","longitude":10.7972192,"latitude":45.8190325,"name":"Fontanella","city":"Limone sul Garda","address":null,"covered":null,"access":null,"website":null,"phone":null,"source":"OpenStreetMap/node/12736855746","sourceUpdatedAt":null,"verifiedAt":null}},{"type":"Feature","geometry":{"type":"Point","coordinates":[10.7940752,45.8169525]},"properties":{"id":"water:ceee0fbf-d451-40c8-b380-2b2de6742cfa","kind":"water","longitude":10.7940752,"latitude":45.8169525,"name":"Fontanella","city":"Limone sul Garda","address":null,"covered":null,"access":null,"website":null,"phone":null,"source":"OpenStreetMap/node/970731530","sourceUpdatedAt":null,"verifiedAt":null}},{"type":"Feature","geometry":{"type":"Point","coordinates":[10.7916092,45.8108002]},"properties":{"id":"water:cef7ae4f-9acb-47dc-9181-524c9a8a5d98","kind":"water","longitude":10.7916092,"latitude":45.8108002,"name":"Punto Acqua","city":"Limone sul Garda","address":null,"covered":null,"access":null,"website":null,"phone":null,"source":"OpenStreetMap/node/12069939304","sourceUpdatedAt":null,"verifiedAt":null}},{"type":"Feature","geometry":{"type":"Point","coordinates":[10.7804651,45.8181486]},"properties":{"id":"water:d97f04be-bb92-44cf-bb25-0847cdd90373","kind":"water","longitude":10.7804651,"latitude":45.8181486,"name":"Acqua del Singol","city":"Limone sul Garda","address":null,"covered":null,"access":null,"website":null,"phone":null,"source":"OpenStreetMap/node/395844920","sourceUpdatedAt":null,"verifiedAt":null}},{"type":"Feature","geometry":{"type":"Point","coordinates":[10.8023291,45.8213249]},"properties":{"id":"water:e111129a-7ef8-4ebe-9a7f-2fab994ad25d","kind":"water","longitude":10.8023291,"latitude":45.8213249,"name":"Fontanella","city":"Limone sul Garda","address":null,"covered":null,"access":null,"website":null,"phone":null,"source":"OpenStreetMap/node/9685085827","sourceUpdatedAt":null,"verifiedAt":null}},{"type":"Feature","geometry":{"type":"Point","coordinates":[10.7922477,45.8141826]},"properties":{"id":"water:e1832b1a-a34c-47a2-b10f-4037ddca1206","kind":"water","longitude":10.7922477,"latitude":45.8141826,"name":"Fontanella","city":"Limone sul Garda","address":null,"covered":null,"access":null,"website":null,"phone":null,"source":"OpenStreetMap/node/10000676410","sourceUpdatedAt":null,"verifiedAt":null}},{"type":"Feature","geometry":{"type":"Point","coordinates":[10.7920556,45.815659]},"properties":{"id":"water:fb347b69-6eb5-40fa-bf21-aad4bb033995","kind":"water","longitude":10.7920556,"latitude":45.815659,"name":"Fontanella","city":"Limone sul Garda","address":null,"covered":null,"access":null,"website":null,"phone":null,"source":"OpenStreetMap/node/393013299","sourceUpdatedAt":null,"verifiedAt":null}},{"type":"Feature","geometry":{"type":"Point","coordinates":[10.7918689,45.8112163]},"properties":{"id":"water:fcf0456c-0b2f-4b74-a2f0-82072d947898","kind":"water","longitude":10.7918689,"latitude":45.8112163,"name":"Fontanella","city":"Limone sul Garda","address":null,"covered":null,"access":null,"website":null,"phone":null,"source":"OpenStreetMap/node/393013255","sourceUpdatedAt":null,"verifiedAt":null}}]}