{"type":"FeatureCollection","features":[{"type":"Feature","geometry":{"type":"Point","coordinates":[11.5008802,47.24553]},"properties":{"id":"water:04e6b0b9-bcac-45e9-89f4-bdfaadab7d21","kind":"water","longitude":11.5008802,"latitude":47.24553,"name":"Ivókút","city":"Rinn","address":null,"covered":null,"access":null,"website":null,"phone":null,"source":"OpenStreetMap/node/4270454287","sourceUpdatedAt":null,"verifiedAt":null}},{"type":"Feature","geometry":{"type":"Point","coordinates":[11.4878196,47.230686]},"properties":{"id":"water:20cfca83-2dc1-4df8-8cc6-bb5e528d0ef7","kind":"water","longitude":11.4878196,"latitude":47.230686,"name":"Ivókút","city":"Rinn","address":null,"covered":null,"access":null,"website":null,"phone":null,"source":"OpenStreetMap/node/9820621613","sourceUpdatedAt":null,"verifiedAt":null}},{"type":"Feature","geometry":{"type":"Point","coordinates":[11.4876043,47.2304151]},"properties":{"id":"water:4c552f99-875d-4be1-b1b0-ba43d0fd5bf2","kind":"water","longitude":11.4876043,"latitude":47.2304151,"name":"Ivókút","city":"Rinn","address":null,"covered":null,"access":null,"website":null,"phone":null,"source":"OpenStreetMap/node/434142045","sourceUpdatedAt":null,"verifiedAt":null}},{"type":"Feature","geometry":{"type":"Point","coordinates":[11.4877951,47.2485678]},"properties":{"id":"water:5fc203a8-0ff9-4a55-a2e7-3993291475de","kind":"water","longitude":11.4877951,"latitude":47.2485678,"name":"Ivókút","city":"Rinn","address":null,"covered":null,"access":null,"website":null,"phone":null,"source":"OpenStreetMap/node/4531587631","sourceUpdatedAt":null,"verifiedAt":null}},{"type":"Feature","geometry":{"type":"Point","coordinates":[11.5019763,47.2491716]},"properties":{"id":"water:60648a13-696d-4cac-8ce2-6144749fa969","kind":"water","longitude":11.5019763,"latitude":47.2491716,"name":"Ivókút","city":"Rinn","address":null,"covered":null,"access":null,"website":null,"phone":null,"source":"OpenStreetMap/node/4491259288","sourceUpdatedAt":null,"verifiedAt":null}},{"type":"Feature","geometry":{"type":"Point","coordinates":[11.5047084,47.2454114]},"properties":{"id":"water:83288360-3877-42f2-9478-51939b24848a","kind":"water","longitude":11.5047084,"latitude":47.2454114,"name":"Ivókút","city":"Rinn","address":null,"covered":null,"access":null,"website":null,"phone":null,"source":"OpenStreetMap/node/4449672145","sourceUpdatedAt":null,"verifiedAt":null}},{"type":"Feature","geometry":{"type":"Point","coordinates":[11.4984741,47.2392894]},"properties":{"id":"water:a0c49eee-80a6-470b-ac95-15e239206f74","kind":"water","longitude":11.4984741,"latitude":47.2392894,"name":"Holzbrunnen","city":"Rinn","address":null,"covered":null,"access":null,"website":null,"phone":null,"source":"OpenStreetMap/node/2317130498","sourceUpdatedAt":null,"verifiedAt":null}},{"type":"Feature","geometry":{"type":"Point","coordinates":[11.4893493,47.2431489]},"properties":{"id":"water:a256b2c4-d688-4cae-bcbb-383a733637f7","kind":"water","longitude":11.4893493,"latitude":47.2431489,"name":"Ivókút","city":"Rinn","address":null,"covered":null,"access":null,"website":null,"phone":null,"source":"OpenStreetMap/node/13675743056","sourceUpdatedAt":null,"verifiedAt":null}},{"type":"Feature","geometry":{"type":"Point","coordinates":[11.4992111,47.2424317]},"properties":{"id":"water:dfa1effe-aab9-4b09-add1-e89a7dcff439","kind":"water","longitude":11.4992111,"latitude":47.2424317,"name":"Ivókút","city":"Rinn","address":null,"covered":null,"access":null,"website":null,"phone":null,"source":"OpenStreetMap/node/4642815760","sourceUpdatedAt":null,"verifiedAt":null}}]}