{"type":"FeatureCollection","features":[{"type":"Feature","geometry":{"type":"Point","coordinates":[12.8402391,53.3206137]},"properties":{"id":"bikerack:5e5c9159-c66e-4a3d-8161-da70e29d5f33","kind":"bikerack","longitude":12.8402391,"latitude":53.3206137,"name":"Fahrradabstellplatz","city":"Rechlin","address":null,"covered":false,"access":null,"website":null,"phone":null,"source":"OpenStreetMap/node/12071673049","sourceUpdatedAt":null,"verifiedAt":null}},{"type":"Feature","geometry":{"type":"Point","coordinates":[12.8421065,53.3225764]},"properties":{"id":"bikerack:f7095d38-1f3c-476d-b6f7-9f8d8d9af46a","kind":"bikerack","longitude":12.8421065,"latitude":53.3225764,"name":"Fahrradabstellplatz","city":"Rechlin","address":null,"covered":false,"access":null,"website":null,"phone":null,"source":"OpenStreetMap/node/12071673050","sourceUpdatedAt":null,"verifiedAt":null}}]}