{"type":"FeatureCollection","features":[{"type":"Feature","geometry":{"type":"Point","coordinates":[20.500467,47.893068]},"properties":{"id":"water:41ec678f-faa9-4b2a-83e4-44ee95cec32b","kind":"water","longitude":20.500467,"latitude":47.893068,"name":"Ivókút","city":null,"address":null,"covered":null,"access":null,"website":null,"phone":null,"source":"OpenStreetMap","sourceUpdatedAt":null,"verifiedAt":null}},{"type":"Feature","geometry":{"type":"Point","coordinates":[20.4932865,47.8906498]},"properties":{"id":"water:9e8c222a-dfa4-408f-97da-4e1398cb523d","kind":"water","longitude":20.4932865,"latitude":47.8906498,"name":"Ivókút","city":null,"address":null,"covered":null,"access":null,"website":null,"phone":null,"source":"OpenStreetMap","sourceUpdatedAt":null,"verifiedAt":null}}]}