{"type":"FeatureCollection","features":[{"type":"Feature","geometry":{"type":"Point","coordinates":[22.9278351,51.22598]},"properties":{"id":"bikerack:0dcf97d5-bc6c-45d7-b1a7-d52d764331fa","kind":"bikerack","longitude":22.9278351,"latitude":51.22598,"name":"Biciklitároló","city":"Milejow","address":null,"covered":false,"access":null,"website":null,"phone":null,"source":"OpenStreetMap/node/13123912681","sourceUpdatedAt":null,"verifiedAt":null}},{"type":"Feature","geometry":{"type":"Point","coordinates":[22.9243987,51.2228299]},"properties":{"id":"bikerack:79514520-c709-4dbc-8309-5e6cfdc1a19f","kind":"bikerack","longitude":22.9243987,"latitude":51.2228299,"name":"Biciklitároló","city":"Milejow","address":null,"covered":false,"access":null,"website":null,"phone":null,"source":"OpenStreetMap/node/11077470920","sourceUpdatedAt":null,"verifiedAt":null}},{"type":"Feature","geometry":{"type":"Point","coordinates":[22.926942,51.2298193]},"properties":{"id":"bikerack:95364229-039a-4f55-b64d-0cba30cce822","kind":"bikerack","longitude":22.926942,"latitude":51.2298193,"name":"Biciklitároló","city":"Milejow","address":null,"covered":false,"access":null,"website":null,"phone":null,"source":"OpenStreetMap/node/13130917406","sourceUpdatedAt":null,"verifiedAt":null}},{"type":"Feature","geometry":{"type":"Point","coordinates":[22.9264551,51.2297026]},"properties":{"id":"bikerack:9fca7402-9c50-4f86-905b-4f718081f5a8","kind":"bikerack","longitude":22.9264551,"latitude":51.2297026,"name":"Biciklitároló","city":"Milejow","address":null,"covered":false,"access":null,"website":null,"phone":null,"source":"OpenStreetMap/node/13130917404","sourceUpdatedAt":null,"verifiedAt":null}},{"type":"Feature","geometry":{"type":"Point","coordinates":[22.9252106,51.231616]},"properties":{"id":"bikerack:bbb5d4c2-1ca4-46dd-b611-b005b01ee74a","kind":"bikerack","longitude":22.9252106,"latitude":51.231616,"name":"Biciklitároló","city":"Milejow","address":null,"covered":false,"access":null,"website":null,"phone":null,"source":"OpenStreetMap/node/13130917403","sourceUpdatedAt":null,"verifiedAt":null}}]}