{"type":"FeatureCollection","features":[{"type":"Feature","geometry":{"type":"Point","coordinates":[21.1350056,52.1555731]},"properties":{"id":"bikerack:8714cb95-8d10-4e0e-bd63-4dbae95338a4","kind":"bikerack","longitude":21.1350056,"latitude":52.1555731,"name":"Biciklitároló","city":"Wilanow","address":null,"covered":false,"access":null,"website":null,"phone":null,"source":"OpenStreetMap/node/8923685117","sourceUpdatedAt":null,"verifiedAt":null}},{"type":"Feature","geometry":{"type":"Point","coordinates":[21.0992608,52.1337358]},"properties":{"id":"bikerack:a4b327f6-d3d5-4e5c-a084-b579f4bbc784","kind":"bikerack","longitude":21.0992608,"latitude":52.1337358,"name":"Biciklitároló","city":"Kabaty","address":null,"covered":false,"access":null,"website":null,"phone":null,"source":"OpenStreetMap/node/13089414556","sourceUpdatedAt":null,"verifiedAt":null}}]}