{"type":"FeatureCollection","features":[{"type":"Feature","geometry":{"type":"Point","coordinates":[21.1037803,46.3663892]},"properties":{"id":"water:09c96ecf-4320-4025-b685-0dd5df4e5a84","kind":"water","longitude":21.1037803,"latitude":46.3663892,"name":"Ivókút","city":null,"address":null,"covered":null,"access":null,"website":null,"phone":null,"source":"OpenStreetMap","sourceUpdatedAt":null,"verifiedAt":null}},{"type":"Feature","geometry":{"type":"Point","coordinates":[21.12304,46.347477]},"properties":{"id":"water:8eb6685e-b2f3-412e-be80-e4a34e4ed189","kind":"water","longitude":21.12304,"latitude":46.347477,"name":"Ivókút","city":null,"address":null,"covered":null,"access":null,"website":null,"phone":null,"source":"OpenStreetMap","sourceUpdatedAt":null,"verifiedAt":null}}]}