{"type":"FeatureCollection","features":[{"type":"Feature","geometry":{"type":"Point","coordinates":[16.535686,48.8756482]},"properties":{"id":"bikerack:0c120b7a-5efa-44ca-8be5-8de6f06cd9ce","kind":"bikerack","longitude":16.535686,"latitude":48.8756482,"name":"Bicycle Parking","city":"Drnholec","address":null,"covered":false,"access":null,"website":null,"phone":null,"source":"OpenStreetMap/node/11887490066","sourceUpdatedAt":null,"verifiedAt":null}},{"type":"Feature","geometry":{"type":"Point","coordinates":[16.5360415,48.8758878]},"properties":{"id":"bikerack:5d3a7b11-132f-4d0b-ab4b-a895fbbe8f06","kind":"bikerack","longitude":16.5360415,"latitude":48.8758878,"name":"Bicycle Parking","city":"Drnholec","address":null,"covered":false,"access":null,"website":null,"phone":null,"source":"OpenStreetMap/node/11887490067","sourceUpdatedAt":null,"verifiedAt":null}},{"type":"Feature","geometry":{"type":"Point","coordinates":[16.5372389,48.8765668]},"properties":{"id":"bikerack:6a6c83d0-f139-4b53-acfc-773fdf05b280","kind":"bikerack","longitude":16.5372389,"latitude":48.8765668,"name":"Bicycle Parking","city":"Drnholec","address":null,"covered":false,"access":null,"website":null,"phone":null,"source":"OpenStreetMap/node/11887531569","sourceUpdatedAt":null,"verifiedAt":null}},{"type":"Feature","geometry":{"type":"Point","coordinates":[16.5372605,48.8765611]},"properties":{"id":"repair:b9744470-fab2-4ac1-96fa-50f3ec6ff29a","kind":"repair","longitude":16.5372605,"latitude":48.8765611,"name":"Bicycle Repair Station","city":"Drnholec","address":null,"covered":false,"access":null,"website":null,"phone":null,"source":"OpenStreetMap/node/11887490068","sourceUpdatedAt":null,"verifiedAt":null}}]}