{"type":"FeatureCollection","features":[{"type":"Feature","geometry":{"type":"Point","coordinates":[16.5462533,47.0057159]},"properties":{"id":"bikerack:ac0a1c0b-4308-41c9-85aa-993f6c903ebe","kind":"bikerack","longitude":16.5462533,"latitude":47.0057159,"name":"Biciklitároló","city":"Kormend","address":null,"covered":false,"access":null,"website":null,"phone":null,"source":"OpenStreetMap/way/870975908","sourceUpdatedAt":null,"verifiedAt":null}},{"type":"Feature","geometry":{"type":"Point","coordinates":[16.558967,47.003367]},"properties":{"id":"water:054178af-a040-46a1-8f74-266ab6b05582","kind":"water","longitude":16.558967,"latitude":47.003367,"name":"Ivókút","city":null,"address":null,"covered":null,"access":null,"website":null,"phone":null,"source":"OpenStreetMap","sourceUpdatedAt":null,"verifiedAt":null}},{"type":"Feature","geometry":{"type":"Point","coordinates":[16.5618199,47.0075346]},"properties":{"id":"water:3e483d72-ec6d-4cec-af9c-2a602aab7b89","kind":"water","longitude":16.5618199,"latitude":47.0075346,"name":"Ivókút","city":null,"address":null,"covered":null,"access":null,"website":null,"phone":null,"source":"OpenStreetMap","sourceUpdatedAt":null,"verifiedAt":null}},{"type":"Feature","geometry":{"type":"Point","coordinates":[16.5416847,47.0067687]},"properties":{"id":"water:438c7733-c90a-437a-bc0c-3e1451ef6261","kind":"water","longitude":16.5416847,"latitude":47.0067687,"name":"Ivókút","city":null,"address":null,"covered":null,"access":null,"website":null,"phone":null,"source":"OpenStreetMap","sourceUpdatedAt":null,"verifiedAt":null}},{"type":"Feature","geometry":{"type":"Point","coordinates":[16.5369622,47.0068889]},"properties":{"id":"water:773dc2dc-6370-4cdb-84e2-5fa345ad794a","kind":"water","longitude":16.5369622,"latitude":47.0068889,"name":"Ivókút","city":null,"address":null,"covered":null,"access":null,"website":null,"phone":null,"source":"OpenStreetMap","sourceUpdatedAt":null,"verifiedAt":null}},{"type":"Feature","geometry":{"type":"Point","coordinates":[16.5324665,47.0087824]},"properties":{"id":"water:8eccd56a-1d39-4ade-bd80-ebccff24907d","kind":"water","longitude":16.5324665,"latitude":47.0087824,"name":"Ivókút","city":null,"address":null,"covered":null,"access":null,"website":null,"phone":null,"source":"OpenStreetMap","sourceUpdatedAt":null,"verifiedAt":null}},{"type":"Feature","geometry":{"type":"Point","coordinates":[16.5545051,47.001957]},"properties":{"id":"water:900fcac4-62cc-4c47-aa9c-d9f6759466a3","kind":"water","longitude":16.5545051,"latitude":47.001957,"name":"Ivókút","city":null,"address":null,"covered":null,"access":null,"website":null,"phone":null,"source":"OpenStreetMap","sourceUpdatedAt":null,"verifiedAt":null}}]}