{"type":"FeatureCollection","features":[{"type":"Feature","geometry":{"type":"Point","coordinates":[8.4323517,51.8097453]},"properties":{"id":"bikerack:1ccce3a5-8d53-41de-999e-3a2ab090e476","kind":"bikerack","longitude":8.4323517,"latitude":51.8097453,"name":"Fahrradabstellplatz","city":"Rietberg","address":null,"covered":false,"access":null,"website":null,"phone":null,"source":"OpenStreetMap/way/1351773768","sourceUpdatedAt":null,"verifiedAt":null}},{"type":"Feature","geometry":{"type":"Point","coordinates":[8.4244135,51.8127765]},"properties":{"id":"bikerack:1e1988d9-5250-4946-b3be-d810dfa1f8e3","kind":"bikerack","longitude":8.4244135,"latitude":51.8127765,"name":"Fahrradabstellplatz","city":"Rietberg","address":null,"covered":false,"access":null,"website":null,"phone":null,"source":"OpenStreetMap/node/11958583577","sourceUpdatedAt":null,"verifiedAt":null}},{"type":"Feature","geometry":{"type":"Point","coordinates":[8.4323104,51.8097825]},"properties":{"id":"bikerack:44930fbf-53ae-4545-9c9c-493416d255d1","kind":"bikerack","longitude":8.4323104,"latitude":51.8097825,"name":"Fahrradabstellplatz","city":"Rietberg","address":null,"covered":false,"access":null,"website":null,"phone":null,"source":"OpenStreetMap/way/1351773769","sourceUpdatedAt":null,"verifiedAt":null}},{"type":"Feature","geometry":{"type":"Point","coordinates":[8.4322737,51.8098188]},"properties":{"id":"bikerack:6c3b1c48-9661-4922-be7e-1ea573aa51aa","kind":"bikerack","longitude":8.4322737,"latitude":51.8098188,"name":"Fahrradabstellplatz","city":"Rietberg","address":null,"covered":false,"access":null,"website":null,"phone":null,"source":"OpenStreetMap/way/1351773770","sourceUpdatedAt":null,"verifiedAt":null}},{"type":"Feature","geometry":{"type":"Point","coordinates":[8.4244607,51.8104419]},"properties":{"id":"bikerack:70975a26-90e4-47fd-85b7-80bbeead3bb9","kind":"bikerack","longitude":8.4244607,"latitude":51.8104419,"name":"Fahrradabstellplatz","city":"Rietberg","address":null,"covered":false,"access":null,"website":null,"phone":null,"source":"OpenStreetMap/node/4770956411","sourceUpdatedAt":null,"verifiedAt":null}},{"type":"Feature","geometry":{"type":"Point","coordinates":[8.4322425,51.8098485]},"properties":{"id":"bikerack:98ad4682-02cf-422f-a391-c8e19b3ee861","kind":"bikerack","longitude":8.4322425,"latitude":51.8098485,"name":"Fahrradabstellplatz","city":"Rietberg","address":null,"covered":false,"access":null,"website":null,"phone":null,"source":"OpenStreetMap/way/1050824941","sourceUpdatedAt":null,"verifiedAt":null}},{"type":"Feature","geometry":{"type":"Point","coordinates":[8.4349156,51.8086344]},"properties":{"id":"bikerack:cc457251-cd8b-47a1-b263-b164a2bc59bf","kind":"bikerack","longitude":8.4349156,"latitude":51.8086344,"name":"Fahrradabstellplatz","city":"Rietberg","address":null,"covered":true,"access":null,"website":null,"phone":null,"source":"OpenStreetMap/way/1050329258","sourceUpdatedAt":null,"verifiedAt":null}},{"type":"Feature","geometry":{"type":"Point","coordinates":[8.4321863,51.809914]},"properties":{"id":"bikerack:cf3e0576-876d-432d-9921-a8f47d6ca7fe","kind":"bikerack","longitude":8.4321863,"latitude":51.809914,"name":"Fahrradabstellplatz","city":"Rietberg","address":null,"covered":false,"access":null,"website":null,"phone":null,"source":"OpenStreetMap/way/1050824940","sourceUpdatedAt":null,"verifiedAt":null}},{"type":"Feature","geometry":{"type":"Point","coordinates":[8.4281833,51.8106]},"properties":{"id":"water:b9ab0497-a2a0-4863-a78e-d8f1c3dee47a","kind":"water","longitude":8.4281833,"latitude":51.8106,"name":"Trinkwasser","city":"Rietberg","address":null,"covered":null,"access":null,"website":null,"phone":null,"source":"OpenStreetMap/node/13104274091","sourceUpdatedAt":null,"verifiedAt":null}}]}