{"type":"FeatureCollection","features":[{"type":"Feature","geometry":{"type":"Point","coordinates":[8.4023599,49.9819719]},"properties":{"id":"bikerack:045a9f9f-2765-4f8a-8a51-3ea4522c4174","kind":"bikerack","longitude":8.4023599,"latitude":49.9819719,"name":"Fahrradabstellplatz","city":"Russelsheim","address":null,"covered":false,"access":null,"website":null,"phone":null,"source":"OpenStreetMap/node/9842743191","sourceUpdatedAt":null,"verifiedAt":null}},{"type":"Feature","geometry":{"type":"Point","coordinates":[8.4301042,50.0033979]},"properties":{"id":"bikerack:05a8309d-c349-4456-a8d8-621b00749c93","kind":"bikerack","longitude":8.4301042,"latitude":50.0033979,"name":"Fahrradabstellplatz","city":"Florsheim","address":null,"covered":false,"access":null,"website":null,"phone":null,"source":"OpenStreetMap/node/3101126552","sourceUpdatedAt":null,"verifiedAt":null}},{"type":"Feature","geometry":{"type":"Point","coordinates":[8.4122625,49.9947777]},"properties":{"id":"bikerack:09f5d4c3-270e-4fa9-8828-d69d47eabd55","kind":"bikerack","longitude":8.4122625,"latitude":49.9947777,"name":"Fahrradabstellplatz","city":"Russelsheim","address":null,"covered":false,"access":null,"website":null,"phone":null,"source":"OpenStreetMap/node/3101126544","sourceUpdatedAt":null,"verifiedAt":null}},{"type":"Feature","geometry":{"type":"Point","coordinates":[8.401105,49.9926648]},"properties":{"id":"bikerack:0b6cba37-dbf8-470e-bf47-5b67a39f3397","kind":"bikerack","longitude":8.401105,"latitude":49.9926648,"name":"Fahrradabstellplatz","city":"Russelsheim","address":null,"covered":false,"access":null,"website":null,"phone":null,"source":"OpenStreetMap/way/248163578","sourceUpdatedAt":null,"verifiedAt":null}},{"type":"Feature","geometry":{"type":"Point","coordinates":[8.4103042,49.9797838]},"properties":{"id":"bikerack:1066c88f-4a94-44e0-b59b-65d91262c5b3","kind":"bikerack","longitude":8.4103042,"latitude":49.9797838,"name":"Fahrradabstellplatz","city":"Russelsheim","address":null,"covered":false,"access":null,"website":null,"phone":null,"source":"OpenStreetMap/way/997975117","sourceUpdatedAt":null,"verifiedAt":null}},{"type":"Feature","geometry":{"type":"Point","coordinates":[8.4125681,49.9920675]},"properties":{"id":"bikerack:10954667-1d17-4459-8b05-24a93ed8d2e2","kind":"bikerack","longitude":8.4125681,"latitude":49.9920675,"name":"Fahrradabstellplatz","city":"Russelsheim","address":null,"covered":false,"access":null,"website":null,"phone":null,"source":"OpenStreetMap/node/944501336","sourceUpdatedAt":null,"verifiedAt":null}},{"type":"Feature","geometry":{"type":"Point","coordinates":[8.4116163,49.9951617]},"properties":{"id":"bikerack:11982a24-69c6-4dde-9145-3d6b65174873","kind":"bikerack","longitude":8.4116163,"latitude":49.9951617,"name":"Fahrradabstellplatz","city":"Russelsheim","address":null,"covered":false,"access":null,"website":null,"phone":null,"source":"OpenStreetMap/node/10300216263","sourceUpdatedAt":null,"verifiedAt":null}},{"type":"Feature","geometry":{"type":"Point","coordinates":[8.4147567,49.9930885]},"properties":{"id":"bikerack:11fb46e4-99cd-459b-a047-54e03e8d26ed","kind":"bikerack","longitude":8.4147567,"latitude":49.9930885,"name":"Fahrradabstellplatz","city":"Russelsheim","address":null,"covered":false,"access":null,"website":null,"phone":null,"source":"OpenStreetMap/node/951744179","sourceUpdatedAt":null,"verifiedAt":null}},{"type":"Feature","geometry":{"type":"Point","coordinates":[8.4119045,49.9934703]},"properties":{"id":"bikerack:12a043cd-4d4f-46af-986c-a42b23080310","kind":"bikerack","longitude":8.4119045,"latitude":49.9934703,"name":"Fahrradabstellplatz","city":"Russelsheim","address":null,"covered":false,"access":null,"website":null,"phone":null,"source":"OpenStreetMap/node/944497153","sourceUpdatedAt":null,"verifiedAt":null}},{"type":"Feature","geometry":{"type":"Point","coordinates":[8.435376,49.9818329]},"properties":{"id":"bikerack:16571378-ab94-4b0d-9a84-acc44d165ba2","kind":"bikerack","longitude":8.435376,"latitude":49.9818329,"name":"Fahrradabstellplatz","city":"Russelsheim","address":null,"covered":false,"access":null,"website":null,"phone":null,"source":"OpenStreetMap/node/8392412858","sourceUpdatedAt":null,"verifiedAt":null}},{"type":"Feature","geometry":{"type":"Point","coordinates":[8.4158107,49.9932407]},"properties":{"id":"bikerack:1b456f3b-73e6-492a-a74f-325582d28510","kind":"bikerack","longitude":8.4158107,"latitude":49.9932407,"name":"Fahrradabstellplatz","city":"Russelsheim","address":null,"covered":false,"access":null,"website":null,"phone":null,"source":"OpenStreetMap/node/2139281753","sourceUpdatedAt":null,"verifiedAt":null}},{"type":"Feature","geometry":{"type":"Point","coordinates":[8.4230793,49.9831206]},"properties":{"id":"bikerack:1c2db9a8-af2d-4e48-84f3-1517d7c6ea5d","kind":"bikerack","longitude":8.4230793,"latitude":49.9831206,"name":"Fahrradabstellplatz","city":"Russelsheim","address":null,"covered":false,"access":null,"website":null,"phone":null,"source":"OpenStreetMap/node/3101126530","sourceUpdatedAt":null,"verifiedAt":null}},{"type":"Feature","geometry":{"type":"Point","coordinates":[8.4045473,49.9856429]},"properties":{"id":"bikerack:1d7190e4-618a-4708-b226-9eacd0ee53a1","kind":"bikerack","longitude":8.4045473,"latitude":49.9856429,"name":"Fahrradabstellplatz","city":"Russelsheim","address":null,"covered":true,"access":null,"website":null,"phone":null,"source":"OpenStreetMap/way/311633412","sourceUpdatedAt":null,"verifiedAt":null}},{"type":"Feature","geometry":{"type":"Point","coordinates":[8.409466,49.9889906]},"properties":{"id":"bikerack:1f326edd-df21-4763-990b-1a8f0decf298","kind":"bikerack","longitude":8.409466,"latitude":49.9889906,"name":"Fahrradabstellplatz","city":"Russelsheim","address":null,"covered":false,"access":null,"website":null,"phone":null,"source":"OpenStreetMap/node/3101126541","sourceUpdatedAt":null,"verifiedAt":null}},{"type":"Feature","geometry":{"type":"Point","coordinates":[8.4042378,49.9856012]},"properties":{"id":"bikerack:1f4386dc-22e4-4583-9e1c-04cdd2e0af5b","kind":"bikerack","longitude":8.4042378,"latitude":49.9856012,"name":"Fahrradabstellplatz","city":"Russelsheim","address":null,"covered":true,"access":null,"website":null,"phone":null,"source":"OpenStreetMap/way/311633415","sourceUpdatedAt":null,"verifiedAt":null}},{"type":"Feature","geometry":{"type":"Point","coordinates":[8.4136835,49.9918597]},"properties":{"id":"bikerack:1f96e048-6405-461c-8322-91dc948f672c","kind":"bikerack","longitude":8.4136835,"latitude":49.9918597,"name":"Fahrradabstellplatz","city":"Russelsheim","address":null,"covered":true,"access":null,"website":null,"phone":null,"source":"OpenStreetMap/node/944501324","sourceUpdatedAt":null,"verifiedAt":null}},{"type":"Feature","geometry":{"type":"Point","coordinates":[8.4037145,49.9847712]},"properties":{"id":"bikerack:1fc7f7d3-26f9-462a-88b1-0a052fbbe5cf","kind":"bikerack","longitude":8.4037145,"latitude":49.9847712,"name":"Fahrradabstellplatz","city":"Russelsheim","address":null,"covered":true,"access":null,"website":null,"phone":null,"source":"OpenStreetMap/way/1190796728","sourceUpdatedAt":null,"verifiedAt":null}},{"type":"Feature","geometry":{"type":"Point","coordinates":[8.4053608,49.9857038]},"properties":{"id":"bikerack:20434bc1-f6ac-49d3-a032-4d0df9f3ec91","kind":"bikerack","longitude":8.4053608,"latitude":49.9857038,"name":"Fahrradabstellplatz","city":"Russelsheim","address":null,"covered":true,"access":null,"website":null,"phone":null,"source":"OpenStreetMap/way/311633414","sourceUpdatedAt":null,"verifiedAt":null}},{"type":"Feature","geometry":{"type":"Point","coordinates":[8.4028841,50.003248]},"properties":{"id":"bikerack:2680a098-8d93-4c7d-95c1-0c6903d93a86","kind":"bikerack","longitude":8.4028841,"latitude":50.003248,"name":"Fahrradabstellplatz","city":"Russelsheim","address":null,"covered":false,"access":null,"website":null,"phone":null,"source":"OpenStreetMap/node/9656054014","sourceUpdatedAt":null,"verifiedAt":null}},{"type":"Feature","geometry":{"type":"Point","coordinates":[8.4300688,50.0042273]},"properties":{"id":"bikerack:2786ef65-cb68-4ae3-8875-cf89ae68fbc7","kind":"bikerack","longitude":8.4300688,"latitude":50.0042273,"name":"Fahrradabstellplatz","city":"Florsheim","address":null,"covered":false,"access":null,"website":null,"phone":null,"source":"OpenStreetMap/way/1420756177","sourceUpdatedAt":null,"verifiedAt":null}},{"type":"Feature","geometry":{"type":"Point","coordinates":[8.424736,49.9853066]},"properties":{"id":"bikerack:2ae7baef-719f-4bad-96b3-eb8d3295bc71","kind":"bikerack","longitude":8.424736,"latitude":49.9853066,"name":"Fahrradabstellplatz","city":"Russelsheim","address":null,"covered":false,"access":null,"website":null,"phone":null,"source":"OpenStreetMap/node/11260073664","sourceUpdatedAt":null,"verifiedAt":null}},{"type":"Feature","geometry":{"type":"Point","coordinates":[8.4103513,49.9967876]},"properties":{"id":"bikerack:2e466ce6-f111-4676-b41a-f3d44fe23a27","kind":"bikerack","longitude":8.4103513,"latitude":49.9967876,"name":"Fahrradabstellplatz","city":"Russelsheim","address":null,"covered":false,"access":null,"website":null,"phone":null,"source":"OpenStreetMap/node/12482444698","sourceUpdatedAt":null,"verifiedAt":null}},{"type":"Feature","geometry":{"type":"Point","coordinates":[8.4104389,49.9954748]},"properties":{"id":"bikerack:362c7138-c2f7-43a3-b281-c862bf1d39fa","kind":"bikerack","longitude":8.4104389,"latitude":49.9954748,"name":"Fahrradabstellplatz","city":"Russelsheim","address":null,"covered":true,"access":null,"website":null,"phone":null,"source":"OpenStreetMap/node/3101126546","sourceUpdatedAt":null,"verifiedAt":null}},{"type":"Feature","geometry":{"type":"Point","coordinates":[8.4124994,49.9928645]},"properties":{"id":"bikerack:3730489b-f658-4c61-9355-bacf58cedd09","kind":"bikerack","longitude":8.4124994,"latitude":49.9928645,"name":"Fahrradabstellplatz","city":"Russelsheim","address":null,"covered":false,"access":null,"website":null,"phone":null,"source":"OpenStreetMap/node/944497169","sourceUpdatedAt":null,"verifiedAt":null}},{"type":"Feature","geometry":{"type":"Point","coordinates":[8.4309438,49.9832074]},"properties":{"id":"bikerack:39aacef3-6a17-4df8-a3a0-71223c521145","kind":"bikerack","longitude":8.4309438,"latitude":49.9832074,"name":"Fahrradabstellplatz","city":"Russelsheim","address":null,"covered":false,"access":null,"website":null,"phone":null,"source":"OpenStreetMap/node/11056543042","sourceUpdatedAt":null,"verifiedAt":null}},{"type":"Feature","geometry":{"type":"Point","coordinates":[8.4142632,49.9909617]},"properties":{"id":"bikerack:3b698a7e-145a-4947-8a8e-7f37f9a546f7","kind":"bikerack","longitude":8.4142632,"latitude":49.9909617,"name":"Fahrradabstellplatz","city":"Russelsheim","address":null,"covered":false,"access":null,"website":null,"phone":null,"source":"OpenStreetMap/node/11801332570","sourceUpdatedAt":null,"verifiedAt":null}},{"type":"Feature","geometry":{"type":"Point","coordinates":[8.4223821,49.9905375]},"properties":{"id":"bikerack:3c8b9e0d-2061-4218-b1b2-57e9c873cd70","kind":"bikerack","longitude":8.4223821,"latitude":49.9905375,"name":"Fahrradabstellplatz","city":"Russelsheim","address":null,"covered":false,"access":null,"website":null,"phone":null,"source":"OpenStreetMap/node/9552252950","sourceUpdatedAt":null,"verifiedAt":null}},{"type":"Feature","geometry":{"type":"Point","coordinates":[8.4137914,49.9932057]},"properties":{"id":"bikerack:3e22f033-d7f4-40a4-a469-39e5b1cd9aef","kind":"bikerack","longitude":8.4137914,"latitude":49.9932057,"name":"Fahrradabstellplatz","city":"Russelsheim","address":null,"covered":false,"access":null,"website":null,"phone":null,"source":"OpenStreetMap/node/951744194","sourceUpdatedAt":null,"verifiedAt":null}},{"type":"Feature","geometry":{"type":"Point","coordinates":[8.4246671,49.9817244]},"properties":{"id":"bikerack:3e26e69b-01e1-4e79-8a2c-7a7af6c5a59e","kind":"bikerack","longitude":8.4246671,"latitude":49.9817244,"name":"Fahrradabstellplatz","city":"Russelsheim","address":null,"covered":true,"access":null,"website":null,"phone":null,"source":"OpenStreetMap/node/3101124828","sourceUpdatedAt":null,"verifiedAt":null}},{"type":"Feature","geometry":{"type":"Point","coordinates":[8.4249095,49.9902254]},"properties":{"id":"bikerack:434827a9-fb44-4fc9-95a7-69f71fe28a79","kind":"bikerack","longitude":8.4249095,"latitude":49.9902254,"name":"Fahrradabstellplatz","city":"Russelsheim","address":null,"covered":true,"access":null,"website":null,"phone":null,"source":"OpenStreetMap/way/997931053","sourceUpdatedAt":null,"verifiedAt":null}},{"type":"Feature","geometry":{"type":"Point","coordinates":[8.4038061,49.9855011]},"properties":{"id":"bikerack:451748e4-b269-4621-91ab-3cc408f158bc","kind":"bikerack","longitude":8.4038061,"latitude":49.9855011,"name":"Fahrradabstellplatz","city":"Russelsheim","address":null,"covered":true,"access":null,"website":null,"phone":null,"source":"OpenStreetMap/way/311633410","sourceUpdatedAt":null,"verifiedAt":null}},{"type":"Feature","geometry":{"type":"Point","coordinates":[8.4117186,49.9972194]},"properties":{"id":"bikerack:4827f781-0d88-49a8-a67e-f36a0ce2c375","kind":"bikerack","longitude":8.4117186,"latitude":49.9972194,"name":"Fahrradabstellplatz","city":"Russelsheim","address":null,"covered":false,"access":null,"website":null,"phone":null,"source":"OpenStreetMap/node/12482444697","sourceUpdatedAt":null,"verifiedAt":null}},{"type":"Feature","geometry":{"type":"Point","coordinates":[8.4351916,49.9817383]},"properties":{"id":"bikerack:4b8e3cd6-0e0f-463a-8c56-d7ab95f1f300","kind":"bikerack","longitude":8.4351916,"latitude":49.9817383,"name":"Fahrradabstellplatz","city":"Russelsheim","address":null,"covered":false,"access":null,"website":null,"phone":null,"source":"OpenStreetMap/node/8392412856","sourceUpdatedAt":null,"verifiedAt":null}},{"type":"Feature","geometry":{"type":"Point","coordinates":[8.4371551,49.9939744]},"properties":{"id":"bikerack:4e3bd23e-ca41-4733-84a4-8ffda70bc790","kind":"bikerack","longitude":8.4371551,"latitude":49.9939744,"name":"Fahrradabstellplatz","city":"Russelsheim","address":null,"covered":true,"access":null,"website":null,"phone":null,"source":"OpenStreetMap/way/1088220165","sourceUpdatedAt":null,"verifiedAt":null}},{"type":"Feature","geometry":{"type":"Point","coordinates":[8.4130063,49.9929715]},"properties":{"id":"bikerack:555fcbb2-2070-4b40-a6d7-83cfd15682e1","kind":"bikerack","longitude":8.4130063,"latitude":49.9929715,"name":"Fahrradabstellplatz","city":"Russelsheim","address":null,"covered":false,"access":null,"website":null,"phone":null,"source":"OpenStreetMap/node/944497135","sourceUpdatedAt":null,"verifiedAt":null}},{"type":"Feature","geometry":{"type":"Point","coordinates":[8.4131361,49.9920803]},"properties":{"id":"bikerack:5926215d-b15a-444f-953c-27ac18af4dcd","kind":"bikerack","longitude":8.4131361,"latitude":49.9920803,"name":"Fahrradabstellplatz","city":"Russelsheim","address":null,"covered":false,"access":null,"website":null,"phone":null,"source":"OpenStreetMap/node/944501330","sourceUpdatedAt":null,"verifiedAt":null}},{"type":"Feature","geometry":{"type":"Point","coordinates":[8.4300327,50.0033356]},"properties":{"id":"bikerack:5b5fae12-aa72-4495-841c-f3cd555e37c1","kind":"bikerack","longitude":8.4300327,"latitude":50.0033356,"name":"Fahrradabstellplatz","city":"Florsheim","address":null,"covered":false,"access":null,"website":null,"phone":null,"source":"OpenStreetMap/way/1420748719","sourceUpdatedAt":null,"verifiedAt":null}},{"type":"Feature","geometry":{"type":"Point","coordinates":[8.4318446,49.994526]},"properties":{"id":"bikerack:5c33eb1b-03ce-44c0-9691-f3cde799b4f2","kind":"bikerack","longitude":8.4318446,"latitude":49.994526,"name":"Fahrradabstellplatz","city":"Russelsheim","address":null,"covered":false,"access":null,"website":null,"phone":null,"source":"OpenStreetMap/way/1417204309","sourceUpdatedAt":null,"verifiedAt":null}},{"type":"Feature","geometry":{"type":"Point","coordinates":[8.4266252,50.0020766]},"properties":{"id":"bikerack:5c5e5a1c-cb24-4489-ba1d-3a1dfed09925","kind":"bikerack","longitude":8.4266252,"latitude":50.0020766,"name":"Fahrradabstellplatz","city":"Florsheim","address":null,"covered":false,"access":null,"website":null,"phone":null,"source":"OpenStreetMap/node/11220758106","sourceUpdatedAt":null,"verifiedAt":null}},{"type":"Feature","geometry":{"type":"Point","coordinates":[8.4252121,49.9918124]},"properties":{"id":"bikerack:630eb94e-e3e6-4758-9113-fd0833ee61ae","kind":"bikerack","longitude":8.4252121,"latitude":49.9918124,"name":"Fahrradabstellplatz","city":"Russelsheim","address":null,"covered":false,"access":null,"website":null,"phone":null,"source":"OpenStreetMap/node/9214712297","sourceUpdatedAt":null,"verifiedAt":null}},{"type":"Feature","geometry":{"type":"Point","coordinates":[8.4251052,49.9915963]},"properties":{"id":"bikerack:64ce1d17-b8c9-407d-8d3d-433a811cb4bf","kind":"bikerack","longitude":8.4251052,"latitude":49.9915963,"name":"Fahrradabstellplatz","city":"Russelsheim","address":null,"covered":true,"access":null,"website":null,"phone":null,"source":"OpenStreetMap/way/902752438","sourceUpdatedAt":null,"verifiedAt":null}},{"type":"Feature","geometry":{"type":"Point","coordinates":[8.4259715,49.9890416]},"properties":{"id":"bikerack:65db2d05-f1ee-4203-bcda-f56305102e8f","kind":"bikerack","longitude":8.4259715,"latitude":49.9890416,"name":"Fahrradabstellplatz","city":"Russelsheim","address":null,"covered":true,"access":null,"website":null,"phone":null,"source":"OpenStreetMap/way/997936919","sourceUpdatedAt":null,"verifiedAt":null}},{"type":"Feature","geometry":{"type":"Point","coordinates":[8.412638,49.9796011]},"properties":{"id":"bikerack:67316e3b-f258-463c-9766-954bdca0359b","kind":"bikerack","longitude":8.412638,"latitude":49.9796011,"name":"Fahrradabstellplatz","city":"Russelsheim","address":null,"covered":true,"access":null,"website":null,"phone":null,"source":"OpenStreetMap/way/904148565","sourceUpdatedAt":null,"verifiedAt":null}},{"type":"Feature","geometry":{"type":"Point","coordinates":[8.4253323,49.9919347]},"properties":{"id":"bikerack:6adc80c9-a635-45b2-8742-5aa408881ab6","kind":"bikerack","longitude":8.4253323,"latitude":49.9919347,"name":"Fahrradabstellplatz","city":"Russelsheim","address":null,"covered":false,"access":null,"website":null,"phone":null,"source":"OpenStreetMap/way/997981443","sourceUpdatedAt":null,"verifiedAt":null}},{"type":"Feature","geometry":{"type":"Point","coordinates":[8.4196767,49.9940599]},"properties":{"id":"bikerack:6d64a50c-f34c-458f-9cc3-95e5e0baf2a5","kind":"bikerack","longitude":8.4196767,"latitude":49.9940599,"name":"Fahrradabstellplatz","city":"Russelsheim","address":null,"covered":false,"access":null,"website":null,"phone":null,"source":"OpenStreetMap/node/13061814756","sourceUpdatedAt":null,"verifiedAt":null}},{"type":"Feature","geometry":{"type":"Point","coordinates":[8.4125867,49.9911808]},"properties":{"id":"bikerack:6dbcc1f0-acda-4b21-99fd-e5e4b994997e","kind":"bikerack","longitude":8.4125867,"latitude":49.9911808,"name":"Fahrradabstellplatz","city":"Russelsheim","address":null,"covered":true,"access":null,"website":null,"phone":null,"source":"OpenStreetMap/node/944522630","sourceUpdatedAt":null,"verifiedAt":null}},{"type":"Feature","geometry":{"type":"Point","coordinates":[8.4080114,49.9893723]},"properties":{"id":"bikerack:6f2bfea5-8a98-48eb-b7b6-8f6ab55cd37d","kind":"bikerack","longitude":8.4080114,"latitude":49.9893723,"name":"Fahrradabstellplatz","city":"Russelsheim","address":null,"covered":true,"access":null,"website":null,"phone":null,"source":"OpenStreetMap/way/329270083","sourceUpdatedAt":null,"verifiedAt":null}},{"type":"Feature","geometry":{"type":"Point","coordinates":[8.4108002,49.9868847]},"properties":{"id":"bikerack:6fdf4598-a7df-4e90-8102-020ac055018c","kind":"bikerack","longitude":8.4108002,"latitude":49.9868847,"name":"Fahrradabstellplatz","city":"Russelsheim","address":null,"covered":false,"access":null,"website":null,"phone":null,"source":"OpenStreetMap/way/798267693","sourceUpdatedAt":null,"verifiedAt":null}},{"type":"Feature","geometry":{"type":"Point","coordinates":[8.4353323,49.9819035]},"properties":{"id":"bikerack:7047028e-ab6e-4d61-bd99-a4620c88c57d","kind":"bikerack","longitude":8.4353323,"latitude":49.9819035,"name":"Fahrradabstellplatz","city":"Russelsheim","address":null,"covered":false,"access":null,"website":null,"phone":null,"source":"OpenStreetMap/node/8392412859","sourceUpdatedAt":null,"verifiedAt":null}},{"type":"Feature","geometry":{"type":"Point","coordinates":[8.4196598,49.9941268]},"properties":{"id":"bikerack:73eb66d4-cd98-4763-b864-c1128f896d3e","kind":"bikerack","longitude":8.4196598,"latitude":49.9941268,"name":"Fahrradabstellplatz","city":"Russelsheim","address":null,"covered":false,"access":null,"website":null,"phone":null,"source":"OpenStreetMap/node/13061814755","sourceUpdatedAt":null,"verifiedAt":null}},{"type":"Feature","geometry":{"type":"Point","coordinates":[8.4283407,50.0003952]},"properties":{"id":"bikerack:769da6e8-e532-4e5e-ac03-31accd1696ef","kind":"bikerack","longitude":8.4283407,"latitude":50.0003952,"name":"Fahrradabstellplatz","city":"Russelsheim","address":null,"covered":false,"access":null,"website":null,"phone":null,"source":"OpenStreetMap/node/13723740207","sourceUpdatedAt":null,"verifiedAt":null}},{"type":"Feature","geometry":{"type":"Point","coordinates":[8.4107815,49.9969251]},"properties":{"id":"bikerack:78fd7de4-6983-4ff3-83f3-1213c11dbceb","kind":"bikerack","longitude":8.4107815,"latitude":49.9969251,"name":"Fahrradabstellplatz","city":"Russelsheim","address":null,"covered":false,"access":null,"website":null,"phone":null,"source":"OpenStreetMap/node/8385817511","sourceUpdatedAt":null,"verifiedAt":null}},{"type":"Feature","geometry":{"type":"Point","coordinates":[8.4234839,50.001121]},"properties":{"id":"bikerack:7e306226-9763-408a-9f88-bdd0f06bdd99","kind":"bikerack","longitude":8.4234839,"latitude":50.001121,"name":"Fahrradabstellplatz","city":"Russelsheim","address":null,"covered":false,"access":null,"website":null,"phone":null,"source":"OpenStreetMap/node/11264838539","sourceUpdatedAt":null,"verifiedAt":null}},{"type":"Feature","geometry":{"type":"Point","coordinates":[8.412187,49.9914173]},"properties":{"id":"bikerack:8069bcba-43a0-436d-8cff-af17dc3c1b29","kind":"bikerack","longitude":8.412187,"latitude":49.9914173,"name":"Fahrradabstellplatz","city":"Russelsheim","address":null,"covered":false,"access":null,"website":null,"phone":null,"source":"OpenStreetMap/node/13439830653","sourceUpdatedAt":null,"verifiedAt":null}},{"type":"Feature","geometry":{"type":"Point","coordinates":[8.4223998,49.987108]},"properties":{"id":"bikerack:835d9246-c4d1-4f3f-8016-0c18d854142d","kind":"bikerack","longitude":8.4223998,"latitude":49.987108,"name":"Fahrradabstellplatz","city":"Russelsheim","address":null,"covered":false,"access":null,"website":null,"phone":null,"source":"OpenStreetMap/way/1049852889","sourceUpdatedAt":null,"verifiedAt":null}},{"type":"Feature","geometry":{"type":"Point","coordinates":[8.4092455,49.985011]},"properties":{"id":"bikerack:839b358c-bc35-433e-8bcf-6cf222edfee9","kind":"bikerack","longitude":8.4092455,"latitude":49.985011,"name":"Fahrradabstellplatz","city":"Russelsheim","address":null,"covered":true,"access":null,"website":null,"phone":null,"source":"OpenStreetMap/way/1036674472","sourceUpdatedAt":null,"verifiedAt":null}},{"type":"Feature","geometry":{"type":"Point","coordinates":[8.4134176,49.992092]},"properties":{"id":"bikerack:850ce9a4-e84f-4b6e-944a-e6dbf605db00","kind":"bikerack","longitude":8.4134176,"latitude":49.992092,"name":"Fahrradabstellplatz","city":"Russelsheim","address":null,"covered":false,"access":null,"website":null,"phone":null,"source":"OpenStreetMap/node/13059865833","sourceUpdatedAt":null,"verifiedAt":null}},{"type":"Feature","geometry":{"type":"Point","coordinates":[8.4103936,49.9955505]},"properties":{"id":"bikerack:88c6f201-733a-4fb8-ba1b-e5bd2c9c2afe","kind":"bikerack","longitude":8.4103936,"latitude":49.9955505,"name":"Fahrradabstellplatz","city":"Russelsheim","address":null,"covered":true,"access":null,"website":null,"phone":null,"source":"OpenStreetMap/node/3101126548","sourceUpdatedAt":null,"verifiedAt":null}},{"type":"Feature","geometry":{"type":"Point","coordinates":[8.4139779,49.9901812]},"properties":{"id":"bikerack:8f09957b-1eb8-4830-86ea-20ffed2deb34","kind":"bikerack","longitude":8.4139779,"latitude":49.9901812,"name":"Fahrradabstellplatz","city":"Russelsheim","address":null,"covered":false,"access":null,"website":null,"phone":null,"source":"OpenStreetMap/node/3993888161","sourceUpdatedAt":null,"verifiedAt":null}},{"type":"Feature","geometry":{"type":"Point","coordinates":[8.4127532,49.99122]},"properties":{"id":"bikerack:8f53ec29-591a-4c24-8059-a030f1a37b38","kind":"bikerack","longitude":8.4127532,"latitude":49.99122,"name":"Fahrradabstellplatz","city":"Russelsheim","address":null,"covered":true,"access":null,"website":null,"phone":null,"source":"OpenStreetMap/node/944522621","sourceUpdatedAt":null,"verifiedAt":null}},{"type":"Feature","geometry":{"type":"Point","coordinates":[8.4117516,49.9957138]},"properties":{"id":"bikerack:915dfd08-31b6-4ad5-aee9-3115a962a29e","kind":"bikerack","longitude":8.4117516,"latitude":49.9957138,"name":"Fahrradabstellplatz","city":"Russelsheim","address":null,"covered":true,"access":null,"website":null,"phone":null,"source":"OpenStreetMap/node/3101126551","sourceUpdatedAt":null,"verifiedAt":null}},{"type":"Feature","geometry":{"type":"Point","coordinates":[8.4142355,49.9910076]},"properties":{"id":"bikerack:91b491bc-2b51-4066-8a89-81d85a17accf","kind":"bikerack","longitude":8.4142355,"latitude":49.9910076,"name":"Fahrradabstellplatz","city":"Russelsheim","address":null,"covered":false,"access":null,"website":null,"phone":null,"source":"OpenStreetMap/node/11801266486","sourceUpdatedAt":null,"verifiedAt":null}},{"type":"Feature","geometry":{"type":"Point","coordinates":[8.4144967,49.9916662]},"properties":{"id":"bikerack:9639c5e6-24da-44d1-9558-153f29c57b98","kind":"bikerack","longitude":8.4144967,"latitude":49.9916662,"name":"Fahrradabstellplatz","city":"Russelsheim","address":null,"covered":true,"access":null,"website":null,"phone":null,"source":"OpenStreetMap/node/944522632","sourceUpdatedAt":null,"verifiedAt":null}},{"type":"Feature","geometry":{"type":"Point","coordinates":[8.4128526,49.9920761]},"properties":{"id":"bikerack:9738a92e-e509-412e-b43d-06bea9e4dfba","kind":"bikerack","longitude":8.4128526,"latitude":49.9920761,"name":"Fahrradabstellplatz","city":"Russelsheim","address":null,"covered":false,"access":null,"website":null,"phone":null,"source":"OpenStreetMap/node/944501347","sourceUpdatedAt":null,"verifiedAt":null}},{"type":"Feature","geometry":{"type":"Point","coordinates":[8.4143276,49.9908572]},"properties":{"id":"bikerack:9744eb0a-10b1-49b2-9bcb-8916824adaf6","kind":"bikerack","longitude":8.4143276,"latitude":49.9908572,"name":"Fahrradabstellplatz","city":"Russelsheim","address":null,"covered":false,"access":null,"website":null,"phone":null,"source":"OpenStreetMap/node/11801338891","sourceUpdatedAt":null,"verifiedAt":null}},{"type":"Feature","geometry":{"type":"Point","coordinates":[8.4133467,49.9903463]},"properties":{"id":"bikerack:97cec7a4-da8a-4a18-b3b7-8fe77aa1d468","kind":"bikerack","longitude":8.4133467,"latitude":49.9903463,"name":"Fahrradabstellplatz","city":"Russelsheim","address":null,"covered":false,"access":null,"website":null,"phone":null,"source":"OpenStreetMap/node/12345662437","sourceUpdatedAt":null,"verifiedAt":null}},{"type":"Feature","geometry":{"type":"Point","coordinates":[8.4241678,49.98485]},"properties":{"id":"bikerack:97fab075-f80b-4f18-83cc-3b1f4827b5e7","kind":"bikerack","longitude":8.4241678,"latitude":49.98485,"name":"Fahrradabstellplatz","city":"Russelsheim","address":null,"covered":true,"access":null,"website":null,"phone":null,"source":"OpenStreetMap/way/1369724455","sourceUpdatedAt":null,"verifiedAt":null}},{"type":"Feature","geometry":{"type":"Point","coordinates":[8.4133764,49.9932962]},"properties":{"id":"bikerack:9946a95c-2cae-48db-8a1f-ea87c0b66ee4","kind":"bikerack","longitude":8.4133764,"latitude":49.9932962,"name":"Fahrradabstellplatz","city":"Russelsheim","address":null,"covered":false,"access":null,"website":null,"phone":null,"source":"OpenStreetMap/node/944497157","sourceUpdatedAt":null,"verifiedAt":null}},{"type":"Feature","geometry":{"type":"Point","coordinates":[8.4153125,49.9942955]},"properties":{"id":"bikerack:9ab20ac2-a518-4c1d-a64d-c76745606183","kind":"bikerack","longitude":8.4153125,"latitude":49.9942955,"name":"Fahrradabstellplatz","city":"Russelsheim","address":null,"covered":false,"access":null,"website":null,"phone":null,"source":"OpenStreetMap/node/944255875","sourceUpdatedAt":null,"verifiedAt":null}},{"type":"Feature","geometry":{"type":"Point","coordinates":[8.4007028,49.9942408]},"properties":{"id":"bikerack:9af03d6d-ecb4-46c9-ac79-3bb0bfac083e","kind":"bikerack","longitude":8.4007028,"latitude":49.9942408,"name":"Fahrradabstellplatz","city":"Russelsheim","address":null,"covered":true,"access":null,"website":null,"phone":null,"source":"OpenStreetMap/way/1215361758","sourceUpdatedAt":null,"verifiedAt":null}},{"type":"Feature","geometry":{"type":"Point","coordinates":[8.4121102,49.9929602]},"properties":{"id":"bikerack:9c1a3a5e-b0a2-4642-87b8-5a2c3d3c266f","kind":"bikerack","longitude":8.4121102,"latitude":49.9929602,"name":"Fahrradabstellplatz","city":"Russelsheim","address":null,"covered":false,"access":null,"website":null,"phone":null,"source":"OpenStreetMap/node/4185967593","sourceUpdatedAt":null,"verifiedAt":null}},{"type":"Feature","geometry":{"type":"Point","coordinates":[8.4018587,49.9878477]},"properties":{"id":"bikerack:a1798887-5155-482b-b804-74f655f68456","kind":"bikerack","longitude":8.4018587,"latitude":49.9878477,"name":"Fahrradabstellplatz","city":"Russelsheim","address":null,"covered":false,"access":null,"website":null,"phone":null,"source":"OpenStreetMap/way/1269170972","sourceUpdatedAt":null,"verifiedAt":null}},{"type":"Feature","geometry":{"type":"Point","coordinates":[8.4069395,49.9883689]},"properties":{"id":"bikerack:a1ef4f2f-a1d2-4019-8ce0-add2ff262425","kind":"bikerack","longitude":8.4069395,"latitude":49.9883689,"name":"Fahrradabstellplatz","city":"Russelsheim","address":null,"covered":true,"access":null,"website":null,"phone":null,"source":"OpenStreetMap/way/312123513","sourceUpdatedAt":null,"verifiedAt":null}},{"type":"Feature","geometry":{"type":"Point","coordinates":[8.4235745,49.9834635]},"properties":{"id":"bikerack:a95fd643-0303-4f3a-ab0c-99b328a63ec5","kind":"bikerack","longitude":8.4235745,"latitude":49.9834635,"name":"Fahrradabstellplatz","city":"Russelsheim","address":null,"covered":false,"access":null,"website":null,"phone":null,"source":"OpenStreetMap/node/3101126532","sourceUpdatedAt":null,"verifiedAt":null}},{"type":"Feature","geometry":{"type":"Point","coordinates":[8.41672,49.9799506]},"properties":{"id":"bikerack:a99c7041-d631-4e53-98c1-e1e25d27c03c","kind":"bikerack","longitude":8.41672,"latitude":49.9799506,"name":"Fahrradabstellplatz","city":"Russelsheim","address":null,"covered":false,"access":null,"website":null,"phone":null,"source":"OpenStreetMap/way/1418327655","sourceUpdatedAt":null,"verifiedAt":null}},{"type":"Feature","geometry":{"type":"Point","coordinates":[8.4121589,49.9910434]},"properties":{"id":"bikerack:ae39b434-debf-4ee4-b4fd-5f8e98dc21b0","kind":"bikerack","longitude":8.4121589,"latitude":49.9910434,"name":"Fahrradabstellplatz","city":"Russelsheim","address":null,"covered":false,"access":null,"website":null,"phone":null,"source":"OpenStreetMap/node/944501345","sourceUpdatedAt":null,"verifiedAt":null}},{"type":"Feature","geometry":{"type":"Point","coordinates":[8.4222229,49.9868979]},"properties":{"id":"bikerack:ae7023be-6176-4705-bd0f-7a59446f3f21","kind":"bikerack","longitude":8.4222229,"latitude":49.9868979,"name":"Fahrradabstellplatz","city":"Russelsheim","address":null,"covered":true,"access":null,"website":null,"phone":null,"source":"OpenStreetMap/node/9209663597","sourceUpdatedAt":null,"verifiedAt":null}},{"type":"Feature","geometry":{"type":"Point","coordinates":[8.4370286,49.9940357]},"properties":{"id":"bikerack:b7c35061-7c0b-4161-83dc-7f74b0c65c2f","kind":"bikerack","longitude":8.4370286,"latitude":49.9940357,"name":"Fahrradabstellplatz","city":"Russelsheim","address":null,"covered":false,"access":null,"website":null,"phone":null,"source":"OpenStreetMap/way/1088220157","sourceUpdatedAt":null,"verifiedAt":null}},{"type":"Feature","geometry":{"type":"Point","coordinates":[8.4265779,49.9871742]},"properties":{"id":"bikerack:b8269ea8-5137-423a-bc05-416c2a913c74","kind":"bikerack","longitude":8.4265779,"latitude":49.9871742,"name":"Fahrradabstellplatz","city":"Russelsheim","address":null,"covered":false,"access":null,"website":null,"phone":null,"source":"OpenStreetMap/node/3101126536","sourceUpdatedAt":null,"verifiedAt":null}},{"type":"Feature","geometry":{"type":"Point","coordinates":[8.4339843,49.9888294]},"properties":{"id":"bikerack:bda104df-29ed-4329-89fb-ccd8ab1450df","kind":"bikerack","longitude":8.4339843,"latitude":49.9888294,"name":"Fahrradabstellplatz","city":"Russelsheim","address":null,"covered":false,"access":null,"website":null,"phone":null,"source":"OpenStreetMap/node/12598114372","sourceUpdatedAt":null,"verifiedAt":null}},{"type":"Feature","geometry":{"type":"Point","coordinates":[8.412947,49.9912654]},"properties":{"id":"bikerack:cc169cc5-f3ba-4f3a-af7d-080d2a64448d","kind":"bikerack","longitude":8.412947,"latitude":49.9912654,"name":"Fahrradabstellplatz","city":"Russelsheim","address":null,"covered":true,"access":null,"website":null,"phone":null,"source":"OpenStreetMap/node/944522628","sourceUpdatedAt":null,"verifiedAt":null}},{"type":"Feature","geometry":{"type":"Point","coordinates":[8.4240089,49.9831714]},"properties":{"id":"bikerack:cdc7be76-b000-4aba-9f79-7a259887c253","kind":"bikerack","longitude":8.4240089,"latitude":49.9831714,"name":"Fahrradabstellplatz","city":"Russelsheim","address":null,"covered":true,"access":null,"website":null,"phone":null,"source":"OpenStreetMap/node/3101126531","sourceUpdatedAt":null,"verifiedAt":null}},{"type":"Feature","geometry":{"type":"Point","coordinates":[8.4071355,49.9869797]},"properties":{"id":"bikerack:cefe78e0-5110-4b58-8ef2-9737a507fc0b","kind":"bikerack","longitude":8.4071355,"latitude":49.9869797,"name":"Fahrradabstellplatz","city":"Russelsheim","address":null,"covered":true,"access":null,"website":null,"phone":null,"source":"OpenStreetMap/way/312123512","sourceUpdatedAt":null,"verifiedAt":null}},{"type":"Feature","geometry":{"type":"Point","coordinates":[8.4149513,49.9929923]},"properties":{"id":"bikerack:d990b71a-9744-40e1-8754-7427461e062f","kind":"bikerack","longitude":8.4149513,"latitude":49.9929923,"name":"Fahrradabstellplatz","city":"Russelsheim","address":null,"covered":false,"access":null,"website":null,"phone":null,"source":"OpenStreetMap/node/13062109796","sourceUpdatedAt":null,"verifiedAt":null}},{"type":"Feature","geometry":{"type":"Point","coordinates":[8.4142537,49.9909784]},"properties":{"id":"bikerack:e13c272b-5657-48ae-bf7f-d431d7673724","kind":"bikerack","longitude":8.4142537,"latitude":49.9909784,"name":"Fahrradabstellplatz","city":"Russelsheim","address":null,"covered":false,"access":null,"website":null,"phone":null,"source":"OpenStreetMap/node/11801332571","sourceUpdatedAt":null,"verifiedAt":null}},{"type":"Feature","geometry":{"type":"Point","coordinates":[8.4350754,49.9819275]},"properties":{"id":"bikerack:e615d24d-97c5-4c00-a038-cdc41dd7b907","kind":"bikerack","longitude":8.4350754,"latitude":49.9819275,"name":"Fahrradabstellplatz","city":"Russelsheim","address":null,"covered":false,"access":null,"website":null,"phone":null,"source":"OpenStreetMap/node/8392412857","sourceUpdatedAt":null,"verifiedAt":null}},{"type":"Feature","geometry":{"type":"Point","coordinates":[8.4223035,49.9853718]},"properties":{"id":"bikerack:ea36b2ef-ae65-45c4-a6a2-905b7ea72300","kind":"bikerack","longitude":8.4223035,"latitude":49.9853718,"name":"Fahrradabstellplatz","city":"Russelsheim","address":null,"covered":false,"access":null,"website":null,"phone":null,"source":"OpenStreetMap/node/3101126535","sourceUpdatedAt":null,"verifiedAt":null}},{"type":"Feature","geometry":{"type":"Point","coordinates":[8.4151902,49.9922143]},"properties":{"id":"bikerack:eb8a21e2-8854-4570-81ff-65eb613ae3cb","kind":"bikerack","longitude":8.4151902,"latitude":49.9922143,"name":"Fahrradabstellplatz","city":"Russelsheim","address":null,"covered":true,"access":null,"website":null,"phone":null,"source":"OpenStreetMap/way/97812477","sourceUpdatedAt":null,"verifiedAt":null}},{"type":"Feature","geometry":{"type":"Point","coordinates":[8.414891,49.9917674]},"properties":{"id":"bikerack:ebd02329-3337-4582-bece-3b5079d5bcd1","kind":"bikerack","longitude":8.414891,"latitude":49.9917674,"name":"Fahrradabstellplatz","city":"Russelsheim","address":null,"covered":true,"access":null,"website":null,"phone":null,"source":"OpenStreetMap/node/944522623","sourceUpdatedAt":null,"verifiedAt":null}},{"type":"Feature","geometry":{"type":"Point","coordinates":[8.4239907,49.983779]},"properties":{"id":"bikerack:effbdf31-d896-4c6e-abe8-2c18981b866f","kind":"bikerack","longitude":8.4239907,"latitude":49.983779,"name":"Fahrradabstellplatz","city":"Russelsheim","address":null,"covered":false,"access":null,"website":null,"phone":null,"source":"OpenStreetMap/node/3101126533","sourceUpdatedAt":null,"verifiedAt":null}},{"type":"Feature","geometry":{"type":"Point","coordinates":[8.4115638,49.9956658]},"properties":{"id":"bikerack:effe6f69-39fd-464d-965d-71a85493999f","kind":"bikerack","longitude":8.4115638,"latitude":49.9956658,"name":"Fahrradabstellplatz","city":"Russelsheim","address":null,"covered":true,"access":null,"website":null,"phone":null,"source":"OpenStreetMap/node/3101126550","sourceUpdatedAt":null,"verifiedAt":null}},{"type":"Feature","geometry":{"type":"Point","coordinates":[8.4168682,49.9920188]},"properties":{"id":"bikerack:f2b3291e-3858-4635-ba19-f54b6edb54f7","kind":"bikerack","longitude":8.4168682,"latitude":49.9920188,"name":"Fahrradabstellplatz","city":"Russelsheim","address":null,"covered":false,"access":null,"website":null,"phone":null,"source":"OpenStreetMap/node/3101126542","sourceUpdatedAt":null,"verifiedAt":null}},{"type":"Feature","geometry":{"type":"Point","coordinates":[8.4142416,49.9909951]},"properties":{"id":"bikerack:fa780d63-931c-441b-a54d-fac3e66226a0","kind":"bikerack","longitude":8.4142416,"latitude":49.9909951,"name":"Fahrradabstellplatz","city":"Russelsheim","address":null,"covered":false,"access":null,"website":null,"phone":null,"source":"OpenStreetMap/node/11801329351","sourceUpdatedAt":null,"verifiedAt":null}},{"type":"Feature","geometry":{"type":"Point","coordinates":[8.4246208,49.9856156]},"properties":{"id":"bikerack:faf42fb0-d48a-455f-bc65-fe52b14d9004","kind":"bikerack","longitude":8.4246208,"latitude":49.9856156,"name":"Fahrradabstellplatz","city":"Russelsheim","address":null,"covered":true,"access":null,"website":null,"phone":null,"source":"OpenStreetMap/node/4040739444","sourceUpdatedAt":null,"verifiedAt":null}},{"type":"Feature","geometry":{"type":"Point","coordinates":[8.4111271,49.9950857]},"properties":{"id":"bikerack:fdf1dee2-5fce-42ae-b30b-a1d27341a671","kind":"bikerack","longitude":8.4111271,"latitude":49.9950857,"name":"Fahrradabstellplatz","city":"Russelsheim","address":null,"covered":false,"access":null,"website":null,"phone":null,"source":"OpenStreetMap/node/3101126545","sourceUpdatedAt":null,"verifiedAt":null}},{"type":"Feature","geometry":{"type":"Point","coordinates":[8.4028876,49.9820165]},"properties":{"id":"repair:0d5fbb0c-6043-4600-8076-4f2343a73cf9","kind":"repair","longitude":8.4028876,"latitude":49.9820165,"name":"Fahrradreparaturstation","city":"Russelsheim","address":null,"covered":false,"access":null,"website":null,"phone":null,"source":"OpenStreetMap/node/11215380663","sourceUpdatedAt":null,"verifiedAt":null}},{"type":"Feature","geometry":{"type":"Point","coordinates":[8.4221491,49.9868092]},"properties":{"id":"repair:3ae87c2d-e96e-4387-adfb-2596213afc2d","kind":"repair","longitude":8.4221491,"latitude":49.9868092,"name":"Fahrradreparaturstation","city":"Russelsheim","address":null,"covered":false,"access":null,"website":null,"phone":null,"source":"OpenStreetMap/node/9162283830","sourceUpdatedAt":null,"verifiedAt":null}},{"type":"Feature","geometry":{"type":"Point","coordinates":[8.4253127,49.9900753]},"properties":{"id":"repair:4d11c1d4-41f0-4fd1-a301-815b00235723","kind":"repair","longitude":8.4253127,"latitude":49.9900753,"name":"Fahrradreparaturstation","city":"Russelsheim","address":null,"covered":false,"access":null,"website":null,"phone":null,"source":"OpenStreetMap/node/12410998284","sourceUpdatedAt":null,"verifiedAt":null}},{"type":"Feature","geometry":{"type":"Point","coordinates":[8.4104356,49.9955727]},"properties":{"id":"repair:aaf48710-3d1b-4468-81c5-78e125cd5527","kind":"repair","longitude":8.4104356,"latitude":49.9955727,"name":"Fahrradreparaturstation","city":"Russelsheim","address":null,"covered":false,"access":null,"website":null,"phone":null,"source":"OpenStreetMap/node/9162281132","sourceUpdatedAt":null,"verifiedAt":null}},{"type":"Feature","geometry":{"type":"Point","coordinates":[8.4136001,49.9918622]},"properties":{"id":"repair:b2356694-8051-4df0-8808-3045bcd03a7c","kind":"repair","longitude":8.4136001,"latitude":49.9918622,"name":"Fahrradreparaturstation","city":"Russelsheim","address":null,"covered":false,"access":null,"website":null,"phone":null,"source":"OpenStreetMap/node/10021644518","sourceUpdatedAt":null,"verifiedAt":null}},{"type":"Feature","geometry":{"type":"Point","coordinates":[8.4128111,49.9899033]},"properties":{"id":"service:54141f42-f868-420b-8333-f971f8c6b426","kind":"service","longitude":8.4128111,"latitude":49.9899033,"name":"Herrmanns Radhaus","city":"Rüsselsheim am Main","address":null,"covered":null,"access":null,"website":null,"phone":null,"source":"OpenStreetMap/way/141471094","sourceUpdatedAt":null,"verifiedAt":null}},{"type":"Feature","geometry":{"type":"Point","coordinates":[8.4199905,49.9939888]},"properties":{"id":"service:7bdcb0b0-c671-49d5-bef4-d0119d8e7f30","kind":"service","longitude":8.4199905,"latitude":49.9939888,"name":"Radhaus Vatter","city":"Rüsselsheim am Main","address":null,"covered":null,"access":null,"website":null,"phone":null,"source":"OpenStreetMap/way/796544182","sourceUpdatedAt":null,"verifiedAt":null}},{"type":"Feature","geometry":{"type":"Point","coordinates":[8.420191,49.9976595]},"properties":{"id":"service:dac17fb4-9c01-4bbe-842d-3fb24917bf79","kind":"service","longitude":8.420191,"latitude":49.9976595,"name":"Fahrrad Herth","city":"Rüsselsheim am Main","address":null,"covered":null,"access":null,"website":null,"phone":null,"source":"OpenStreetMap/node/2739030193","sourceUpdatedAt":null,"verifiedAt":null}},{"type":"Feature","geometry":{"type":"Point","coordinates":[8.4150557,49.9899301]},"properties":{"id":"service:fc20914a-f888-48bd-8d21-5dd8f8606acf","kind":"service","longitude":8.4150557,"latitude":49.9899301,"name":"Fahrradwerkstatt Murken","city":"Rüsselsheim am Main","address":null,"covered":null,"access":null,"website":null,"phone":null,"source":"OpenStreetMap/node/2739077405","sourceUpdatedAt":null,"verifiedAt":null}},{"type":"Feature","geometry":{"type":"Point","coordinates":[8.4347904,49.9900338]},"properties":{"id":"water:79fcd49e-d02d-4817-b04a-ca3eb63c75f0","kind":"water","longitude":8.4347904,"latitude":49.9900338,"name":"Trinkwasser","city":"Russelsheim","address":null,"covered":null,"access":null,"website":null,"phone":null,"source":"OpenStreetMap/node/12851040926","sourceUpdatedAt":null,"verifiedAt":null}}]}