{"type":"FeatureCollection","features":[{"type":"Feature","geometry":{"type":"Point","coordinates":[8.4331385,49.9767501]},"properties":{"id":"bikerack:04700f59-f076-40b4-b605-d3fcca89b2a4","kind":"bikerack","longitude":8.4331385,"latitude":49.9767501,"name":"Fahrradabstellplatz","city":"Russelsheim","address":null,"covered":false,"access":null,"website":null,"phone":null,"source":"OpenStreetMap/way/1416269017","sourceUpdatedAt":null,"verifiedAt":null}},{"type":"Feature","geometry":{"type":"Point","coordinates":[8.4185939,49.978437]},"properties":{"id":"bikerack:4fd77824-85a1-4841-9862-6b4716935bc5","kind":"bikerack","longitude":8.4185939,"latitude":49.978437,"name":"Fahrradabstellplatz","city":"Russelsheim","address":null,"covered":false,"access":null,"website":null,"phone":null,"source":"OpenStreetMap/way/1083555285","sourceUpdatedAt":null,"verifiedAt":null}},{"type":"Feature","geometry":{"type":"Point","coordinates":[8.4187839,49.9785297]},"properties":{"id":"bikerack:aaa813fc-a3e7-477e-9b18-b45e43aefbce","kind":"bikerack","longitude":8.4187839,"latitude":49.9785297,"name":"Fahrradabstellplatz","city":"Russelsheim","address":null,"covered":false,"access":null,"website":null,"phone":null,"source":"OpenStreetMap/way/1083555286","sourceUpdatedAt":null,"verifiedAt":null}}]}