{"type":"FeatureCollection","features":[{"type":"Feature","geometry":{"type":"Point","coordinates":[8.4238024,45.5952151]},"properties":{"id":"bikerack:3cbc4a58-e4e8-460f-8a3c-bf4d69f5c001","kind":"bikerack","longitude":8.4238024,"latitude":45.5952151,"name":"Parcheggio bici","city":"Ghemme","address":null,"covered":false,"access":null,"website":null,"phone":null,"source":"OpenStreetMap/way/234251014","sourceUpdatedAt":null,"verifiedAt":null}},{"type":"Feature","geometry":{"type":"Point","coordinates":[8.4230073,45.6021204]},"properties":{"id":"bikerack:6f3945c3-f8ed-4ed3-83db-a2edd19a33cd","kind":"bikerack","longitude":8.4230073,"latitude":45.6021204,"name":"Parcheggio bici","city":"Ghemme","address":null,"covered":false,"access":null,"website":null,"phone":null,"source":"OpenStreetMap/way/199485045","sourceUpdatedAt":null,"verifiedAt":null}},{"type":"Feature","geometry":{"type":"Point","coordinates":[8.4176345,45.595689]},"properties":{"id":"bikerack:cc5d7181-e2b8-4d5d-8b37-d9397ceec3d4","kind":"bikerack","longitude":8.4176345,"latitude":45.595689,"name":"Parcheggio bici","city":"Ghemme","address":null,"covered":true,"access":null,"website":null,"phone":null,"source":"OpenStreetMap/way/234251012","sourceUpdatedAt":null,"verifiedAt":null}},{"type":"Feature","geometry":{"type":"Point","coordinates":[8.4189585,45.5987506]},"properties":{"id":"water:7eccd542-687f-44b9-9d1a-3133ef9c9c47","kind":"water","longitude":8.4189585,"latitude":45.5987506,"name":"Fontanella","city":"Ghemme","address":null,"covered":null,"access":null,"website":null,"phone":null,"source":"OpenStreetMap/node/11116586187","sourceUpdatedAt":null,"verifiedAt":null}},{"type":"Feature","geometry":{"type":"Point","coordinates":[8.4226762,45.5929821]},"properties":{"id":"water:99253057-1269-49cb-88cb-c7b85c7e17f4","kind":"water","longitude":8.4226762,"latitude":45.5929821,"name":"Fontanella","city":"Ghemme","address":null,"covered":null,"access":null,"website":null,"phone":null,"source":"OpenStreetMap/node/5641248348","sourceUpdatedAt":null,"verifiedAt":null}},{"type":"Feature","geometry":{"type":"Point","coordinates":[8.4235136,45.5975931]},"properties":{"id":"water:b220e71c-abcb-4891-bcd0-40d53a9087d5","kind":"water","longitude":8.4235136,"latitude":45.5975931,"name":"Fontanella","city":"Ghemme","address":null,"covered":null,"access":null,"website":null,"phone":null,"source":"OpenStreetMap/node/2425235106","sourceUpdatedAt":null,"verifiedAt":null}},{"type":"Feature","geometry":{"type":"Point","coordinates":[8.4187259,45.5983685]},"properties":{"id":"water:d42b3e91-560f-4939-a92f-3be9ff70a58c","kind":"water","longitude":8.4187259,"latitude":45.5983685,"name":"Fontanella","city":"Ghemme","address":null,"covered":null,"access":null,"website":null,"phone":null,"source":"OpenStreetMap/node/2094728081","sourceUpdatedAt":null,"verifiedAt":null}},{"type":"Feature","geometry":{"type":"Point","coordinates":[8.4372252,45.5848022]},"properties":{"id":"water:e9faea36-08c4-430d-baeb-3577a4a2e121","kind":"water","longitude":8.4372252,"latitude":45.5848022,"name":"Fontanella","city":"Sizzano","address":null,"covered":null,"access":null,"website":null,"phone":null,"source":"OpenStreetMap/node/8960042249","sourceUpdatedAt":null,"verifiedAt":null}}]}