{"type":"FeatureCollection","features":[{"type":"Feature","geometry":{"type":"Point","coordinates":[17.4027718,49.1093187]},"properties":{"id":"bikerack:44768185-cec1-4cf5-94c9-dfa7ed9c94bd","kind":"bikerack","longitude":17.4027718,"latitude":49.1093187,"name":"Bicycle Parking","city":"Velehrad","address":null,"covered":false,"access":null,"website":null,"phone":null,"source":"OpenStreetMap/node/804051428","sourceUpdatedAt":null,"verifiedAt":null}},{"type":"Feature","geometry":{"type":"Point","coordinates":[17.429747,49.1167998]},"properties":{"id":"bikerack:a8155b7f-2197-4411-9bf4-904743cd8d50","kind":"bikerack","longitude":17.429747,"latitude":49.1167998,"name":"Bicycle Parking","city":"Jalubi","address":null,"covered":false,"access":null,"website":null,"phone":null,"source":"OpenStreetMap/node/12488258382","sourceUpdatedAt":null,"verifiedAt":null}},{"type":"Feature","geometry":{"type":"Point","coordinates":[17.4072299,49.1027905]},"properties":{"id":"water:356ed4f1-dae8-498e-9dc2-a151bab1904e","kind":"water","longitude":17.4072299,"latitude":49.1027905,"name":"Drinking Fountain","city":"Velehrad","address":null,"covered":null,"access":null,"website":null,"phone":null,"source":"OpenStreetMap/node/3723122994","sourceUpdatedAt":null,"verifiedAt":null}}]}