{"type":"FeatureCollection","features":[{"type":"Feature","geometry":{"type":"Point","coordinates":[17.4231855,46.4965826]},"properties":{"id":"water:adce8078-d01b-4a5f-9ff5-d5aa82cfe444","kind":"water","longitude":17.4231855,"latitude":46.4965826,"name":"Ivókút","city":null,"address":null,"covered":null,"access":null,"website":null,"phone":null,"source":"OpenStreetMap","sourceUpdatedAt":null,"verifiedAt":null}},{"type":"Feature","geometry":{"type":"Point","coordinates":[17.4230334,46.4966797]},"properties":{"id":"water:ee335973-4d7e-4c44-aa85-9ddf8b4bf26f","kind":"water","longitude":17.4230334,"latitude":46.4966797,"name":"Ivókút","city":null,"address":null,"covered":null,"access":null,"website":null,"phone":null,"source":"OpenStreetMap","sourceUpdatedAt":null,"verifiedAt":null}}]}