{"type":"FeatureCollection","features":[{"type":"Feature","geometry":{"type":"Point","coordinates":[9.525051,54.8375889]},"properties":{"id":"bikerack:121643a6-61b0-4edc-a546-a584c3abb25e","kind":"bikerack","longitude":9.525051,"latitude":54.8375889,"name":"Fahrradabstellplatz","city":"Wees","address":null,"covered":false,"access":null,"website":null,"phone":null,"source":"OpenStreetMap/node/13007115432","sourceUpdatedAt":null,"verifiedAt":null}},{"type":"Feature","geometry":{"type":"Point","coordinates":[9.5339955,54.8399136]},"properties":{"id":"bikerack:14580b53-0b6a-484d-af18-9be3ef043c96","kind":"bikerack","longitude":9.5339955,"latitude":54.8399136,"name":"Fahrradabstellplatz","city":"Glucksburg","address":null,"covered":false,"access":null,"website":null,"phone":null,"source":"OpenStreetMap/node/11209714483","sourceUpdatedAt":null,"verifiedAt":null}},{"type":"Feature","geometry":{"type":"Point","coordinates":[9.5338994,54.8410394]},"properties":{"id":"bikerack:165d60d2-cbda-4a96-811a-09dddf038690","kind":"bikerack","longitude":9.5338994,"latitude":54.8410394,"name":"Fahrradabstellplatz","city":"Glucksburg","address":null,"covered":false,"access":null,"website":null,"phone":null,"source":"OpenStreetMap/node/12999560172","sourceUpdatedAt":null,"verifiedAt":null}},{"type":"Feature","geometry":{"type":"Point","coordinates":[9.5326272,54.8407156]},"properties":{"id":"bikerack:4fd22f52-fe81-4c84-8246-48687c4aeab0","kind":"bikerack","longitude":9.5326272,"latitude":54.8407156,"name":"Fahrradabstellplatz","city":"Glucksburg","address":null,"covered":false,"access":null,"website":null,"phone":null,"source":"OpenStreetMap/node/13002425849","sourceUpdatedAt":null,"verifiedAt":null}},{"type":"Feature","geometry":{"type":"Point","coordinates":[9.5315432,54.8412388]},"properties":{"id":"bikerack:6fb1d44b-c050-4857-8470-439767d0fd3d","kind":"bikerack","longitude":9.5315432,"latitude":54.8412388,"name":"Fahrradabstellplatz","city":"Glucksburg","address":null,"covered":false,"access":null,"website":null,"phone":null,"source":"OpenStreetMap/node/13002425834","sourceUpdatedAt":null,"verifiedAt":null}},{"type":"Feature","geometry":{"type":"Point","coordinates":[9.5327171,54.8413006]},"properties":{"id":"bikerack:d27c6ae7-13bf-497e-aee4-ccfa34f31dd4","kind":"bikerack","longitude":9.5327171,"latitude":54.8413006,"name":"radhuus","city":"Glucksburg","address":null,"covered":false,"access":null,"website":null,"phone":null,"source":"OpenStreetMap/node/12999710158","sourceUpdatedAt":null,"verifiedAt":null}},{"type":"Feature","geometry":{"type":"Point","coordinates":[9.5314997,54.8413997]},"properties":{"id":"repair:decd29f4-7db6-41fc-8938-9918a10ff068","kind":"repair","longitude":9.5314997,"latitude":54.8413997,"name":"Fahrradreparaturstation","city":"Glucksburg","address":null,"covered":false,"access":null,"website":null,"phone":null,"source":"OpenStreetMap/node/11771672007","sourceUpdatedAt":null,"verifiedAt":null}}]}