{"type":"FeatureCollection","features":[{"type":"Feature","geometry":{"type":"Point","coordinates":[9.5047798,54.4853403]},"properties":{"id":"bikerack:0bbd153e-da54-4d98-839a-a7afe51d1f39","kind":"bikerack","longitude":9.5047798,"latitude":54.4853403,"name":"Fahrradabstellplatz","city":"Dannewerk","address":null,"covered":false,"access":null,"website":null,"phone":null,"source":"OpenStreetMap/node/9206396443","sourceUpdatedAt":null,"verifiedAt":null}},{"type":"Feature","geometry":{"type":"Point","coordinates":[9.5099967,54.4865431]},"properties":{"id":"bikerack:436346ac-98b6-4f63-abf2-c10c3bb88e67","kind":"bikerack","longitude":9.5099967,"latitude":54.4865431,"name":"Fahrradabstellplatz","city":"Dannewerk","address":null,"covered":false,"access":null,"website":null,"phone":null,"source":"OpenStreetMap/node/9206396441","sourceUpdatedAt":null,"verifiedAt":null}},{"type":"Feature","geometry":{"type":"Point","coordinates":[9.5051607,54.485216]},"properties":{"id":"bikerack:8fd9cb93-ddb4-4386-b8c4-a00e889758a0","kind":"bikerack","longitude":9.5051607,"latitude":54.485216,"name":"Fahrradabstellplatz","city":"Dannewerk","address":null,"covered":false,"access":null,"website":null,"phone":null,"source":"OpenStreetMap/node/9206396442","sourceUpdatedAt":null,"verifiedAt":null}},{"type":"Feature","geometry":{"type":"Point","coordinates":[9.496675,54.4880497]},"properties":{"id":"bikerack:a241e8c9-396d-49b7-b08d-f438892fb3de","kind":"bikerack","longitude":9.496675,"latitude":54.4880497,"name":"Fahrradabstellplatz","city":"Dannewerk","address":null,"covered":false,"access":null,"website":null,"phone":null,"source":"OpenStreetMap/node/13003782727","sourceUpdatedAt":null,"verifiedAt":null}},{"type":"Feature","geometry":{"type":"Point","coordinates":[9.49776,54.4841872]},"properties":{"id":"service:d7a1ebab-0243-4178-ac4b-733db0dd1671","kind":"service","longitude":9.49776,"latitude":54.4841872,"name":"Will & Sohn E-Bikes","city":"Dannewerk","address":null,"covered":null,"access":null,"website":null,"phone":null,"source":"OpenStreetMap/node/13003944549","sourceUpdatedAt":null,"verifiedAt":null}}]}