{"type":"FeatureCollection","features":[{"type":"Feature","geometry":{"type":"Point","coordinates":[9.4956796,53.1651851]},"properties":{"id":"bikerack:9fad8e92-50ef-48c2-a22f-61c308679258","kind":"bikerack","longitude":9.4956796,"latitude":53.1651851,"name":"Fahrradabstellplatz","city":"Scheessel","address":null,"covered":true,"access":null,"website":null,"phone":null,"source":"OpenStreetMap/way/262394662","sourceUpdatedAt":null,"verifiedAt":null}},{"type":"Feature","geometry":{"type":"Point","coordinates":[9.4953335,53.1649254]},"properties":{"id":"bikerack:c4970411-873d-4300-a34a-53f614c3f606","kind":"bikerack","longitude":9.4953335,"latitude":53.1649254,"name":"Fahrradabstellplatz","city":"Scheessel","address":null,"covered":true,"access":null,"website":null,"phone":null,"source":"OpenStreetMap/way/262394660","sourceUpdatedAt":null,"verifiedAt":null}},{"type":"Feature","geometry":{"type":"Point","coordinates":[9.4955482,53.1652392]},"properties":{"id":"repair:538d25b4-57f1-4988-a51f-7c04ce2e15e3","kind":"repair","longitude":9.4955482,"latitude":53.1652392,"name":"Fahrradreparaturstation","city":"Scheessel","address":null,"covered":false,"access":null,"website":null,"phone":null,"source":"OpenStreetMap/node/13108482650","sourceUpdatedAt":null,"verifiedAt":null}}]}