{"type":"FeatureCollection","features":[{"type":"Feature","geometry":{"type":"Point","coordinates":[9.5170234,52.4020351]},"properties":{"id":"bikerack:9596a126-6004-4913-bbb0-d222204494f6","kind":"bikerack","longitude":9.5170234,"latitude":52.4020351,"name":"Fahrradabstellplatz","city":"Gross Munzel","address":null,"covered":false,"access":null,"website":null,"phone":null,"source":"OpenStreetMap/node/9044140996","sourceUpdatedAt":null,"verifiedAt":null}},{"type":"Feature","geometry":{"type":"Point","coordinates":[9.5172943,52.4015205]},"properties":{"id":"bikerack:af62c513-b1f8-456f-ba62-31c8ee88aa8c","kind":"bikerack","longitude":9.5172943,"latitude":52.4015205,"name":"Fahrradabstellplatz","city":"Gross Munzel","address":null,"covered":false,"access":null,"website":null,"phone":null,"source":"OpenStreetMap/node/9044140994","sourceUpdatedAt":null,"verifiedAt":null}},{"type":"Feature","geometry":{"type":"Point","coordinates":[9.5172469,52.4016144]},"properties":{"id":"repair:7a002d5a-3a74-4d06-b47e-bbd3bb05bd31","kind":"repair","longitude":9.5172469,"latitude":52.4016144,"name":"Fahrradreparaturstation","city":"Gross Munzel","address":null,"covered":false,"access":null,"website":null,"phone":null,"source":"OpenStreetMap/node/13272008221","sourceUpdatedAt":null,"verifiedAt":null}}]}