{"type":"FeatureCollection","features":[{"type":"Feature","geometry":{"type":"Point","coordinates":[9.4964924,45.9223515]},"properties":{"id":"water:1c066180-645a-45b4-b619-b1f494f443f8","kind":"water","longitude":9.4964924,"latitude":45.9223515,"name":"Fontanella","city":"Moggio","address":null,"covered":null,"access":null,"website":null,"phone":null,"source":"OpenStreetMap/node/8996225079","sourceUpdatedAt":null,"verifiedAt":null}},{"type":"Feature","geometry":{"type":"Point","coordinates":[9.5017809,45.9334677]},"properties":{"id":"water:3b5a7e8a-43cc-4697-8a11-c4d274b96b3a","kind":"water","longitude":9.5017809,"latitude":45.9334677,"name":"Fontanella","city":"Moggio","address":null,"covered":null,"access":null,"website":null,"phone":null,"source":"OpenStreetMap/node/2022366510","sourceUpdatedAt":null,"verifiedAt":null}},{"type":"Feature","geometry":{"type":"Point","coordinates":[9.4979955,45.9316618]},"properties":{"id":"water:3c356c6c-b778-4156-86eb-d1fda3d37f1e","kind":"water","longitude":9.4979955,"latitude":45.9316618,"name":"Fontanella","city":"Moggio","address":null,"covered":null,"access":null,"website":null,"phone":null,"source":"OpenStreetMap/node/2022366484","sourceUpdatedAt":null,"verifiedAt":null}},{"type":"Feature","geometry":{"type":"Point","coordinates":[9.4943906,45.9241879]},"properties":{"id":"water:4a99d46b-b92b-4a52-be8f-9876aceaed42","kind":"water","longitude":9.4943906,"latitude":45.9241879,"name":"Fontanella","city":"Moggio","address":null,"covered":null,"access":null,"website":null,"phone":null,"source":"OpenStreetMap/node/2973196355","sourceUpdatedAt":null,"verifiedAt":null}},{"type":"Feature","geometry":{"type":"Point","coordinates":[9.5064398,45.9375399]},"properties":{"id":"water:513a8052-4632-4b13-a4bc-b51f092f9bd3","kind":"water","longitude":9.5064398,"latitude":45.9375399,"name":"Fontanella","city":"Moggio","address":null,"covered":null,"access":null,"website":null,"phone":null,"source":"OpenStreetMap/node/5632121580","sourceUpdatedAt":null,"verifiedAt":null}},{"type":"Feature","geometry":{"type":"Point","coordinates":[9.5269475,45.9266783]},"properties":{"id":"water:8c55b370-5105-403a-8512-30aba5122052","kind":"water","longitude":9.5269475,"latitude":45.9266783,"name":"Fontanella di Gianni","city":"Vedeseta","address":null,"covered":null,"access":null,"website":null,"phone":null,"source":"OpenStreetMap/node/538122877","sourceUpdatedAt":null,"verifiedAt":null}},{"type":"Feature","geometry":{"type":"Point","coordinates":[9.5071674,45.9210926]},"properties":{"id":"water:91cb99db-d2f0-4736-b7d1-bf4bf8f18831","kind":"water","longitude":9.5071674,"latitude":45.9210926,"name":"Fontanella","city":"Moggio","address":null,"covered":null,"access":null,"website":null,"phone":null,"source":"OpenStreetMap/node/5749850052","sourceUpdatedAt":null,"verifiedAt":null}},{"type":"Feature","geometry":{"type":"Point","coordinates":[9.5047044,45.9366201]},"properties":{"id":"water:b232377e-fed7-41bd-9cc7-a64f51de360d","kind":"water","longitude":9.5047044,"latitude":45.9366201,"name":"Fontanella","city":"Moggio","address":null,"covered":null,"access":null,"website":null,"phone":null,"source":"OpenStreetMap/node/4816471232","sourceUpdatedAt":null,"verifiedAt":null}},{"type":"Feature","geometry":{"type":"Point","coordinates":[9.5122878,45.9218698]},"properties":{"id":"water:c0b01979-8c16-4051-9e53-0352cb8b1c05","kind":"water","longitude":9.5122878,"latitude":45.9218698,"name":"Fontanella","city":"Moggio","address":null,"covered":null,"access":null,"website":null,"phone":null,"source":"OpenStreetMap/node/538086349","sourceUpdatedAt":null,"verifiedAt":null}},{"type":"Feature","geometry":{"type":"Point","coordinates":[9.5342445,45.9332982]},"properties":{"id":"water:c52c2386-f51e-48cf-9c61-79672063c4e0","kind":"water","longitude":9.5342445,"latitude":45.9332982,"name":"Fontanella","city":"Vedeseta","address":null,"covered":null,"access":null,"website":null,"phone":null,"source":"OpenStreetMap/node/7757408883","sourceUpdatedAt":null,"verifiedAt":null}},{"type":"Feature","geometry":{"type":"Point","coordinates":[9.5123486,45.9238536]},"properties":{"id":"water:c66c038c-5105-4a5f-b3d0-4a80aebd5d60","kind":"water","longitude":9.5123486,"latitude":45.9238536,"name":"Fontanella","city":"Moggio","address":null,"covered":null,"access":null,"website":null,"phone":null,"source":"OpenStreetMap/node/1314279300","sourceUpdatedAt":null,"verifiedAt":null}},{"type":"Feature","geometry":{"type":"Point","coordinates":[9.5029724,45.9357788]},"properties":{"id":"water:cd055b45-f630-437a-afb1-f67522c3efa5","kind":"water","longitude":9.5029724,"latitude":45.9357788,"name":"Fontanella","city":"Moggio","address":null,"covered":null,"access":null,"website":null,"phone":null,"source":"OpenStreetMap/node/4816471233","sourceUpdatedAt":null,"verifiedAt":null}},{"type":"Feature","geometry":{"type":"Point","coordinates":[9.5066694,45.9458032]},"properties":{"id":"water:d6f8c932-963c-40d5-890f-0ca3bc31f69a","kind":"water","longitude":9.5066694,"latitude":45.9458032,"name":"Fontanella","city":"Moggio","address":null,"covered":null,"access":null,"website":null,"phone":null,"source":"OpenStreetMap/node/3068364000","sourceUpdatedAt":null,"verifiedAt":null}},{"type":"Feature","geometry":{"type":"Point","coordinates":[9.5010455,45.9212483]},"properties":{"id":"water:f10da900-a8d4-4e42-b6da-16bcbcb41722","kind":"water","longitude":9.5010455,"latitude":45.9212483,"name":"Fontanella","city":"Moggio","address":null,"covered":null,"access":null,"website":null,"phone":null,"source":"OpenStreetMap/node/11491715171","sourceUpdatedAt":null,"verifiedAt":null}},{"type":"Feature","geometry":{"type":"Point","coordinates":[9.5059559,45.9231664]},"properties":{"id":"water:f6e92214-0abd-4024-8c93-59c8173fff6f","kind":"water","longitude":9.5059559,"latitude":45.9231664,"name":"Fontanella","city":"Moggio","address":null,"covered":null,"access":null,"website":null,"phone":null,"source":"OpenStreetMap/node/11491717173","sourceUpdatedAt":null,"verifiedAt":null}}]}