{"type":"FeatureCollection","features":[{"type":"Feature","geometry":{"type":"Point","coordinates":[10.3152515,53.938942]},"properties":{"id":"bikerack:03ccc887-fa19-4efc-90d0-9bc6a14627ac","kind":"bikerack","longitude":10.3152515,"latitude":53.938942,"name":"Fahrradabstellplatz","city":"Bad Segeberg","address":null,"covered":false,"access":null,"website":null,"phone":null,"source":"OpenStreetMap/node/6699227884","sourceUpdatedAt":null,"verifiedAt":null}},{"type":"Feature","geometry":{"type":"Point","coordinates":[10.3107576,53.9511437]},"properties":{"id":"bikerack:0dd9a145-4eb7-45ad-b911-0533ff203156","kind":"bikerack","longitude":10.3107576,"latitude":53.9511437,"name":"Fahrradabstellplatz","city":"Bad Segeberg","address":null,"covered":false,"access":null,"website":null,"phone":null,"source":"OpenStreetMap/node/5813458580","sourceUpdatedAt":null,"verifiedAt":null}},{"type":"Feature","geometry":{"type":"Point","coordinates":[10.3149426,53.9389405]},"properties":{"id":"bikerack:12f38475-0591-4a04-89e4-c58917513c57","kind":"bikerack","longitude":10.3149426,"latitude":53.9389405,"name":"Fahrradabstellplatz","city":"Bad Segeberg","address":null,"covered":false,"access":null,"website":null,"phone":null,"source":"OpenStreetMap/node/6699280428","sourceUpdatedAt":null,"verifiedAt":null}},{"type":"Feature","geometry":{"type":"Point","coordinates":[10.3069226,53.9378488]},"properties":{"id":"bikerack:1b6d970b-db63-4bea-9fe5-66dd3ec45666","kind":"bikerack","longitude":10.3069226,"latitude":53.9378488,"name":"Abschliessbare Fahrradboxen","city":"Bad Segeberg","address":null,"covered":false,"access":null,"website":null,"phone":null,"source":"OpenStreetMap/node/4095257312","sourceUpdatedAt":null,"verifiedAt":null}},{"type":"Feature","geometry":{"type":"Point","coordinates":[10.3061402,53.9366269]},"properties":{"id":"bikerack:30dece4c-8701-4dbb-be40-de258387a839","kind":"bikerack","longitude":10.3061402,"latitude":53.9366269,"name":"Fahrradabstellplatz","city":"Bad Segeberg","address":null,"covered":false,"access":null,"website":null,"phone":null,"source":"OpenStreetMap/node/11295073151","sourceUpdatedAt":null,"verifiedAt":null}},{"type":"Feature","geometry":{"type":"Point","coordinates":[10.295633,53.9406047]},"properties":{"id":"bikerack:30f8240a-1f37-47d2-bc87-1df805a94396","kind":"bikerack","longitude":10.295633,"latitude":53.9406047,"name":"Fahrradabstellplatz","city":"Bad Segeberg","address":null,"covered":false,"access":null,"website":null,"phone":null,"source":"OpenStreetMap/way/33645528","sourceUpdatedAt":null,"verifiedAt":null}},{"type":"Feature","geometry":{"type":"Point","coordinates":[10.3052441,53.930664]},"properties":{"id":"bikerack:3d93f848-6ac3-472e-a704-ab1257883398","kind":"bikerack","longitude":10.3052441,"latitude":53.930664,"name":"Kreisberufsschule Segeberg","city":"Bad Segeberg","address":null,"covered":false,"access":null,"website":null,"phone":null,"source":"OpenStreetMap/node/1314392650","sourceUpdatedAt":null,"verifiedAt":null}},{"type":"Feature","geometry":{"type":"Point","coordinates":[10.3117999,53.9362422]},"properties":{"id":"bikerack:50c83aea-24a4-4fb4-aa16-0eac405a3b94","kind":"bikerack","longitude":10.3117999,"latitude":53.9362422,"name":"Fahrradabstellplatz","city":"Bad Segeberg","address":null,"covered":false,"access":null,"website":null,"phone":null,"source":"OpenStreetMap/node/12119009169","sourceUpdatedAt":null,"verifiedAt":null}},{"type":"Feature","geometry":{"type":"Point","coordinates":[10.3065971,53.9366283]},"properties":{"id":"bikerack:5ddd92d0-ffae-4e8c-8725-872d79bc2cf0","kind":"bikerack","longitude":10.3065971,"latitude":53.9366283,"name":"Fahrradabstellplatz","city":"Bad Segeberg","address":null,"covered":false,"access":null,"website":null,"phone":null,"source":"OpenStreetMap/node/11295057856","sourceUpdatedAt":null,"verifiedAt":null}},{"type":"Feature","geometry":{"type":"Point","coordinates":[10.3073746,53.9368864]},"properties":{"id":"bikerack:60bfa846-1975-4bdb-845d-a97e1c9a0e2c","kind":"bikerack","longitude":10.3073746,"latitude":53.9368864,"name":"Fahrradabstellplatz","city":"Bad Segeberg","address":null,"covered":false,"access":null,"website":null,"phone":null,"source":"OpenStreetMap/node/6703020204","sourceUpdatedAt":null,"verifiedAt":null}},{"type":"Feature","geometry":{"type":"Point","coordinates":[10.3102027,53.9363307]},"properties":{"id":"bikerack:61b0ffc7-4425-4d99-9be9-616ee3d91bce","kind":"bikerack","longitude":10.3102027,"latitude":53.9363307,"name":"Fahrradabstellplatz","city":"Bad Segeberg","address":null,"covered":false,"access":null,"website":null,"phone":null,"source":"OpenStreetMap/node/6703021761","sourceUpdatedAt":null,"verifiedAt":null}},{"type":"Feature","geometry":{"type":"Point","coordinates":[10.3096032,53.9364487]},"properties":{"id":"bikerack:62ca8769-c25f-402e-93cf-4c9608520f68","kind":"bikerack","longitude":10.3096032,"latitude":53.9364487,"name":"Fahrradabstellplatz","city":"Bad Segeberg","address":null,"covered":false,"access":null,"website":null,"phone":null,"source":"OpenStreetMap/node/6703019696","sourceUpdatedAt":null,"verifiedAt":null}},{"type":"Feature","geometry":{"type":"Point","coordinates":[10.3109174,53.9389578]},"properties":{"id":"bikerack:670a4a85-daed-4be5-8065-20c45c76f48c","kind":"bikerack","longitude":10.3109174,"latitude":53.9389578,"name":"Fahrradabstellplatz","city":"Bad Segeberg","address":null,"covered":false,"access":null,"website":null,"phone":null,"source":"OpenStreetMap/node/6699296985","sourceUpdatedAt":null,"verifiedAt":null}},{"type":"Feature","geometry":{"type":"Point","coordinates":[10.3057638,53.9376914]},"properties":{"id":"bikerack:82a3e6e2-b20c-464d-8044-ce7063a188e7","kind":"bikerack","longitude":10.3057638,"latitude":53.9376914,"name":"Fahrradabstellplatz","city":"Bad Segeberg","address":null,"covered":false,"access":null,"website":null,"phone":null,"source":"OpenStreetMap/node/6699233762","sourceUpdatedAt":null,"verifiedAt":null}},{"type":"Feature","geometry":{"type":"Point","coordinates":[10.3113018,53.9404319]},"properties":{"id":"bikerack:84eec281-6fae-42b3-ac2e-a14bd3083939","kind":"bikerack","longitude":10.3113018,"latitude":53.9404319,"name":"Fahrradabstellplatz","city":"Bad Segeberg","address":null,"covered":false,"access":null,"website":null,"phone":null,"source":"OpenStreetMap/node/6699290884","sourceUpdatedAt":null,"verifiedAt":null}},{"type":"Feature","geometry":{"type":"Point","coordinates":[10.3069413,53.9393965]},"properties":{"id":"bikerack:8ea578a3-8fd5-42cb-88e0-1539cd093eee","kind":"bikerack","longitude":10.3069413,"latitude":53.9393965,"name":"Fahrradabstellplatz","city":"Bad Segeberg","address":null,"covered":false,"access":null,"website":null,"phone":null,"source":"OpenStreetMap/node/12115234038","sourceUpdatedAt":null,"verifiedAt":null}},{"type":"Feature","geometry":{"type":"Point","coordinates":[10.3120551,53.9365587]},"properties":{"id":"bikerack:96bfa9ad-c154-4ee5-a9f7-75e916ec7b83","kind":"bikerack","longitude":10.3120551,"latitude":53.9365587,"name":"Fahrradabstellplatz","city":"Bad Segeberg","address":null,"covered":false,"access":null,"website":null,"phone":null,"source":"OpenStreetMap/node/6699283650","sourceUpdatedAt":null,"verifiedAt":null}},{"type":"Feature","geometry":{"type":"Point","coordinates":[10.3072968,53.9377891]},"properties":{"id":"repair:089155c4-00fc-4ce1-ad53-21baba61d070","kind":"repair","longitude":10.3072968,"latitude":53.9377891,"name":"Fahrradreparaturstation","city":"Bad Segeberg","address":null,"covered":false,"access":null,"website":null,"phone":null,"source":"OpenStreetMap/node/12709626626","sourceUpdatedAt":null,"verifiedAt":null}},{"type":"Feature","geometry":{"type":"Point","coordinates":[10.3047561,53.9368131]},"properties":{"id":"repair:1bede8ca-03bd-4484-9801-e93deb90124b","kind":"repair","longitude":10.3047561,"latitude":53.9368131,"name":"Fahrradreparaturstation","city":"Bad Segeberg","address":null,"covered":false,"access":null,"website":null,"phone":null,"source":"OpenStreetMap/node/12709626628","sourceUpdatedAt":null,"verifiedAt":null}},{"type":"Feature","geometry":{"type":"Point","coordinates":[10.3102059,53.9363762]},"properties":{"id":"repair:f4d969bd-1e8a-4b09-a4a8-8fc50a163b8f","kind":"repair","longitude":10.3102059,"latitude":53.9363762,"name":"Fahrradreparaturstation","city":"Bad Segeberg","address":null,"covered":false,"access":null,"website":null,"phone":null,"source":"OpenStreetMap/node/13227455970","sourceUpdatedAt":null,"verifiedAt":null}},{"type":"Feature","geometry":{"type":"Point","coordinates":[10.3097081,53.9337911]},"properties":{"id":"repair:fda00fea-4cf7-45f4-b9df-339cc2b4046d","kind":"repair","longitude":10.3097081,"latitude":53.9337911,"name":"Fahrradreparaturstation","city":"Bad Segeberg","address":null,"covered":false,"access":null,"website":null,"phone":null,"source":"OpenStreetMap/node/12294218287","sourceUpdatedAt":null,"verifiedAt":null}},{"type":"Feature","geometry":{"type":"Point","coordinates":[10.3028097,53.9480568]},"properties":{"id":"service:1021effe-278f-4dc3-b5cd-38f367ca0548","kind":"service","longitude":10.3028097,"latitude":53.9480568,"name":"Megabike","city":"Bad Segeberg","address":null,"covered":null,"access":null,"website":null,"phone":null,"source":"OpenStreetMap/node/12367740476","sourceUpdatedAt":null,"verifiedAt":null}},{"type":"Feature","geometry":{"type":"Point","coordinates":[10.3152872,53.9385506]},"properties":{"id":"water:170c8f97-efa6-4fd5-ab77-cd40e8691ab9","kind":"water","longitude":10.3152872,"latitude":53.9385506,"name":"Trinkwasser","city":"Bad Segeberg","address":null,"covered":null,"access":null,"website":null,"phone":null,"source":"OpenStreetMap/node/2833488117","sourceUpdatedAt":null,"verifiedAt":null}},{"type":"Feature","geometry":{"type":"Point","coordinates":[10.3096619,53.9337954]},"properties":{"id":"water:29304a7b-1fca-4cee-b772-40b7999022a5","kind":"water","longitude":10.3096619,"latitude":53.9337954,"name":"Trinkwasser","city":"Bad Segeberg","address":null,"covered":null,"access":null,"website":null,"phone":null,"source":"OpenStreetMap/node/12823700033","sourceUpdatedAt":null,"verifiedAt":null}},{"type":"Feature","geometry":{"type":"Point","coordinates":[10.3099323,53.9359615]},"properties":{"id":"water:c3478890-779c-4490-bc04-fc74d31cdb14","kind":"water","longitude":10.3099323,"latitude":53.9359615,"name":"Trinkwasser","city":"Bad Segeberg","address":null,"covered":null,"access":null,"website":null,"phone":null,"source":"OpenStreetMap/node/10763689600","sourceUpdatedAt":null,"verifiedAt":null}}]}