{"type":"FeatureCollection","features":[{"type":"Feature","geometry":{"type":"Point","coordinates":[10.3010351,46.1976739]},"properties":{"id":"water:914bd1ce-1c03-4435-adaf-bd24037100b1","kind":"water","longitude":10.3010351,"latitude":46.1976739,"name":"Fontanella","city":"Edolo","address":null,"covered":null,"access":null,"website":null,"phone":null,"source":"OpenStreetMap/node/5106251276","sourceUpdatedAt":null,"verifiedAt":null}},{"type":"Feature","geometry":{"type":"Point","coordinates":[10.3248624,46.2120675]},"properties":{"id":"water:d9dbc2a4-61fc-4091-8071-28651af2921c","kind":"water","longitude":10.3248624,"latitude":46.2120675,"name":"Fontanella","city":"Monno","address":null,"covered":null,"access":null,"website":null,"phone":null,"source":"OpenStreetMap/node/5106320239","sourceUpdatedAt":null,"verifiedAt":null}}]}