{"type":"FeatureCollection","features":[{"type":"Feature","geometry":{"type":"Point","coordinates":[10.3270794,45.8014882]},"properties":{"id":"water:014ef57b-3919-425d-914c-5c8a66a75a8e","kind":"water","longitude":10.3270794,"latitude":45.8014882,"name":"Fontanella","city":"Collio","address":null,"covered":null,"access":null,"website":null,"phone":null,"source":"OpenStreetMap/node/13306430021","sourceUpdatedAt":null,"verifiedAt":null}},{"type":"Feature","geometry":{"type":"Point","coordinates":[10.3185837,45.811037]},"properties":{"id":"water:137e7e56-5ab7-4e4f-89a0-ad865cac5d4b","kind":"water","longitude":10.3185837,"latitude":45.811037,"name":"Fontanella","city":"Collio","address":null,"covered":null,"access":null,"website":null,"phone":null,"source":"OpenStreetMap/node/2392158609","sourceUpdatedAt":null,"verifiedAt":null}},{"type":"Feature","geometry":{"type":"Point","coordinates":[10.3228395,45.8118885]},"properties":{"id":"water:4f13f3db-b117-4815-b521-ac40abda6f65","kind":"water","longitude":10.3228395,"latitude":45.8118885,"name":"Fontanella","city":"Collio","address":null,"covered":null,"access":null,"website":null,"phone":null,"source":"OpenStreetMap/node/13304989376","sourceUpdatedAt":null,"verifiedAt":null}},{"type":"Feature","geometry":{"type":"Point","coordinates":[10.3213193,45.8259677]},"properties":{"id":"water:520b734b-dcdf-4f78-b47f-713d706703d4","kind":"water","longitude":10.3213193,"latitude":45.8259677,"name":"Fontanella","city":"Collio","address":null,"covered":null,"access":null,"website":null,"phone":null,"source":"OpenStreetMap/node/8930872315","sourceUpdatedAt":null,"verifiedAt":null}},{"type":"Feature","geometry":{"type":"Point","coordinates":[10.319241,45.8120881]},"properties":{"id":"water:6c52b964-6a01-44fd-b783-944d71a01e64","kind":"water","longitude":10.319241,"latitude":45.8120881,"name":"Fontanella","city":"Collio","address":null,"covered":null,"access":null,"website":null,"phone":null,"source":"OpenStreetMap/node/2392158658","sourceUpdatedAt":null,"verifiedAt":null}},{"type":"Feature","geometry":{"type":"Point","coordinates":[10.2853113,45.8168893]},"properties":{"id":"water:8f7c93d8-1ea5-41c5-ab34-3f417a6f8fdc","kind":"water","longitude":10.2853113,"latitude":45.8168893,"name":"Fontanella","city":"Bovegno","address":null,"covered":null,"access":null,"website":null,"phone":null,"source":"OpenStreetMap/node/8892130846","sourceUpdatedAt":null,"verifiedAt":null}},{"type":"Feature","geometry":{"type":"Point","coordinates":[10.3233769,45.823742]},"properties":{"id":"water:a4a2e15a-4357-41b1-9914-31713b45b93f","kind":"water","longitude":10.3233769,"latitude":45.823742,"name":"Fontanella","city":"Collio","address":null,"covered":null,"access":null,"website":null,"phone":null,"source":"OpenStreetMap/node/8930872341","sourceUpdatedAt":null,"verifiedAt":null}},{"type":"Feature","geometry":{"type":"Point","coordinates":[10.3257096,45.8249137]},"properties":{"id":"water:bc44278a-3ed5-499d-a5b9-960ddfd510d3","kind":"water","longitude":10.3257096,"latitude":45.8249137,"name":"Fontanella","city":"Collio","address":null,"covered":null,"access":null,"website":null,"phone":null,"source":"OpenStreetMap/node/8930872301","sourceUpdatedAt":null,"verifiedAt":null}},{"type":"Feature","geometry":{"type":"Point","coordinates":[10.288485,45.815121]},"properties":{"id":"water:ca71c680-6d55-4966-8aba-3a53a14707f6","kind":"water","longitude":10.288485,"latitude":45.815121,"name":"Fontanella","city":"Bovegno","address":null,"covered":null,"access":null,"website":null,"phone":null,"source":"OpenStreetMap/node/2971155438","sourceUpdatedAt":null,"verifiedAt":null}},{"type":"Feature","geometry":{"type":"Point","coordinates":[10.3232069,45.8266462]},"properties":{"id":"water:cbbeb830-070f-4bf2-9565-d557fa011790","kind":"water","longitude":10.3232069,"latitude":45.8266462,"name":"Fontanella","city":"Collio","address":null,"covered":null,"access":null,"website":null,"phone":null,"source":"OpenStreetMap/node/8930872396","sourceUpdatedAt":null,"verifiedAt":null}},{"type":"Feature","geometry":{"type":"Point","coordinates":[10.3223003,45.8138099]},"properties":{"id":"water:cf47f398-1274-467e-8ed5-597c1f8b0b05","kind":"water","longitude":10.3223003,"latitude":45.8138099,"name":"Fontanella","city":"Collio","address":null,"covered":null,"access":null,"website":null,"phone":null,"source":"OpenStreetMap/node/8930872921","sourceUpdatedAt":null,"verifiedAt":null}},{"type":"Feature","geometry":{"type":"Point","coordinates":[10.3151824,45.8201945]},"properties":{"id":"water:efeeb532-1bb3-47c9-908b-5ffff2b62630","kind":"water","longitude":10.3151824,"latitude":45.8201945,"name":"Fontanella","city":"Collio","address":null,"covered":null,"access":null,"website":null,"phone":null,"source":"OpenStreetMap/node/8930872845","sourceUpdatedAt":null,"verifiedAt":null}},{"type":"Feature","geometry":{"type":"Point","coordinates":[10.300564,45.8213248]},"properties":{"id":"water:f27f0fa4-9ce3-4d54-9a26-98082012dca9","kind":"water","longitude":10.300564,"latitude":45.8213248,"name":"Fontanella","city":"Collio","address":null,"covered":null,"access":null,"website":null,"phone":null,"source":"OpenStreetMap/node/4974280546","sourceUpdatedAt":null,"verifiedAt":null}},{"type":"Feature","geometry":{"type":"Point","coordinates":[10.3265806,45.8019263]},"properties":{"id":"water:f891aa2d-41bb-4c0d-80dc-cf15987013eb","kind":"water","longitude":10.3265806,"latitude":45.8019263,"name":"Fontanella","city":"Collio","address":null,"covered":null,"access":null,"website":null,"phone":null,"source":"OpenStreetMap/node/13306009172","sourceUpdatedAt":null,"verifiedAt":null}}]}