{"type":"FeatureCollection","features":[{"type":"Feature","geometry":{"type":"Point","coordinates":[10.2880323,45.1460346]},"properties":{"id":"bikerack:5c51577f-40e9-4884-8e36-c14ef92ee2ec","kind":"bikerack","longitude":10.2880323,"latitude":45.1460346,"name":"Bicycle racks","city":"Torre de' Picenardi","address":null,"covered":false,"access":null,"website":null,"phone":null,"source":"OpenStreetMap/node/7062758927","sourceUpdatedAt":null,"verifiedAt":null}},{"type":"Feature","geometry":{"type":"Point","coordinates":[10.305594,45.1463129]},"properties":{"id":"bikerack:a53cc6f3-b939-4b0a-92eb-d0c5fe3e065c","kind":"bikerack","longitude":10.305594,"latitude":45.1463129,"name":"Parcheggio bici","city":"Torre de' Picenardi","address":null,"covered":false,"access":null,"website":null,"phone":null,"source":"OpenStreetMap/node/12729401694","sourceUpdatedAt":null,"verifiedAt":null}},{"type":"Feature","geometry":{"type":"Point","coordinates":[10.3055781,45.1463132]},"properties":{"id":"bikerack:a8f4fe57-056d-4818-b4a9-26cf338a9741","kind":"bikerack","longitude":10.3055781,"latitude":45.1463132,"name":"Parcheggio bici","city":"Torre de' Picenardi","address":null,"covered":false,"access":null,"website":null,"phone":null,"source":"OpenStreetMap/node/12729442239","sourceUpdatedAt":null,"verifiedAt":null}},{"type":"Feature","geometry":{"type":"Point","coordinates":[10.2842168,45.144475]},"properties":{"id":"water:018fc4c5-8f9e-4558-86ff-e5b26a06906f","kind":"water","longitude":10.2842168,"latitude":45.144475,"name":"Fontanella","city":"Torre de' Picenardi","address":null,"covered":null,"access":null,"website":null,"phone":null,"source":"OpenStreetMap/node/6767682275","sourceUpdatedAt":null,"verifiedAt":null}},{"type":"Feature","geometry":{"type":"Point","coordinates":[10.2872204,45.1438396]},"properties":{"id":"water:1c012053-a01b-49ed-8540-05476dd4aded","kind":"water","longitude":10.2872204,"latitude":45.1438396,"name":"Fontanella","city":"Torre de' Picenardi","address":null,"covered":null,"access":null,"website":null,"phone":null,"source":"OpenStreetMap/node/6767682274","sourceUpdatedAt":null,"verifiedAt":null}},{"type":"Feature","geometry":{"type":"Point","coordinates":[10.2868586,45.1376037]},"properties":{"id":"water:323efd42-10a6-4ebc-b67f-5e0db466e0a9","kind":"water","longitude":10.2868586,"latitude":45.1376037,"name":"Fontanella","city":"Torre de' Picenardi","address":null,"covered":null,"access":null,"website":null,"phone":null,"source":"OpenStreetMap/node/7830778018","sourceUpdatedAt":null,"verifiedAt":null}},{"type":"Feature","geometry":{"type":"Point","coordinates":[10.2871577,45.1477914]},"properties":{"id":"water:362d74c6-0682-47fa-a59b-0fe63504207b","kind":"water","longitude":10.2871577,"latitude":45.1477914,"name":"Fontanella","city":"Torre de' Picenardi","address":null,"covered":null,"access":null,"website":null,"phone":null,"source":"OpenStreetMap/node/6767682284","sourceUpdatedAt":null,"verifiedAt":null}},{"type":"Feature","geometry":{"type":"Point","coordinates":[10.3054918,45.1463195]},"properties":{"id":"water:58134e48-fea3-4f32-892c-76ed1e9210cd","kind":"water","longitude":10.3054918,"latitude":45.1463195,"name":"Fontanella","city":"Torre de' Picenardi","address":null,"covered":null,"access":null,"website":null,"phone":null,"source":"OpenStreetMap/node/12729433808","sourceUpdatedAt":null,"verifiedAt":null}},{"type":"Feature","geometry":{"type":"Point","coordinates":[10.2996238,45.1438906]},"properties":{"id":"water:6d750ee7-61f3-425d-bab7-76c2d5e9612f","kind":"water","longitude":10.2996238,"latitude":45.1438906,"name":"Fontanella","city":"Torre de' Picenardi","address":null,"covered":null,"access":null,"website":null,"phone":null,"source":"OpenStreetMap/node/7830701796","sourceUpdatedAt":null,"verifiedAt":null}},{"type":"Feature","geometry":{"type":"Point","coordinates":[10.3076829,45.1453408]},"properties":{"id":"water:c900aa88-5d0a-4951-88b2-c7349703bf6c","kind":"water","longitude":10.3076829,"latitude":45.1453408,"name":"Fontanella","city":"Torre de' Picenardi","address":null,"covered":null,"access":null,"website":null,"phone":null,"source":"OpenStreetMap/node/6767695085","sourceUpdatedAt":null,"verifiedAt":null}},{"type":"Feature","geometry":{"type":"Point","coordinates":[10.3017849,45.1428988]},"properties":{"id":"water:e6789358-90a8-4f25-8ba2-7d16716016da","kind":"water","longitude":10.3017849,"latitude":45.1428988,"name":"Fontanella","city":"Torre de' Picenardi","address":null,"covered":null,"access":null,"website":null,"phone":null,"source":"OpenStreetMap/node/7830701778","sourceUpdatedAt":null,"verifiedAt":null}}]}