{"type":"FeatureCollection","features":[{"type":"Feature","geometry":{"type":"Point","coordinates":[19.1059541,47.579094]},"properties":{"id":"bikerack:0710a4c0-7a9e-4b25-b622-668f892f2dac","kind":"bikerack","longitude":19.1059541,"latitude":47.579094,"name":"Biciklitároló","city":"Budapest XV. keruelet","address":null,"covered":false,"access":null,"website":null,"phone":null,"source":"OpenStreetMap/node/10162437771","sourceUpdatedAt":null,"verifiedAt":null}},{"type":"Feature","geometry":{"type":"Point","coordinates":[19.1097946,47.5787508]},"properties":{"id":"bikerack:0ab52006-da0e-42d2-8e55-6157d3ec0721","kind":"bikerack","longitude":19.1097946,"latitude":47.5787508,"name":"Biciklitároló","city":"Budapest XV. keruelet","address":null,"covered":false,"access":null,"website":null,"phone":null,"source":"OpenStreetMap/node/6964636964","sourceUpdatedAt":null,"verifiedAt":null}},{"type":"Feature","geometry":{"type":"Point","coordinates":[19.1062316,47.5806602]},"properties":{"id":"bikerack:12b60e09-aecf-4fa1-bef3-b0b8fff8c5d6","kind":"bikerack","longitude":19.1062316,"latitude":47.5806602,"name":"Biciklitároló","city":"Budapest XV. keruelet","address":null,"covered":false,"access":null,"website":null,"phone":null,"source":"OpenStreetMap/way/1172736162","sourceUpdatedAt":null,"verifiedAt":null}},{"type":"Feature","geometry":{"type":"Point","coordinates":[19.0945998,47.5861405]},"properties":{"id":"bikerack:1594885e-fb68-4316-bd41-5c8ed9465ccb","kind":"bikerack","longitude":19.0945998,"latitude":47.5861405,"name":"Biciklitároló","city":"Budapest IV. keruelet","address":null,"covered":false,"access":null,"website":null,"phone":null,"source":"OpenStreetMap/node/3674179547","sourceUpdatedAt":null,"verifiedAt":null}},{"type":"Feature","geometry":{"type":"Point","coordinates":[19.0884117,47.5805311]},"properties":{"id":"bikerack:17a602ab-79de-4f46-9098-24e7febd8c40","kind":"bikerack","longitude":19.0884117,"latitude":47.5805311,"name":"Biciklitároló","city":"Budapest IV. keruelet","address":null,"covered":false,"access":null,"website":null,"phone":null,"source":"OpenStreetMap/node/3251416374","sourceUpdatedAt":null,"verifiedAt":null}},{"type":"Feature","geometry":{"type":"Point","coordinates":[19.114466,47.5827866]},"properties":{"id":"bikerack:1dd99472-df58-4bfa-9b86-c5f06ee0da05","kind":"bikerack","longitude":19.114466,"latitude":47.5827866,"name":"Biciklitároló","city":"Budapest XV. keruelet","address":null,"covered":true,"access":null,"website":null,"phone":null,"source":"OpenStreetMap/node/13529158793","sourceUpdatedAt":null,"verifiedAt":null}},{"type":"Feature","geometry":{"type":"Point","coordinates":[19.1053258,47.5817301]},"properties":{"id":"bikerack:32ad0a99-6f3c-4d9a-bbac-bc9821055cf2","kind":"bikerack","longitude":19.1053258,"latitude":47.5817301,"name":"Biciklitároló","city":"Budapest XV. keruelet","address":null,"covered":false,"access":null,"website":null,"phone":null,"source":"OpenStreetMap/node/13254613082","sourceUpdatedAt":null,"verifiedAt":null}},{"type":"Feature","geometry":{"type":"Point","coordinates":[19.0728855,47.6046443]},"properties":{"id":"bikerack:42b1f82b-425e-475a-b71c-36bae49f3850","kind":"bikerack","longitude":19.0728855,"latitude":47.6046443,"name":"Biciklitároló","city":"Budakalasz","address":null,"covered":false,"access":null,"website":null,"phone":null,"source":"OpenStreetMap/node/12877368428","sourceUpdatedAt":null,"verifiedAt":null}},{"type":"Feature","geometry":{"type":"Point","coordinates":[19.11009,47.5785856]},"properties":{"id":"bikerack:53156a9b-830e-4ecc-ba87-f09261136473","kind":"bikerack","longitude":19.11009,"latitude":47.5785856,"name":"Biciklitároló","city":"Budapest XV. keruelet","address":null,"covered":false,"access":null,"website":null,"phone":null,"source":"OpenStreetMap/node/10951580869","sourceUpdatedAt":null,"verifiedAt":null}},{"type":"Feature","geometry":{"type":"Point","coordinates":[19.1148127,47.5799238]},"properties":{"id":"bikerack:60b85b2e-c92b-4942-a55e-994f6b3382dc","kind":"bikerack","longitude":19.1148127,"latitude":47.5799238,"name":"Biciklitároló","city":"Budapest XV. keruelet","address":null,"covered":false,"access":null,"website":null,"phone":null,"source":"OpenStreetMap/node/10099055516","sourceUpdatedAt":null,"verifiedAt":null}},{"type":"Feature","geometry":{"type":"Point","coordinates":[19.1144764,47.5826747]},"properties":{"id":"bikerack:666ff561-4e1a-4d69-9f3c-d9dc68aba392","kind":"bikerack","longitude":19.1144764,"latitude":47.5826747,"name":"Biciklitároló","city":"Budapest XV. keruelet","address":null,"covered":true,"access":null,"website":null,"phone":null,"source":"OpenStreetMap/way/1474771431","sourceUpdatedAt":null,"verifiedAt":null}},{"type":"Feature","geometry":{"type":"Point","coordinates":[19.1099023,47.5792151]},"properties":{"id":"bikerack:767034b6-acd9-444f-ab84-1cdb4a592ac3","kind":"bikerack","longitude":19.1099023,"latitude":47.5792151,"name":"Biciklitároló","city":"Budapest XV. keruelet","address":null,"covered":false,"access":null,"website":null,"phone":null,"source":"OpenStreetMap/node/3674179545","sourceUpdatedAt":null,"verifiedAt":null}},{"type":"Feature","geometry":{"type":"Point","coordinates":[19.1140545,47.5875642]},"properties":{"id":"bikerack:a69c1d29-a008-423b-8534-25f36b8248b2","kind":"bikerack","longitude":19.1140545,"latitude":47.5875642,"name":"Biciklitároló","city":"Budapest XV. keruelet","address":null,"covered":false,"access":null,"website":null,"phone":null,"source":"OpenStreetMap/node/13243401046","sourceUpdatedAt":null,"verifiedAt":null}},{"type":"Feature","geometry":{"type":"Point","coordinates":[19.1065889,47.5806992]},"properties":{"id":"bikerack:c1279d2f-cac7-43a8-92a5-d3caa5cb7c29","kind":"bikerack","longitude":19.1065889,"latitude":47.5806992,"name":"Biciklitároló","city":"Budapest XV. keruelet","address":null,"covered":false,"access":null,"website":null,"phone":null,"source":"OpenStreetMap/way/1172736161","sourceUpdatedAt":null,"verifiedAt":null}},{"type":"Feature","geometry":{"type":"Point","coordinates":[19.1005157,47.5813406]},"properties":{"id":"bikerack:c39f75cd-968f-4a08-a7e8-2ceffad72028","kind":"bikerack","longitude":19.1005157,"latitude":47.5813406,"name":"Biciklitároló","city":"Budapest IV. keruelet","address":null,"covered":true,"access":null,"website":null,"phone":null,"source":"OpenStreetMap/node/13254582572","sourceUpdatedAt":null,"verifiedAt":null}},{"type":"Feature","geometry":{"type":"Point","coordinates":[19.1104358,47.5784123]},"properties":{"id":"bikerack:e2182d1b-1ee2-4eb6-9add-112c60e76a43","kind":"bikerack","longitude":19.1104358,"latitude":47.5784123,"name":"Biciklitároló","city":"Budapest XV. keruelet","address":null,"covered":false,"access":null,"website":null,"phone":null,"source":"OpenStreetMap/node/10951571254","sourceUpdatedAt":null,"verifiedAt":null}},{"type":"Feature","geometry":{"type":"Point","coordinates":[19.1061012,47.5807387]},"properties":{"id":"bikerack:e761799c-0967-4f83-9a43-930d53cee1ec","kind":"bikerack","longitude":19.1061012,"latitude":47.5807387,"name":"Biciklitároló","city":"Budapest XV. keruelet","address":null,"covered":false,"access":null,"website":null,"phone":null,"source":"OpenStreetMap/way/1493438111","sourceUpdatedAt":null,"verifiedAt":null}},{"type":"Feature","geometry":{"type":"Point","coordinates":[19.106455,47.580414]},"properties":{"id":"bikerack:f35daba4-6772-4ff7-95d3-aafec6627142","kind":"bikerack","longitude":19.106455,"latitude":47.580414,"name":"Biciklitároló","city":"Budapest XV. keruelet","address":null,"covered":false,"access":null,"website":null,"phone":null,"source":"OpenStreetMap/node/10896227613","sourceUpdatedAt":null,"verifiedAt":null}},{"type":"Feature","geometry":{"type":"Point","coordinates":[19.1135916,47.580306]},"properties":{"id":"service:48b05d76-f41a-49ef-ae83-96ae77f18a6d","kind":"service","longitude":19.1135916,"latitude":47.580306,"name":"BikePro webshop","city":"Budapest XV. keruelet","address":null,"covered":null,"access":null,"website":null,"phone":null,"source":"OpenStreetMap/node/7691946985","sourceUpdatedAt":null,"verifiedAt":null}},{"type":"Feature","geometry":{"type":"Point","coordinates":[19.073181,47.6049924]},"properties":{"id":"water:01677e1e-c351-4aed-8cbf-eec17475f556","kind":"water","longitude":19.073181,"latitude":47.6049924,"name":"Ivókút","city":null,"address":null,"covered":null,"access":null,"website":null,"phone":null,"source":"OpenStreetMap","sourceUpdatedAt":null,"verifiedAt":null}},{"type":"Feature","geometry":{"type":"Point","coordinates":[19.1104655,47.5862072]},"properties":{"id":"water:0808742e-f6b1-4a7e-bd80-7ed55b61aa24","kind":"water","longitude":19.1104655,"latitude":47.5862072,"name":"Ivókút","city":null,"address":null,"covered":null,"access":null,"website":null,"phone":null,"source":"OpenStreetMap","sourceUpdatedAt":null,"verifiedAt":null}},{"type":"Feature","geometry":{"type":"Point","coordinates":[19.091772,47.5809426]},"properties":{"id":"water:08477d1b-4517-4f65-8754-527472eddfc2","kind":"water","longitude":19.091772,"latitude":47.5809426,"name":"Ivókút","city":null,"address":null,"covered":null,"access":null,"website":null,"phone":null,"source":"OpenStreetMap","sourceUpdatedAt":null,"verifiedAt":null}},{"type":"Feature","geometry":{"type":"Point","coordinates":[19.0946038,47.5840742]},"properties":{"id":"water:09b44f47-d14f-42d8-ac1a-dd87c6405de1","kind":"water","longitude":19.0946038,"latitude":47.5840742,"name":"Ivókút","city":null,"address":null,"covered":null,"access":null,"website":null,"phone":null,"source":"OpenStreetMap","sourceUpdatedAt":null,"verifiedAt":null}},{"type":"Feature","geometry":{"type":"Point","coordinates":[19.0972289,47.5842905]},"properties":{"id":"water:109b6a2f-c74d-41c6-b3e2-9d3d3696af3e","kind":"water","longitude":19.0972289,"latitude":47.5842905,"name":"Ivókút","city":null,"address":null,"covered":null,"access":null,"website":null,"phone":null,"source":"OpenStreetMap","sourceUpdatedAt":null,"verifiedAt":null}},{"type":"Feature","geometry":{"type":"Point","coordinates":[19.0987835,47.5809009]},"properties":{"id":"water:121b6d98-6d4a-4b1e-8d39-2447c2400c9f","kind":"water","longitude":19.0987835,"latitude":47.5809009,"name":"Ivókút","city":null,"address":null,"covered":null,"access":null,"website":null,"phone":null,"source":"OpenStreetMap","sourceUpdatedAt":null,"verifiedAt":null}},{"type":"Feature","geometry":{"type":"Point","coordinates":[19.0989477,47.5817718]},"properties":{"id":"water:1500dd1f-ef72-4b92-b576-96f4a1b8e344","kind":"water","longitude":19.0989477,"latitude":47.5817718,"name":"Ivókút","city":null,"address":null,"covered":null,"access":null,"website":null,"phone":null,"source":"OpenStreetMap","sourceUpdatedAt":null,"verifiedAt":null}},{"type":"Feature","geometry":{"type":"Point","coordinates":[19.0921032,47.5800463]},"properties":{"id":"water:188729a4-1a7d-4662-8a84-0391c6f6347f","kind":"water","longitude":19.0921032,"latitude":47.5800463,"name":"Ivókút","city":null,"address":null,"covered":null,"access":null,"website":null,"phone":null,"source":"OpenStreetMap","sourceUpdatedAt":null,"verifiedAt":null}},{"type":"Feature","geometry":{"type":"Point","coordinates":[19.1051437,47.5787583]},"properties":{"id":"water:2432305a-530d-4585-9c51-f6c4e613044f","kind":"water","longitude":19.1051437,"latitude":47.5787583,"name":"Ivókút","city":null,"address":null,"covered":null,"access":null,"website":null,"phone":null,"source":"OpenStreetMap","sourceUpdatedAt":null,"verifiedAt":null}},{"type":"Feature","geometry":{"type":"Point","coordinates":[19.0940523,47.5826779]},"properties":{"id":"water:2cb79a86-38e4-48bd-9f70-af928516bf75","kind":"water","longitude":19.0940523,"latitude":47.5826779,"name":"Ivókút","city":null,"address":null,"covered":null,"access":null,"website":null,"phone":null,"source":"OpenStreetMap","sourceUpdatedAt":null,"verifiedAt":null}},{"type":"Feature","geometry":{"type":"Point","coordinates":[19.0927347,47.5825817]},"properties":{"id":"water:2cfd521c-4ef6-49c9-910b-d90377219cef","kind":"water","longitude":19.0927347,"latitude":47.5825817,"name":"Ivókút","city":null,"address":null,"covered":null,"access":null,"website":null,"phone":null,"source":"OpenStreetMap","sourceUpdatedAt":null,"verifiedAt":null}},{"type":"Feature","geometry":{"type":"Point","coordinates":[19.0922906,47.582241]},"properties":{"id":"water:30460777-56d5-4412-8297-0738883f32b7","kind":"water","longitude":19.0922906,"latitude":47.582241,"name":"Ivókút","city":null,"address":null,"covered":null,"access":null,"website":null,"phone":null,"source":"OpenStreetMap","sourceUpdatedAt":null,"verifiedAt":null}},{"type":"Feature","geometry":{"type":"Point","coordinates":[19.1104584,47.5806337]},"properties":{"id":"water:39769206-7d2d-488e-9c98-7f15f8834545","kind":"water","longitude":19.1104584,"latitude":47.5806337,"name":"Ivókút","city":null,"address":null,"covered":null,"access":null,"website":null,"phone":null,"source":"OpenStreetMap","sourceUpdatedAt":null,"verifiedAt":null}},{"type":"Feature","geometry":{"type":"Point","coordinates":[19.0898042,47.5857135]},"properties":{"id":"water:58615056-144c-4b74-847e-8c663beb3fe5","kind":"water","longitude":19.0898042,"latitude":47.5857135,"name":"Ivókút","city":null,"address":null,"covered":null,"access":null,"website":null,"phone":null,"source":"OpenStreetMap","sourceUpdatedAt":null,"verifiedAt":null}},{"type":"Feature","geometry":{"type":"Point","coordinates":[19.0967621,47.581493]},"properties":{"id":"water:60a51131-1d8a-47b0-9090-5e36432f41d2","kind":"water","longitude":19.0967621,"latitude":47.581493,"name":"Ivókút","city":null,"address":null,"covered":null,"access":null,"website":null,"phone":null,"source":"OpenStreetMap","sourceUpdatedAt":null,"verifiedAt":null}},{"type":"Feature","geometry":{"type":"Point","coordinates":[19.0955719,47.5847812]},"properties":{"id":"water:645ba49b-2345-4007-8d5c-74a877b1cd4f","kind":"water","longitude":19.0955719,"latitude":47.5847812,"name":"Ivókút","city":null,"address":null,"covered":null,"access":null,"website":null,"phone":null,"source":"OpenStreetMap","sourceUpdatedAt":null,"verifiedAt":null}},{"type":"Feature","geometry":{"type":"Point","coordinates":[19.093783,47.5802306]},"properties":{"id":"water:66d93140-5275-4392-83be-9de9080fa80e","kind":"water","longitude":19.093783,"latitude":47.5802306,"name":"Ivókút","city":null,"address":null,"covered":null,"access":null,"website":null,"phone":null,"source":"OpenStreetMap","sourceUpdatedAt":null,"verifiedAt":null}},{"type":"Feature","geometry":{"type":"Point","coordinates":[19.0953851,47.5798559]},"properties":{"id":"water:6d1743a8-f4c0-4610-a88a-f167e516bf3c","kind":"water","longitude":19.0953851,"latitude":47.5798559,"name":"Ivókút","city":null,"address":null,"covered":null,"access":null,"website":null,"phone":null,"source":"OpenStreetMap","sourceUpdatedAt":null,"verifiedAt":null}},{"type":"Feature","geometry":{"type":"Point","coordinates":[19.1062226,47.5769154]},"properties":{"id":"water:76658088-ddc1-495b-a964-de0c63f5c9e0","kind":"water","longitude":19.1062226,"latitude":47.5769154,"name":"Ivókút","city":null,"address":null,"covered":null,"access":null,"website":null,"phone":null,"source":"OpenStreetMap","sourceUpdatedAt":null,"verifiedAt":null}},{"type":"Feature","geometry":{"type":"Point","coordinates":[19.0956533,47.5816502]},"properties":{"id":"water:888b86f2-9fc1-4b5b-b438-3b4db246b5df","kind":"water","longitude":19.0956533,"latitude":47.5816502,"name":"Ivókút","city":null,"address":null,"covered":null,"access":null,"website":null,"phone":null,"source":"OpenStreetMap","sourceUpdatedAt":null,"verifiedAt":null}},{"type":"Feature","geometry":{"type":"Point","coordinates":[19.1101724,47.5785851]},"properties":{"id":"water:8dabc108-3e3f-40a2-a014-5103fa10248e","kind":"water","longitude":19.1101724,"latitude":47.5785851,"name":"Ivókút","city":null,"address":null,"covered":null,"access":null,"website":null,"phone":null,"source":"OpenStreetMap","sourceUpdatedAt":null,"verifiedAt":null}},{"type":"Feature","geometry":{"type":"Point","coordinates":[19.0918995,47.5819476]},"properties":{"id":"water:933e59dd-11ea-40f9-8855-b54c2ce5e542","kind":"water","longitude":19.0918995,"latitude":47.5819476,"name":"Ivókút","city":null,"address":null,"covered":null,"access":null,"website":null,"phone":null,"source":"OpenStreetMap","sourceUpdatedAt":null,"verifiedAt":null}},{"type":"Feature","geometry":{"type":"Point","coordinates":[19.1104663,47.5786084]},"properties":{"id":"water:9a9f0ca8-e101-47af-805b-21132eaf912e","kind":"water","longitude":19.1104663,"latitude":47.5786084,"name":"Ivókút","city":null,"address":null,"covered":null,"access":null,"website":null,"phone":null,"source":"OpenStreetMap","sourceUpdatedAt":null,"verifiedAt":null}},{"type":"Feature","geometry":{"type":"Point","coordinates":[19.0947131,47.5857353]},"properties":{"id":"water:9db4609c-9b39-4f74-b599-d4c384bb8fd2","kind":"water","longitude":19.0947131,"latitude":47.5857353,"name":"Ivókút","city":null,"address":null,"covered":null,"access":null,"website":null,"phone":null,"source":"OpenStreetMap","sourceUpdatedAt":null,"verifiedAt":null}},{"type":"Feature","geometry":{"type":"Point","coordinates":[19.0919203,47.5830546]},"properties":{"id":"water:a05489d4-bf92-428a-bd5e-86eeca6dec98","kind":"water","longitude":19.0919203,"latitude":47.5830546,"name":"Ivókút","city":null,"address":null,"covered":null,"access":null,"website":null,"phone":null,"source":"OpenStreetMap","sourceUpdatedAt":null,"verifiedAt":null}},{"type":"Feature","geometry":{"type":"Point","coordinates":[19.1066926,47.5804512]},"properties":{"id":"water:a2776a93-6cae-4744-b8d5-bcb76a692b70","kind":"water","longitude":19.1066926,"latitude":47.5804512,"name":"Ivókút","city":null,"address":null,"covered":null,"access":null,"website":null,"phone":null,"source":"OpenStreetMap","sourceUpdatedAt":null,"verifiedAt":null}},{"type":"Feature","geometry":{"type":"Point","coordinates":[19.0948446,47.5832591]},"properties":{"id":"water:ac44b438-43d0-4c0f-83ef-b4a8c3847538","kind":"water","longitude":19.0948446,"latitude":47.5832591,"name":"Ivókút","city":null,"address":null,"covered":null,"access":null,"website":null,"phone":null,"source":"OpenStreetMap","sourceUpdatedAt":null,"verifiedAt":null}},{"type":"Feature","geometry":{"type":"Point","coordinates":[19.0733059,47.6059264]},"properties":{"id":"water:c0a88b2e-c616-4784-94ad-a2ef7f2d5eda","kind":"water","longitude":19.0733059,"latitude":47.6059264,"name":"Ivókút","city":null,"address":null,"covered":null,"access":null,"website":null,"phone":null,"source":"OpenStreetMap","sourceUpdatedAt":null,"verifiedAt":null}},{"type":"Feature","geometry":{"type":"Point","coordinates":[19.1102816,47.5786391]},"properties":{"id":"water:c1ff1400-165c-4efe-8308-e4997a438da8","kind":"water","longitude":19.1102816,"latitude":47.5786391,"name":"Ivókút","city":null,"address":null,"covered":null,"access":null,"website":null,"phone":null,"source":"OpenStreetMap","sourceUpdatedAt":null,"verifiedAt":null}},{"type":"Feature","geometry":{"type":"Point","coordinates":[19.0957133,47.5839536]},"properties":{"id":"water:c459120f-d7e5-415c-87f2-34f70a93e91e","kind":"water","longitude":19.0957133,"latitude":47.5839536,"name":"Ivókút","city":null,"address":null,"covered":null,"access":null,"website":null,"phone":null,"source":"OpenStreetMap","sourceUpdatedAt":null,"verifiedAt":null}},{"type":"Feature","geometry":{"type":"Point","coordinates":[19.0960976,47.5805021]},"properties":{"id":"water:ca87e28c-fbb1-4f26-b82e-15c37680f874","kind":"water","longitude":19.0960976,"latitude":47.5805021,"name":"Ivókút","city":null,"address":null,"covered":null,"access":null,"website":null,"phone":null,"source":"OpenStreetMap","sourceUpdatedAt":null,"verifiedAt":null}},{"type":"Feature","geometry":{"type":"Point","coordinates":[19.0924941,47.5836092]},"properties":{"id":"water:cc721057-73a3-403f-8333-5300650b7c76","kind":"water","longitude":19.0924941,"latitude":47.5836092,"name":"Ivókút","city":null,"address":null,"covered":null,"access":null,"website":null,"phone":null,"source":"OpenStreetMap","sourceUpdatedAt":null,"verifiedAt":null}},{"type":"Feature","geometry":{"type":"Point","coordinates":[19.0857722,47.577477]},"properties":{"id":"water:cc8716b7-64de-4572-ad90-27c73566c273","kind":"water","longitude":19.0857722,"latitude":47.577477,"name":"Ivókút","city":null,"address":null,"covered":null,"access":null,"website":null,"phone":null,"source":"OpenStreetMap","sourceUpdatedAt":null,"verifiedAt":null}},{"type":"Feature","geometry":{"type":"Point","coordinates":[19.0812541,47.5772214]},"properties":{"id":"water:d343dbb1-58b8-492c-9f43-a95d78694e73","kind":"water","longitude":19.0812541,"latitude":47.5772214,"name":"Ivókút","city":null,"address":null,"covered":null,"access":null,"website":null,"phone":null,"source":"OpenStreetMap","sourceUpdatedAt":null,"verifiedAt":null}},{"type":"Feature","geometry":{"type":"Point","coordinates":[19.0963312,47.5843385]},"properties":{"id":"water:d57b7490-5380-41f6-ba5d-8b4c28d5c3a8","kind":"water","longitude":19.0963312,"latitude":47.5843385,"name":"Ivókút","city":null,"address":null,"covered":null,"access":null,"website":null,"phone":null,"source":"OpenStreetMap","sourceUpdatedAt":null,"verifiedAt":null}},{"type":"Feature","geometry":{"type":"Point","coordinates":[19.0939961,47.5850317]},"properties":{"id":"water:df0a6af0-0688-46a3-a806-5e7517df09a9","kind":"water","longitude":19.0939961,"latitude":47.5850317,"name":"Ivókút","city":null,"address":null,"covered":null,"access":null,"website":null,"phone":null,"source":"OpenStreetMap","sourceUpdatedAt":null,"verifiedAt":null}},{"type":"Feature","geometry":{"type":"Point","coordinates":[19.0906926,47.582254]},"properties":{"id":"water:e2b8a1da-b8d7-42db-bf04-0579b5f5567b","kind":"water","longitude":19.0906926,"latitude":47.582254,"name":"Ivókút","city":null,"address":null,"covered":null,"access":null,"website":null,"phone":null,"source":"OpenStreetMap","sourceUpdatedAt":null,"verifiedAt":null}},{"type":"Feature","geometry":{"type":"Point","coordinates":[19.0929363,47.5807253]},"properties":{"id":"water:e398c392-ea16-4a39-bd35-5c2caccaa0f3","kind":"water","longitude":19.0929363,"latitude":47.5807253,"name":"Ivókút","city":null,"address":null,"covered":null,"access":null,"website":null,"phone":null,"source":"OpenStreetMap","sourceUpdatedAt":null,"verifiedAt":null}},{"type":"Feature","geometry":{"type":"Point","coordinates":[19.0961501,47.5831227]},"properties":{"id":"water:e754b959-f39d-4e5c-b649-68781be5113a","kind":"water","longitude":19.0961501,"latitude":47.5831227,"name":"Ivókút","city":null,"address":null,"covered":null,"access":null,"website":null,"phone":null,"source":"OpenStreetMap","sourceUpdatedAt":null,"verifiedAt":null}},{"type":"Feature","geometry":{"type":"Point","coordinates":[19.0952479,47.582442]},"properties":{"id":"water:e9df6568-7560-4b1d-8801-38721e23277f","kind":"water","longitude":19.0952479,"latitude":47.582442,"name":"Ivókút","city":null,"address":null,"covered":null,"access":null,"website":null,"phone":null,"source":"OpenStreetMap","sourceUpdatedAt":null,"verifiedAt":null}},{"type":"Feature","geometry":{"type":"Point","coordinates":[19.1139616,47.5874384]},"properties":{"id":"water:f067cc78-e163-4593-9201-3632055086ca","kind":"water","longitude":19.1139616,"latitude":47.5874384,"name":"Ivókút","city":null,"address":null,"covered":null,"access":null,"website":null,"phone":null,"source":"OpenStreetMap","sourceUpdatedAt":null,"verifiedAt":null}},{"type":"Feature","geometry":{"type":"Point","coordinates":[19.0946495,47.5791668]},"properties":{"id":"water:fad92d71-e397-486f-8d6d-4d35060d25fd","kind":"water","longitude":19.0946495,"latitude":47.5791668,"name":"Ivókút","city":null,"address":null,"covered":null,"access":null,"website":null,"phone":null,"source":"OpenStreetMap","sourceUpdatedAt":null,"verifiedAt":null}},{"type":"Feature","geometry":{"type":"Point","coordinates":[19.0937339,47.5792239]},"properties":{"id":"water:fdde59ea-b932-417c-aed3-91a16650b28d","kind":"water","longitude":19.0937339,"latitude":47.5792239,"name":"Ivókút","city":null,"address":null,"covered":null,"access":null,"website":null,"phone":null,"source":"OpenStreetMap","sourceUpdatedAt":null,"verifiedAt":null}},{"type":"Feature","geometry":{"type":"Point","coordinates":[19.0929726,47.5827653]},"properties":{"id":"water:ff7a67c7-c4e1-4ca4-8013-e8283a54d8ee","kind":"water","longitude":19.0929726,"latitude":47.5827653,"name":"Ivókút","city":null,"address":null,"covered":null,"access":null,"website":null,"phone":null,"source":"OpenStreetMap","sourceUpdatedAt":null,"verifiedAt":null}}]}