{"type":"FeatureCollection","features":[{"type":"Feature","geometry":{"type":"Point","coordinates":[19.0736698,46.4868374]},"properties":{"id":"water:62a34ea3-78c3-4fa6-aeda-248796387c39","kind":"water","longitude":19.0736698,"latitude":46.4868374,"name":"Ivókút","city":null,"address":null,"covered":null,"access":null,"website":null,"phone":null,"source":"OpenStreetMap","sourceUpdatedAt":null,"verifiedAt":null}},{"type":"Feature","geometry":{"type":"Point","coordinates":[19.08132,46.483403]},"properties":{"id":"water:a3fcfc64-3e67-4751-a2c0-d477f9733bff","kind":"water","longitude":19.08132,"latitude":46.483403,"name":"Ivókút","city":null,"address":null,"covered":null,"access":null,"website":null,"phone":null,"source":"OpenStreetMap","sourceUpdatedAt":null,"verifiedAt":null}},{"type":"Feature","geometry":{"type":"Point","coordinates":[19.072373,46.4905652]},"properties":{"id":"water:b2fe34ee-0739-4e46-820b-1cae4b3d495f","kind":"water","longitude":19.072373,"latitude":46.4905652,"name":"Ivókút","city":null,"address":null,"covered":null,"access":null,"website":null,"phone":null,"source":"OpenStreetMap","sourceUpdatedAt":null,"verifiedAt":null}}]}