{"type":"FeatureCollection","features":[{"type":"Feature","geometry":{"type":"Point","coordinates":[23.7303395,53.633299]},"properties":{"id":"water:0a2311fb-7f63-499e-bf1c-349d7bc1f0b1","kind":"water","longitude":23.7303395,"latitude":53.633299,"name":"Drinking Fountain","city":"Hrodna","address":null,"covered":null,"access":null,"website":null,"phone":null,"source":"OpenStreetMap/node/9738049714","sourceUpdatedAt":null,"verifiedAt":null}},{"type":"Feature","geometry":{"type":"Point","coordinates":[23.7267388,53.6345745]},"properties":{"id":"water:0e13e33d-677a-44c6-816e-1eb1537ce93b","kind":"water","longitude":23.7267388,"latitude":53.6345745,"name":"Drinking Fountain","city":"Hrodna","address":null,"covered":null,"access":null,"website":null,"phone":null,"source":"OpenStreetMap/node/9221661364","sourceUpdatedAt":null,"verifiedAt":null}}]}