{"type":"FeatureCollection","features":[{"type":"Feature","geometry":{"type":"Point","coordinates":[13.0837877,49.067392]},"properties":{"id":"bikerack:38b5d281-35a0-4bfd-8f2d-076a6f96a99f","kind":"bikerack","longitude":13.0837877,"latitude":49.067392,"name":"Fahrradabstellplatz","city":"Bodenmais","address":null,"covered":false,"access":null,"website":null,"phone":null,"source":"OpenStreetMap/node/11934927985","sourceUpdatedAt":null,"verifiedAt":null}},{"type":"Feature","geometry":{"type":"Point","coordinates":[13.0946377,49.0701592]},"properties":{"id":"bikerack:74fc860d-a88b-4a3f-aa0b-3b72ea314a31","kind":"bikerack","longitude":13.0946377,"latitude":49.0701592,"name":"Fahrradabstellplatz","city":"Bodenmais","address":null,"covered":true,"access":null,"website":null,"phone":null,"source":"OpenStreetMap/node/11125503202","sourceUpdatedAt":null,"verifiedAt":null}},{"type":"Feature","geometry":{"type":"Point","coordinates":[13.0832892,49.0675106]},"properties":{"id":"bikerack:892e657f-53df-42d2-89c5-fa735a094940","kind":"bikerack","longitude":13.0832892,"latitude":49.0675106,"name":"Fahrradabstellplatz","city":"Bodenmais","address":null,"covered":false,"access":null,"website":null,"phone":null,"source":"OpenStreetMap/node/11950895890","sourceUpdatedAt":null,"verifiedAt":null}}]}