{"type":"FeatureCollection","features":[{"type":"Feature","geometry":{"type":"Point","coordinates":[13.146528,52.2363571]},"properties":{"id":"bikerack:1f947ab9-af95-43a0-ade0-88ca098ea8e4","kind":"bikerack","longitude":13.146528,"latitude":52.2363571,"name":"Fahrradabstellplatz","city":"Trebbin","address":null,"covered":false,"access":null,"website":null,"phone":null,"source":"OpenStreetMap/node/9536825869","sourceUpdatedAt":null,"verifiedAt":null}},{"type":"Feature","geometry":{"type":"Point","coordinates":[13.146147,52.2364338]},"properties":{"id":"bikerack:2ad5d8cd-59c9-42e7-96d4-5b1349cd0724","kind":"bikerack","longitude":13.146147,"latitude":52.2364338,"name":"Fahrradabstellplatz","city":"Trebbin","address":null,"covered":false,"access":null,"website":null,"phone":null,"source":"OpenStreetMap/node/9536825870","sourceUpdatedAt":null,"verifiedAt":null}},{"type":"Feature","geometry":{"type":"Point","coordinates":[13.1768957,52.2228151]},"properties":{"id":"bikerack:64818ec3-fa65-4f25-a756-f2f2b9072a82","kind":"bikerack","longitude":13.1768957,"latitude":52.2228151,"name":"Fahrradabstellplatz","city":"Trebbin","address":null,"covered":false,"access":null,"website":null,"phone":null,"source":"OpenStreetMap/node/8964192064","sourceUpdatedAt":null,"verifiedAt":null}},{"type":"Feature","geometry":{"type":"Point","coordinates":[13.1466047,52.236347]},"properties":{"id":"bikerack:81efc17f-e90b-47e1-9007-fa2a19758d9a","kind":"bikerack","longitude":13.1466047,"latitude":52.236347,"name":"Fahrradabstellplatz","city":"Trebbin","address":null,"covered":false,"access":null,"website":null,"phone":null,"source":"OpenStreetMap/node/9536825863","sourceUpdatedAt":null,"verifiedAt":null}}]}