{"type":"FeatureCollection","features":[{"type":"Feature","geometry":{"type":"Point","coordinates":[13.1418568,49.0127851]},"properties":{"id":"repair:7415c075-afb7-4916-8c8b-558b763726fe","kind":"repair","longitude":13.1418568,"latitude":49.0127851,"name":"Fahrradreparaturstation","city":"Langdorf","address":null,"covered":false,"access":null,"website":null,"phone":null,"source":"OpenStreetMap/node/10214647006","sourceUpdatedAt":null,"verifiedAt":null}},{"type":"Feature","geometry":{"type":"Point","coordinates":[13.141905,49.0157902]},"properties":{"id":"repair:753957be-9caa-4653-ab4c-c8e60348ef09","kind":"repair","longitude":13.141905,"latitude":49.0157902,"name":"Fahrradreparaturstation","city":"Langdorf","address":null,"covered":false,"access":null,"website":null,"phone":null,"source":"OpenStreetMap/node/9680096318","sourceUpdatedAt":null,"verifiedAt":null}},{"type":"Feature","geometry":{"type":"Point","coordinates":[13.1740132,49.0163864]},"properties":{"id":"water:9faaf871-8ffe-43a1-b9ae-17956565a63b","kind":"water","longitude":13.1740132,"latitude":49.0163864,"name":"Trinkwasser","city":"Langdorf","address":null,"covered":null,"access":null,"website":null,"phone":null,"source":"OpenStreetMap/node/13163053543","sourceUpdatedAt":null,"verifiedAt":null}}]}