{"type":"FeatureCollection","features":[{"type":"Feature","geometry":{"type":"Point","coordinates":[8.0752864,51.9673576]},"properties":{"id":"bikerack:0edb8f35-a4a8-4219-aa5f-aace57c10f1e","kind":"bikerack","longitude":8.0752864,"latitude":51.9673576,"name":"Fahrradabstellplatz","city":"Sassenberg","address":null,"covered":false,"access":null,"website":null,"phone":null,"source":"OpenStreetMap/node/8044304460","sourceUpdatedAt":null,"verifiedAt":null}},{"type":"Feature","geometry":{"type":"Point","coordinates":[8.0503477,51.9520664]},"properties":{"id":"water:d1af494a-c162-4370-a25d-aa41b7f46b81","kind":"water","longitude":8.0503477,"latitude":51.9520664,"name":"Trinkwasser","city":"Sassenberg","address":null,"covered":null,"access":null,"website":null,"phone":null,"source":"OpenStreetMap/node/665876337","sourceUpdatedAt":null,"verifiedAt":null}}]}