{"type":"FeatureCollection","features":[{"type":"Feature","geometry":{"type":"Point","coordinates":[8.0770205,50.1038632]},"properties":{"id":"repair:f16de518-e55a-4fec-867c-ea29fa3d2167","kind":"repair","longitude":8.0770205,"latitude":50.1038632,"name":"MUOM Bicycle Parking & Repair","city":"Schlangenbad","address":null,"covered":false,"access":null,"website":null,"phone":null,"source":"OpenStreetMap/node/11208464211","sourceUpdatedAt":null,"verifiedAt":null}},{"type":"Feature","geometry":{"type":"Point","coordinates":[8.0782192,50.1049577]},"properties":{"id":"water:514ab6a8-338d-4b12-8e44-961a1923aea9","kind":"water","longitude":8.0782192,"latitude":50.1049577,"name":"Trinkwasser","city":"Schlangenbad","address":null,"covered":null,"access":null,"website":null,"phone":null,"source":"OpenStreetMap/node/853950541","sourceUpdatedAt":null,"verifiedAt":null}},{"type":"Feature","geometry":{"type":"Point","coordinates":[8.0778457,50.1051624]},"properties":{"id":"water:9f6137c8-cfe8-4ce2-b7b5-c460ecd81dda","kind":"water","longitude":8.0778457,"latitude":50.1051624,"name":"Trinkwasser","city":"Schlangenbad","address":null,"covered":null,"access":null,"website":null,"phone":null,"source":"OpenStreetMap/node/853950537","sourceUpdatedAt":null,"verifiedAt":null}},{"type":"Feature","geometry":{"type":"Point","coordinates":[8.0783644,50.1052165]},"properties":{"id":"water:d1fb5b64-aec7-4c96-a630-6639e21c4ef5","kind":"water","longitude":8.0783644,"latitude":50.1052165,"name":"Trinkwasser","city":"Schlangenbad","address":null,"covered":null,"access":null,"website":null,"phone":null,"source":"OpenStreetMap/node/853950539","sourceUpdatedAt":null,"verifiedAt":null}},{"type":"Feature","geometry":{"type":"Point","coordinates":[8.0718661,50.1035466]},"properties":{"id":"water:ed63a263-de8a-46d5-b46e-731fb8a589b5","kind":"water","longitude":8.0718661,"latitude":50.1035466,"name":"Trinkwasser","city":"Schlangenbad","address":null,"covered":null,"access":null,"website":null,"phone":null,"source":"OpenStreetMap/node/855666066","sourceUpdatedAt":null,"verifiedAt":null}}]}