{"type":"FeatureCollection","features":[{"type":"Feature","geometry":{"type":"Point","coordinates":[8.0799476,49.2737931]},"properties":{"id":"bikerack:398031d9-02f6-4c01-ac0d-80cc563cab39","kind":"bikerack","longitude":8.0799476,"latitude":49.2737931,"name":"Fahrradabstellplatz","city":"Burrweiler","address":null,"covered":false,"access":null,"website":null,"phone":null,"source":"OpenStreetMap/node/13658770441","sourceUpdatedAt":null,"verifiedAt":null}},{"type":"Feature","geometry":{"type":"Point","coordinates":[8.080051,49.2739738]},"properties":{"id":"bikerack:55875604-6160-4a8f-a7e7-52dfe8ce70fd","kind":"bikerack","longitude":8.080051,"latitude":49.2739738,"name":"Fahrradabstellplatz","city":"Burrweiler","address":null,"covered":false,"access":null,"website":null,"phone":null,"source":"OpenStreetMap/way/841059056","sourceUpdatedAt":null,"verifiedAt":null}},{"type":"Feature","geometry":{"type":"Point","coordinates":[8.0790185,49.2746481]},"properties":{"id":"water:aad9ef32-e1d5-446d-b098-70418357f6e8","kind":"water","longitude":8.0790185,"latitude":49.2746481,"name":"Trinkwasser","city":"Burrweiler","address":null,"covered":null,"access":null,"website":null,"phone":null,"source":"OpenStreetMap/node/12344668237","sourceUpdatedAt":null,"verifiedAt":null}},{"type":"Feature","geometry":{"type":"Point","coordinates":[8.0539476,49.2946121]},"properties":{"id":"water:d9bde3b7-c513-49f1-bfd9-1f5da186f5ef","kind":"water","longitude":8.0539476,"latitude":49.2946121,"name":"Trinkwasser","city":"Sankt Martin","address":null,"covered":null,"access":null,"website":null,"phone":null,"source":"OpenStreetMap/node/1937587372","sourceUpdatedAt":null,"verifiedAt":null}}]}