{"type":"FeatureCollection","features":[{"type":"Feature","geometry":{"type":"Point","coordinates":[8.0481317,48.5801794]},"properties":{"id":"bikerack:760572a9-7c22-43df-b2f5-ba255746a759","kind":"bikerack","longitude":8.0481317,"latitude":48.5801794,"name":"Fahrradabstellplatz","city":"Haslach","address":null,"covered":false,"access":null,"website":null,"phone":null,"source":"OpenStreetMap/node/12076731904","sourceUpdatedAt":null,"verifiedAt":null}},{"type":"Feature","geometry":{"type":"Point","coordinates":[8.0450484,48.5810672]},"properties":{"id":"water:245f1fea-ed35-46e2-8997-5c31250f93a0","kind":"water","longitude":8.0450484,"latitude":48.5810672,"name":"Trinkwasser","city":"Haslach","address":null,"covered":null,"access":null,"website":null,"phone":null,"source":"OpenStreetMap/node/4304902404","sourceUpdatedAt":null,"verifiedAt":null}},{"type":"Feature","geometry":{"type":"Point","coordinates":[8.0761575,48.586573]},"properties":{"id":"water:33f2d5bc-b4f4-4333-844c-43ce2328a861","kind":"water","longitude":8.0761575,"latitude":48.586573,"name":"Trinkwasser","city":"Haslach","address":null,"covered":null,"access":null,"website":null,"phone":null,"source":"OpenStreetMap/node/3249485772","sourceUpdatedAt":null,"verifiedAt":null}}]}