{"type":"FeatureCollection","features":[{"type":"Feature","geometry":{"type":"Point","coordinates":[8.0842898,45.8387747]},"properties":{"id":"water:7c145a34-69d1-4324-91ed-203d413699a2","kind":"water","longitude":8.0842898,"latitude":45.8387747,"name":"Fontanella","city":"Rimasco","address":null,"covered":null,"access":null,"website":null,"phone":null,"source":"OpenStreetMap/node/4917078608","sourceUpdatedAt":null,"verifiedAt":null}},{"type":"Feature","geometry":{"type":"Point","coordinates":[8.063039,45.8565903]},"properties":{"id":"water:7e7eae99-be9a-4567-948e-0216bb1f44cd","kind":"water","longitude":8.063039,"latitude":45.8565903,"name":"Fontanella","city":"Rimasco","address":null,"covered":null,"access":null,"website":null,"phone":null,"source":"OpenStreetMap/node/4913084960","sourceUpdatedAt":null,"verifiedAt":null}},{"type":"Feature","geometry":{"type":"Point","coordinates":[8.0828384,45.8408907]},"properties":{"id":"water:8b5488b3-5f77-451e-89da-371d2cbe845d","kind":"water","longitude":8.0828384,"latitude":45.8408907,"name":"Fontanella","city":"Rimasco","address":null,"covered":null,"access":null,"website":null,"phone":null,"source":"OpenStreetMap/node/4917078777","sourceUpdatedAt":null,"verifiedAt":null}},{"type":"Feature","geometry":{"type":"Point","coordinates":[8.0628669,45.858589]},"properties":{"id":"water:cfaa9326-05ba-495a-8a74-122546adaa3c","kind":"water","longitude":8.0628669,"latitude":45.858589,"name":"Fontanella","city":"Rimasco","address":null,"covered":null,"access":null,"website":null,"phone":null,"source":"OpenStreetMap/node/3826588289","sourceUpdatedAt":null,"verifiedAt":null}},{"type":"Feature","geometry":{"type":"Point","coordinates":[8.0625398,45.8589469]},"properties":{"id":"water:f07847f8-929e-43b3-b816-fb81e79da859","kind":"water","longitude":8.0625398,"latitude":45.8589469,"name":"Fontanella","city":"Rimasco","address":null,"covered":null,"access":null,"website":null,"phone":null,"source":"OpenStreetMap/node/4913084839","sourceUpdatedAt":null,"verifiedAt":null}}]}