{"type":"FeatureCollection","features":[{"type":"Feature","geometry":{"type":"Point","coordinates":[18.4256638,54.4528494]},"properties":{"id":"bikerack:2866283f-7f70-40fc-847e-5826a86c411d","kind":"bikerack","longitude":18.4256638,"latitude":54.4528494,"name":"Biciklitároló","city":"Chwaszczyno","address":null,"covered":false,"access":null,"website":null,"phone":null,"source":"OpenStreetMap/node/11774602466","sourceUpdatedAt":null,"verifiedAt":null}},{"type":"Feature","geometry":{"type":"Point","coordinates":[18.4535756,54.4556014]},"properties":{"id":"bikerack:3d073fa2-918e-42eb-b526-47aa60f6d662","kind":"bikerack","longitude":18.4535756,"latitude":54.4556014,"name":"Biciklitároló","city":"Wielki Kack","address":null,"covered":false,"access":null,"website":null,"phone":null,"source":"OpenStreetMap/node/13456871767","sourceUpdatedAt":null,"verifiedAt":null}},{"type":"Feature","geometry":{"type":"Point","coordinates":[18.4512786,54.4618329]},"properties":{"id":"bikerack:de54bf0d-4b51-4e78-9f6a-772715c7d6d0","kind":"bikerack","longitude":18.4512786,"latitude":54.4618329,"name":"Biciklitároló","city":"Chwaszczyno","address":null,"covered":false,"access":null,"website":null,"phone":null,"source":"OpenStreetMap/node/12517079420","sourceUpdatedAt":null,"verifiedAt":null}}]}