{"type":"FeatureCollection","features":[{"type":"Feature","geometry":{"type":"Point","coordinates":[18.4514608,53.4925311]},"properties":{"id":"bikerack:7a1355a2-1fcd-4c5e-85ee-6b7f096b0437","kind":"bikerack","longitude":18.4514608,"latitude":53.4925311,"name":"Biciklitároló","city":"Jezewo","address":null,"covered":false,"access":null,"website":null,"phone":null,"source":"OpenStreetMap/node/9983787647","sourceUpdatedAt":null,"verifiedAt":null}},{"type":"Feature","geometry":{"type":"Point","coordinates":[18.4542066,53.4923699]},"properties":{"id":"bikerack:8fabc629-3c20-48dd-be00-8eea800b9c4e","kind":"bikerack","longitude":18.4542066,"latitude":53.4923699,"name":"Biciklitároló","city":"Jezewo","address":null,"covered":false,"access":null,"website":null,"phone":null,"source":"OpenStreetMap/node/2455070349","sourceUpdatedAt":null,"verifiedAt":null}},{"type":"Feature","geometry":{"type":"Point","coordinates":[18.4539873,53.4924287]},"properties":{"id":"bikerack:a9e7e7b8-dbc9-4076-9d43-a9c0d101c2e9","kind":"bikerack","longitude":18.4539873,"latitude":53.4924287,"name":"Biciklitároló","city":"Jezewo","address":null,"covered":false,"access":null,"website":null,"phone":null,"source":"OpenStreetMap/node/2455070352","sourceUpdatedAt":null,"verifiedAt":null}},{"type":"Feature","geometry":{"type":"Point","coordinates":[18.4535728,53.4921513]},"properties":{"id":"bikerack:ca910f34-471a-431a-a928-70eb61f9c7d5","kind":"bikerack","longitude":18.4535728,"latitude":53.4921513,"name":"Biciklitároló","city":"Jezewo","address":null,"covered":false,"access":null,"website":null,"phone":null,"source":"OpenStreetMap/node/2455070338","sourceUpdatedAt":null,"verifiedAt":null}}]}