{"type":"FeatureCollection","features":[{"type":"Feature","geometry":{"type":"Point","coordinates":[14.9765229,53.0046123]},"properties":{"id":"bikerack:16d6d6d6-d102-45c6-afd8-08bce45c10ed","kind":"bikerack","longitude":14.9765229,"latitude":53.0046123,"name":"Biciklitároló","city":"Lipiany","address":null,"covered":false,"access":null,"website":null,"phone":null,"source":"OpenStreetMap/node/10552836380","sourceUpdatedAt":null,"verifiedAt":null}},{"type":"Feature","geometry":{"type":"Point","coordinates":[14.969118,53.0011754]},"properties":{"id":"bikerack:250b6748-f592-4dd6-a2ee-abc034d0a51d","kind":"bikerack","longitude":14.969118,"latitude":53.0011754,"name":"Biciklitároló","city":"Lipiany","address":null,"covered":false,"access":null,"website":null,"phone":null,"source":"OpenStreetMap/node/11390093723","sourceUpdatedAt":null,"verifiedAt":null}},{"type":"Feature","geometry":{"type":"Point","coordinates":[14.9691282,53.0011998]},"properties":{"id":"repair:b2c2379d-02ce-48a5-af30-c0259d738975","kind":"repair","longitude":14.9691282,"latitude":53.0011998,"name":"Kerékpár szervizállomás","city":"Lipiany","address":null,"covered":false,"access":null,"website":null,"phone":null,"source":"OpenStreetMap/node/11390093722","sourceUpdatedAt":null,"verifiedAt":null}}]}