{"type":"FeatureCollection","features":[{"type":"Feature","geometry":{"type":"Point","coordinates":[14.9737562,50.5224504]},"properties":{"id":"bikerack:0d4e2a90-b9ad-4a6b-9421-79f0a195d8de","kind":"bikerack","longitude":14.9737562,"latitude":50.5224504,"name":"Bicycle Parking","city":"Mnichovo Hradiste","address":null,"covered":false,"access":null,"website":null,"phone":null,"source":"OpenStreetMap/node/13033291170","sourceUpdatedAt":null,"verifiedAt":null}},{"type":"Feature","geometry":{"type":"Point","coordinates":[14.9745504,50.5232766]},"properties":{"id":"bikerack:180c745a-ad20-4b65-bfa8-8a3c0d0e25cf","kind":"bikerack","longitude":14.9745504,"latitude":50.5232766,"name":"Bicycle Parking","city":"Mnichovo Hradiste","address":null,"covered":true,"access":null,"website":null,"phone":null,"source":"OpenStreetMap/node/11978290611","sourceUpdatedAt":null,"verifiedAt":null}},{"type":"Feature","geometry":{"type":"Point","coordinates":[14.9751387,50.5223017]},"properties":{"id":"bikerack:246e5c07-d929-47c1-80aa-367b060775fd","kind":"bikerack","longitude":14.9751387,"latitude":50.5223017,"name":"Bicycle Parking","city":"Mnichovo Hradiste","address":null,"covered":false,"access":null,"website":null,"phone":null,"source":"OpenStreetMap/node/8119174215","sourceUpdatedAt":null,"verifiedAt":null}},{"type":"Feature","geometry":{"type":"Point","coordinates":[14.9754019,50.5337667]},"properties":{"id":"bikerack:250e855c-8bc3-4d05-9d87-da988041a409","kind":"bikerack","longitude":14.9754019,"latitude":50.5337667,"name":"Bicycle Parking","city":"Mnichovo Hradiste","address":null,"covered":false,"access":null,"website":null,"phone":null,"source":"OpenStreetMap/node/9527224292","sourceUpdatedAt":null,"verifiedAt":null}},{"type":"Feature","geometry":{"type":"Point","coordinates":[14.9753597,50.5233236]},"properties":{"id":"bikerack:36e88722-9c30-4ddc-9d95-7144b6c1b8cf","kind":"bikerack","longitude":14.9753597,"latitude":50.5233236,"name":"Bicycle Parking","city":"Mnichovo Hradiste","address":null,"covered":false,"access":null,"website":null,"phone":null,"source":"OpenStreetMap/node/9240699686","sourceUpdatedAt":null,"verifiedAt":null}},{"type":"Feature","geometry":{"type":"Point","coordinates":[14.9775765,50.5185742]},"properties":{"id":"bikerack:422d2af2-c17a-48ca-a445-1e8aaa1cee7d","kind":"bikerack","longitude":14.9775765,"latitude":50.5185742,"name":"B+R","city":"Mnichovo Hradiste","address":null,"covered":true,"access":null,"website":null,"phone":null,"source":"OpenStreetMap/node/6983264498","sourceUpdatedAt":null,"verifiedAt":null}},{"type":"Feature","geometry":{"type":"Point","coordinates":[14.9750351,50.522898]},"properties":{"id":"bikerack:45acf1d5-4f9b-48b0-9031-4aa6707d6ea6","kind":"bikerack","longitude":14.9750351,"latitude":50.522898,"name":"Bicycle Parking","city":"Mnichovo Hradiste","address":null,"covered":false,"access":null,"website":null,"phone":null,"source":"OpenStreetMap/node/9240711839","sourceUpdatedAt":null,"verifiedAt":null}},{"type":"Feature","geometry":{"type":"Point","coordinates":[14.9777495,50.5185994]},"properties":{"id":"bikerack:4fca0e42-c2fc-4941-9079-29038e550caf","kind":"bikerack","longitude":14.9777495,"latitude":50.5185994,"name":"B+R","city":"Mnichovo Hradiste","address":null,"covered":false,"access":null,"website":null,"phone":null,"source":"OpenStreetMap/node/6983264497","sourceUpdatedAt":null,"verifiedAt":null}},{"type":"Feature","geometry":{"type":"Point","coordinates":[14.97311,50.5265937]},"properties":{"id":"bikerack:5004d6af-e8fc-46f0-bde8-d6e5980d55ff","kind":"bikerack","longitude":14.97311,"latitude":50.5265937,"name":"Bicycle Parking","city":"Mnichovo Hradiste","address":null,"covered":false,"access":null,"website":null,"phone":null,"source":"OpenStreetMap/node/7093518402","sourceUpdatedAt":null,"verifiedAt":null}},{"type":"Feature","geometry":{"type":"Point","coordinates":[14.9735878,50.5231189]},"properties":{"id":"bikerack:50d08dcd-5524-49e3-ba57-2a1831fa4677","kind":"bikerack","longitude":14.9735878,"latitude":50.5231189,"name":"Bicycle Parking","city":"Mnichovo Hradiste","address":null,"covered":false,"access":null,"website":null,"phone":null,"source":"OpenStreetMap/node/13033291169","sourceUpdatedAt":null,"verifiedAt":null}},{"type":"Feature","geometry":{"type":"Point","coordinates":[14.9759269,50.5195092]},"properties":{"id":"bikerack:5e965633-ed45-40ed-9b7b-148425ac8111","kind":"bikerack","longitude":14.9759269,"latitude":50.5195092,"name":"Bicycle Parking","city":"Mnichovo Hradiste","address":null,"covered":false,"access":null,"website":null,"phone":null,"source":"OpenStreetMap/node/6983258781","sourceUpdatedAt":null,"verifiedAt":null}},{"type":"Feature","geometry":{"type":"Point","coordinates":[14.9745081,50.5231978]},"properties":{"id":"bikerack:5e97e5a5-7423-434a-ac0e-fe7a05ee25fd","kind":"bikerack","longitude":14.9745081,"latitude":50.5231978,"name":"Bicycle Parking","city":"Mnichovo Hradiste","address":null,"covered":false,"access":null,"website":null,"phone":null,"source":"OpenStreetMap/node/9405359006","sourceUpdatedAt":null,"verifiedAt":null}},{"type":"Feature","geometry":{"type":"Point","coordinates":[14.9750616,50.522847]},"properties":{"id":"bikerack:697ae4ad-ddc4-4727-b378-1aaefa7f84be","kind":"bikerack","longitude":14.9750616,"latitude":50.522847,"name":"Bicycle Parking","city":"Mnichovo Hradiste","address":null,"covered":false,"access":null,"website":null,"phone":null,"source":"OpenStreetMap/node/9240711840","sourceUpdatedAt":null,"verifiedAt":null}},{"type":"Feature","geometry":{"type":"Point","coordinates":[14.9746965,50.5225315]},"properties":{"id":"bikerack:7dbf6c94-d81e-4e8c-a782-0f7246a127e6","kind":"bikerack","longitude":14.9746965,"latitude":50.5225315,"name":"Bicycle Parking","city":"Mnichovo Hradiste","address":null,"covered":false,"access":null,"website":null,"phone":null,"source":"OpenStreetMap/node/8119174817","sourceUpdatedAt":null,"verifiedAt":null}},{"type":"Feature","geometry":{"type":"Point","coordinates":[14.9764171,50.5224704]},"properties":{"id":"bikerack:84249de8-0cd8-4005-b1b7-2d611aa96fc9","kind":"bikerack","longitude":14.9764171,"latitude":50.5224704,"name":"Bicycle Parking","city":"Mnichovo Hradiste","address":null,"covered":false,"access":null,"website":null,"phone":null,"source":"OpenStreetMap/node/3685334671","sourceUpdatedAt":null,"verifiedAt":null}},{"type":"Feature","geometry":{"type":"Point","coordinates":[14.9735818,50.5205433]},"properties":{"id":"bikerack:91e1050d-288f-44f5-afc1-8e5d2e77544f","kind":"bikerack","longitude":14.9735818,"latitude":50.5205433,"name":"Bicycle Parking","city":"Mnichovo Hradiste","address":null,"covered":false,"access":null,"website":null,"phone":null,"source":"OpenStreetMap/node/3684766111","sourceUpdatedAt":null,"verifiedAt":null}},{"type":"Feature","geometry":{"type":"Point","coordinates":[14.9735941,50.5221572]},"properties":{"id":"bikerack:a35a73d0-483f-43f0-a290-08e4725e6290","kind":"bikerack","longitude":14.9735941,"latitude":50.5221572,"name":"Bicycle Parking","city":"Mnichovo Hradiste","address":null,"covered":false,"access":null,"website":null,"phone":null,"source":"OpenStreetMap/node/11349822873","sourceUpdatedAt":null,"verifiedAt":null}},{"type":"Feature","geometry":{"type":"Point","coordinates":[14.9764458,50.5229879]},"properties":{"id":"bikerack:a6a8412f-ef92-4fc0-88d4-0f617a182917","kind":"bikerack","longitude":14.9764458,"latitude":50.5229879,"name":"Bicycle Parking","city":"Mnichovo Hradiste","address":null,"covered":false,"access":null,"website":null,"phone":null,"source":"OpenStreetMap/node/3681460180","sourceUpdatedAt":null,"verifiedAt":null}},{"type":"Feature","geometry":{"type":"Point","coordinates":[14.9775001,50.5186322]},"properties":{"id":"bikerack:b0e1bce2-607e-4c7e-8984-5809430df7a8","kind":"bikerack","longitude":14.9775001,"latitude":50.5186322,"name":"B+R","city":"Mnichovo Hradiste","address":null,"covered":true,"access":null,"website":null,"phone":null,"source":"OpenStreetMap/node/6983258780","sourceUpdatedAt":null,"verifiedAt":null}},{"type":"Feature","geometry":{"type":"Point","coordinates":[14.9742003,50.5337624]},"properties":{"id":"bikerack:b984643a-4daf-45c6-8a8c-996439a86ca4","kind":"bikerack","longitude":14.9742003,"latitude":50.5337624,"name":"Bicycle Parking","city":"Mnichovo Hradiste","address":null,"covered":false,"access":null,"website":null,"phone":null,"source":"OpenStreetMap/node/9527224291","sourceUpdatedAt":null,"verifiedAt":null}},{"type":"Feature","geometry":{"type":"Point","coordinates":[14.9778868,50.5183945]},"properties":{"id":"bikerack:bd4dd268-f590-45d1-a933-fe0ce82a23dd","kind":"bikerack","longitude":14.9778868,"latitude":50.5183945,"name":"Bicycle Parking","city":"Mnichovo Hradiste","address":null,"covered":false,"access":null,"website":null,"phone":null,"source":"OpenStreetMap/node/9194391501","sourceUpdatedAt":null,"verifiedAt":null}},{"type":"Feature","geometry":{"type":"Point","coordinates":[14.9719777,50.5162702]},"properties":{"id":"bikerack:c516ecb6-9231-435a-b936-c1302c4b2c1c","kind":"bikerack","longitude":14.9719777,"latitude":50.5162702,"name":"Bicycle Parking","city":"Mnichovo Hradiste","address":null,"covered":false,"access":null,"website":null,"phone":null,"source":"OpenStreetMap/node/13629727102","sourceUpdatedAt":null,"verifiedAt":null}},{"type":"Feature","geometry":{"type":"Point","coordinates":[14.9747069,50.522194]},"properties":{"id":"bikerack:cca57422-9106-4817-aea9-999bfdae4d86","kind":"bikerack","longitude":14.9747069,"latitude":50.522194,"name":"Bicycle Parking","city":"Mnichovo Hradiste","address":null,"covered":false,"access":null,"website":null,"phone":null,"source":"OpenStreetMap/node/8119174723","sourceUpdatedAt":null,"verifiedAt":null}},{"type":"Feature","geometry":{"type":"Point","coordinates":[14.97347,50.5207701]},"properties":{"id":"bikerack:e590ae7c-20c2-428f-852b-df0f909a9b80","kind":"bikerack","longitude":14.97347,"latitude":50.5207701,"name":"Bicycle Parking","city":"Mnichovo Hradiste","address":null,"covered":true,"access":null,"website":null,"phone":null,"source":"OpenStreetMap/node/3684766116","sourceUpdatedAt":null,"verifiedAt":null}},{"type":"Feature","geometry":{"type":"Point","coordinates":[14.9484157,50.5252087]},"properties":{"id":"bikerack:eaa16979-1597-4447-ae11-c54e91a1cb90","kind":"bikerack","longitude":14.9484157,"latitude":50.5252087,"name":"Bicycle Parking","city":"Mnichovo Hradiste","address":null,"covered":false,"access":null,"website":null,"phone":null,"source":"OpenStreetMap/node/3686732067","sourceUpdatedAt":null,"verifiedAt":null}},{"type":"Feature","geometry":{"type":"Point","coordinates":[14.9778258,50.5233668]},"properties":{"id":"bikerack:f2da553c-c46e-4424-843b-f95547feceeb","kind":"bikerack","longitude":14.9778258,"latitude":50.5233668,"name":"Bicycle Parking","city":"Mnichovo Hradiste","address":null,"covered":false,"access":null,"website":null,"phone":null,"source":"OpenStreetMap/node/3681460219","sourceUpdatedAt":null,"verifiedAt":null}},{"type":"Feature","geometry":{"type":"Point","coordinates":[14.9745225,50.5229093]},"properties":{"id":"bikerack:f3dc9bfc-2323-419e-aae4-55ec0d07db6a","kind":"bikerack","longitude":14.9745225,"latitude":50.5229093,"name":"Bicycle Parking","city":"Mnichovo Hradiste","address":null,"covered":false,"access":null,"website":null,"phone":null,"source":"OpenStreetMap/node/11978202665","sourceUpdatedAt":null,"verifiedAt":null}},{"type":"Feature","geometry":{"type":"Point","coordinates":[14.9737377,50.5231167]},"properties":{"id":"bikerack:f4fda609-2b29-4804-bf56-46c9649c2c7c","kind":"bikerack","longitude":14.9737377,"latitude":50.5231167,"name":"Bicycle Parking","city":"Mnichovo Hradiste","address":null,"covered":false,"access":null,"website":null,"phone":null,"source":"OpenStreetMap/node/13033291168","sourceUpdatedAt":null,"verifiedAt":null}},{"type":"Feature","geometry":{"type":"Point","coordinates":[14.9717192,50.515691]},"properties":{"id":"bikerack:fa0974dd-4b52-442f-92e1-2810caedfc93","kind":"bikerack","longitude":14.9717192,"latitude":50.515691,"name":"Lidl","city":"Mnichovo Hradiste","address":null,"covered":false,"access":null,"website":null,"phone":null,"source":"OpenStreetMap/node/3681459762","sourceUpdatedAt":null,"verifiedAt":null}},{"type":"Feature","geometry":{"type":"Point","coordinates":[14.9764931,50.5230728]},"properties":{"id":"service:45e127e3-df13-49e2-9d52-11bac353e7a6","kind":"service","longitude":14.9764931,"latitude":50.5230728,"name":"Cyklo Kafka","city":"Mnichovo Hradiste","address":null,"covered":null,"access":null,"website":null,"phone":null,"source":"OpenStreetMap/node/5142501988","sourceUpdatedAt":null,"verifiedAt":null}},{"type":"Feature","geometry":{"type":"Point","coordinates":[14.9683262,50.5336986]},"properties":{"id":"service:5bb7360f-5917-4e83-ae06-379c83e262de","kind":"service","longitude":14.9683262,"latitude":50.5336986,"name":"Cyklosport Radim Fiala","city":"Mnichovo Hradiste","address":null,"covered":null,"access":null,"website":null,"phone":null,"source":"OpenStreetMap/node/2908367983","sourceUpdatedAt":null,"verifiedAt":null}},{"type":"Feature","geometry":{"type":"Point","coordinates":[14.969379,50.5273644]},"properties":{"id":"service:c960ca6b-ae20-4e98-b645-7d15cb9ce70d","kind":"service","longitude":14.969379,"latitude":50.5273644,"name":"Cykloservis","city":"Mnichovo Hradiste","address":null,"covered":null,"access":null,"website":null,"phone":null,"source":"OpenStreetMap/node/7093518408","sourceUpdatedAt":null,"verifiedAt":null}},{"type":"Feature","geometry":{"type":"Point","coordinates":[14.974497,50.5229041]},"properties":{"id":"water:09f72a36-8aa3-4bb6-8ca6-a0a02dc6446e","kind":"water","longitude":14.974497,"latitude":50.5229041,"name":"Drinking Fountain","city":"Mnichovo Hradiste","address":null,"covered":null,"access":null,"website":null,"phone":null,"source":"OpenStreetMap/node/11785939553","sourceUpdatedAt":null,"verifiedAt":null}}]}