{"type":"FeatureCollection","features":[{"type":"Feature","geometry":{"type":"Point","coordinates":[14.9623439,50.1857424]},"properties":{"id":"bikerack:e5aabf4e-7445-4ddc-81c6-5a752cf26b08","kind":"bikerack","longitude":14.9623439,"latitude":50.1857424,"name":"Bicycle Parking","city":"Sadska","address":null,"covered":true,"access":null,"website":null,"phone":null,"source":"OpenStreetMap/node/3350582506","sourceUpdatedAt":null,"verifiedAt":null}},{"type":"Feature","geometry":{"type":"Point","coordinates":[14.961431,50.1841718]},"properties":{"id":"water:d37d4d99-7b1e-4aa8-9868-3172b8883bfd","kind":"water","longitude":14.961431,"latitude":50.1841718,"name":"EKO voda","city":"Kostomlaty nad Labem","address":null,"covered":null,"access":null,"website":null,"phone":null,"source":"OpenStreetMap/node/3350582512","sourceUpdatedAt":null,"verifiedAt":null}}]}