{"type":"FeatureCollection","features":[{"type":"Feature","geometry":{"type":"Point","coordinates":[8.7613891,52.0953818]},"properties":{"id":"bikerack:0f9c6f00-d05f-4c44-81fb-bd87901c2238","kind":"bikerack","longitude":8.7613891,"latitude":52.0953818,"name":"Fahrradabstellplatz","city":"Bad Salzuflen","address":null,"covered":true,"access":null,"website":null,"phone":null,"source":"OpenStreetMap/way/701187743","sourceUpdatedAt":null,"verifiedAt":null}},{"type":"Feature","geometry":{"type":"Point","coordinates":[8.7570227,52.0926033]},"properties":{"id":"bikerack:21ebabda-5be3-4270-b6f7-a2bf1c9175db","kind":"bikerack","longitude":8.7570227,"latitude":52.0926033,"name":"Fahrradabstellplatz","city":"Bad Salzuflen","address":null,"covered":false,"access":null,"website":null,"phone":null,"source":"OpenStreetMap/node/7932406955","sourceUpdatedAt":null,"verifiedAt":null}},{"type":"Feature","geometry":{"type":"Point","coordinates":[8.7521724,52.0958574]},"properties":{"id":"bikerack:2e4df0f6-b2f0-4c4e-947a-f43cab9644ba","kind":"bikerack","longitude":8.7521724,"latitude":52.0958574,"name":"Fahrradabstellplatz","city":"Bad Salzuflen","address":null,"covered":false,"access":null,"website":null,"phone":null,"source":"OpenStreetMap/way/1443252468","sourceUpdatedAt":null,"verifiedAt":null}},{"type":"Feature","geometry":{"type":"Point","coordinates":[8.7562567,52.0974746]},"properties":{"id":"bikerack:486286f7-c851-4a11-9f95-e7b8d5b354fc","kind":"bikerack","longitude":8.7562567,"latitude":52.0974746,"name":"Fahrradabstellplatz","city":"Bad Salzuflen","address":null,"covered":false,"access":null,"website":null,"phone":null,"source":"OpenStreetMap/way/981544722","sourceUpdatedAt":null,"verifiedAt":null}},{"type":"Feature","geometry":{"type":"Point","coordinates":[8.7521841,52.0959323]},"properties":{"id":"bikerack:4bf3eb2f-b974-4a91-87f6-df32f14b95ec","kind":"bikerack","longitude":8.7521841,"latitude":52.0959323,"name":"Fahrradabstellplatz","city":"Bad Salzuflen","address":null,"covered":true,"access":null,"website":null,"phone":null,"source":"OpenStreetMap/way/627525783","sourceUpdatedAt":null,"verifiedAt":null}},{"type":"Feature","geometry":{"type":"Point","coordinates":[8.7615437,52.0939656]},"properties":{"id":"bikerack:57db0b0a-f12f-45a0-91f4-4bed51f9b1cd","kind":"bikerack","longitude":8.7615437,"latitude":52.0939656,"name":"Fahrradabstellplatz","city":"Bad Salzuflen","address":null,"covered":false,"access":null,"website":null,"phone":null,"source":"OpenStreetMap/node/13706451023","sourceUpdatedAt":null,"verifiedAt":null}},{"type":"Feature","geometry":{"type":"Point","coordinates":[8.7464133,52.0833348]},"properties":{"id":"bikerack:7ce2ef6b-d53a-4d35-9e9c-31c9f444163d","kind":"bikerack","longitude":8.7464133,"latitude":52.0833348,"name":"Fahrradabstellplatz","city":"Bad Salzuflen","address":null,"covered":false,"access":null,"website":null,"phone":null,"source":"OpenStreetMap/node/10712848001","sourceUpdatedAt":null,"verifiedAt":null}},{"type":"Feature","geometry":{"type":"Point","coordinates":[8.7476107,52.0889614]},"properties":{"id":"bikerack:8f3b0a6a-2ff7-45ec-93db-83d9daef7eea","kind":"bikerack","longitude":8.7476107,"latitude":52.0889614,"name":"Fahrradabstellplatz","city":"Bad Salzuflen","address":null,"covered":false,"access":null,"website":null,"phone":null,"source":"OpenStreetMap/node/8979542889","sourceUpdatedAt":null,"verifiedAt":null}},{"type":"Feature","geometry":{"type":"Point","coordinates":[8.7458332,52.0837266]},"properties":{"id":"bikerack:9639f009-6e9a-466c-bd88-c17ecf4332d8","kind":"bikerack","longitude":8.7458332,"latitude":52.0837266,"name":"Fahrradabstellplatz","city":"Bad Salzuflen","address":null,"covered":false,"access":null,"website":null,"phone":null,"source":"OpenStreetMap/node/393922843","sourceUpdatedAt":null,"verifiedAt":null}},{"type":"Feature","geometry":{"type":"Point","coordinates":[8.748565,52.0831974]},"properties":{"id":"bikerack:9ca8fd26-73ed-41ea-b694-8033f292f9d6","kind":"bikerack","longitude":8.748565,"latitude":52.0831974,"name":"Fahrradabstellplatz","city":"Bad Salzuflen","address":null,"covered":false,"access":null,"website":null,"phone":null,"source":"OpenStreetMap/node/7574723849","sourceUpdatedAt":null,"verifiedAt":null}},{"type":"Feature","geometry":{"type":"Point","coordinates":[8.7455802,52.0865626]},"properties":{"id":"bikerack:b10f78fe-a093-488d-9205-92111a3bebe1","kind":"bikerack","longitude":8.7455802,"latitude":52.0865626,"name":"Fahrradabstellplatz","city":"Bad Salzuflen","address":null,"covered":false,"access":null,"website":null,"phone":null,"source":"OpenStreetMap/node/393922841","sourceUpdatedAt":null,"verifiedAt":null}},{"type":"Feature","geometry":{"type":"Point","coordinates":[8.7534841,52.0899138]},"properties":{"id":"bikerack:c267b726-bc20-479e-9b52-2265913662c6","kind":"bikerack","longitude":8.7534841,"latitude":52.0899138,"name":"Fahrradabstellplatz","city":"Bad Salzuflen","address":null,"covered":false,"access":null,"website":null,"phone":null,"source":"OpenStreetMap/node/9074692917","sourceUpdatedAt":null,"verifiedAt":null}},{"type":"Feature","geometry":{"type":"Point","coordinates":[8.7582554,52.0973405]},"properties":{"id":"bikerack:c6caf526-fb63-4538-a153-49d17fdddb91","kind":"bikerack","longitude":8.7582554,"latitude":52.0973405,"name":"Fahrradabstellplatz","city":"Bad Salzuflen","address":null,"covered":false,"access":null,"website":null,"phone":null,"source":"OpenStreetMap/node/8948654185","sourceUpdatedAt":null,"verifiedAt":null}},{"type":"Feature","geometry":{"type":"Point","coordinates":[8.7455652,52.0841632]},"properties":{"id":"bikerack:e1ca94d9-0d8e-4512-922f-35a55a8146bd","kind":"bikerack","longitude":8.7455652,"latitude":52.0841632,"name":"Fahrradabstellplatz","city":"Bad Salzuflen","address":null,"covered":false,"access":null,"website":null,"phone":null,"source":"OpenStreetMap/node/13009316994","sourceUpdatedAt":null,"verifiedAt":null}},{"type":"Feature","geometry":{"type":"Point","coordinates":[8.7487704,52.0796977]},"properties":{"id":"bikerack:fd444439-3b05-43e5-9a26-5d1ee75585bc","kind":"bikerack","longitude":8.7487704,"latitude":52.0796977,"name":"Fahrradabstellplatz","city":"Bad Salzuflen","address":null,"covered":false,"access":null,"website":null,"phone":null,"source":"OpenStreetMap/way/1422309854","sourceUpdatedAt":null,"verifiedAt":null}},{"type":"Feature","geometry":{"type":"Point","coordinates":[8.7457025,52.0867329]},"properties":{"id":"repair:8024a9ee-3c2d-4e56-9498-311020b03155","kind":"repair","longitude":8.7457025,"latitude":52.0867329,"name":"Fahrradreparaturstation","city":"Bad Salzuflen","address":null,"covered":false,"access":null,"website":null,"phone":null,"source":"OpenStreetMap/node/9211710835","sourceUpdatedAt":null,"verifiedAt":null}},{"type":"Feature","geometry":{"type":"Point","coordinates":[8.7462077,52.0840045]},"properties":{"id":"repair:fd8238a2-631b-44ab-89a5-10a335f9aff9","kind":"repair","longitude":8.7462077,"latitude":52.0840045,"name":"Fahrradreparaturstation","city":"Bad Salzuflen","address":null,"covered":false,"access":null,"website":null,"phone":null,"source":"OpenStreetMap/node/9158460568","sourceUpdatedAt":null,"verifiedAt":null}},{"type":"Feature","geometry":{"type":"Point","coordinates":[8.7461197,52.0860218]},"properties":{"id":"service:a8ce639c-b4c0-4cc3-8b0e-f805add27a4e","kind":"service","longitude":8.7461197,"latitude":52.0860218,"name":"Marcs RadKulTour","city":"Bad Salzuflen","address":null,"covered":null,"access":null,"website":null,"phone":null,"source":"OpenStreetMap/node/8267220740","sourceUpdatedAt":null,"verifiedAt":null}}]}