{"type":"FeatureCollection","features":[{"type":"Feature","geometry":{"type":"Point","coordinates":[8.7531079,50.0852356]},"properties":{"id":"bikerack:02a8ed80-a942-4928-9e10-3ec7cae140be","kind":"bikerack","longitude":8.7531079,"latitude":50.0852356,"name":"Fahrradabstellplatz","city":"Offenbach","address":null,"covered":false,"access":null,"website":null,"phone":null,"source":"OpenStreetMap/node/6501990164","sourceUpdatedAt":null,"verifiedAt":null}},{"type":"Feature","geometry":{"type":"Point","coordinates":[8.7597589,50.0875902]},"properties":{"id":"bikerack:0a3a70c7-ccc6-4ad3-8540-674b8b7735a0","kind":"bikerack","longitude":8.7597589,"latitude":50.0875902,"name":"Fahrradabstellplatz","city":"Offenbach","address":null,"covered":false,"access":null,"website":null,"phone":null,"source":"OpenStreetMap/node/5121812613","sourceUpdatedAt":null,"verifiedAt":null}},{"type":"Feature","geometry":{"type":"Point","coordinates":[8.762033,50.0878903]},"properties":{"id":"bikerack:12493e05-4d71-4dbd-a4a3-782a5cd436e1","kind":"bikerack","longitude":8.762033,"latitude":50.0878903,"name":"Fahrradabstellplatz","city":"Offenbach","address":null,"covered":false,"access":null,"website":null,"phone":null,"source":"OpenStreetMap/node/2635691876","sourceUpdatedAt":null,"verifiedAt":null}},{"type":"Feature","geometry":{"type":"Point","coordinates":[8.7531186,50.0851788]},"properties":{"id":"bikerack:12fd6804-1918-4d64-aa5a-e8f448ae5885","kind":"bikerack","longitude":8.7531186,"latitude":50.0851788,"name":"Fahrradabstellplatz","city":"Offenbach","address":null,"covered":false,"access":null,"website":null,"phone":null,"source":"OpenStreetMap/node/6501990163","sourceUpdatedAt":null,"verifiedAt":null}},{"type":"Feature","geometry":{"type":"Point","coordinates":[8.7591302,50.0878917]},"properties":{"id":"bikerack:18fd974c-605c-4204-9d9f-204cd327be45","kind":"bikerack","longitude":8.7591302,"latitude":50.0878917,"name":"Fahrradabstellplatz","city":"Offenbach","address":null,"covered":false,"access":null,"website":null,"phone":null,"source":"OpenStreetMap/node/2635691883","sourceUpdatedAt":null,"verifiedAt":null}},{"type":"Feature","geometry":{"type":"Point","coordinates":[8.7456397,50.0870281]},"properties":{"id":"bikerack:29f6b13e-bf5d-4868-b2a4-3ba586feed0b","kind":"bikerack","longitude":8.7456397,"latitude":50.0870281,"name":"Fahrradabstellplatz","city":"Offenbach","address":null,"covered":true,"access":null,"website":null,"phone":null,"source":"OpenStreetMap/way/1198722985","sourceUpdatedAt":null,"verifiedAt":null}},{"type":"Feature","geometry":{"type":"Point","coordinates":[8.7542772,50.0855291]},"properties":{"id":"bikerack:4ec7a0f9-164a-407a-b8ff-c15dfccddd36","kind":"bikerack","longitude":8.7542772,"latitude":50.0855291,"name":"Fahrradabstellplatz","city":"Offenbach","address":null,"covered":false,"access":null,"website":null,"phone":null,"source":"OpenStreetMap/node/3705520211","sourceUpdatedAt":null,"verifiedAt":null}},{"type":"Feature","geometry":{"type":"Point","coordinates":[8.7621863,50.0891936]},"properties":{"id":"bikerack:5a53c830-a653-4af2-8ea6-fb8301740009","kind":"bikerack","longitude":8.7621863,"latitude":50.0891936,"name":"Fahrradabstellplatz","city":"Offenbach","address":null,"covered":false,"access":null,"website":null,"phone":null,"source":"OpenStreetMap/node/5218161658","sourceUpdatedAt":null,"verifiedAt":null}},{"type":"Feature","geometry":{"type":"Point","coordinates":[8.7855461,50.0899686]},"properties":{"id":"bikerack:5ba6e121-7d7a-4c74-99d8-d9f42db8b72b","kind":"bikerack","longitude":8.7855461,"latitude":50.0899686,"name":"Fahrradabstellplatz","city":"Offenbach","address":null,"covered":false,"access":null,"website":null,"phone":null,"source":"OpenStreetMap/node/3705520217","sourceUpdatedAt":null,"verifiedAt":null}},{"type":"Feature","geometry":{"type":"Point","coordinates":[8.7594147,50.0846268]},"properties":{"id":"bikerack:5be9a199-36b4-4108-8e1b-2fd8fa8b5371","kind":"bikerack","longitude":8.7594147,"latitude":50.0846268,"name":"Fahrradabstellplatz","city":"Offenbach","address":null,"covered":false,"access":null,"website":null,"phone":null,"source":"OpenStreetMap/node/5633653229","sourceUpdatedAt":null,"verifiedAt":null}},{"type":"Feature","geometry":{"type":"Point","coordinates":[8.7561264,50.0827601]},"properties":{"id":"bikerack:70c16afa-103b-47e2-9e2f-66a042ac768c","kind":"bikerack","longitude":8.7561264,"latitude":50.0827601,"name":"Fahrradabstellplatz","city":"Offenbach","address":null,"covered":false,"access":null,"website":null,"phone":null,"source":"OpenStreetMap/node/3705520209","sourceUpdatedAt":null,"verifiedAt":null}},{"type":"Feature","geometry":{"type":"Point","coordinates":[8.7772948,50.082876]},"properties":{"id":"bikerack:74521bfb-04d0-4db7-8ac7-0d2ddbb5d77e","kind":"bikerack","longitude":8.7772948,"latitude":50.082876,"name":"Fahrradabstellplatz","city":"Offenbach","address":null,"covered":false,"access":null,"website":null,"phone":null,"source":"OpenStreetMap/node/6805591859","sourceUpdatedAt":null,"verifiedAt":null}},{"type":"Feature","geometry":{"type":"Point","coordinates":[8.7784547,50.0859142]},"properties":{"id":"bikerack:795bfbba-86cd-47fd-ab8f-8a9579f8e6db","kind":"bikerack","longitude":8.7784547,"latitude":50.0859142,"name":"Fahrradabstellplatz","city":"Offenbach","address":null,"covered":false,"access":null,"website":null,"phone":null,"source":"OpenStreetMap/node/3705558123","sourceUpdatedAt":null,"verifiedAt":null}},{"type":"Feature","geometry":{"type":"Point","coordinates":[8.7819529,50.0884082]},"properties":{"id":"bikerack:974e6557-2b33-4578-b9d2-5a3a3007b179","kind":"bikerack","longitude":8.7819529,"latitude":50.0884082,"name":"Fahrradabstellplatz","city":"Offenbach","address":null,"covered":false,"access":null,"website":null,"phone":null,"source":"OpenStreetMap/node/3705520213","sourceUpdatedAt":null,"verifiedAt":null}},{"type":"Feature","geometry":{"type":"Point","coordinates":[8.7457838,50.0871949]},"properties":{"id":"bikerack:adc91cb9-74ec-4381-aaf7-44b18cf8d93a","kind":"bikerack","longitude":8.7457838,"latitude":50.0871949,"name":"Fahrradabstellplatz","city":"Offenbach","address":null,"covered":true,"access":null,"website":null,"phone":null,"source":"OpenStreetMap/way/1196703533","sourceUpdatedAt":null,"verifiedAt":null}},{"type":"Feature","geometry":{"type":"Point","coordinates":[8.7626078,50.0862579]},"properties":{"id":"bikerack:b856b585-72aa-459b-a2b4-b9f64eb65564","kind":"bikerack","longitude":8.7626078,"latitude":50.0862579,"name":"Fahrradabstellplatz","city":"Offenbach","address":null,"covered":false,"access":null,"website":null,"phone":null,"source":"OpenStreetMap/node/5520650445","sourceUpdatedAt":null,"verifiedAt":null}},{"type":"Feature","geometry":{"type":"Point","coordinates":[8.7640178,50.0864684]},"properties":{"id":"bikerack:ba48e52d-0f99-4363-862d-19d618002ff8","kind":"bikerack","longitude":8.7640178,"latitude":50.0864684,"name":"Fahrradabstellplatz","city":"Offenbach","address":null,"covered":false,"access":null,"website":null,"phone":null,"source":"OpenStreetMap/node/5449443666","sourceUpdatedAt":null,"verifiedAt":null}},{"type":"Feature","geometry":{"type":"Point","coordinates":[8.7610096,50.0880684]},"properties":{"id":"bikerack:ba4fa0c7-8f3e-4b7a-a310-388bec5de7f1","kind":"bikerack","longitude":8.7610096,"latitude":50.0880684,"name":"Fahrradabstellplatz","city":"Offenbach","address":null,"covered":false,"access":null,"website":null,"phone":null,"source":"OpenStreetMap/node/3259123563","sourceUpdatedAt":null,"verifiedAt":null}},{"type":"Feature","geometry":{"type":"Point","coordinates":[8.7465713,50.0883095]},"properties":{"id":"bikerack:d1c1475c-fa84-4065-a4a4-d52f363866f2","kind":"bikerack","longitude":8.7465713,"latitude":50.0883095,"name":"Fahrradabstellplatz","city":"Offenbach","address":null,"covered":true,"access":null,"website":null,"phone":null,"source":"OpenStreetMap/way/1420338173","sourceUpdatedAt":null,"verifiedAt":null}},{"type":"Feature","geometry":{"type":"Point","coordinates":[8.7538416,50.089157]},"properties":{"id":"bikerack:e71d436f-5cb9-4fed-a8ce-3bcf77929954","kind":"bikerack","longitude":8.7538416,"latitude":50.089157,"name":"Fahrradabstellplatz","city":"Offenbach","address":null,"covered":false,"access":null,"website":null,"phone":null,"source":"OpenStreetMap/node/3705520215","sourceUpdatedAt":null,"verifiedAt":null}},{"type":"Feature","geometry":{"type":"Point","coordinates":[8.7563126,50.0907861]},"properties":{"id":"bikerack:f1866a47-4f73-429d-ba36-0e694ec2ea55","kind":"bikerack","longitude":8.7563126,"latitude":50.0907861,"name":"Fahrradabstellplatz","city":"Offenbach","address":null,"covered":true,"access":null,"website":null,"phone":null,"source":"OpenStreetMap/node/6779142263","sourceUpdatedAt":null,"verifiedAt":null}},{"type":"Feature","geometry":{"type":"Point","coordinates":[8.7561056,50.0828391]},"properties":{"id":"bikerack:f41a1e23-52f7-4078-a3ec-e7a4778f2f1b","kind":"bikerack","longitude":8.7561056,"latitude":50.0828391,"name":"Fahrradabstellplatz","city":"Offenbach","address":null,"covered":false,"access":null,"website":null,"phone":null,"source":"OpenStreetMap/node/3705520210","sourceUpdatedAt":null,"verifiedAt":null}}]}