{"type":"FeatureCollection","features":[{"type":"Feature","geometry":{"type":"Point","coordinates":[8.7456381,49.8658069]},"properties":{"id":"bikerack:2ce89d86-38a7-4274-bab3-5e7530d28d1a","kind":"bikerack","longitude":8.7456381,"latitude":49.8658069,"name":"Fahrradabstellplatz","city":"Rossdorf","address":null,"covered":false,"access":null,"website":null,"phone":null,"source":"OpenStreetMap/node/7002973451","sourceUpdatedAt":null,"verifiedAt":null}},{"type":"Feature","geometry":{"type":"Point","coordinates":[8.7600916,49.8569591]},"properties":{"id":"bikerack:38843ee7-fd6f-49ca-ab2e-0c856ef0627a","kind":"bikerack","longitude":8.7600916,"latitude":49.8569591,"name":"Fahrradabstellplatz","city":"Rossdorf","address":null,"covered":false,"access":null,"website":null,"phone":null,"source":"OpenStreetMap/node/6979138816","sourceUpdatedAt":null,"verifiedAt":null}},{"type":"Feature","geometry":{"type":"Point","coordinates":[8.7619975,49.8597353]},"properties":{"id":"bikerack:62154c3f-571e-4235-95b8-fd99106e99af","kind":"bikerack","longitude":8.7619975,"latitude":49.8597353,"name":"Fahrradabstellplatz","city":"Rossdorf","address":null,"covered":false,"access":null,"website":null,"phone":null,"source":"OpenStreetMap/node/3054607889","sourceUpdatedAt":null,"verifiedAt":null}},{"type":"Feature","geometry":{"type":"Point","coordinates":[8.7638528,49.8606193]},"properties":{"id":"bikerack:6e4bdb83-d9ec-433f-8856-ebdd1b412145","kind":"bikerack","longitude":8.7638528,"latitude":49.8606193,"name":"Fahrradabstellplatz","city":"Rossdorf","address":null,"covered":true,"access":null,"website":null,"phone":null,"source":"OpenStreetMap/node/8480889285","sourceUpdatedAt":null,"verifiedAt":null}},{"type":"Feature","geometry":{"type":"Point","coordinates":[8.7599556,49.8567671]},"properties":{"id":"bikerack:8dc12b9e-9ff9-41a1-8286-ca3e5b7fb811","kind":"bikerack","longitude":8.7599556,"latitude":49.8567671,"name":"Fahrradabstellplatz","city":"Rossdorf","address":null,"covered":false,"access":null,"website":null,"phone":null,"source":"OpenStreetMap/node/894219507","sourceUpdatedAt":null,"verifiedAt":null}},{"type":"Feature","geometry":{"type":"Point","coordinates":[8.7572202,49.8574808]},"properties":{"id":"bikerack:ae869b40-a86f-46a2-93c2-eba788795c4d","kind":"bikerack","longitude":8.7572202,"latitude":49.8574808,"name":"Fahrradabstellplatz","city":"Rossdorf","address":null,"covered":false,"access":null,"website":null,"phone":null,"source":"OpenStreetMap/node/13158165955","sourceUpdatedAt":null,"verifiedAt":null}},{"type":"Feature","geometry":{"type":"Point","coordinates":[8.7643048,49.8615678]},"properties":{"id":"bikerack:b3e9fa78-f217-4fb3-832e-9d405ca6a8aa","kind":"bikerack","longitude":8.7643048,"latitude":49.8615678,"name":"Fahrradabstellplatz","city":"Rossdorf","address":null,"covered":true,"access":null,"website":null,"phone":null,"source":"OpenStreetMap/node/8506434486","sourceUpdatedAt":null,"verifiedAt":null}},{"type":"Feature","geometry":{"type":"Point","coordinates":[8.7637416,49.860741]},"properties":{"id":"bikerack:ed8142a6-4274-400f-ab4c-8f6bc3f29089","kind":"bikerack","longitude":8.7637416,"latitude":49.860741,"name":"Fahrradabstellplatz","city":"Rossdorf","address":null,"covered":true,"access":null,"website":null,"phone":null,"source":"OpenStreetMap/node/8480889284","sourceUpdatedAt":null,"verifiedAt":null}},{"type":"Feature","geometry":{"type":"Point","coordinates":[8.7674461,49.8624389]},"properties":{"id":"service:1c6e7777-dc79-459a-bb7b-be14ee3bb702","kind":"service","longitude":8.7674461,"latitude":49.8624389,"name":"Hobel-Bikes","city":"Roßdorf","address":null,"covered":null,"access":null,"website":null,"phone":null,"source":"OpenStreetMap/node/12190034825","sourceUpdatedAt":null,"verifiedAt":null}}]}