{"type":"FeatureCollection","features":[{"type":"Feature","geometry":{"type":"Point","coordinates":[8.7889118,47.6384384]},"properties":{"id":"water:18ec2c50-c181-4f9e-9712-16e4e9b1f1b0","kind":"water","longitude":8.7889118,"latitude":47.6384384,"name":"Drinking Fountain","city":"Wagenhausen","address":null,"covered":null,"access":null,"website":null,"phone":null,"source":"OpenStreetMap/node/2072768298","sourceUpdatedAt":null,"verifiedAt":null}},{"type":"Feature","geometry":{"type":"Point","coordinates":[8.7685481,47.6652632]},"properties":{"id":"water:3ef0bcb5-1a83-40f5-967d-8aa315265b49","kind":"water","longitude":8.7685481,"latitude":47.6652632,"name":"Drinking Fountain","city":"Diessenhofen","address":null,"covered":null,"access":null,"website":null,"phone":null,"source":"OpenStreetMap/node/2641375471","sourceUpdatedAt":null,"verifiedAt":null}}]}