{"type":"FeatureCollection","features":[{"type":"Feature","geometry":{"type":"Point","coordinates":[8.7535698,47.2358739]},"properties":{"id":"bikerack:2cd87426-0e28-4b9b-8144-f60b1c4697ab","kind":"bikerack","longitude":8.7535698,"latitude":47.2358739,"name":"Bicycle Parking","city":"Uerikon","address":null,"covered":true,"access":null,"website":null,"phone":null,"source":"OpenStreetMap/way/261875763","sourceUpdatedAt":null,"verifiedAt":null}},{"type":"Feature","geometry":{"type":"Point","coordinates":[8.78333,47.2391049]},"properties":{"id":"bikerack:39da9359-f737-49c8-9430-d98d068ac835","kind":"bikerack","longitude":8.78333,"latitude":47.2391049,"name":"Bicycle Parking","city":"Hombrechtikon","address":null,"covered":true,"access":null,"website":null,"phone":null,"source":"OpenStreetMap/node/9247190861","sourceUpdatedAt":null,"verifiedAt":null}},{"type":"Feature","geometry":{"type":"Point","coordinates":[8.7725844,47.2493727]},"properties":{"id":"bikerack:5ce932d4-8883-4f30-a790-a863f52abc76","kind":"bikerack","longitude":8.7725844,"latitude":47.2493727,"name":"Bicycle Parking","city":"Hombrechtikon","address":null,"covered":false,"access":null,"website":null,"phone":null,"source":"OpenStreetMap/node/9247171808","sourceUpdatedAt":null,"verifiedAt":null}},{"type":"Feature","geometry":{"type":"Point","coordinates":[8.7522485,47.235875]},"properties":{"id":"bikerack:6ce0ff0b-220c-4b1d-a61f-0862e543031c","kind":"bikerack","longitude":8.7522485,"latitude":47.235875,"name":"Bicycle Parking","city":"Uerikon","address":null,"covered":true,"access":null,"website":null,"phone":null,"source":"OpenStreetMap/node/1348150349","sourceUpdatedAt":null,"verifiedAt":null}},{"type":"Feature","geometry":{"type":"Point","coordinates":[8.7831707,47.2390824]},"properties":{"id":"bikerack:867fd86d-5ed6-46ad-91cd-921fc6d98b2b","kind":"bikerack","longitude":8.7831707,"latitude":47.2390824,"name":"Bicycle Parking","city":"Hombrechtikon","address":null,"covered":true,"access":null,"website":null,"phone":null,"source":"OpenStreetMap/node/11879129947","sourceUpdatedAt":null,"verifiedAt":null}},{"type":"Feature","geometry":{"type":"Point","coordinates":[8.7799189,47.246721]},"properties":{"id":"bikerack:87e2b3c6-83c3-43a0-bbb7-354d92f630ad","kind":"bikerack","longitude":8.7799189,"latitude":47.246721,"name":"Bicycle Parking","city":"Hombrechtikon","address":null,"covered":true,"access":null,"website":null,"phone":null,"source":"OpenStreetMap/node/9247171806","sourceUpdatedAt":null,"verifiedAt":null}},{"type":"Feature","geometry":{"type":"Point","coordinates":[8.7477206,47.2381619]},"properties":{"id":"bikerack:a871c34c-41e3-44dc-91ae-c680389eac57","kind":"bikerack","longitude":8.7477206,"latitude":47.2381619,"name":"Bicycle Parking","city":"Dorf","address":null,"covered":true,"access":null,"website":null,"phone":null,"source":"OpenStreetMap/way/1289474018","sourceUpdatedAt":null,"verifiedAt":null}},{"type":"Feature","geometry":{"type":"Point","coordinates":[8.7522477,47.2358469]},"properties":{"id":"bikerack:dd459a5c-5be5-4e9b-bf7c-17ff31c2e32e","kind":"bikerack","longitude":8.7522477,"latitude":47.2358469,"name":"Bicycle Parking","city":"Uerikon","address":null,"covered":true,"access":null,"website":null,"phone":null,"source":"OpenStreetMap/node/2621325751","sourceUpdatedAt":null,"verifiedAt":null}},{"type":"Feature","geometry":{"type":"Point","coordinates":[8.7771783,47.2491778]},"properties":{"id":"bikerack:ef976083-9533-45cb-9b30-3eb2847fe10c","kind":"bikerack","longitude":8.7771783,"latitude":47.2491778,"name":"Bicycle Parking","city":"Hombrechtikon","address":null,"covered":true,"access":null,"website":null,"phone":null,"source":"OpenStreetMap/way/1146100907","sourceUpdatedAt":null,"verifiedAt":null}},{"type":"Feature","geometry":{"type":"Point","coordinates":[8.7864246,47.2394952]},"properties":{"id":"bikerack:f940dd8f-efbb-4f79-9a0f-75762c8f0258","kind":"bikerack","longitude":8.7864246,"latitude":47.2394952,"name":"Bicycle Parking","city":"Hombrechtikon","address":null,"covered":false,"access":null,"website":null,"phone":null,"source":"OpenStreetMap/node/9247190862","sourceUpdatedAt":null,"verifiedAt":null}},{"type":"Feature","geometry":{"type":"Point","coordinates":[8.7792997,47.2459206]},"properties":{"id":"bikerack:fb375c65-7143-4712-80eb-080fcc9e8143","kind":"bikerack","longitude":8.7792997,"latitude":47.2459206,"name":"Bicycle Parking","city":"Hombrechtikon","address":null,"covered":false,"access":null,"website":null,"phone":null,"source":"OpenStreetMap/node/9247171807","sourceUpdatedAt":null,"verifiedAt":null}},{"type":"Feature","geometry":{"type":"Point","coordinates":[8.7774856,47.234283]},"properties":{"id":"water:738ac856-bad2-4df2-a5c5-925260bed860","kind":"water","longitude":8.7774856,"latitude":47.234283,"name":"Drinking Fountain","city":"Hombrechtikon","address":null,"covered":null,"access":null,"website":null,"phone":null,"source":"OpenStreetMap/node/9674141976","sourceUpdatedAt":null,"verifiedAt":null}},{"type":"Feature","geometry":{"type":"Point","coordinates":[8.7582341,47.2352211]},"properties":{"id":"water:8957ee62-ba61-4aae-bbbf-bb262e077516","kind":"water","longitude":8.7582341,"latitude":47.2352211,"name":"Drinking Fountain","city":"Uerikon","address":null,"covered":null,"access":null,"website":null,"phone":null,"source":"OpenStreetMap/node/3623115137","sourceUpdatedAt":null,"verifiedAt":null}},{"type":"Feature","geometry":{"type":"Point","coordinates":[8.757482,47.2353869]},"properties":{"id":"water:c15c4004-82e0-4289-9da5-d0b33388ec66","kind":"water","longitude":8.757482,"latitude":47.2353869,"name":"Drinking Fountain","city":"Uerikon","address":null,"covered":null,"access":null,"website":null,"phone":null,"source":"OpenStreetMap/node/3623115136","sourceUpdatedAt":null,"verifiedAt":null}}]}