{"type":"FeatureCollection","features":[{"type":"Feature","geometry":{"type":"Point","coordinates":[9.8939043,48.5490736]},"properties":{"id":"bikerack:09a7a3dc-e4dc-4744-a759-2968b858214b","kind":"bikerack","longitude":9.8939043,"latitude":48.5490736,"name":"Fahrradabstellplatz","city":"Lonsee","address":null,"covered":false,"access":null,"website":null,"phone":null,"source":"OpenStreetMap/node/4349063413","sourceUpdatedAt":null,"verifiedAt":null}},{"type":"Feature","geometry":{"type":"Point","coordinates":[9.8942644,48.5501365]},"properties":{"id":"bikerack:52076a26-4236-4a20-a9b9-2a4469515083","kind":"bikerack","longitude":9.8942644,"latitude":48.5501365,"name":"Fahrradabstellplatz","city":"Lonsee","address":null,"covered":false,"access":null,"website":null,"phone":null,"source":"OpenStreetMap/node/12811532504","sourceUpdatedAt":null,"verifiedAt":null}},{"type":"Feature","geometry":{"type":"Point","coordinates":[9.8956693,48.5491505]},"properties":{"id":"water:42e50c98-2ab0-49d3-a7fa-95c8c6b7c99f","kind":"water","longitude":9.8956693,"latitude":48.5491505,"name":"Trinkwasser","city":"Lonsee","address":null,"covered":null,"access":null,"website":null,"phone":null,"source":"OpenStreetMap/node/3995035366","sourceUpdatedAt":null,"verifiedAt":null}}]}