{"type":"FeatureCollection","features":[{"type":"Feature","geometry":{"type":"Point","coordinates":[9.9204813,45.8324329]},"properties":{"id":"water:2023ea05-bd43-4873-ab50-42e87b06e1b8","kind":"water","longitude":9.9204813,"latitude":45.8324329,"name":"Fontanella","city":"Gandino","address":null,"covered":null,"access":null,"website":null,"phone":null,"source":"OpenStreetMap/node/1409101046","sourceUpdatedAt":null,"verifiedAt":null}},{"type":"Feature","geometry":{"type":"Point","coordinates":[9.9199091,45.8326512]},"properties":{"id":"water:c87f8a83-0010-42a1-9497-740473b6df32","kind":"water","longitude":9.9199091,"latitude":45.8326512,"name":"Fontanella","city":"Gandino","address":null,"covered":null,"access":null,"website":null,"phone":null,"source":"OpenStreetMap/node/8479099212","sourceUpdatedAt":null,"verifiedAt":null}},{"type":"Feature","geometry":{"type":"Point","coordinates":[9.899035,45.8326009]},"properties":{"id":"water:d64f4031-31b2-433b-86f2-b891c6661b01","kind":"water","longitude":9.899035,"latitude":45.8326009,"name":"Fontanella","city":"Gandino","address":null,"covered":null,"access":null,"website":null,"phone":null,"source":"OpenStreetMap/node/810212893","sourceUpdatedAt":null,"verifiedAt":null}}]}