{"type":"FeatureCollection","features":[{"type":"Feature","geometry":{"type":"Point","coordinates":[9.9012673,45.726375]},"properties":{"id":"bikerack:3ed31e18-57b5-4519-b65f-c1757f81e6c4","kind":"bikerack","longitude":9.9012673,"latitude":45.726375,"name":"Parcheggio bici","city":"Vigano San Martino","address":null,"covered":false,"access":null,"website":null,"phone":null,"source":"OpenStreetMap/node/9026063617","sourceUpdatedAt":null,"verifiedAt":null}},{"type":"Feature","geometry":{"type":"Point","coordinates":[9.893468,45.7198717]},"properties":{"id":"water:14c83b01-6b2b-4705-9a33-ca85d1a5fd88","kind":"water","longitude":9.893468,"latitude":45.7198717,"name":"Fontanella","city":"Borgo di Terzo","address":null,"covered":null,"access":null,"website":null,"phone":null,"source":"OpenStreetMap/node/9576309765","sourceUpdatedAt":null,"verifiedAt":null}},{"type":"Feature","geometry":{"type":"Point","coordinates":[9.9030596,45.7178437]},"properties":{"id":"water:8ac6d6c5-9fe5-4207-bf78-b0a454dd7513","kind":"water","longitude":9.9030596,"latitude":45.7178437,"name":"Fontanella","city":"Berzo San Fermo","address":null,"covered":null,"access":null,"website":null,"phone":null,"source":"OpenStreetMap/node/9576150545","sourceUpdatedAt":null,"verifiedAt":null}},{"type":"Feature","geometry":{"type":"Point","coordinates":[9.894307,45.7214973]},"properties":{"id":"water:a96e3ca5-da63-412d-acf5-a9134133dd01","kind":"water","longitude":9.894307,"latitude":45.7214973,"name":"Fontanella","city":"Borgo di Terzo","address":null,"covered":null,"access":null,"website":null,"phone":null,"source":"OpenStreetMap/node/10836346268","sourceUpdatedAt":null,"verifiedAt":null}},{"type":"Feature","geometry":{"type":"Point","coordinates":[9.910716,45.7274153]},"properties":{"id":"water:f2a4e8ed-2828-401d-bd0c-9fedd3235579","kind":"water","longitude":9.910716,"latitude":45.7274153,"name":"Fontanella","city":"Grone","address":null,"covered":null,"access":null,"website":null,"phone":null,"source":"OpenStreetMap/node/9797303506","sourceUpdatedAt":null,"verifiedAt":null}}]}