{"type":"FeatureCollection","features":[{"type":"Feature","geometry":{"type":"Point","coordinates":[19.6184149,51.7405647]},"properties":{"id":"bikerack:2a88432e-f72d-4a7e-9059-8fd0cce5c636","kind":"bikerack","longitude":19.6184149,"latitude":51.7405647,"name":"Biciklitároló","city":"Andrespol","address":null,"covered":false,"access":null,"website":null,"phone":null,"source":"OpenStreetMap/way/1028993217","sourceUpdatedAt":null,"verifiedAt":null}},{"type":"Feature","geometry":{"type":"Point","coordinates":[19.612607,51.7403503]},"properties":{"id":"bikerack:2c2f13f9-e9f3-49e9-ad82-6301c6b88af4","kind":"bikerack","longitude":19.612607,"latitude":51.7403503,"name":"Biciklitároló","city":"Andrespol","address":null,"covered":false,"access":null,"website":null,"phone":null,"source":"OpenStreetMap/node/9486955545","sourceUpdatedAt":null,"verifiedAt":null}},{"type":"Feature","geometry":{"type":"Point","coordinates":[19.6127889,51.7402472]},"properties":{"id":"bikerack:3bc8bce5-9d18-45f5-8fc7-05fa71f4d23b","kind":"bikerack","longitude":19.6127889,"latitude":51.7402472,"name":"Biciklitároló","city":"Andrespol","address":null,"covered":false,"access":null,"website":null,"phone":null,"source":"OpenStreetMap/node/9503019538","sourceUpdatedAt":null,"verifiedAt":null}},{"type":"Feature","geometry":{"type":"Point","coordinates":[19.6125132,51.7404098]},"properties":{"id":"bikerack:3db8ed5d-ab8c-4465-ba1a-71c35404f4f0","kind":"bikerack","longitude":19.6125132,"latitude":51.7404098,"name":"Biciklitároló","city":"Andrespol","address":null,"covered":false,"access":null,"website":null,"phone":null,"source":"OpenStreetMap/node/9486955544","sourceUpdatedAt":null,"verifiedAt":null}},{"type":"Feature","geometry":{"type":"Point","coordinates":[19.6336579,51.7280773]},"properties":{"id":"bikerack:45a19a13-7da4-43de-b49d-38295075d1b8","kind":"bikerack","longitude":19.6336579,"latitude":51.7280773,"name":"Biciklitároló","city":"Andrespol","address":null,"covered":false,"access":null,"website":null,"phone":null,"source":"OpenStreetMap/way/1030958885","sourceUpdatedAt":null,"verifiedAt":null}},{"type":"Feature","geometry":{"type":"Point","coordinates":[19.6134408,51.7435409]},"properties":{"id":"bikerack:4d911b13-d0d9-43f2-8ed0-572d167acadf","kind":"bikerack","longitude":19.6134408,"latitude":51.7435409,"name":"Biciklitároló","city":"Andrespol","address":null,"covered":false,"access":null,"website":null,"phone":null,"source":"OpenStreetMap/node/12469536136","sourceUpdatedAt":null,"verifiedAt":null}},{"type":"Feature","geometry":{"type":"Point","coordinates":[19.6396305,51.7318573]},"properties":{"id":"bikerack:51daba90-2b9a-4e28-a422-ac167ace27ca","kind":"bikerack","longitude":19.6396305,"latitude":51.7318573,"name":"Biciklitároló","city":"Andrespol","address":null,"covered":false,"access":null,"website":null,"phone":null,"source":"OpenStreetMap/node/12468909502","sourceUpdatedAt":null,"verifiedAt":null}},{"type":"Feature","geometry":{"type":"Point","coordinates":[19.617685,51.7370661]},"properties":{"id":"bikerack:58c10186-233e-4fea-97c2-397085658925","kind":"bikerack","longitude":19.617685,"latitude":51.7370661,"name":"Biciklitároló","city":"Andrespol","address":null,"covered":false,"access":null,"website":null,"phone":null,"source":"OpenStreetMap/node/9486955547","sourceUpdatedAt":null,"verifiedAt":null}},{"type":"Feature","geometry":{"type":"Point","coordinates":[19.6136577,51.7397411]},"properties":{"id":"bikerack:5ffdca69-9064-46f5-9d23-fefeb0b24ea2","kind":"bikerack","longitude":19.6136577,"latitude":51.7397411,"name":"Biciklitároló","city":"Andrespol","address":null,"covered":false,"access":null,"website":null,"phone":null,"source":"OpenStreetMap/node/9486955546","sourceUpdatedAt":null,"verifiedAt":null}},{"type":"Feature","geometry":{"type":"Point","coordinates":[19.6389272,51.7272126]},"properties":{"id":"bikerack:674a6da4-1e6d-453d-8c13-e9891ec05097","kind":"bikerack","longitude":19.6389272,"latitude":51.7272126,"name":"Biciklitároló","city":"Andrespol","address":null,"covered":false,"access":null,"website":null,"phone":null,"source":"OpenStreetMap/way/1160839493","sourceUpdatedAt":null,"verifiedAt":null}},{"type":"Feature","geometry":{"type":"Point","coordinates":[19.6105316,51.7394319]},"properties":{"id":"bikerack:8dfdbe5f-3023-419a-9f60-91cbaa80d88b","kind":"bikerack","longitude":19.6105316,"latitude":51.7394319,"name":"Biciklitároló","city":"Andrespol","address":null,"covered":false,"access":null,"website":null,"phone":null,"source":"OpenStreetMap/way/1028994285","sourceUpdatedAt":null,"verifiedAt":null}},{"type":"Feature","geometry":{"type":"Point","coordinates":[19.6133078,51.7433661]},"properties":{"id":"bikerack:c3570cc1-a6d3-4b9a-873b-2aebc6bc43b3","kind":"bikerack","longitude":19.6133078,"latitude":51.7433661,"name":"Biciklitároló","city":"Andrespol","address":null,"covered":false,"access":null,"website":null,"phone":null,"source":"OpenStreetMap/node/12469536135","sourceUpdatedAt":null,"verifiedAt":null}},{"type":"Feature","geometry":{"type":"Point","coordinates":[19.6146662,51.7419842]},"properties":{"id":"bikerack:ca808a8d-e622-46bd-b953-b3c694c278c3","kind":"bikerack","longitude":19.6146662,"latitude":51.7419842,"name":"Biciklitároló","city":"Andrespol","address":null,"covered":false,"access":null,"website":null,"phone":null,"source":"OpenStreetMap/way/1028993216","sourceUpdatedAt":null,"verifiedAt":null}}]}