{"type":"FeatureCollection","features":[{"type":"Feature","geometry":{"type":"Point","coordinates":[19.6095815,49.3592011]},"properties":{"id":"bikerack:18b827f0-b541-4a09-a64e-ad6d594673ea","kind":"bikerack","longitude":19.6095815,"latitude":49.3592011,"name":"Biciklitároló","city":"Trstena","address":null,"covered":false,"access":null,"website":null,"phone":null,"source":"OpenStreetMap/node/1884089755","sourceUpdatedAt":null,"verifiedAt":null}},{"type":"Feature","geometry":{"type":"Point","coordinates":[19.60983,49.3590782]},"properties":{"id":"bikerack:25606580-2599-4233-9b63-d8992c83cd5c","kind":"bikerack","longitude":19.60983,"latitude":49.3590782,"name":"Biciklitároló","city":"Trstena","address":null,"covered":false,"access":null,"website":null,"phone":null,"source":"OpenStreetMap/node/1884089747","sourceUpdatedAt":null,"verifiedAt":null}},{"type":"Feature","geometry":{"type":"Point","coordinates":[19.6077502,49.3591926]},"properties":{"id":"bikerack:4bb971a0-39eb-4cc3-a70d-59a49d0b7004","kind":"bikerack","longitude":19.6077502,"latitude":49.3591926,"name":"Biciklitároló","city":"Trstena","address":null,"covered":true,"access":null,"website":null,"phone":null,"source":"OpenStreetMap/node/1798757185","sourceUpdatedAt":null,"verifiedAt":null}},{"type":"Feature","geometry":{"type":"Point","coordinates":[19.613247,49.3618776]},"properties":{"id":"bikerack:510e70b9-bf0e-4c81-a569-74a44f7aa796","kind":"bikerack","longitude":19.613247,"latitude":49.3618776,"name":"Biciklitároló","city":"Trstena","address":null,"covered":false,"access":null,"website":null,"phone":null,"source":"OpenStreetMap/node/1731980563","sourceUpdatedAt":null,"verifiedAt":null}},{"type":"Feature","geometry":{"type":"Point","coordinates":[19.6132744,49.3618008]},"properties":{"id":"bikerack:7370bada-22a5-45d6-9716-8658650ae79d","kind":"bikerack","longitude":19.6132744,"latitude":49.3618008,"name":"Biciklitároló","city":"Trstena","address":null,"covered":false,"access":null,"website":null,"phone":null,"source":"OpenStreetMap/node/1731980556","sourceUpdatedAt":null,"verifiedAt":null}},{"type":"Feature","geometry":{"type":"Point","coordinates":[19.6097876,49.3594499]},"properties":{"id":"bikerack:90ffa431-b732-4c44-93a1-3119b046f18c","kind":"bikerack","longitude":19.6097876,"latitude":49.3594499,"name":"Biciklitároló","city":"Trstena","address":null,"covered":false,"access":null,"website":null,"phone":null,"source":"OpenStreetMap/node/1798757191","sourceUpdatedAt":null,"verifiedAt":null}},{"type":"Feature","geometry":{"type":"Point","coordinates":[19.6156994,49.360201]},"properties":{"id":"bikerack:aef08899-8c0f-4835-a73e-dc5f5d2d9394","kind":"bikerack","longitude":19.6156994,"latitude":49.360201,"name":"Biciklitároló","city":"Trstena","address":null,"covered":false,"access":null,"website":null,"phone":null,"source":"OpenStreetMap/node/1743024663","sourceUpdatedAt":null,"verifiedAt":null}},{"type":"Feature","geometry":{"type":"Point","coordinates":[19.6143188,49.3601396]},"properties":{"id":"bikerack:b8658ffc-20e7-46c9-b2e8-8acb5eb800e6","kind":"bikerack","longitude":19.6143188,"latitude":49.3601396,"name":"Biciklitároló","city":"Trstena","address":null,"covered":false,"access":null,"website":null,"phone":null,"source":"OpenStreetMap/node/2789102577","sourceUpdatedAt":null,"verifiedAt":null}},{"type":"Feature","geometry":{"type":"Point","coordinates":[19.6143597,49.3622304]},"properties":{"id":"bikerack:fb450380-d506-443f-9d9b-59a8f8a63701","kind":"bikerack","longitude":19.6143597,"latitude":49.3622304,"name":"Biciklitároló","city":"Trstena","address":null,"covered":false,"access":null,"website":null,"phone":null,"source":"OpenStreetMap/node/11267807841","sourceUpdatedAt":null,"verifiedAt":null}},{"type":"Feature","geometry":{"type":"Point","coordinates":[19.6143294,49.3622737]},"properties":{"id":"repair:a040b2a7-6806-4e2c-88a5-a45f77b48b9a","kind":"repair","longitude":19.6143294,"latitude":49.3622737,"name":"Kerékpár szervizállomás","city":"Trstena","address":null,"covered":false,"access":null,"website":null,"phone":null,"source":"OpenStreetMap/node/11267807840","sourceUpdatedAt":null,"verifiedAt":null}},{"type":"Feature","geometry":{"type":"Point","coordinates":[19.6131503,49.361507]},"properties":{"id":"service:dbfe11e2-4bfb-4ae1-ba20-0d02efca7995","kind":"service","longitude":19.6131503,"latitude":49.361507,"name":"Bicikli szervíz","city":"Trstena","address":null,"covered":null,"access":null,"website":null,"phone":null,"source":"OpenStreetMap/node/1731980553","sourceUpdatedAt":null,"verifiedAt":null}}]}