{"type":"FeatureCollection","features":[{"type":"Feature","geometry":{"type":"Point","coordinates":[19.6127204,49.2587662]},"properties":{"id":"bikerack:22bf6266-d12a-436d-bea9-41732f3be1e6","kind":"bikerack","longitude":19.6127204,"latitude":49.2587662,"name":"Biciklitároló","city":"Tvrdosin","address":null,"covered":false,"access":null,"website":null,"phone":null,"source":"OpenStreetMap/node/13009393210","sourceUpdatedAt":null,"verifiedAt":null}},{"type":"Feature","geometry":{"type":"Point","coordinates":[19.6142062,49.2601735]},"properties":{"id":"bikerack:2dd56e8f-34e7-484b-bd7e-7289bda09577","kind":"bikerack","longitude":19.6142062,"latitude":49.2601735,"name":"Biciklitároló","city":"Tvrdosin","address":null,"covered":false,"access":null,"website":null,"phone":null,"source":"OpenStreetMap/node/13011200355","sourceUpdatedAt":null,"verifiedAt":null}},{"type":"Feature","geometry":{"type":"Point","coordinates":[19.6138039,49.2599839]},"properties":{"id":"bikerack:31119560-6590-4201-891d-2c1490bb7643","kind":"bikerack","longitude":19.6138039,"latitude":49.2599839,"name":"Biciklitároló","city":"Tvrdosin","address":null,"covered":false,"access":null,"website":null,"phone":null,"source":"OpenStreetMap/node/13009399015","sourceUpdatedAt":null,"verifiedAt":null}},{"type":"Feature","geometry":{"type":"Point","coordinates":[19.6147796,49.261764]},"properties":{"id":"bikerack:4f1508e0-0ada-45b7-9284-23d7ad82d320","kind":"bikerack","longitude":19.6147796,"latitude":49.261764,"name":"Biciklitároló","city":"Tvrdosin","address":null,"covered":false,"access":null,"website":null,"phone":null,"source":"OpenStreetMap/node/13013191868","sourceUpdatedAt":null,"verifiedAt":null}},{"type":"Feature","geometry":{"type":"Point","coordinates":[19.6147952,49.2609289]},"properties":{"id":"bikerack:d012f26f-065a-467b-b8c3-e6c6ba497e2f","kind":"bikerack","longitude":19.6147952,"latitude":49.2609289,"name":"Biciklitároló","city":"Tvrdosin","address":null,"covered":false,"access":null,"website":null,"phone":null,"source":"OpenStreetMap/node/13009436885","sourceUpdatedAt":null,"verifiedAt":null}},{"type":"Feature","geometry":{"type":"Point","coordinates":[19.6091339,49.264192]},"properties":{"id":"service:c4ba63de-e595-4917-af43-888b89ac9e71","kind":"service","longitude":19.6091339,"latitude":49.264192,"name":"Bicikli szervíz","city":"Tvrdosin","address":null,"covered":null,"access":null,"website":null,"phone":null,"source":"OpenStreetMap/node/9686167436","sourceUpdatedAt":null,"verifiedAt":null}}]}