{"type":"FeatureCollection","features":[{"type":"Feature","geometry":{"type":"Point","coordinates":[19.6110415,47.231443]},"properties":{"id":"bikerack:71d8deca-8f47-496c-8a06-cc73c9ebbb73","kind":"bikerack","longitude":19.6110415,"latitude":47.231443,"name":"Biciklitároló","city":"Albertirsa","address":null,"covered":false,"access":null,"website":null,"phone":null,"source":"OpenStreetMap/node/3375325790","sourceUpdatedAt":null,"verifiedAt":null}},{"type":"Feature","geometry":{"type":"Point","coordinates":[19.6063102,47.2408068]},"properties":{"id":"bikerack:768eebe4-bfa6-442c-b289-b64d86c2d0de","kind":"bikerack","longitude":19.6063102,"latitude":47.2408068,"name":"Biciklitároló","city":"Albertirsa","address":null,"covered":true,"access":null,"website":null,"phone":null,"source":"OpenStreetMap/way/1034424343","sourceUpdatedAt":null,"verifiedAt":null}},{"type":"Feature","geometry":{"type":"Point","coordinates":[19.6116307,47.2444218]},"properties":{"id":"bikerack:c02ec745-b425-46d3-b45a-99939f70c1ef","kind":"bikerack","longitude":19.6116307,"latitude":47.2444218,"name":"Biciklitároló","city":"Albertirsa","address":null,"covered":false,"access":null,"website":null,"phone":null,"source":"OpenStreetMap/node/2373223397","sourceUpdatedAt":null,"verifiedAt":null}},{"type":"Feature","geometry":{"type":"Point","coordinates":[19.6071341,47.2402089]},"properties":{"id":"bikerack:c6ab7669-97ab-42e5-883f-bbe496e24b82","kind":"bikerack","longitude":19.6071341,"latitude":47.2402089,"name":"Biciklitároló","city":"Albertirsa","address":null,"covered":true,"access":null,"website":null,"phone":null,"source":"OpenStreetMap/node/2373216929","sourceUpdatedAt":null,"verifiedAt":null}},{"type":"Feature","geometry":{"type":"Point","coordinates":[19.6064802,47.2408059]},"properties":{"id":"bikerack:ee320358-eb9b-4df7-923c-c083acf387df","kind":"bikerack","longitude":19.6064802,"latitude":47.2408059,"name":"Biciklitároló","city":"Albertirsa","address":null,"covered":true,"access":null,"website":null,"phone":null,"source":"OpenStreetMap/way/1034424344","sourceUpdatedAt":null,"verifiedAt":null}},{"type":"Feature","geometry":{"type":"Point","coordinates":[19.6132499,47.2460631]},"properties":{"id":"service:14637f85-eea0-47e3-a2da-6d5c8c0ce19f","kind":"service","longitude":19.6132499,"latitude":47.2460631,"name":"Bringa Doki","city":"Albertirsa","address":null,"covered":null,"access":null,"website":null,"phone":null,"source":"OpenStreetMap/node/5958738789","sourceUpdatedAt":null,"verifiedAt":null}},{"type":"Feature","geometry":{"type":"Point","coordinates":[19.6129346,47.246966]},"properties":{"id":"water:1539fc01-1eed-447b-b84a-6569dd73c30d","kind":"water","longitude":19.6129346,"latitude":47.246966,"name":"Ivókút","city":null,"address":null,"covered":null,"access":null,"website":null,"phone":null,"source":"OpenStreetMap","sourceUpdatedAt":null,"verifiedAt":null}},{"type":"Feature","geometry":{"type":"Point","coordinates":[19.606983,47.240517]},"properties":{"id":"water:1abc00be-5b21-453a-a095-a2042d4783cb","kind":"water","longitude":19.606983,"latitude":47.240517,"name":"Ivókút","city":null,"address":null,"covered":null,"access":null,"website":null,"phone":null,"source":"OpenStreetMap","sourceUpdatedAt":null,"verifiedAt":null}},{"type":"Feature","geometry":{"type":"Point","coordinates":[19.624119,47.243668]},"properties":{"id":"water:2a327d1f-2d31-4408-8fdd-3cba1178278d","kind":"water","longitude":19.624119,"latitude":47.243668,"name":"Ivókút","city":null,"address":null,"covered":null,"access":null,"website":null,"phone":null,"source":"OpenStreetMap","sourceUpdatedAt":null,"verifiedAt":null}},{"type":"Feature","geometry":{"type":"Point","coordinates":[19.630078,47.237221]},"properties":{"id":"water:37dd5119-ce54-40fd-86e0-720c226b1118","kind":"water","longitude":19.630078,"latitude":47.237221,"name":"Ivókút","city":null,"address":null,"covered":null,"access":null,"website":null,"phone":null,"source":"OpenStreetMap","sourceUpdatedAt":null,"verifiedAt":null}},{"type":"Feature","geometry":{"type":"Point","coordinates":[19.610283,47.238233]},"properties":{"id":"water:5e22ddd4-426d-4363-b268-022dd35bd7dd","kind":"water","longitude":19.610283,"latitude":47.238233,"name":"Ivókút","city":null,"address":null,"covered":null,"access":null,"website":null,"phone":null,"source":"OpenStreetMap","sourceUpdatedAt":null,"verifiedAt":null}},{"type":"Feature","geometry":{"type":"Point","coordinates":[19.620739,47.243639]},"properties":{"id":"water:9d2207e3-e567-4744-834e-0139a94e029e","kind":"water","longitude":19.620739,"latitude":47.243639,"name":"Ivókút","city":null,"address":null,"covered":null,"access":null,"website":null,"phone":null,"source":"OpenStreetMap","sourceUpdatedAt":null,"verifiedAt":null}},{"type":"Feature","geometry":{"type":"Point","coordinates":[19.620525,47.240516]},"properties":{"id":"water:a2cee17e-f02e-4b39-a628-7e57c11e0ee5","kind":"water","longitude":19.620525,"latitude":47.240516,"name":"Ivókút","city":null,"address":null,"covered":null,"access":null,"website":null,"phone":null,"source":"OpenStreetMap","sourceUpdatedAt":null,"verifiedAt":null}},{"type":"Feature","geometry":{"type":"Point","coordinates":[19.6122732,47.2452334]},"properties":{"id":"water:b2c0e625-799c-4a3b-9d8a-3b415a8d3b1b","kind":"water","longitude":19.6122732,"latitude":47.2452334,"name":"Ivókút","city":null,"address":null,"covered":null,"access":null,"website":null,"phone":null,"source":"OpenStreetMap","sourceUpdatedAt":null,"verifiedAt":null}},{"type":"Feature","geometry":{"type":"Point","coordinates":[19.610433,47.2484]},"properties":{"id":"water:c5c35ac1-6c29-4126-b9a8-6ea53b7aa0dc","kind":"water","longitude":19.610433,"latitude":47.2484,"name":"Ivókút","city":null,"address":null,"covered":null,"access":null,"website":null,"phone":null,"source":"OpenStreetMap","sourceUpdatedAt":null,"verifiedAt":null}},{"type":"Feature","geometry":{"type":"Point","coordinates":[19.621808,47.24013]},"properties":{"id":"water:d18213d9-5bca-4416-b260-a7d29688d520","kind":"water","longitude":19.621808,"latitude":47.24013,"name":"Ivókút","city":null,"address":null,"covered":null,"access":null,"website":null,"phone":null,"source":"OpenStreetMap","sourceUpdatedAt":null,"verifiedAt":null}},{"type":"Feature","geometry":{"type":"Point","coordinates":[19.627564,47.238667]},"properties":{"id":"water:d87508ca-07fe-449a-9264-567a9ba0a964","kind":"water","longitude":19.627564,"latitude":47.238667,"name":"Ivókút","city":null,"address":null,"covered":null,"access":null,"website":null,"phone":null,"source":"OpenStreetMap","sourceUpdatedAt":null,"verifiedAt":null}},{"type":"Feature","geometry":{"type":"Point","coordinates":[19.6058686,47.2391016]},"properties":{"id":"water:e4d4bb00-c6c6-4e2c-aa2d-1a5b206bd4eb","kind":"water","longitude":19.6058686,"latitude":47.2391016,"name":"Ivókút","city":null,"address":null,"covered":null,"access":null,"website":null,"phone":null,"source":"OpenStreetMap","sourceUpdatedAt":null,"verifiedAt":null}},{"type":"Feature","geometry":{"type":"Point","coordinates":[19.6037415,47.2462829]},"properties":{"id":"water:ee357477-4bff-4e2b-b122-0cc518c41231","kind":"water","longitude":19.6037415,"latitude":47.2462829,"name":"Ivókút","city":null,"address":null,"covered":null,"access":null,"website":null,"phone":null,"source":"OpenStreetMap","sourceUpdatedAt":null,"verifiedAt":null}}]}