{"type":"FeatureCollection","features":[{"type":"Feature","geometry":{"type":"Point","coordinates":[16.4558403,46.8269958]},"properties":{"id":"bikerack:77becdc5-b5ef-46e4-a887-2fc3f188aa8d","kind":"bikerack","longitude":16.4558403,"latitude":46.8269958,"name":"Biciklitároló","city":"Hodos","address":null,"covered":false,"access":null,"website":null,"phone":null,"source":"OpenStreetMap/way/962943643","sourceUpdatedAt":null,"verifiedAt":null}},{"type":"Feature","geometry":{"type":"Point","coordinates":[16.459653,46.8300966]},"properties":{"id":"water:75517082-2e35-4f82-9983-7091c822e67b","kind":"water","longitude":16.459653,"latitude":46.8300966,"name":"Ivókút","city":null,"address":null,"covered":null,"access":null,"website":null,"phone":null,"source":"OpenStreetMap","sourceUpdatedAt":null,"verifiedAt":null}}]}