{"type":"FeatureCollection","features":[{"type":"Feature","geometry":{"type":"Point","coordinates":[16.4508355,46.565119]},"properties":{"id":"bikerack:87623be0-7386-4cf8-83ff-c6fa018758ee","kind":"bikerack","longitude":16.4508355,"latitude":46.565119,"name":"Biciklitároló","city":"Lendava","address":null,"covered":false,"access":null,"website":null,"phone":null,"source":"OpenStreetMap/node/12068386269","sourceUpdatedAt":null,"verifiedAt":null}},{"type":"Feature","geometry":{"type":"Point","coordinates":[16.4521111,46.5655341]},"properties":{"id":"bikerack:8ce24453-1a31-4ca5-8865-418b19f70fe2","kind":"bikerack","longitude":16.4521111,"latitude":46.5655341,"name":"Biciklitároló","city":"Lendava","address":null,"covered":false,"access":null,"website":null,"phone":null,"source":"OpenStreetMap/node/12712961768","sourceUpdatedAt":null,"verifiedAt":null}},{"type":"Feature","geometry":{"type":"Point","coordinates":[16.4520241,46.5655653]},"properties":{"id":"bikerack:ab01fa28-8c99-4a75-9ff6-50163fcf60bc","kind":"bikerack","longitude":16.4520241,"latitude":46.5655653,"name":"Biciklitároló","city":"Lendava","address":null,"covered":false,"access":null,"website":null,"phone":null,"source":"OpenStreetMap/node/12712973411","sourceUpdatedAt":null,"verifiedAt":null}},{"type":"Feature","geometry":{"type":"Point","coordinates":[16.4504154,46.5673431]},"properties":{"id":"service:3d6a6378-00fc-4022-90c2-d52b116719d0","kind":"service","longitude":16.4504154,"latitude":46.5673431,"name":"Servis koles","city":"Lendava","address":null,"covered":null,"access":null,"website":null,"phone":null,"source":"OpenStreetMap/node/4887903393","sourceUpdatedAt":null,"verifiedAt":null}},{"type":"Feature","geometry":{"type":"Point","coordinates":[16.4514291,46.5648476]},"properties":{"id":"water:478d20fb-3c33-4704-bbec-b2c7af872d00","kind":"water","longitude":16.4514291,"latitude":46.5648476,"name":"Ivókút","city":"Lendava","address":null,"covered":null,"access":null,"website":null,"phone":null,"source":"OpenStreetMap/node/12068396569","sourceUpdatedAt":null,"verifiedAt":null}},{"type":"Feature","geometry":{"type":"Point","coordinates":[16.455864,46.5620813]},"properties":{"id":"water:5fcec3c7-28e5-4701-8926-ac42c152df57","kind":"water","longitude":16.455864,"latitude":46.5620813,"name":"Izvir","city":"Lendava","address":null,"covered":null,"access":null,"website":null,"phone":null,"source":"OpenStreetMap/node/2999405059","sourceUpdatedAt":null,"verifiedAt":null}},{"type":"Feature","geometry":{"type":"Point","coordinates":[16.4521121,46.5643693]},"properties":{"id":"water:763d509e-b862-4f8d-874a-08147e7dddeb","kind":"water","longitude":16.4521121,"latitude":46.5643693,"name":"Ivókút","city":"Lendava","address":null,"covered":null,"access":null,"website":null,"phone":null,"source":"OpenStreetMap/node/12068396669","sourceUpdatedAt":null,"verifiedAt":null}},{"type":"Feature","geometry":{"type":"Point","coordinates":[16.4552477,46.5626811]},"properties":{"id":"water:b2004967-13f9-425d-abf7-eb38786c328d","kind":"water","longitude":16.4552477,"latitude":46.5626811,"name":"Izvir","city":"Lendava","address":null,"covered":null,"access":null,"website":null,"phone":null,"source":"OpenStreetMap/node/11187789959","sourceUpdatedAt":null,"verifiedAt":null}}]}