{"type":"FeatureCollection","features":[{"type":"Feature","geometry":{"type":"Point","coordinates":[16.743448,53.1584508]},"properties":{"id":"bikerack:01df1cc3-387b-4f48-aff3-e667474adaf8","kind":"bikerack","longitude":16.743448,"latitude":53.1584508,"name":"Biciklitároló","city":"Pila","address":null,"covered":false,"access":null,"website":null,"phone":null,"source":"OpenStreetMap/node/12742808499","sourceUpdatedAt":null,"verifiedAt":null}},{"type":"Feature","geometry":{"type":"Point","coordinates":[16.7437238,53.1599248]},"properties":{"id":"bikerack:041f4b48-fb14-41b5-8b84-abcc7fdd5606","kind":"bikerack","longitude":16.7437238,"latitude":53.1599248,"name":"Biciklitároló","city":"Pila","address":null,"covered":false,"access":null,"website":null,"phone":null,"source":"OpenStreetMap/way/1362675099","sourceUpdatedAt":null,"verifiedAt":null}},{"type":"Feature","geometry":{"type":"Point","coordinates":[16.7774286,53.1635606]},"properties":{"id":"bikerack:0a2658b6-89f8-4d31-adce-fdfcbf3923c0","kind":"bikerack","longitude":16.7774286,"latitude":53.1635606,"name":"Biciklitároló","city":"Pila","address":null,"covered":false,"access":null,"website":null,"phone":null,"source":"OpenStreetMap/node/11034006680","sourceUpdatedAt":null,"verifiedAt":null}},{"type":"Feature","geometry":{"type":"Point","coordinates":[16.7435631,53.1581304]},"properties":{"id":"bikerack:2ddfec63-f6cb-437a-8d2d-0c80f6a9904c","kind":"bikerack","longitude":16.7435631,"latitude":53.1581304,"name":"Biciklitároló","city":"Pila","address":null,"covered":false,"access":null,"website":null,"phone":null,"source":"OpenStreetMap/node/12742808507","sourceUpdatedAt":null,"verifiedAt":null}},{"type":"Feature","geometry":{"type":"Point","coordinates":[16.7442329,53.1510471]},"properties":{"id":"bikerack:328446a6-21d5-4442-927b-8bb964107021","kind":"bikerack","longitude":16.7442329,"latitude":53.1510471,"name":"Biciklitároló","city":"Pila","address":null,"covered":false,"access":null,"website":null,"phone":null,"source":"OpenStreetMap/node/13037427949","sourceUpdatedAt":null,"verifiedAt":null}},{"type":"Feature","geometry":{"type":"Point","coordinates":[16.7500892,53.1548688]},"properties":{"id":"bikerack:399a7102-4425-4dc9-9b61-47c0a893e2b9","kind":"bikerack","longitude":16.7500892,"latitude":53.1548688,"name":"Biciklitároló","city":"Pila","address":null,"covered":false,"access":null,"website":null,"phone":null,"source":"OpenStreetMap/way/1330170418","sourceUpdatedAt":null,"verifiedAt":null}},{"type":"Feature","geometry":{"type":"Point","coordinates":[16.7432316,53.1599114]},"properties":{"id":"bikerack:3b75db14-b3d5-408f-9140-d3a29091ab18","kind":"bikerack","longitude":16.7432316,"latitude":53.1599114,"name":"Biciklitároló","city":"Pila","address":null,"covered":false,"access":null,"website":null,"phone":null,"source":"OpenStreetMap/way/1362675098","sourceUpdatedAt":null,"verifiedAt":null}},{"type":"Feature","geometry":{"type":"Point","coordinates":[16.7436181,53.1568412]},"properties":{"id":"bikerack:4e1a3502-9fdb-45c8-94e2-de922b2a6ef4","kind":"bikerack","longitude":16.7436181,"latitude":53.1568412,"name":"Biciklitároló","city":"Pila","address":null,"covered":false,"access":null,"website":null,"phone":null,"source":"OpenStreetMap/node/12742808518","sourceUpdatedAt":null,"verifiedAt":null}},{"type":"Feature","geometry":{"type":"Point","coordinates":[16.7595764,53.1567265]},"properties":{"id":"bikerack:57666406-d52a-44e2-bbaf-034e240717db","kind":"bikerack","longitude":16.7595764,"latitude":53.1567265,"name":"Biciklitároló","city":"Pila","address":null,"covered":false,"access":null,"website":null,"phone":null,"source":"OpenStreetMap/node/12410321005","sourceUpdatedAt":null,"verifiedAt":null}},{"type":"Feature","geometry":{"type":"Point","coordinates":[16.7434568,53.1567309]},"properties":{"id":"bikerack:68a180ad-c811-4d81-a000-15450ec70e53","kind":"bikerack","longitude":16.7434568,"latitude":53.1567309,"name":"Biciklitároló","city":"Pila","address":null,"covered":false,"access":null,"website":null,"phone":null,"source":"OpenStreetMap/node/12297691289","sourceUpdatedAt":null,"verifiedAt":null}},{"type":"Feature","geometry":{"type":"Point","coordinates":[16.751694,53.1469252]},"properties":{"id":"bikerack:6d2dcd5b-1b40-4e0d-bc76-c48638dbc439","kind":"bikerack","longitude":16.751694,"latitude":53.1469252,"name":"Biciklitároló","city":"Pila","address":null,"covered":false,"access":null,"website":null,"phone":null,"source":"OpenStreetMap/node/2900743271","sourceUpdatedAt":null,"verifiedAt":null}},{"type":"Feature","geometry":{"type":"Point","coordinates":[16.7455236,53.1525875]},"properties":{"id":"bikerack:78104f95-1104-4b8e-91ce-952c45eb852d","kind":"bikerack","longitude":16.7455236,"latitude":53.1525875,"name":"Biciklitároló","city":"Pila","address":null,"covered":false,"access":null,"website":null,"phone":null,"source":"OpenStreetMap/node/12053288686","sourceUpdatedAt":null,"verifiedAt":null}},{"type":"Feature","geometry":{"type":"Point","coordinates":[16.7843271,53.1529953]},"properties":{"id":"bikerack:86177f51-da49-42b6-ab9e-70ce003583b6","kind":"bikerack","longitude":16.7843271,"latitude":53.1529953,"name":"Biciklitároló","city":"Pila","address":null,"covered":false,"access":null,"website":null,"phone":null,"source":"OpenStreetMap/way/1352719128","sourceUpdatedAt":null,"verifiedAt":null}},{"type":"Feature","geometry":{"type":"Point","coordinates":[16.7439063,53.1573744]},"properties":{"id":"bikerack:9ce264e9-e495-4610-8e58-7fb2c4a8c8eb","kind":"bikerack","longitude":16.7439063,"latitude":53.1573744,"name":"Biciklitároló","city":"Pila","address":null,"covered":false,"access":null,"website":null,"phone":null,"source":"OpenStreetMap/node/12742808509","sourceUpdatedAt":null,"verifiedAt":null}},{"type":"Feature","geometry":{"type":"Point","coordinates":[16.7435826,53.1580803]},"properties":{"id":"bikerack:a65570a0-b9a7-44cf-82ce-b91509808a2f","kind":"bikerack","longitude":16.7435826,"latitude":53.1580803,"name":"Biciklitároló","city":"Pila","address":null,"covered":false,"access":null,"website":null,"phone":null,"source":"OpenStreetMap/node/12742808508","sourceUpdatedAt":null,"verifiedAt":null}},{"type":"Feature","geometry":{"type":"Point","coordinates":[16.7437762,53.159316]},"properties":{"id":"bikerack:a7d3478b-bf47-4d72-9c3c-cfe132b44741","kind":"bikerack","longitude":16.7437762,"latitude":53.159316,"name":"Biciklitároló","city":"Pila","address":null,"covered":false,"access":null,"website":null,"phone":null,"source":"OpenStreetMap/way/1362675131","sourceUpdatedAt":null,"verifiedAt":null}},{"type":"Feature","geometry":{"type":"Point","coordinates":[16.7435038,53.1597922]},"properties":{"id":"bikerack:ab46650c-9851-4c72-a7f5-3ac187ca78bf","kind":"bikerack","longitude":16.7435038,"latitude":53.1597922,"name":"Biciklitároló","city":"Pila","address":null,"covered":false,"access":null,"website":null,"phone":null,"source":"OpenStreetMap/way/1362675100","sourceUpdatedAt":null,"verifiedAt":null}},{"type":"Feature","geometry":{"type":"Point","coordinates":[16.7562943,53.1585733]},"properties":{"id":"service:1a30c8e4-76e5-46d6-9e01-e7ae06aea168","kind":"service","longitude":16.7562943,"latitude":53.1585733,"name":"PROROWERY","city":"Pila","address":null,"covered":null,"access":null,"website":null,"phone":null,"source":"OpenStreetMap/node/10226106925","sourceUpdatedAt":null,"verifiedAt":null}},{"type":"Feature","geometry":{"type":"Point","coordinates":[16.7495098,53.1530668]},"properties":{"id":"service:69004907-ca37-4637-8113-a90e1b2a32d1","kind":"service","longitude":16.7495098,"latitude":53.1530668,"name":"Bicikli szervíz","city":"Pila","address":null,"covered":null,"access":null,"website":null,"phone":null,"source":"OpenStreetMap/node/10964256502","sourceUpdatedAt":null,"verifiedAt":null}},{"type":"Feature","geometry":{"type":"Point","coordinates":[16.7462358,53.152723]},"properties":{"id":"service:c6829ffc-2ec8-4bc4-9081-ca6d232b5759","kind":"service","longitude":16.7462358,"latitude":53.152723,"name":"Rowerowy Raj","city":"Pila","address":null,"covered":null,"access":null,"website":null,"phone":null,"source":"OpenStreetMap/node/10964256227","sourceUpdatedAt":null,"verifiedAt":null}}]}