{"type":"FeatureCollection","features":[{"type":"Feature","geometry":{"type":"Point","coordinates":[16.7843877,51.1890745]},"properties":{"id":"bikerack:8f85133d-84be-4138-ad26-5e9f12720c04","kind":"bikerack","longitude":16.7843877,"latitude":51.1890745,"name":"Biciklitároló","city":"Mrozow","address":null,"covered":false,"access":null,"website":null,"phone":null,"source":"OpenStreetMap/node/5775892474","sourceUpdatedAt":null,"verifiedAt":null}},{"type":"Feature","geometry":{"type":"Point","coordinates":[16.7438158,51.1796103]},"properties":{"id":"bikerack:f097ac37-0c5a-474a-ac4b-94fe2d2f985e","kind":"bikerack","longitude":16.7438158,"latitude":51.1796103,"name":"Biciklitároló","city":"Miekinia","address":null,"covered":false,"access":null,"website":null,"phone":null,"source":"OpenStreetMap/node/12105804066","sourceUpdatedAt":null,"verifiedAt":null}}]}