{"type":"FeatureCollection","features":[{"type":"Feature","geometry":{"type":"Point","coordinates":[16.7619511,49.3824097]},"properties":{"id":"bikerack:31b1a3c4-6fae-4165-b2f6-d400ce9afb08","kind":"bikerack","longitude":16.7619511,"latitude":49.3824097,"name":"Bicycle Parking","city":"Ostrov u Macochy","address":null,"covered":false,"access":null,"website":null,"phone":null,"source":"OpenStreetMap/node/8284421955","sourceUpdatedAt":null,"verifiedAt":null}},{"type":"Feature","geometry":{"type":"Point","coordinates":[16.7489291,49.4094357]},"properties":{"id":"bikerack:4c549fac-d73c-4aa7-802f-c22868e4b394","kind":"bikerack","longitude":16.7489291,"latitude":49.4094357,"name":"Bicycle Parking","city":"Ostrov u Macochy","address":null,"covered":false,"access":null,"website":null,"phone":null,"source":"OpenStreetMap/node/3252741811","sourceUpdatedAt":null,"verifiedAt":null}},{"type":"Feature","geometry":{"type":"Point","coordinates":[16.7587925,49.3833299]},"properties":{"id":"water:6613d4f3-644a-423b-a38b-88fb6f56cc8a","kind":"water","longitude":16.7587925,"latitude":49.3833299,"name":"Drinking Fountain","city":"Ostrov u Macochy","address":null,"covered":null,"access":null,"website":null,"phone":null,"source":"OpenStreetMap/node/11465428871","sourceUpdatedAt":null,"verifiedAt":null}}]}