{"type":"FeatureCollection","features":[{"type":"Feature","geometry":{"type":"Point","coordinates":[16.7647988,46.7946687]},"properties":{"id":"water:1783013c-cde7-43b8-ab20-86ee244397f2","kind":"water","longitude":16.7647988,"latitude":46.7946687,"name":"Ivókút","city":null,"address":null,"covered":null,"access":null,"website":null,"phone":null,"source":"OpenStreetMap","sourceUpdatedAt":null,"verifiedAt":null}},{"type":"Feature","geometry":{"type":"Point","coordinates":[16.7585639,46.7755518]},"properties":{"id":"water:78437a97-0781-4b5a-b9cd-8b8c75e68b34","kind":"water","longitude":16.7585639,"latitude":46.7755518,"name":"Ivókút","city":null,"address":null,"covered":null,"access":null,"website":null,"phone":null,"source":"OpenStreetMap","sourceUpdatedAt":null,"verifiedAt":null}},{"type":"Feature","geometry":{"type":"Point","coordinates":[16.7663259,46.7786358]},"properties":{"id":"water:80a1ba44-420d-4de0-a703-356f2cba95a3","kind":"water","longitude":16.7663259,"latitude":46.7786358,"name":"Nagylengyel \"Én parkom\"","city":null,"address":null,"covered":null,"access":null,"website":null,"phone":null,"source":"OpenStreetMap","sourceUpdatedAt":null,"verifiedAt":null}}]}