{"type":"FeatureCollection","features":[{"type":"Feature","geometry":{"type":"Point","coordinates":[16.7779589,45.4799719]},"properties":{"id":"bikerack:2cf2ca86-8c4a-4437-a620-8ec50d5bc49c","kind":"bikerack","longitude":16.7779589,"latitude":45.4799719,"name":"Biciklitároló","city":"Kutina","address":null,"covered":false,"access":null,"website":null,"phone":null,"source":"OpenStreetMap/node/3157757524","sourceUpdatedAt":null,"verifiedAt":null}},{"type":"Feature","geometry":{"type":"Point","coordinates":[16.7736921,45.4754585]},"properties":{"id":"bikerack:ae10ce9c-3bd5-4022-8915-03bfb04edf08","kind":"bikerack","longitude":16.7736921,"latitude":45.4754585,"name":"Biciklitároló","city":"Kutina","address":null,"covered":false,"access":null,"website":null,"phone":null,"source":"OpenStreetMap/node/6432659772","sourceUpdatedAt":null,"verifiedAt":null}},{"type":"Feature","geometry":{"type":"Point","coordinates":[16.7743219,45.4814997]},"properties":{"id":"repair:92187108-c1e9-4192-88b2-98c84c1e7243","kind":"repair","longitude":16.7743219,"latitude":45.4814997,"name":"Kerékpár szervizállomás","city":"Kutina","address":null,"covered":false,"access":null,"website":null,"phone":null,"source":"OpenStreetMap/node/6433244623","sourceUpdatedAt":null,"verifiedAt":null}},{"type":"Feature","geometry":{"type":"Point","coordinates":[16.7728217,45.4841515]},"properties":{"id":"service:0e895b13-66b1-4aaf-aefe-d654cdcf6ba4","kind":"service","longitude":16.7728217,"latitude":45.4841515,"name":"Bike shop Kutina","city":"Kutina","address":null,"covered":null,"access":null,"website":null,"phone":null,"source":"OpenStreetMap/node/2420675901","sourceUpdatedAt":null,"verifiedAt":null}}]}