{"type":"FeatureCollection","features":[{"type":"Feature","geometry":{"type":"Point","coordinates":[19.1993925,50.0408683]},"properties":{"id":"bikerack:429cd557-d567-401c-90b6-383f36f6c9b8","kind":"bikerack","longitude":19.1993925,"latitude":50.0408683,"name":"Biciklitároló","city":"Brzezinka","address":null,"covered":false,"access":null,"website":null,"phone":null,"source":"OpenStreetMap/way/1354703028","sourceUpdatedAt":null,"verifiedAt":null}},{"type":"Feature","geometry":{"type":"Point","coordinates":[19.2021867,50.0369163]},"properties":{"id":"bikerack:748d2d4f-1417-47b9-990c-9b46abda1c03","kind":"bikerack","longitude":19.2021867,"latitude":50.0369163,"name":"Biciklitároló","city":"Oswiecim","address":null,"covered":false,"access":null,"website":null,"phone":null,"source":"OpenStreetMap/node/13620384770","sourceUpdatedAt":null,"verifiedAt":null}},{"type":"Feature","geometry":{"type":"Point","coordinates":[19.1940135,50.061073]},"properties":{"id":"bikerack:9ebae310-8d56-4215-95aa-58ccbf9f6525","kind":"bikerack","longitude":19.1940135,"latitude":50.061073,"name":"Biciklitároló","city":"Babice","address":null,"covered":false,"access":null,"website":null,"phone":null,"source":"OpenStreetMap/node/13649469624","sourceUpdatedAt":null,"verifiedAt":null}},{"type":"Feature","geometry":{"type":"Point","coordinates":[19.2003327,50.0413193]},"properties":{"id":"bikerack:b0afa2a4-47b9-4934-ba04-84397a21adff","kind":"bikerack","longitude":19.2003327,"latitude":50.0413193,"name":"Biciklitároló","city":"Brzezinka","address":null,"covered":false,"access":null,"website":null,"phone":null,"source":"OpenStreetMap/node/13375923066","sourceUpdatedAt":null,"verifiedAt":null}},{"type":"Feature","geometry":{"type":"Point","coordinates":[19.1934499,50.0608418]},"properties":{"id":"bikerack:d7faf019-0a93-4694-8845-5b6ab6bbf6b1","kind":"bikerack","longitude":19.1934499,"latitude":50.0608418,"name":"Biciklitároló","city":"Babice","address":null,"covered":false,"access":null,"website":null,"phone":null,"source":"OpenStreetMap/node/13649469623","sourceUpdatedAt":null,"verifiedAt":null}},{"type":"Feature","geometry":{"type":"Point","coordinates":[19.1977553,50.0415744]},"properties":{"id":"bikerack:fb0b7967-75b9-4835-a7af-6624818e4176","kind":"bikerack","longitude":19.1977553,"latitude":50.0415744,"name":"Biciklitároló","city":"Brzezinka","address":null,"covered":false,"access":null,"website":null,"phone":null,"source":"OpenStreetMap/way/1354703084","sourceUpdatedAt":null,"verifiedAt":null}},{"type":"Feature","geometry":{"type":"Point","coordinates":[19.2000498,50.0414634]},"properties":{"id":"bikerack:fc43a173-d7ef-45d2-bd23-b6fc86848dde","kind":"bikerack","longitude":19.2000498,"latitude":50.0414634,"name":"Biciklitároló","city":"Brzezinka","address":null,"covered":false,"access":null,"website":null,"phone":null,"source":"OpenStreetMap/way/1354703019","sourceUpdatedAt":null,"verifiedAt":null}},{"type":"Feature","geometry":{"type":"Point","coordinates":[19.2000831,50.0415101]},"properties":{"id":"repair:3a7a3b8c-5b13-42ff-963c-3d7fb11fabbb","kind":"repair","longitude":19.2000831,"latitude":50.0415101,"name":"Kerékpár szervizállomás","city":"Brzezinka","address":null,"covered":false,"access":null,"website":null,"phone":null,"source":"OpenStreetMap/node/12536772658","sourceUpdatedAt":null,"verifiedAt":null}},{"type":"Feature","geometry":{"type":"Point","coordinates":[19.2021345,50.0519379]},"properties":{"id":"service:42f0b2bc-5af9-4108-9c4d-0700e125fe97","kind":"service","longitude":19.2021345,"latitude":50.0519379,"name":"Fabryka Rowerowa","city":"Babice","address":null,"covered":null,"access":null,"website":null,"phone":null,"source":"OpenStreetMap/node/12471682415","sourceUpdatedAt":null,"verifiedAt":null}}]}