{"type":"FeatureCollection","features":[{"type":"Feature","geometry":{"type":"Point","coordinates":[13.3742045,54.0804241]},"properties":{"id":"bikerack:001590f6-99fb-44b6-aa8f-23f176cf8512","kind":"bikerack","longitude":13.3742045,"latitude":54.0804241,"name":"Fahrradabstellplatz","city":"Greifswald","address":null,"covered":false,"access":null,"website":null,"phone":null,"source":"OpenStreetMap/node/9633475737","sourceUpdatedAt":null,"verifiedAt":null}},{"type":"Feature","geometry":{"type":"Point","coordinates":[13.3882888,54.0843398]},"properties":{"id":"bikerack:0179cdd5-9252-49f7-81b1-d4bdd38b13d4","kind":"bikerack","longitude":13.3882888,"latitude":54.0843398,"name":"Fahrradabstellplatz","city":"Greifswald","address":null,"covered":false,"access":null,"website":null,"phone":null,"source":"OpenStreetMap/node/12865366479","sourceUpdatedAt":null,"verifiedAt":null}},{"type":"Feature","geometry":{"type":"Point","coordinates":[13.3827867,54.0780956]},"properties":{"id":"bikerack:029db05b-82ad-4267-b9df-dcf7040bd7cd","kind":"bikerack","longitude":13.3827867,"latitude":54.0780956,"name":"Fahrradabstellplatz","city":"Greifswald","address":null,"covered":false,"access":null,"website":null,"phone":null,"source":"OpenStreetMap/node/13082595834","sourceUpdatedAt":null,"verifiedAt":null}},{"type":"Feature","geometry":{"type":"Point","coordinates":[13.3994861,54.077809]},"properties":{"id":"bikerack:03ce2a04-a9b2-41fe-978a-6f82b7a66606","kind":"bikerack","longitude":13.3994861,"latitude":54.077809,"name":"Fahrradabstellplatz","city":"Greifswald","address":null,"covered":false,"access":null,"website":null,"phone":null,"source":"OpenStreetMap/node/13591104039","sourceUpdatedAt":null,"verifiedAt":null}},{"type":"Feature","geometry":{"type":"Point","coordinates":[13.4028485,54.0765098]},"properties":{"id":"bikerack:0b3f16f0-0879-48d8-aa40-0ff562409919","kind":"bikerack","longitude":13.4028485,"latitude":54.0765098,"name":"Fahrradabstellplatz","city":"Greifswald","address":null,"covered":false,"access":null,"website":null,"phone":null,"source":"OpenStreetMap/node/9917402884","sourceUpdatedAt":null,"verifiedAt":null}},{"type":"Feature","geometry":{"type":"Point","coordinates":[13.3973408,54.0839042]},"properties":{"id":"bikerack:0ba38040-f738-46d5-9c2d-cbac2638c8ec","kind":"bikerack","longitude":13.3973408,"latitude":54.0839042,"name":"Fahrradabstellplatz","city":"Greifswald","address":null,"covered":false,"access":null,"website":null,"phone":null,"source":"OpenStreetMap/node/12952375143","sourceUpdatedAt":null,"verifiedAt":null}},{"type":"Feature","geometry":{"type":"Point","coordinates":[13.4002144,54.0805444]},"properties":{"id":"bikerack:0f26cfdd-35ba-477c-8c38-52b191280f5f","kind":"bikerack","longitude":13.4002144,"latitude":54.0805444,"name":"Fahrradabstellplatz","city":"Greifswald","address":null,"covered":false,"access":null,"website":null,"phone":null,"source":"OpenStreetMap/node/12865373021","sourceUpdatedAt":null,"verifiedAt":null}},{"type":"Feature","geometry":{"type":"Point","coordinates":[13.3973564,54.0844698]},"properties":{"id":"bikerack:0fd492dd-40ea-431a-9796-d5234637bceb","kind":"bikerack","longitude":13.3973564,"latitude":54.0844698,"name":"Fahrradabstellplatz","city":"Greifswald","address":null,"covered":false,"access":null,"website":null,"phone":null,"source":"OpenStreetMap/node/9917886541","sourceUpdatedAt":null,"verifiedAt":null}},{"type":"Feature","geometry":{"type":"Point","coordinates":[13.4013687,54.083874]},"properties":{"id":"bikerack:10ac5054-0585-4bfe-aecb-6ab9f5c600f0","kind":"bikerack","longitude":13.4013687,"latitude":54.083874,"name":"Fahrradabstellplatz","city":"Greifswald","address":null,"covered":false,"access":null,"website":null,"phone":null,"source":"OpenStreetMap/node/9917170968","sourceUpdatedAt":null,"verifiedAt":null}},{"type":"Feature","geometry":{"type":"Point","coordinates":[13.4016345,54.0767759]},"properties":{"id":"bikerack:1106728c-ee4b-40aa-bb1e-53bf6043dcc4","kind":"bikerack","longitude":13.4016345,"latitude":54.0767759,"name":"Fahrradabstellplatz","city":"Greifswald","address":null,"covered":false,"access":null,"website":null,"phone":null,"source":"OpenStreetMap/node/13177654584","sourceUpdatedAt":null,"verifiedAt":null}},{"type":"Feature","geometry":{"type":"Point","coordinates":[13.3973523,54.0840819]},"properties":{"id":"bikerack:11572ff9-de49-4568-b4e1-2ffff2d0b50b","kind":"bikerack","longitude":13.3973523,"latitude":54.0840819,"name":"Fahrradabstellplatz","city":"Greifswald","address":null,"covered":false,"access":null,"website":null,"phone":null,"source":"OpenStreetMap/node/9917886538","sourceUpdatedAt":null,"verifiedAt":null}},{"type":"Feature","geometry":{"type":"Point","coordinates":[13.3974104,54.0848598]},"properties":{"id":"bikerack:1434af66-2101-49f6-b0af-3a0ed9a8021d","kind":"bikerack","longitude":13.3974104,"latitude":54.0848598,"name":"Fahrradabstellplatz","city":"Greifswald","address":null,"covered":false,"access":null,"website":null,"phone":null,"source":"OpenStreetMap/node/9917886560","sourceUpdatedAt":null,"verifiedAt":null}},{"type":"Feature","geometry":{"type":"Point","coordinates":[13.3737013,54.0808081]},"properties":{"id":"bikerack:14e02042-bc41-48ff-901e-5c1f3f92a610","kind":"bikerack","longitude":13.3737013,"latitude":54.0808081,"name":"Fahrradabstellplatz","city":"Greifswald","address":null,"covered":false,"access":null,"website":null,"phone":null,"source":"OpenStreetMap/node/9633474745","sourceUpdatedAt":null,"verifiedAt":null}},{"type":"Feature","geometry":{"type":"Point","coordinates":[13.3774286,54.0800038]},"properties":{"id":"bikerack:16b54a9c-03e7-498a-b646-0c12494ea6b1","kind":"bikerack","longitude":13.3774286,"latitude":54.0800038,"name":"Fahrradabstellplatz","city":"Greifswald","address":null,"covered":true,"access":null,"website":null,"phone":null,"source":"OpenStreetMap/way/88694447","sourceUpdatedAt":null,"verifiedAt":null}},{"type":"Feature","geometry":{"type":"Point","coordinates":[13.3943695,54.0765521]},"properties":{"id":"bikerack:1b924a54-77c5-43bb-8151-1edcf1b22cab","kind":"bikerack","longitude":13.3943695,"latitude":54.0765521,"name":"Fahrradabstellplatz","city":"Greifswald","address":null,"covered":false,"access":null,"website":null,"phone":null,"source":"OpenStreetMap/node/11781565719","sourceUpdatedAt":null,"verifiedAt":null}},{"type":"Feature","geometry":{"type":"Point","coordinates":[13.3727995,54.0829655]},"properties":{"id":"bikerack:1e40e55b-30d3-4dce-a597-eb2046493e5b","kind":"bikerack","longitude":13.3727995,"latitude":54.0829655,"name":"Fahrradabstellplatz","city":"Greifswald","address":null,"covered":true,"access":null,"website":null,"phone":null,"source":"OpenStreetMap/way/923508033","sourceUpdatedAt":null,"verifiedAt":null}},{"type":"Feature","geometry":{"type":"Point","coordinates":[13.3975494,54.0800478]},"properties":{"id":"bikerack:20eb3c40-6aa0-46d0-81be-0b599b8a0512","kind":"bikerack","longitude":13.3975494,"latitude":54.0800478,"name":"Fahrradabstellplatz","city":"Greifswald","address":null,"covered":false,"access":null,"website":null,"phone":null,"source":"OpenStreetMap/node/12149370935","sourceUpdatedAt":null,"verifiedAt":null}},{"type":"Feature","geometry":{"type":"Point","coordinates":[13.3958675,54.0764152]},"properties":{"id":"bikerack:22176d2c-45e0-469f-ba02-098e3308587a","kind":"bikerack","longitude":13.3958675,"latitude":54.0764152,"name":"Fahrradabstellplatz","city":"Greifswald","address":null,"covered":true,"access":null,"website":null,"phone":null,"source":"OpenStreetMap/node/703667903","sourceUpdatedAt":null,"verifiedAt":null}},{"type":"Feature","geometry":{"type":"Point","coordinates":[13.3996383,54.0847105]},"properties":{"id":"bikerack:23ca141f-9655-4c3c-a64a-a7466e725a5d","kind":"bikerack","longitude":13.3996383,"latitude":54.0847105,"name":"Fahrradabstellplatz","city":"Greifswald","address":null,"covered":false,"access":null,"website":null,"phone":null,"source":"OpenStreetMap/node/12180998788","sourceUpdatedAt":null,"verifiedAt":null}},{"type":"Feature","geometry":{"type":"Point","coordinates":[13.3990353,54.0777829]},"properties":{"id":"bikerack:24274f24-e259-4d72-810d-338dd45af4b3","kind":"bikerack","longitude":13.3990353,"latitude":54.0777829,"name":"Fahrradabstellplatz","city":"Greifswald","address":null,"covered":false,"access":null,"website":null,"phone":null,"source":"OpenStreetMap/node/13591136821","sourceUpdatedAt":null,"verifiedAt":null}},{"type":"Feature","geometry":{"type":"Point","coordinates":[13.4023611,54.0831602]},"properties":{"id":"bikerack:2de78a79-3dec-4d9a-a2f1-9fb185118d65","kind":"bikerack","longitude":13.4023611,"latitude":54.0831602,"name":"Fahrradabstellplatz","city":"Greifswald","address":null,"covered":false,"access":null,"website":null,"phone":null,"source":"OpenStreetMap/node/12178082488","sourceUpdatedAt":null,"verifiedAt":null}},{"type":"Feature","geometry":{"type":"Point","coordinates":[13.4028576,54.0771011]},"properties":{"id":"bikerack:308a60b5-c64f-4959-88ed-b6170b74cab8","kind":"bikerack","longitude":13.4028576,"latitude":54.0771011,"name":"Fahrradabstellplatz","city":"Greifswald","address":null,"covered":false,"access":null,"website":null,"phone":null,"source":"OpenStreetMap/node/9917094574","sourceUpdatedAt":null,"verifiedAt":null}},{"type":"Feature","geometry":{"type":"Point","coordinates":[13.4029931,54.0847516]},"properties":{"id":"bikerack:37ae0537-b502-4871-be13-a6d5a4bec7c2","kind":"bikerack","longitude":13.4029931,"latitude":54.0847516,"name":"Fahrradabstellplatz","city":"Greifswald","address":null,"covered":false,"access":null,"website":null,"phone":null,"source":"OpenStreetMap/node/13002722191","sourceUpdatedAt":null,"verifiedAt":null}},{"type":"Feature","geometry":{"type":"Point","coordinates":[13.3797085,54.0783006]},"properties":{"id":"bikerack:386f65b4-7073-48a8-a334-38abf3906f8d","kind":"bikerack","longitude":13.3797085,"latitude":54.0783006,"name":"Fahrradabstellplatz","city":"Greifswald","address":null,"covered":true,"access":null,"website":null,"phone":null,"source":"OpenStreetMap/node/1787438266","sourceUpdatedAt":null,"verifiedAt":null}},{"type":"Feature","geometry":{"type":"Point","coordinates":[13.3999973,54.0778281]},"properties":{"id":"bikerack:3bc0dfdf-0272-4009-843e-b8bbf175bd43","kind":"bikerack","longitude":13.3999973,"latitude":54.0778281,"name":"Fahrradabstellplatz","city":"Greifswald","address":null,"covered":false,"access":null,"website":null,"phone":null,"source":"OpenStreetMap/node/13591146552","sourceUpdatedAt":null,"verifiedAt":null}},{"type":"Feature","geometry":{"type":"Point","coordinates":[13.4025619,54.0832017]},"properties":{"id":"bikerack:3f9dfc2e-b14a-4e80-ab01-13e757fa5cc7","kind":"bikerack","longitude":13.4025619,"latitude":54.0832017,"name":"Fahrradabstellplatz","city":"Greifswald","address":null,"covered":false,"access":null,"website":null,"phone":null,"source":"OpenStreetMap/node/12178109962","sourceUpdatedAt":null,"verifiedAt":null}},{"type":"Feature","geometry":{"type":"Point","coordinates":[13.4016298,54.0767926]},"properties":{"id":"bikerack:46364542-605e-4489-8b8c-fa2656641e9f","kind":"bikerack","longitude":13.4016298,"latitude":54.0767926,"name":"Fahrradabstellplatz","city":"Greifswald","address":null,"covered":false,"access":null,"website":null,"phone":null,"source":"OpenStreetMap/node/13177654583","sourceUpdatedAt":null,"verifiedAt":null}},{"type":"Feature","geometry":{"type":"Point","coordinates":[13.3973548,54.0843382]},"properties":{"id":"bikerack:49f3e33d-7b69-4868-94d9-139177ef3fc5","kind":"bikerack","longitude":13.3973548,"latitude":54.0843382,"name":"Fahrradabstellplatz","city":"Greifswald","address":null,"covered":false,"access":null,"website":null,"phone":null,"source":"OpenStreetMap/node/9917886540","sourceUpdatedAt":null,"verifiedAt":null}},{"type":"Feature","geometry":{"type":"Point","coordinates":[13.3883048,54.0844801]},"properties":{"id":"bikerack:4b851d72-df27-405c-ba84-5b14646f1586","kind":"bikerack","longitude":13.3883048,"latitude":54.0844801,"name":"Fahrradabstellplatz","city":"Greifswald","address":null,"covered":false,"access":null,"website":null,"phone":null,"source":"OpenStreetMap/node/12865366480","sourceUpdatedAt":null,"verifiedAt":null}},{"type":"Feature","geometry":{"type":"Point","coordinates":[13.3991198,54.0777772]},"properties":{"id":"bikerack:4c2993a4-4b19-4f8b-a616-fae65adcc1ba","kind":"bikerack","longitude":13.3991198,"latitude":54.0777772,"name":"Fahrradabstellplatz","city":"Greifswald","address":null,"covered":false,"access":null,"website":null,"phone":null,"source":"OpenStreetMap/node/13591136822","sourceUpdatedAt":null,"verifiedAt":null}},{"type":"Feature","geometry":{"type":"Point","coordinates":[13.3996034,54.0842204]},"properties":{"id":"bikerack:4cb75c86-49cc-4676-bdef-6bff898ab0de","kind":"bikerack","longitude":13.3996034,"latitude":54.0842204,"name":"Fahrradabstellplatz","city":"Greifswald","address":null,"covered":false,"access":null,"website":null,"phone":null,"source":"OpenStreetMap/node/12180979249","sourceUpdatedAt":null,"verifiedAt":null}},{"type":"Feature","geometry":{"type":"Point","coordinates":[13.3997878,54.0794008]},"properties":{"id":"bikerack:4defe00a-fe4a-48f6-800f-b0ce5c1bd511","kind":"bikerack","longitude":13.3997878,"latitude":54.0794008,"name":"Fahrradabstellplatz","city":"Greifswald","address":null,"covered":false,"access":null,"website":null,"phone":null,"source":"OpenStreetMap/node/13040063241","sourceUpdatedAt":null,"verifiedAt":null}},{"type":"Feature","geometry":{"type":"Point","coordinates":[13.4028885,54.0767533]},"properties":{"id":"bikerack:4fa15667-6142-4be6-9d64-4461602ce341","kind":"bikerack","longitude":13.4028885,"latitude":54.0767533,"name":"Fahrradabstellplatz","city":"Greifswald","address":null,"covered":false,"access":null,"website":null,"phone":null,"source":"OpenStreetMap/node/9917086356","sourceUpdatedAt":null,"verifiedAt":null}},{"type":"Feature","geometry":{"type":"Point","coordinates":[13.3974062,54.0846867]},"properties":{"id":"bikerack:60f40fc2-9bd6-4086-92d8-e64ab072e452","kind":"bikerack","longitude":13.3974062,"latitude":54.0846867,"name":"Fahrradabstellplatz","city":"Greifswald","address":null,"covered":false,"access":null,"website":null,"phone":null,"source":"OpenStreetMap/node/12952399347","sourceUpdatedAt":null,"verifiedAt":null}},{"type":"Feature","geometry":{"type":"Point","coordinates":[13.4028582,54.0768876]},"properties":{"id":"bikerack:69c1e31d-daca-40f5-9b91-cbf8ffab6add","kind":"bikerack","longitude":13.4028582,"latitude":54.0768876,"name":"Fahrradabstellplatz","city":"Greifswald","address":null,"covered":false,"access":null,"website":null,"phone":null,"source":"OpenStreetMap/node/9917102390","sourceUpdatedAt":null,"verifiedAt":null}},{"type":"Feature","geometry":{"type":"Point","coordinates":[13.4028677,54.0795063]},"properties":{"id":"bikerack:6aa6abfb-4610-4139-a826-662903b5806c","kind":"bikerack","longitude":13.4028677,"latitude":54.0795063,"name":"Fahrradabstellplatz","city":"Greifswald","address":null,"covered":false,"access":null,"website":null,"phone":null,"source":"OpenStreetMap/node/13039998262","sourceUpdatedAt":null,"verifiedAt":null}},{"type":"Feature","geometry":{"type":"Point","coordinates":[13.4017512,54.0797584]},"properties":{"id":"bikerack:6dd4a5c7-7767-404a-9002-d1b44bd3367a","kind":"bikerack","longitude":13.4017512,"latitude":54.0797584,"name":"Fahrradabstellplatz","city":"Greifswald","address":null,"covered":true,"access":null,"website":null,"phone":null,"source":"OpenStreetMap/way/1303486709","sourceUpdatedAt":null,"verifiedAt":null}},{"type":"Feature","geometry":{"type":"Point","coordinates":[13.4014615,54.0842389]},"properties":{"id":"bikerack:6e2ae234-a823-41ef-bc5b-96dad2fc1f55","kind":"bikerack","longitude":13.4014615,"latitude":54.0842389,"name":"Fahrradabstellplatz","city":"Greifswald","address":null,"covered":false,"access":null,"website":null,"phone":null,"source":"OpenStreetMap/node/9917176810","sourceUpdatedAt":null,"verifiedAt":null}},{"type":"Feature","geometry":{"type":"Point","coordinates":[13.3996262,54.0844587]},"properties":{"id":"bikerack:720a7341-9ee8-4aae-977e-daea2c1465a1","kind":"bikerack","longitude":13.3996262,"latitude":54.0844587,"name":"Fahrradabstellplatz","city":"Greifswald","address":null,"covered":false,"access":null,"website":null,"phone":null,"source":"OpenStreetMap/node/12180979248","sourceUpdatedAt":null,"verifiedAt":null}},{"type":"Feature","geometry":{"type":"Point","coordinates":[13.4008527,54.0762981]},"properties":{"id":"bikerack:7a8c0979-15b4-4911-9ebe-4a936a347951","kind":"bikerack","longitude":13.4008527,"latitude":54.0762981,"name":"Fahrradabstellplatz","city":"Greifswald","address":null,"covered":false,"access":null,"website":null,"phone":null,"source":"OpenStreetMap/node/13177907346","sourceUpdatedAt":null,"verifiedAt":null}},{"type":"Feature","geometry":{"type":"Point","coordinates":[13.4007341,54.0844128]},"properties":{"id":"bikerack:7e38b672-1905-42f6-b26c-d9e92d70d131","kind":"bikerack","longitude":13.4007341,"latitude":54.0844128,"name":"Fahrradabstellplatz","city":"Greifswald","address":null,"covered":true,"access":null,"website":null,"phone":null,"source":"OpenStreetMap/way/872257958","sourceUpdatedAt":null,"verifiedAt":null}},{"type":"Feature","geometry":{"type":"Point","coordinates":[13.4029896,54.0832902]},"properties":{"id":"bikerack:7e5d53ee-3757-4e7c-9ea2-55fea76ecc0e","kind":"bikerack","longitude":13.4029896,"latitude":54.0832902,"name":"Fahrradabstellplatz","city":"Greifswald","address":null,"covered":false,"access":null,"website":null,"phone":null,"source":"OpenStreetMap/node/12178112543","sourceUpdatedAt":null,"verifiedAt":null}},{"type":"Feature","geometry":{"type":"Point","coordinates":[13.4019088,54.0766612]},"properties":{"id":"bikerack:7e71d3a7-a87b-4753-8835-856b7b5f4c06","kind":"bikerack","longitude":13.4019088,"latitude":54.0766612,"name":"Fahrradabstellplatz","city":"Greifswald","address":null,"covered":false,"access":null,"website":null,"phone":null,"source":"OpenStreetMap/node/13177649706","sourceUpdatedAt":null,"verifiedAt":null}},{"type":"Feature","geometry":{"type":"Point","coordinates":[13.3974073,54.0848195]},"properties":{"id":"bikerack:810b293d-4be4-48ac-aa53-fe03d3c64a80","kind":"bikerack","longitude":13.3974073,"latitude":54.0848195,"name":"Fahrradabstellplatz","city":"Greifswald","address":null,"covered":false,"access":null,"website":null,"phone":null,"source":"OpenStreetMap/node/12952410815","sourceUpdatedAt":null,"verifiedAt":null}},{"type":"Feature","geometry":{"type":"Point","coordinates":[13.4028992,54.0766574]},"properties":{"id":"bikerack:83e2f764-9e1d-460a-8b82-72f4f14035f9","kind":"bikerack","longitude":13.4028992,"latitude":54.0766574,"name":"Fahrradabstellplatz","city":"Greifswald","address":null,"covered":false,"access":null,"website":null,"phone":null,"source":"OpenStreetMap/node/9917402887","sourceUpdatedAt":null,"verifiedAt":null}},{"type":"Feature","geometry":{"type":"Point","coordinates":[13.4031262,54.076527]},"properties":{"id":"bikerack:84990ad1-f72d-4f87-a563-c6495d5ef9c3","kind":"bikerack","longitude":13.4031262,"latitude":54.076527,"name":"Fahrradabstellplatz","city":"Greifswald","address":null,"covered":false,"access":null,"website":null,"phone":null,"source":"OpenStreetMap/node/9917402899","sourceUpdatedAt":null,"verifiedAt":null}},{"type":"Feature","geometry":{"type":"Point","coordinates":[13.4005637,54.077876]},"properties":{"id":"bikerack:8b84403d-167d-40b1-a6d0-cfb15faf0257","kind":"bikerack","longitude":13.4005637,"latitude":54.077876,"name":"Fahrradabstellplatz","city":"Greifswald","address":null,"covered":false,"access":null,"website":null,"phone":null,"source":"OpenStreetMap/node/13591108310","sourceUpdatedAt":null,"verifiedAt":null}},{"type":"Feature","geometry":{"type":"Point","coordinates":[13.40199,54.0843323]},"properties":{"id":"bikerack:94a53226-53f0-4753-85cd-1d0c0976d33c","kind":"bikerack","longitude":13.40199,"latitude":54.0843323,"name":"Fahrradabstellplatz","city":"Greifswald","address":null,"covered":false,"access":null,"website":null,"phone":null,"source":"OpenStreetMap/node/9917176811","sourceUpdatedAt":null,"verifiedAt":null}},{"type":"Feature","geometry":{"type":"Point","coordinates":[13.4010409,54.0831279]},"properties":{"id":"bikerack:95f8713f-dd34-480f-828d-64b868ef670d","kind":"bikerack","longitude":13.4010409,"latitude":54.0831279,"name":"Fahrradabstellplatz","city":"Greifswald","address":null,"covered":false,"access":null,"website":null,"phone":null,"source":"OpenStreetMap/node/9917172399","sourceUpdatedAt":null,"verifiedAt":null}},{"type":"Feature","geometry":{"type":"Point","coordinates":[13.4013158,54.0840125]},"properties":{"id":"bikerack:970cf1e1-4c85-4306-8395-78d1bc6cf51c","kind":"bikerack","longitude":13.4013158,"latitude":54.0840125,"name":"Fahrradabstellplatz","city":"Greifswald","address":null,"covered":false,"access":null,"website":null,"phone":null,"source":"OpenStreetMap/node/9917192012","sourceUpdatedAt":null,"verifiedAt":null}},{"type":"Feature","geometry":{"type":"Point","coordinates":[13.3997628,54.075291]},"properties":{"id":"bikerack:97ea1a2b-4bf7-4fef-a6bf-1211fb21e336","kind":"bikerack","longitude":13.3997628,"latitude":54.075291,"name":"Fahrradabstellplatz","city":"Greifswald","address":null,"covered":true,"access":null,"website":null,"phone":null,"source":"OpenStreetMap/node/12766274605","sourceUpdatedAt":null,"verifiedAt":null}},{"type":"Feature","geometry":{"type":"Point","coordinates":[13.3997965,54.0786959]},"properties":{"id":"bikerack:984765c1-4c6c-4d0a-ab79-0716d30015ec","kind":"bikerack","longitude":13.3997965,"latitude":54.0786959,"name":"Fahrradabstellplatz","city":"Greifswald","address":null,"covered":false,"access":null,"website":null,"phone":null,"source":"OpenStreetMap/node/12858528501","sourceUpdatedAt":null,"verifiedAt":null}},{"type":"Feature","geometry":{"type":"Point","coordinates":[13.3973432,54.0839451]},"properties":{"id":"bikerack:9da4ff32-27c2-4d97-8b94-498ab1d9547d","kind":"bikerack","longitude":13.3973432,"latitude":54.0839451,"name":"Fahrradabstellplatz","city":"Greifswald","address":null,"covered":false,"access":null,"website":null,"phone":null,"source":"OpenStreetMap/node/9917886537","sourceUpdatedAt":null,"verifiedAt":null}},{"type":"Feature","geometry":{"type":"Point","coordinates":[13.3999218,54.0778359]},"properties":{"id":"bikerack:9dde33cc-716c-47c9-9d28-36001a2b9577","kind":"bikerack","longitude":13.3999218,"latitude":54.0778359,"name":"Fahrradabstellplatz","city":"Greifswald","address":null,"covered":false,"access":null,"website":null,"phone":null,"source":"OpenStreetMap/node/13591146551","sourceUpdatedAt":null,"verifiedAt":null}},{"type":"Feature","geometry":{"type":"Point","coordinates":[13.401419,54.0837228]},"properties":{"id":"bikerack:a47e0b61-9f83-4f3a-a979-e28ef1c80b31","kind":"bikerack","longitude":13.401419,"latitude":54.0837228,"name":"Fahrradabstellplatz","city":"Greifswald","address":null,"covered":false,"access":null,"website":null,"phone":null,"source":"OpenStreetMap/node/9917180850","sourceUpdatedAt":null,"verifiedAt":null}},{"type":"Feature","geometry":{"type":"Point","coordinates":[13.3973489,54.084211]},"properties":{"id":"bikerack:a528f774-ee18-4254-99ab-21500415f367","kind":"bikerack","longitude":13.3973489,"latitude":54.084211,"name":"Fahrradabstellplatz","city":"Greifswald","address":null,"covered":false,"access":null,"website":null,"phone":null,"source":"OpenStreetMap/node/9917886539","sourceUpdatedAt":null,"verifiedAt":null}},{"type":"Feature","geometry":{"type":"Point","coordinates":[13.3819557,54.0816649]},"properties":{"id":"bikerack:a765ce2e-e755-45b5-9b67-bceb221d0968","kind":"bikerack","longitude":13.3819557,"latitude":54.0816649,"name":"Fahrradabstellplatz","city":"Greifswald","address":null,"covered":false,"access":null,"website":null,"phone":null,"source":"OpenStreetMap/node/3443549926","sourceUpdatedAt":null,"verifiedAt":null}},{"type":"Feature","geometry":{"type":"Point","coordinates":[13.4010931,54.0829612]},"properties":{"id":"bikerack:a7714f9a-d9d1-4786-a44b-8d426658631e","kind":"bikerack","longitude":13.4010931,"latitude":54.0829612,"name":"Fahrradabstellplatz","city":"Greifswald","address":null,"covered":false,"access":null,"website":null,"phone":null,"source":"OpenStreetMap/node/9917148873","sourceUpdatedAt":null,"verifiedAt":null}},{"type":"Feature","geometry":{"type":"Point","coordinates":[13.3974074,54.0847338]},"properties":{"id":"bikerack:af1aa461-29ae-43bd-a5b5-ea7cc480f966","kind":"bikerack","longitude":13.3974074,"latitude":54.0847338,"name":"Fahrradabstellplatz","city":"Greifswald","address":null,"covered":false,"access":null,"website":null,"phone":null,"source":"OpenStreetMap/node/9917886559","sourceUpdatedAt":null,"verifiedAt":null}},{"type":"Feature","geometry":{"type":"Point","coordinates":[13.3980093,54.0766709]},"properties":{"id":"bikerack:b1321c67-2e72-4cf7-9958-4ee255b83ee1","kind":"bikerack","longitude":13.3980093,"latitude":54.0766709,"name":"Fahrradabstellplatz","city":"Greifswald","address":null,"covered":true,"access":null,"website":null,"phone":null,"source":"OpenStreetMap/node/441148415","sourceUpdatedAt":null,"verifiedAt":null}},{"type":"Feature","geometry":{"type":"Point","coordinates":[13.3990428,54.0776406]},"properties":{"id":"bikerack:b87790d2-5277-4921-bbb6-ebbff0d2ad07","kind":"bikerack","longitude":13.3990428,"latitude":54.0776406,"name":"Fahrradabstellplatz","city":"Greifswald","address":null,"covered":true,"access":null,"website":null,"phone":null,"source":"OpenStreetMap/way/622333455","sourceUpdatedAt":null,"verifiedAt":null}},{"type":"Feature","geometry":{"type":"Point","coordinates":[13.3974319,54.0836408]},"properties":{"id":"bikerack:b98f9555-1dd4-41aa-b850-30f7704418cd","kind":"bikerack","longitude":13.3974319,"latitude":54.0836408,"name":"Fahrradabstellplatz","city":"Greifswald","address":null,"covered":false,"access":null,"website":null,"phone":null,"source":"OpenStreetMap/node/9917886584","sourceUpdatedAt":null,"verifiedAt":null}},{"type":"Feature","geometry":{"type":"Point","coordinates":[13.4032531,54.0851317]},"properties":{"id":"bikerack:c06ed49c-26dd-42cf-9384-8a329d54e153","kind":"bikerack","longitude":13.4032531,"latitude":54.0851317,"name":"Fahrradabstellplatz","city":"Greifswald","address":null,"covered":true,"access":null,"website":null,"phone":null,"source":"OpenStreetMap/way/1317359764","sourceUpdatedAt":null,"verifiedAt":null}},{"type":"Feature","geometry":{"type":"Point","coordinates":[13.383191,54.0781074]},"properties":{"id":"bikerack:c0c1598c-179b-426a-8086-e386d6aa753a","kind":"bikerack","longitude":13.383191,"latitude":54.0781074,"name":"Fahrradabstellplatz","city":"Greifswald","address":null,"covered":false,"access":null,"website":null,"phone":null,"source":"OpenStreetMap/node/13082594595","sourceUpdatedAt":null,"verifiedAt":null}},{"type":"Feature","geometry":{"type":"Point","coordinates":[13.4003655,54.0805532]},"properties":{"id":"bikerack:c74af7aa-25e9-45f0-8fa5-b89f7f51b0b4","kind":"bikerack","longitude":13.4003655,"latitude":54.0805532,"name":"Fahrradabstellplatz","city":"Greifswald","address":null,"covered":false,"access":null,"website":null,"phone":null,"source":"OpenStreetMap/node/12865373020","sourceUpdatedAt":null,"verifiedAt":null}},{"type":"Feature","geometry":{"type":"Point","coordinates":[13.4022781,54.0774543]},"properties":{"id":"bikerack:cdaf5fa6-e1f5-4f25-ab3c-cd3c24718478","kind":"bikerack","longitude":13.4022781,"latitude":54.0774543,"name":"Fahrradabstellplatz","city":"Greifswald","address":null,"covered":false,"access":null,"website":null,"phone":null,"source":"OpenStreetMap/node/9599656922","sourceUpdatedAt":null,"verifiedAt":null}},{"type":"Feature","geometry":{"type":"Point","coordinates":[13.4006524,54.0778687]},"properties":{"id":"bikerack:cde52f8b-e452-4382-912d-a52df615b019","kind":"bikerack","longitude":13.4006524,"latitude":54.0778687,"name":"Fahrradabstellplatz","city":"Greifswald","address":null,"covered":false,"access":null,"website":null,"phone":null,"source":"OpenStreetMap/node/13591108311","sourceUpdatedAt":null,"verifiedAt":null}},{"type":"Feature","geometry":{"type":"Point","coordinates":[13.4018787,54.0774277]},"properties":{"id":"bikerack:d1ab330e-964a-4e81-8671-ab9d492e1bd8","kind":"bikerack","longitude":13.4018787,"latitude":54.0774277,"name":"Fahrradabstellplatz","city":"Greifswald","address":null,"covered":false,"access":null,"website":null,"phone":null,"source":"OpenStreetMap/node/9599644308","sourceUpdatedAt":null,"verifiedAt":null}},{"type":"Feature","geometry":{"type":"Point","coordinates":[13.4027812,54.0832482]},"properties":{"id":"bikerack:d337575f-b8b4-4627-a29d-7fcbb10ece6e","kind":"bikerack","longitude":13.4027812,"latitude":54.0832482,"name":"Fahrradabstellplatz","city":"Greifswald","address":null,"covered":false,"access":null,"website":null,"phone":null,"source":"OpenStreetMap/node/12178102275","sourceUpdatedAt":null,"verifiedAt":null}},{"type":"Feature","geometry":{"type":"Point","coordinates":[13.3981512,54.0836635]},"properties":{"id":"bikerack:d557af6b-fda9-42d6-82d5-969dc2f964d3","kind":"bikerack","longitude":13.3981512,"latitude":54.0836635,"name":"Fahrradabstellplatz","city":"Greifswald","address":null,"covered":false,"access":null,"website":null,"phone":null,"source":"OpenStreetMap/node/9917886581","sourceUpdatedAt":null,"verifiedAt":null}},{"type":"Feature","geometry":{"type":"Point","coordinates":[13.4009733,54.0832964]},"properties":{"id":"bikerack:d6587acf-c737-4b8e-9eb0-04efaaaa958e","kind":"bikerack","longitude":13.4009733,"latitude":54.0832964,"name":"Fahrradabstellplatz","city":"Greifswald","address":null,"covered":false,"access":null,"website":null,"phone":null,"source":"OpenStreetMap/node/9917115216","sourceUpdatedAt":null,"verifiedAt":null}},{"type":"Feature","geometry":{"type":"Point","coordinates":[13.3974222,54.0849906]},"properties":{"id":"bikerack:e5f567e5-5ae4-4f5f-80e2-cdc160b18b67","kind":"bikerack","longitude":13.3974222,"latitude":54.0849906,"name":"Fahrradabstellplatz","city":"Greifswald","address":null,"covered":false,"access":null,"website":null,"phone":null,"source":"OpenStreetMap/node/9917886561","sourceUpdatedAt":null,"verifiedAt":null}},{"type":"Feature","geometry":{"type":"Point","coordinates":[13.3995578,54.0778043]},"properties":{"id":"bikerack:e6222f9f-ba84-4c70-abf6-88db151d90b1","kind":"bikerack","longitude":13.3995578,"latitude":54.0778043,"name":"Fahrradabstellplatz","city":"Greifswald","address":null,"covered":false,"access":null,"website":null,"phone":null,"source":"OpenStreetMap/node/13591104040","sourceUpdatedAt":null,"verifiedAt":null}},{"type":"Feature","geometry":{"type":"Point","coordinates":[13.4033011,54.0830629]},"properties":{"id":"bikerack:e76cbb69-de19-485d-8a42-f63433771ef4","kind":"bikerack","longitude":13.4033011,"latitude":54.0830629,"name":"Fahrradabstellplatz","city":"Greifswald","address":null,"covered":true,"access":null,"website":null,"phone":null,"source":"OpenStreetMap/way/1138071656","sourceUpdatedAt":null,"verifiedAt":null}},{"type":"Feature","geometry":{"type":"Point","coordinates":[13.3979126,54.0836577]},"properties":{"id":"bikerack:eb4f2315-7b8f-447d-9d18-2642dfca21b1","kind":"bikerack","longitude":13.3979126,"latitude":54.0836577,"name":"Fahrradabstellplatz","city":"Greifswald","address":null,"covered":false,"access":null,"website":null,"phone":null,"source":"OpenStreetMap/node/9917886582","sourceUpdatedAt":null,"verifiedAt":null}},{"type":"Feature","geometry":{"type":"Point","coordinates":[13.3996223,54.0790034]},"properties":{"id":"bikerack:ed4c1ce8-a2d8-4347-b0da-88111f02a6dd","kind":"bikerack","longitude":13.3996223,"latitude":54.0790034,"name":"Fahrradabstellplatz","city":"Greifswald","address":null,"covered":false,"access":null,"website":null,"phone":null,"source":"OpenStreetMap/node/12858529703","sourceUpdatedAt":null,"verifiedAt":null}},{"type":"Feature","geometry":{"type":"Point","coordinates":[13.3973465,54.084165]},"properties":{"id":"bikerack:ef7b1372-53a5-4154-a1e5-912fd89b99dc","kind":"bikerack","longitude":13.3973465,"latitude":54.084165,"name":"Fahrradabstellplatz","city":"Greifswald","address":null,"covered":false,"access":null,"website":null,"phone":null,"source":"OpenStreetMap/node/12952402625","sourceUpdatedAt":null,"verifiedAt":null}},{"type":"Feature","geometry":{"type":"Point","coordinates":[13.3976777,54.0836487]},"properties":{"id":"bikerack:f0d1de0c-cbf1-4776-a180-caec4abf2ec6","kind":"bikerack","longitude":13.3976777,"latitude":54.0836487,"name":"Fahrradabstellplatz","city":"Greifswald","address":null,"covered":false,"access":null,"website":null,"phone":null,"source":"OpenStreetMap/node/9917886583","sourceUpdatedAt":null,"verifiedAt":null}},{"type":"Feature","geometry":{"type":"Point","coordinates":[13.397473,54.0851225]},"properties":{"id":"bikerack:f2afacb0-ab4c-40ad-b72e-4a5f303a5706","kind":"bikerack","longitude":13.397473,"latitude":54.0851225,"name":"Fahrradabstellplatz","city":"Greifswald","address":null,"covered":false,"access":null,"website":null,"phone":null,"source":"OpenStreetMap/node/9917886562","sourceUpdatedAt":null,"verifiedAt":null}},{"type":"Feature","geometry":{"type":"Point","coordinates":[13.4028372,54.0772282]},"properties":{"id":"bikerack:f8cfeba3-bdc6-40ce-a8c1-5429c1de4617","kind":"bikerack","longitude":13.4028372,"latitude":54.0772282,"name":"Fahrradabstellplatz","city":"Greifswald","address":null,"covered":false,"access":null,"website":null,"phone":null,"source":"OpenStreetMap/node/9917069994","sourceUpdatedAt":null,"verifiedAt":null}},{"type":"Feature","geometry":{"type":"Point","coordinates":[13.3974094,54.0846065]},"properties":{"id":"bikerack:f93aa385-55dd-46bc-8384-193a828b7677","kind":"bikerack","longitude":13.3974094,"latitude":54.0846065,"name":"Fahrradabstellplatz","city":"Greifswald","address":null,"covered":false,"access":null,"website":null,"phone":null,"source":"OpenStreetMap/node/9917886558","sourceUpdatedAt":null,"verifiedAt":null}},{"type":"Feature","geometry":{"type":"Point","coordinates":[13.4024538,54.0813222]},"properties":{"id":"bikerack:fa9b3d93-1dfe-4085-96db-12aed7d1c6bd","kind":"bikerack","longitude":13.4024538,"latitude":54.0813222,"name":"Fahrradabstellplatz","city":"Greifswald","address":null,"covered":false,"access":null,"website":null,"phone":null,"source":"OpenStreetMap/node/9917137941","sourceUpdatedAt":null,"verifiedAt":null}},{"type":"Feature","geometry":{"type":"Point","coordinates":[13.3996477,54.0850019]},"properties":{"id":"bikerack:fb367c1c-8ab0-46cb-8fa4-0ac56825903e","kind":"bikerack","longitude":13.3996477,"latitude":54.0850019,"name":"Fahrradabstellplatz","city":"Greifswald","address":null,"covered":false,"access":null,"website":null,"phone":null,"source":"OpenStreetMap/node/12181000903","sourceUpdatedAt":null,"verifiedAt":null}},{"type":"Feature","geometry":{"type":"Point","coordinates":[13.3855104,54.0700855]},"properties":{"id":"service:07501178-724a-46d7-814d-d332baab6504","kind":"service","longitude":13.3855104,"latitude":54.0700855,"name":"Greifenwerkstatt","city":"Greifswald","address":null,"covered":null,"access":null,"website":null,"phone":null,"source":"OpenStreetMap/node/4264568995","sourceUpdatedAt":null,"verifiedAt":null}}]}