{"type":"FeatureCollection","features":[{"type":"Feature","geometry":{"type":"Point","coordinates":[22.1695282,53.9248227]},"properties":{"id":"bikerack:7d4aba99-2939-4c67-bbb7-a26337ce14db","kind":"bikerack","longitude":22.1695282,"latitude":53.9248227,"name":"Biciklitároló","city":"Stare Juchy","address":null,"covered":false,"access":null,"website":null,"phone":null,"source":"OpenStreetMap/way/1340761485","sourceUpdatedAt":null,"verifiedAt":null}},{"type":"Feature","geometry":{"type":"Point","coordinates":[22.1723278,53.9215726]},"properties":{"id":"water:6082bd95-38f3-47d2-a874-f4db0df59a93","kind":"water","longitude":22.1723278,"latitude":53.9215726,"name":"Ivókút","city":"Stare Juchy","address":null,"covered":null,"access":null,"website":null,"phone":null,"source":"OpenStreetMap/node/4211359958","sourceUpdatedAt":null,"verifiedAt":null}}]}