{"type":"FeatureCollection","features":[{"type":"Feature","geometry":{"type":"Point","coordinates":[22.1567688,50.3739315]},"properties":{"id":"bikerack:3528ef9c-b807-45fd-897d-03477591f461","kind":"bikerack","longitude":22.1567688,"latitude":50.3739315,"name":"Biciklitároló","city":"Jezowe","address":null,"covered":false,"access":null,"website":null,"phone":null,"source":"OpenStreetMap/node/12972974601","sourceUpdatedAt":null,"verifiedAt":null}},{"type":"Feature","geometry":{"type":"Point","coordinates":[22.1553086,50.3737979]},"properties":{"id":"bikerack:40abff43-7759-4149-8109-6c09f0887dc7","kind":"bikerack","longitude":22.1553086,"latitude":50.3737979,"name":"Biciklitároló","city":"Jezowe","address":null,"covered":false,"access":null,"website":null,"phone":null,"source":"OpenStreetMap/node/12645678918","sourceUpdatedAt":null,"verifiedAt":null}},{"type":"Feature","geometry":{"type":"Point","coordinates":[22.155424,50.3737743]},"properties":{"id":"bikerack:5c1db144-faa5-4331-af3c-70d4a136785b","kind":"bikerack","longitude":22.155424,"latitude":50.3737743,"name":"Biciklitároló","city":"Jezowe","address":null,"covered":false,"access":null,"website":null,"phone":null,"source":"OpenStreetMap/node/12645678917","sourceUpdatedAt":null,"verifiedAt":null}},{"type":"Feature","geometry":{"type":"Point","coordinates":[22.1502962,50.3740719]},"properties":{"id":"service:08205248-b526-4f26-92ed-b2be06634bb2","kind":"service","longitude":22.1502962,"latitude":50.3740719,"name":"Rowerowo","city":"Jezowe","address":null,"covered":null,"access":null,"website":null,"phone":null,"source":"OpenStreetMap/node/13119333882","sourceUpdatedAt":null,"verifiedAt":null}},{"type":"Feature","geometry":{"type":"Point","coordinates":[22.160334,50.3753526]},"properties":{"id":"water:906836e9-c2df-4b2b-ba62-60df37ce1634","kind":"water","longitude":22.160334,"latitude":50.3753526,"name":"Ivókút","city":"Jezowe","address":null,"covered":null,"access":null,"website":null,"phone":null,"source":"OpenStreetMap/node/13119574896","sourceUpdatedAt":null,"verifiedAt":null}},{"type":"Feature","geometry":{"type":"Point","coordinates":[22.1604782,50.3763931]},"properties":{"id":"water:d6c0d199-b110-487c-9eac-235bf10656f3","kind":"water","longitude":22.1604782,"latitude":50.3763931,"name":"Ivókút","city":"Jezowe","address":null,"covered":null,"access":null,"website":null,"phone":null,"source":"OpenStreetMap/node/1796452270","sourceUpdatedAt":null,"verifiedAt":null}}]}