{"type":"FeatureCollection","features":[{"type":"Feature","geometry":{"type":"Point","coordinates":[9.7493078,53.184957]},"properties":{"id":"bikerack:4de5e0fd-edeb-4709-a64b-9d251d167337","kind":"bikerack","longitude":9.7493078,"latitude":53.184957,"name":"Fahrradabstellplatz","city":"Otter","address":null,"covered":false,"access":null,"website":null,"phone":null,"source":"OpenStreetMap/node/12352455308","sourceUpdatedAt":null,"verifiedAt":null}},{"type":"Feature","geometry":{"type":"Point","coordinates":[9.7493261,53.1849748]},"properties":{"id":"repair:7e1edb02-79c3-4261-b12b-d07701adf693","kind":"repair","longitude":9.7493261,"latitude":53.1849748,"name":"Naturpark Rad-Servicestation","city":"Otter","address":null,"covered":false,"access":null,"website":null,"phone":null,"source":"OpenStreetMap/node/12352455309","sourceUpdatedAt":null,"verifiedAt":null}}]}