{"type":"FeatureCollection","features":[{"type":"Feature","geometry":{"type":"Point","coordinates":[9.746721,52.1207713]},"properties":{"id":"bikerack:2100c5cc-1b63-48b7-a34b-587eaeed6ecf","kind":"bikerack","longitude":9.746721,"latitude":52.1207713,"name":"Bahnhofstraße – Fahrradabstellplatz","city":"Elze","address":null,"covered":true,"access":null,"website":null,"phone":null,"source":"OpenStreetMap/way/1221115876","sourceUpdatedAt":null,"verifiedAt":null}},{"type":"Feature","geometry":{"type":"Point","coordinates":[9.7311387,52.1165597]},"properties":{"id":"bikerack:39c3d16f-0143-4acb-8081-490286d782db","kind":"bikerack","longitude":9.7311387,"latitude":52.1165597,"name":"Fahrradabstellplatz","city":"Elze","address":null,"covered":false,"access":null,"website":null,"phone":null,"source":"OpenStreetMap/node/11305265938","sourceUpdatedAt":null,"verifiedAt":null}},{"type":"Feature","geometry":{"type":"Point","coordinates":[9.736265,52.1210753]},"properties":{"id":"bikerack:53462ff6-7422-44a8-af65-3f3a810a0269","kind":"bikerack","longitude":9.736265,"latitude":52.1210753,"name":"Fahrradabstellplatz","city":"Elze","address":null,"covered":false,"access":null,"website":null,"phone":null,"source":"OpenStreetMap/node/11293327826","sourceUpdatedAt":null,"verifiedAt":null}},{"type":"Feature","geometry":{"type":"Point","coordinates":[9.7259541,52.1210831]},"properties":{"id":"bikerack:7e86e1a6-86b4-462e-a181-a5aaeec0bc2d","kind":"bikerack","longitude":9.7259541,"latitude":52.1210831,"name":"Fahrradabstellplatz","city":"Elze","address":null,"covered":false,"access":null,"website":null,"phone":null,"source":"OpenStreetMap/node/12140676965","sourceUpdatedAt":null,"verifiedAt":null}},{"type":"Feature","geometry":{"type":"Point","coordinates":[9.7363979,52.1192343]},"properties":{"id":"bikerack:93d17456-7e66-49dd-9384-9952169581fc","kind":"bikerack","longitude":9.7363979,"latitude":52.1192343,"name":"Fahrradabstellplatz","city":"Elze","address":null,"covered":false,"access":null,"website":null,"phone":null,"source":"OpenStreetMap/node/12051833065","sourceUpdatedAt":null,"verifiedAt":null}},{"type":"Feature","geometry":{"type":"Point","coordinates":[9.7359336,52.1201636]},"properties":{"id":"bikerack:a5db51f2-abac-4586-bf5d-a00e6c1949d3","kind":"bikerack","longitude":9.7359336,"latitude":52.1201636,"name":"Fahrradabstellplatz","city":"Elze","address":null,"covered":false,"access":null,"website":null,"phone":null,"source":"OpenStreetMap/node/12051845451","sourceUpdatedAt":null,"verifiedAt":null}},{"type":"Feature","geometry":{"type":"Point","coordinates":[9.7354773,52.1196314]},"properties":{"id":"bikerack:c7d4f5ae-4a3e-4406-ab42-d213b18c4ff8","kind":"bikerack","longitude":9.7354773,"latitude":52.1196314,"name":"Fahrradabstellplatz","city":"Elze","address":null,"covered":false,"access":null,"website":null,"phone":null,"source":"OpenStreetMap/node/12190211462","sourceUpdatedAt":null,"verifiedAt":null}},{"type":"Feature","geometry":{"type":"Point","coordinates":[9.7354035,52.1196182]},"properties":{"id":"bikerack:c7e83a6c-ad33-439b-a6bc-61d95cbb07d1","kind":"bikerack","longitude":9.7354035,"latitude":52.1196182,"name":"Fahrradabstellplatz","city":"Elze","address":null,"covered":false,"access":null,"website":null,"phone":null,"source":"OpenStreetMap/node/12190211463","sourceUpdatedAt":null,"verifiedAt":null}},{"type":"Feature","geometry":{"type":"Point","coordinates":[9.7366625,52.119181]},"properties":{"id":"bikerack:d1e93dcd-80e8-4cc1-8241-b174c59cd495","kind":"bikerack","longitude":9.7366625,"latitude":52.119181,"name":"Fahrradabstellplatz","city":"Elze","address":null,"covered":false,"access":null,"website":null,"phone":null,"source":"OpenStreetMap/node/12051833064","sourceUpdatedAt":null,"verifiedAt":null}},{"type":"Feature","geometry":{"type":"Point","coordinates":[9.7287097,52.1220455]},"properties":{"id":"bikerack:dc8e5931-2c06-49ad-817e-a8518c387927","kind":"bikerack","longitude":9.7287097,"latitude":52.1220455,"name":"Fahrradabstellplatz","city":"Elze","address":null,"covered":false,"access":null,"website":null,"phone":null,"source":"OpenStreetMap/node/12140751391","sourceUpdatedAt":null,"verifiedAt":null}},{"type":"Feature","geometry":{"type":"Point","coordinates":[9.7311294,52.1121336]},"properties":{"id":"bikerack:e50bd886-bbab-4b12-a944-df06afc382f5","kind":"bikerack","longitude":9.7311294,"latitude":52.1121336,"name":"Fahrradabstellplatz","city":"Elze","address":null,"covered":false,"access":null,"website":null,"phone":null,"source":"OpenStreetMap/node/12148169906","sourceUpdatedAt":null,"verifiedAt":null}}]}