{"type":"FeatureCollection","features":[{"type":"Feature","geometry":{"type":"Point","coordinates":[9.7542907,50.6625467]},"properties":{"id":"bikerack:2b085794-b5a2-471f-87b5-fe840c1a43ee","kind":"bikerack","longitude":9.7542907,"latitude":50.6625467,"name":"Fahrradabstellplatz","city":"Hunfeld","address":null,"covered":false,"access":null,"website":null,"phone":null,"source":"OpenStreetMap/node/10112346509","sourceUpdatedAt":null,"verifiedAt":null}},{"type":"Feature","geometry":{"type":"Point","coordinates":[9.7241151,50.6548817]},"properties":{"id":"bikerack:4505672b-5b07-4f4a-ba4a-49d618fb8932","kind":"bikerack","longitude":9.7241151,"latitude":50.6548817,"name":"Fahrradabstellplatz","city":"Burghaun","address":null,"covered":false,"access":null,"website":null,"phone":null,"source":"OpenStreetMap/node/12997885114","sourceUpdatedAt":null,"verifiedAt":null}},{"type":"Feature","geometry":{"type":"Point","coordinates":[9.7479231,50.6634429]},"properties":{"id":"repair:738b3bae-86c4-40f5-84dc-d9d2a77a44a2","kind":"repair","longitude":9.7479231,"latitude":50.6634429,"name":"Fahrradreparaturstation","city":"Hunfeld","address":null,"covered":false,"access":null,"website":null,"phone":null,"source":"OpenStreetMap/node/13269663259","sourceUpdatedAt":null,"verifiedAt":null}}]}