{"type":"FeatureCollection","features":[{"type":"Feature","geometry":{"type":"Point","coordinates":[9.7457662,47.5018568]},"properties":{"id":"bikerack:02996101-a39e-4be1-8261-3a20586e5163","kind":"bikerack","longitude":9.7457662,"latitude":47.5018568,"name":"Biciklitároló","city":"Bregenz","address":null,"covered":false,"access":null,"website":null,"phone":null,"source":"OpenStreetMap/node/11281526605","sourceUpdatedAt":null,"verifiedAt":null}},{"type":"Feature","geometry":{"type":"Point","coordinates":[9.7470915,47.500462]},"properties":{"id":"bikerack:036760e5-a4c2-458d-b284-c810b1fcc206","kind":"bikerack","longitude":9.7470915,"latitude":47.500462,"name":"Biciklitároló","city":"Bregenz","address":null,"covered":false,"access":null,"website":null,"phone":null,"source":"OpenStreetMap/node/13165968085","sourceUpdatedAt":null,"verifiedAt":null}},{"type":"Feature","geometry":{"type":"Point","coordinates":[9.7204013,47.5030047]},"properties":{"id":"bikerack:05b36b48-374c-4547-88f5-a206539a5113","kind":"bikerack","longitude":9.7204013,"latitude":47.5030047,"name":"Biciklitároló","city":"Lauterach","address":null,"covered":false,"access":null,"website":null,"phone":null,"source":"OpenStreetMap/way/1099889161","sourceUpdatedAt":null,"verifiedAt":null}},{"type":"Feature","geometry":{"type":"Point","coordinates":[9.746792,47.5022943]},"properties":{"id":"bikerack:072061fd-13dd-4f74-9150-933ad35930a7","kind":"bikerack","longitude":9.746792,"latitude":47.5022943,"name":"GWL","city":"Bregenz","address":null,"covered":true,"access":null,"website":null,"phone":null,"source":"OpenStreetMap/node/824676378","sourceUpdatedAt":null,"verifiedAt":null}},{"type":"Feature","geometry":{"type":"Point","coordinates":[9.7410316,47.499042]},"properties":{"id":"bikerack:08dc8140-f14a-4b35-9b20-cc954fef099d","kind":"bikerack","longitude":9.7410316,"latitude":47.499042,"name":"Biciklitároló","city":"Bregenz","address":null,"covered":false,"access":null,"website":null,"phone":null,"source":"OpenStreetMap/way/1413079225","sourceUpdatedAt":null,"verifiedAt":null}},{"type":"Feature","geometry":{"type":"Point","coordinates":[9.718953,47.5033503]},"properties":{"id":"bikerack:0d4735fa-6bae-44ed-9d69-1d7d3909f4a1","kind":"bikerack","longitude":9.718953,"latitude":47.5033503,"name":"Biciklitároló","city":"Lauterach","address":null,"covered":true,"access":null,"website":null,"phone":null,"source":"OpenStreetMap/way/829395414","sourceUpdatedAt":null,"verifiedAt":null}},{"type":"Feature","geometry":{"type":"Point","coordinates":[9.7153274,47.4944358]},"properties":{"id":"bikerack:13ef843b-76a1-42c6-bf14-a848e1ba8f39","kind":"bikerack","longitude":9.7153274,"latitude":47.4944358,"name":"Biciklitároló","city":"Lauterach","address":null,"covered":false,"access":null,"website":null,"phone":null,"source":"OpenStreetMap/way/1111870836","sourceUpdatedAt":null,"verifiedAt":null}},{"type":"Feature","geometry":{"type":"Point","coordinates":[9.7214822,47.4939362]},"properties":{"id":"bikerack:1423a13c-6946-49af-94af-6d2c70ec7bb2","kind":"bikerack","longitude":9.7214822,"latitude":47.4939362,"name":"Biciklitároló","city":"Lauterach","address":null,"covered":true,"access":null,"website":null,"phone":null,"source":"OpenStreetMap/way/543530207","sourceUpdatedAt":null,"verifiedAt":null}},{"type":"Feature","geometry":{"type":"Point","coordinates":[9.7362728,47.4875297]},"properties":{"id":"bikerack:1434d35c-44e0-4729-b286-4b5cc04ba18c","kind":"bikerack","longitude":9.7362728,"latitude":47.4875297,"name":"Biciklitároló","city":"Lauterach","address":null,"covered":false,"access":null,"website":null,"phone":null,"source":"OpenStreetMap/way/1136814676","sourceUpdatedAt":null,"verifiedAt":null}},{"type":"Feature","geometry":{"type":"Point","coordinates":[9.7388122,47.4885781]},"properties":{"id":"bikerack:19888d61-9602-4bdd-8f79-a81eb44f4256","kind":"bikerack","longitude":9.7388122,"latitude":47.4885781,"name":"Biciklitároló","city":"Lauterach","address":null,"covered":true,"access":null,"website":null,"phone":null,"source":"OpenStreetMap/way/938055777","sourceUpdatedAt":null,"verifiedAt":null}},{"type":"Feature","geometry":{"type":"Point","coordinates":[9.7364808,47.502517]},"properties":{"id":"bikerack:212db73c-76e9-4d92-a581-1f2264bcc6ee","kind":"bikerack","longitude":9.7364808,"latitude":47.502517,"name":"Biciklitároló","city":"Bregenz","address":null,"covered":false,"access":null,"website":null,"phone":null,"source":"OpenStreetMap/node/11247897184","sourceUpdatedAt":null,"verifiedAt":null}},{"type":"Feature","geometry":{"type":"Point","coordinates":[9.7485683,47.5022736]},"properties":{"id":"bikerack:310b7e9f-35a0-431d-b7ce-3c7a92dacf84","kind":"bikerack","longitude":9.7485683,"latitude":47.5022736,"name":"Biciklitároló","city":"Bregenz","address":null,"covered":false,"access":null,"website":null,"phone":null,"source":"OpenStreetMap/way/1063929080","sourceUpdatedAt":null,"verifiedAt":null}},{"type":"Feature","geometry":{"type":"Point","coordinates":[9.7445841,47.4967609]},"properties":{"id":"bikerack:31e77093-7005-408a-9688-7ff20c3b5557","kind":"bikerack","longitude":9.7445841,"latitude":47.4967609,"name":"Biciklitároló","city":"Bregenz","address":null,"covered":true,"access":null,"website":null,"phone":null,"source":"OpenStreetMap/way/544322560","sourceUpdatedAt":null,"verifiedAt":null}},{"type":"Feature","geometry":{"type":"Point","coordinates":[9.7475171,47.5030079]},"properties":{"id":"bikerack:3afb4df7-6c2a-46ee-80d8-4b93a245bd0c","kind":"bikerack","longitude":9.7475171,"latitude":47.5030079,"name":"Biciklitároló","city":"Bregenz","address":null,"covered":false,"access":null,"website":null,"phone":null,"source":"OpenStreetMap/node/820251386","sourceUpdatedAt":null,"verifiedAt":null}},{"type":"Feature","geometry":{"type":"Point","coordinates":[9.7215585,47.4939477]},"properties":{"id":"bikerack:3c2b570c-1ace-41c8-b33e-6d28034b1cf9","kind":"bikerack","longitude":9.7215585,"latitude":47.4939477,"name":"Biciklitároló","city":"Lauterach","address":null,"covered":true,"access":null,"website":null,"phone":null,"source":"OpenStreetMap/way/543530210","sourceUpdatedAt":null,"verifiedAt":null}},{"type":"Feature","geometry":{"type":"Point","coordinates":[9.7252155,47.4915952]},"properties":{"id":"bikerack:434e17a5-392f-48f3-ad22-28267037a789","kind":"bikerack","longitude":9.7252155,"latitude":47.4915952,"name":"Biciklitároló","city":"Lauterach","address":null,"covered":false,"access":null,"website":null,"phone":null,"source":"OpenStreetMap/node/13565045152","sourceUpdatedAt":null,"verifiedAt":null}},{"type":"Feature","geometry":{"type":"Point","coordinates":[9.7363751,47.5044729]},"properties":{"id":"bikerack:473dbb7d-6295-4dbe-8f48-151934a219a0","kind":"bikerack","longitude":9.7363751,"latitude":47.5044729,"name":"Biciklitároló","city":"Bregenz","address":null,"covered":false,"access":null,"website":null,"phone":null,"source":"OpenStreetMap/node/11383626341","sourceUpdatedAt":null,"verifiedAt":null}},{"type":"Feature","geometry":{"type":"Point","coordinates":[9.747264,47.5000877]},"properties":{"id":"bikerack:5585554a-c288-41e2-b004-d34501923d64","kind":"bikerack","longitude":9.747264,"latitude":47.5000877,"name":"Biciklitároló","city":"Bregenz","address":null,"covered":false,"access":null,"website":null,"phone":null,"source":"OpenStreetMap/node/13165998801","sourceUpdatedAt":null,"verifiedAt":null}},{"type":"Feature","geometry":{"type":"Point","coordinates":[9.7404338,47.5028124]},"properties":{"id":"bikerack:643369f7-95c0-48de-88d8-f17a3aef4176","kind":"bikerack","longitude":9.7404338,"latitude":47.5028124,"name":"Biciklitároló","city":"Bregenz","address":null,"covered":true,"access":null,"website":null,"phone":null,"source":"OpenStreetMap/node/2461986735","sourceUpdatedAt":null,"verifiedAt":null}},{"type":"Feature","geometry":{"type":"Point","coordinates":[9.7386348,47.488424]},"properties":{"id":"bikerack:6b8ec3bf-2877-4bb6-98ad-b52edb602262","kind":"bikerack","longitude":9.7386348,"latitude":47.488424,"name":"Biciklitároló","city":"Lauterach","address":null,"covered":true,"access":null,"website":null,"phone":null,"source":"OpenStreetMap/way/160020090","sourceUpdatedAt":null,"verifiedAt":null}},{"type":"Feature","geometry":{"type":"Point","coordinates":[9.7492181,47.5061603]},"properties":{"id":"bikerack:722aabab-7e97-4a99-93ab-52572ef95a1a","kind":"bikerack","longitude":9.7492181,"latitude":47.5061603,"name":"Biciklitároló","city":"Bregenz","address":null,"covered":false,"access":null,"website":null,"phone":null,"source":"OpenStreetMap/node/5338597648","sourceUpdatedAt":null,"verifiedAt":null}},{"type":"Feature","geometry":{"type":"Point","coordinates":[9.7449002,47.4938379]},"properties":{"id":"bikerack:722f0331-36d6-44e2-bb6b-ff45836d7e9c","kind":"bikerack","longitude":9.7449002,"latitude":47.4938379,"name":"Biciklitároló","city":"Bregenz","address":null,"covered":true,"access":null,"website":null,"phone":null,"source":"OpenStreetMap/node/2642312238","sourceUpdatedAt":null,"verifiedAt":null}},{"type":"Feature","geometry":{"type":"Point","coordinates":[9.7477441,47.5048331]},"properties":{"id":"bikerack:7b4811f0-e44c-46dd-9728-e617720e8405","kind":"bikerack","longitude":9.7477441,"latitude":47.5048331,"name":"Biciklitároló","city":"Bregenz","address":null,"covered":false,"access":null,"website":null,"phone":null,"source":"OpenStreetMap/node/11259256291","sourceUpdatedAt":null,"verifiedAt":null}},{"type":"Feature","geometry":{"type":"Point","coordinates":[9.7435826,47.5044838]},"properties":{"id":"bikerack:8232d810-419f-4aa9-9b93-e59a52d3b86f","kind":"bikerack","longitude":9.7435826,"latitude":47.5044838,"name":"Biciklitároló","city":"Bregenz","address":null,"covered":true,"access":null,"website":null,"phone":null,"source":"OpenStreetMap/node/12471241526","sourceUpdatedAt":null,"verifiedAt":null}},{"type":"Feature","geometry":{"type":"Point","coordinates":[9.7497828,47.507357]},"properties":{"id":"bikerack:855ef045-783c-4071-b078-054e9ce55342","kind":"bikerack","longitude":9.7497828,"latitude":47.507357,"name":"Biciklitároló","city":"Bregenz","address":null,"covered":false,"access":null,"website":null,"phone":null,"source":"OpenStreetMap/way/672649383","sourceUpdatedAt":null,"verifiedAt":null}},{"type":"Feature","geometry":{"type":"Point","coordinates":[9.7394994,47.5035304]},"properties":{"id":"bikerack:898e4685-af81-489a-9dc9-61daedcc29b6","kind":"bikerack","longitude":9.7394994,"latitude":47.5035304,"name":"Biciklitároló","city":"Bregenz","address":null,"covered":true,"access":null,"website":null,"phone":null,"source":"OpenStreetMap/node/841468839","sourceUpdatedAt":null,"verifiedAt":null}},{"type":"Feature","geometry":{"type":"Point","coordinates":[9.7501272,47.4997678]},"properties":{"id":"bikerack:8cd294f8-8f2b-4e1c-a9c5-95e1dbd5ec9e","kind":"bikerack","longitude":9.7501272,"latitude":47.4997678,"name":"Biciklitároló","city":"Bregenz","address":null,"covered":false,"access":null,"website":null,"phone":null,"source":"OpenStreetMap/node/9771966567","sourceUpdatedAt":null,"verifiedAt":null}},{"type":"Feature","geometry":{"type":"Point","coordinates":[9.745607,47.5018004]},"properties":{"id":"bikerack:8e6f8b55-6066-47bc-a39b-07532d3cb0f8","kind":"bikerack","longitude":9.745607,"latitude":47.5018004,"name":"Biciklitároló","city":"Bregenz","address":null,"covered":false,"access":null,"website":null,"phone":null,"source":"OpenStreetMap/node/11281526607","sourceUpdatedAt":null,"verifiedAt":null}},{"type":"Feature","geometry":{"type":"Point","coordinates":[9.7247827,47.4926183]},"properties":{"id":"bikerack:8f184956-a25b-4618-a3cd-90b50467ce08","kind":"bikerack","longitude":9.7247827,"latitude":47.4926183,"name":"Biciklitároló","city":"Lauterach","address":null,"covered":true,"access":null,"website":null,"phone":null,"source":"OpenStreetMap/way/1167894687","sourceUpdatedAt":null,"verifiedAt":null}},{"type":"Feature","geometry":{"type":"Point","coordinates":[9.7251996,47.491717]},"properties":{"id":"bikerack:8fa2f638-2046-45ba-9ac2-7166c07fc424","kind":"bikerack","longitude":9.7251996,"latitude":47.491717,"name":"Biciklitároló","city":"Lauterach","address":null,"covered":false,"access":null,"website":null,"phone":null,"source":"OpenStreetMap/node/13565251655","sourceUpdatedAt":null,"verifiedAt":null}},{"type":"Feature","geometry":{"type":"Point","coordinates":[9.7527253,47.5049947]},"properties":{"id":"bikerack:91058b0f-32d5-4f98-b174-f5a3ee80dfa0","kind":"bikerack","longitude":9.7527253,"latitude":47.5049947,"name":"Biciklitároló","city":"Bregenz","address":null,"covered":true,"access":null,"website":null,"phone":null,"source":"OpenStreetMap/node/1790755048","sourceUpdatedAt":null,"verifiedAt":null}},{"type":"Feature","geometry":{"type":"Point","coordinates":[9.7445748,47.5031082]},"properties":{"id":"bikerack:927bec28-58b3-4827-a339-2b6aa804d42e","kind":"bikerack","longitude":9.7445748,"latitude":47.5031082,"name":"Biciklitároló","city":"Bregenz","address":null,"covered":false,"access":null,"website":null,"phone":null,"source":"OpenStreetMap/way/1432344358","sourceUpdatedAt":null,"verifiedAt":null}},{"type":"Feature","geometry":{"type":"Point","coordinates":[9.7367419,47.5042198]},"properties":{"id":"bikerack:956f4d80-0ad0-4a31-b2a3-d8bf18bfe888","kind":"bikerack","longitude":9.7367419,"latitude":47.5042198,"name":"Biciklitároló","city":"Bregenz","address":null,"covered":false,"access":null,"website":null,"phone":null,"source":"OpenStreetMap/way/798771386","sourceUpdatedAt":null,"verifiedAt":null}},{"type":"Feature","geometry":{"type":"Point","coordinates":[9.7324002,47.5050853]},"properties":{"id":"bikerack:9a4e2dab-0b1e-4473-b81d-312b304ef15e","kind":"bikerack","longitude":9.7324002,"latitude":47.5050853,"name":"Seeparkplatz","city":"Bregenz","address":null,"covered":false,"access":null,"website":null,"phone":null,"source":"OpenStreetMap/way/403153703","sourceUpdatedAt":null,"verifiedAt":null}},{"type":"Feature","geometry":{"type":"Point","coordinates":[9.7157897,47.4927378]},"properties":{"id":"bikerack:a130e327-cf86-47db-bcbc-4f98595e77dc","kind":"bikerack","longitude":9.7157897,"latitude":47.4927378,"name":"Biciklitároló","city":"Lauterach","address":null,"covered":false,"access":null,"website":null,"phone":null,"source":"OpenStreetMap/way/414097370","sourceUpdatedAt":null,"verifiedAt":null}},{"type":"Feature","geometry":{"type":"Point","coordinates":[9.7533561,47.51307]},"properties":{"id":"bikerack:a1b57d9f-2cb6-4fd5-9a9a-98fb72c32ac4","kind":"bikerack","longitude":9.7533561,"latitude":47.51307,"name":"Biciklitároló","city":"Bregenz","address":null,"covered":false,"access":null,"website":null,"phone":null,"source":"OpenStreetMap/way/1380859978","sourceUpdatedAt":null,"verifiedAt":null}},{"type":"Feature","geometry":{"type":"Point","coordinates":[9.7446152,47.5035986]},"properties":{"id":"bikerack:ab3109ee-d82b-4b26-bd4a-393095ae7bcb","kind":"bikerack","longitude":9.7446152,"latitude":47.5035986,"name":"Biciklitároló","city":"Bregenz","address":null,"covered":false,"access":null,"website":null,"phone":null,"source":"OpenStreetMap/node/11738919741","sourceUpdatedAt":null,"verifiedAt":null}},{"type":"Feature","geometry":{"type":"Point","coordinates":[9.7452134,47.5004333]},"properties":{"id":"bikerack:ad6278a9-5582-4605-81db-a98a37a60d8e","kind":"bikerack","longitude":9.7452134,"latitude":47.5004333,"name":"Biciklitároló","city":"Bregenz","address":null,"covered":true,"access":null,"website":null,"phone":null,"source":"OpenStreetMap/way/1043680797","sourceUpdatedAt":null,"verifiedAt":null}},{"type":"Feature","geometry":{"type":"Point","coordinates":[9.7405946,47.501228]},"properties":{"id":"bikerack:b2a0a505-75d4-4ddc-8cb2-e0b8faca6069","kind":"bikerack","longitude":9.7405946,"latitude":47.501228,"name":"Biciklitároló","city":"Bregenz","address":null,"covered":false,"access":null,"website":null,"phone":null,"source":"OpenStreetMap/node/13700618895","sourceUpdatedAt":null,"verifiedAt":null}},{"type":"Feature","geometry":{"type":"Point","coordinates":[9.745694,47.5050699]},"properties":{"id":"bikerack:b77ddf0b-5656-4116-b57d-ec5e171c7651","kind":"bikerack","longitude":9.745694,"latitude":47.5050699,"name":"Biciklitároló","city":"Bregenz","address":null,"covered":false,"access":null,"website":null,"phone":null,"source":"OpenStreetMap/node/841468833","sourceUpdatedAt":null,"verifiedAt":null}},{"type":"Feature","geometry":{"type":"Point","coordinates":[9.7216346,47.4939591]},"properties":{"id":"bikerack:b9ea7531-96f9-4ed3-add3-05dd973eb2c3","kind":"bikerack","longitude":9.7216346,"latitude":47.4939591,"name":"Biciklitároló","city":"Lauterach","address":null,"covered":true,"access":null,"website":null,"phone":null,"source":"OpenStreetMap/way/543530212","sourceUpdatedAt":null,"verifiedAt":null}},{"type":"Feature","geometry":{"type":"Point","coordinates":[9.7525137,47.5048522]},"properties":{"id":"bikerack:ba6b3fab-2343-4c41-ac2f-8ad4c526d11b","kind":"bikerack","longitude":9.7525137,"latitude":47.5048522,"name":"Biciklitároló","city":"Bregenz","address":null,"covered":false,"access":null,"website":null,"phone":null,"source":"OpenStreetMap/node/4718572705","sourceUpdatedAt":null,"verifiedAt":null}},{"type":"Feature","geometry":{"type":"Point","coordinates":[9.7393662,47.5041973]},"properties":{"id":"bikerack:bfcb69fd-b03c-4cbb-917d-f3e63b3c8fa1","kind":"bikerack","longitude":9.7393662,"latitude":47.5041973,"name":"Biciklitároló","city":"Bregenz","address":null,"covered":false,"access":null,"website":null,"phone":null,"source":"OpenStreetMap/node/7973093685","sourceUpdatedAt":null,"verifiedAt":null}},{"type":"Feature","geometry":{"type":"Point","coordinates":[9.7437062,47.5034547]},"properties":{"id":"bikerack:c9162e49-a512-4713-b3a4-95387d9af7d3","kind":"bikerack","longitude":9.7437062,"latitude":47.5034547,"name":"Biciklitároló","city":"Bregenz","address":null,"covered":true,"access":null,"website":null,"phone":null,"source":"OpenStreetMap/node/5338596844","sourceUpdatedAt":null,"verifiedAt":null}},{"type":"Feature","geometry":{"type":"Point","coordinates":[9.7455609,47.4972619]},"properties":{"id":"bikerack:c9ca9fd2-95d0-4258-9cbc-83c7669f955b","kind":"bikerack","longitude":9.7455609,"latitude":47.4972619,"name":"Biciklitároló","city":"Bregenz","address":null,"covered":true,"access":null,"website":null,"phone":null,"source":"OpenStreetMap/way/1010928193","sourceUpdatedAt":null,"verifiedAt":null}},{"type":"Feature","geometry":{"type":"Point","coordinates":[9.7436932,47.5045262]},"properties":{"id":"bikerack:d08f0c5b-7d37-4476-ac49-9e77adfd5d99","kind":"bikerack","longitude":9.7436932,"latitude":47.5045262,"name":"Biciklitároló","city":"Bregenz","address":null,"covered":false,"access":null,"website":null,"phone":null,"source":"OpenStreetMap/way/1494974632","sourceUpdatedAt":null,"verifiedAt":null}},{"type":"Feature","geometry":{"type":"Point","coordinates":[9.7532816,47.5128634]},"properties":{"id":"bikerack:d0fe33dc-5b50-435d-92e0-fa23188ab29a","kind":"bikerack","longitude":9.7532816,"latitude":47.5128634,"name":"Biciklitároló","city":"Bregenz","address":null,"covered":false,"access":null,"website":null,"phone":null,"source":"OpenStreetMap/way/1141741067","sourceUpdatedAt":null,"verifiedAt":null}},{"type":"Feature","geometry":{"type":"Point","coordinates":[9.7528349,47.504769]},"properties":{"id":"bikerack:d75606af-8938-47ab-b23c-2bd2c06d3924","kind":"bikerack","longitude":9.7528349,"latitude":47.504769,"name":"Pfänderbahn","city":"Bregenz","address":null,"covered":true,"access":null,"website":null,"phone":null,"source":"OpenStreetMap/node/841468819","sourceUpdatedAt":null,"verifiedAt":null}},{"type":"Feature","geometry":{"type":"Point","coordinates":[9.7474598,47.5045963]},"properties":{"id":"bikerack:d8b59460-fa4b-4fdf-a846-131cef01c792","kind":"bikerack","longitude":9.7474598,"latitude":47.5045963,"name":"Biciklitároló","city":"Bregenz","address":null,"covered":false,"access":null,"website":null,"phone":null,"source":"OpenStreetMap/node/4828421126","sourceUpdatedAt":null,"verifiedAt":null}},{"type":"Feature","geometry":{"type":"Point","coordinates":[9.7461438,47.496827]},"properties":{"id":"bikerack:dd8bd2bc-72db-4800-94b9-5c3d313e4bca","kind":"bikerack","longitude":9.7461438,"latitude":47.496827,"name":"Biciklitároló","city":"Bregenz","address":null,"covered":true,"access":null,"website":null,"phone":null,"source":"OpenStreetMap/way/675832479","sourceUpdatedAt":null,"verifiedAt":null}},{"type":"Feature","geometry":{"type":"Point","coordinates":[9.7498997,47.5074642]},"properties":{"id":"bikerack:e2ef4ccc-bbc0-4295-acdc-d04917180544","kind":"bikerack","longitude":9.7498997,"latitude":47.5074642,"name":"Biciklitároló","city":"Bregenz","address":null,"covered":false,"access":null,"website":null,"phone":null,"source":"OpenStreetMap/way/672649384","sourceUpdatedAt":null,"verifiedAt":null}},{"type":"Feature","geometry":{"type":"Point","coordinates":[9.7519772,47.5099428]},"properties":{"id":"bikerack:e395b1f2-5ca7-446a-a605-5f489716d34d","kind":"bikerack","longitude":9.7519772,"latitude":47.5099428,"name":"Biciklitároló","city":"Bregenz","address":null,"covered":false,"access":null,"website":null,"phone":null,"source":"OpenStreetMap/way/672649379","sourceUpdatedAt":null,"verifiedAt":null}},{"type":"Feature","geometry":{"type":"Point","coordinates":[9.7405826,47.4993812]},"properties":{"id":"bikerack:e8130d96-19fc-45d3-a7f8-79216334f935","kind":"bikerack","longitude":9.7405826,"latitude":47.4993812,"name":"Biciklitároló","city":"Bregenz","address":null,"covered":false,"access":null,"website":null,"phone":null,"source":"OpenStreetMap/node/4796783273","sourceUpdatedAt":null,"verifiedAt":null}},{"type":"Feature","geometry":{"type":"Point","coordinates":[9.7457339,47.4974275]},"properties":{"id":"bikerack:f876db5b-281b-473c-95ad-8b0b6bd491f3","kind":"bikerack","longitude":9.7457339,"latitude":47.4974275,"name":"Biciklitároló","city":"Bregenz","address":null,"covered":true,"access":null,"website":null,"phone":null,"source":"OpenStreetMap/way/1010928192","sourceUpdatedAt":null,"verifiedAt":null}},{"type":"Feature","geometry":{"type":"Point","coordinates":[9.7507377,47.503881]},"properties":{"id":"bikerack:fb7ec96e-dad1-4578-88ca-b76c06dcad48","kind":"bikerack","longitude":9.7507377,"latitude":47.503881,"name":"Biciklitároló","city":"Bregenz","address":null,"covered":false,"access":null,"website":null,"phone":null,"source":"OpenStreetMap/node/11124477114","sourceUpdatedAt":null,"verifiedAt":null}},{"type":"Feature","geometry":{"type":"Point","coordinates":[9.7456894,47.5018285]},"properties":{"id":"bikerack:fbfbd774-9a00-4274-8f49-a1250daf6082","kind":"bikerack","longitude":9.7456894,"latitude":47.5018285,"name":"Biciklitároló","city":"Bregenz","address":null,"covered":false,"access":null,"website":null,"phone":null,"source":"OpenStreetMap/node/11281526606","sourceUpdatedAt":null,"verifiedAt":null}},{"type":"Feature","geometry":{"type":"Point","coordinates":[9.7319337,47.5040505]},"properties":{"id":"bikerack:fcd325dd-ea70-4e72-ac90-0ecf298832ff","kind":"bikerack","longitude":9.7319337,"latitude":47.5040505,"name":"Biciklitároló","city":"Bregenz","address":null,"covered":false,"access":null,"website":null,"phone":null,"source":"OpenStreetMap/node/11433083501","sourceUpdatedAt":null,"verifiedAt":null}},{"type":"Feature","geometry":{"type":"Point","coordinates":[9.7408695,47.5018093]},"properties":{"id":"bikerack:fe26cedb-d0d1-42cc-8787-71ed12e4dccb","kind":"bikerack","longitude":9.7408695,"latitude":47.5018093,"name":"Biciklitároló","city":"Bregenz","address":null,"covered":false,"access":null,"website":null,"phone":null,"source":"OpenStreetMap/way/929664485","sourceUpdatedAt":null,"verifiedAt":null}},{"type":"Feature","geometry":{"type":"Point","coordinates":[9.7255147,47.5060951]},"properties":{"id":"repair:2096466d-7b25-4d7f-8a20-9193a2a609b2","kind":"repair","longitude":9.7255147,"latitude":47.5060951,"name":"Kerékpár szervizállomás","city":"Bregenz","address":null,"covered":false,"access":null,"website":null,"phone":null,"source":"OpenStreetMap/node/8917390854","sourceUpdatedAt":null,"verifiedAt":null}},{"type":"Feature","geometry":{"type":"Point","coordinates":[9.7519342,47.5098832]},"properties":{"id":"repair:226031e4-cd08-49ca-98bb-0723d80cf0ed","kind":"repair","longitude":9.7519342,"latitude":47.5098832,"name":"Kerékpár szervizállomás","city":"Bregenz","address":null,"covered":false,"access":null,"website":null,"phone":null,"source":"OpenStreetMap/node/13289918393","sourceUpdatedAt":null,"verifiedAt":null}},{"type":"Feature","geometry":{"type":"Point","coordinates":[9.7467707,47.5022937]},"properties":{"id":"repair:6543d4f2-b089-45a3-92db-ef24cb66ec34","kind":"repair","longitude":9.7467707,"latitude":47.5022937,"name":"Kerékpár szervizállomás","city":"Bregenz","address":null,"covered":false,"access":null,"website":null,"phone":null,"source":"OpenStreetMap/node/6865590389","sourceUpdatedAt":null,"verifiedAt":null}},{"type":"Feature","geometry":{"type":"Point","coordinates":[9.7486721,47.5054171]},"properties":{"id":"repair:afbd3762-c181-4188-95a2-95b78d6106f5","kind":"repair","longitude":9.7486721,"latitude":47.5054171,"name":"Kerékpár szervizállomás","city":"Bregenz","address":null,"covered":false,"access":null,"website":null,"phone":null,"source":"OpenStreetMap/node/8841697076","sourceUpdatedAt":null,"verifiedAt":null}},{"type":"Feature","geometry":{"type":"Point","coordinates":[9.7123222,47.5017132]},"properties":{"id":"repair:db1e1668-feb2-46f2-99a0-264d4468fc8d","kind":"repair","longitude":9.7123222,"latitude":47.5017132,"name":"Kerékpár szervizállomás","city":"Lauterach","address":null,"covered":false,"access":null,"website":null,"phone":null,"source":"OpenStreetMap/node/11758903618","sourceUpdatedAt":null,"verifiedAt":null}},{"type":"Feature","geometry":{"type":"Point","coordinates":[9.7377368,47.4957001]},"properties":{"id":"service:19c78615-1f19-45bc-8410-e75326eefe24","kind":"service","longitude":9.7377368,"latitude":47.4957001,"name":"radikal werkstatt","city":"Bregenz","address":null,"covered":null,"access":null,"website":null,"phone":null,"source":"OpenStreetMap/node/8967895568","sourceUpdatedAt":null,"verifiedAt":null}},{"type":"Feature","geometry":{"type":"Point","coordinates":[9.7188629,47.4963133]},"properties":{"id":"service:83772bd4-b5e7-4507-9ff7-70d248fd5138","kind":"service","longitude":9.7188629,"latitude":47.4963133,"name":"Radsport Drissner","city":"Bregenz","address":null,"covered":null,"access":null,"website":null,"phone":null,"source":"OpenStreetMap/way/119625704","sourceUpdatedAt":null,"verifiedAt":null}},{"type":"Feature","geometry":{"type":"Point","coordinates":[9.7486545,47.5053978]},"properties":{"id":"service:ae57c0a1-9cc9-4b16-bd0f-10588301cb86","kind":"service","longitude":9.7486545,"latitude":47.5053978,"name":"Procycle","city":"Bregenz","address":null,"covered":null,"access":null,"website":null,"phone":null,"source":"OpenStreetMap/node/3608623837","sourceUpdatedAt":null,"verifiedAt":null}},{"type":"Feature","geometry":{"type":"Point","coordinates":[9.7479752,47.5024363]},"properties":{"id":"service:dc10b69a-8cdd-4e25-93b9-d9d1ecee6ebb","kind":"service","longitude":9.7479752,"latitude":47.5024363,"name":"Velomore","city":"Bregenz","address":null,"covered":null,"access":null,"website":null,"phone":null,"source":"OpenStreetMap/node/12889228019","sourceUpdatedAt":null,"verifiedAt":null}},{"type":"Feature","geometry":{"type":"Point","coordinates":[9.736602,47.5010891]},"properties":{"id":"service:f179a33b-a766-4e1c-a0b3-4beb7e59dc03","kind":"service","longitude":9.736602,"latitude":47.5010891,"name":"Egger Zweirad","city":"Bregenz","address":null,"covered":null,"access":null,"website":null,"phone":null,"source":"OpenStreetMap/node/4264702856","sourceUpdatedAt":null,"verifiedAt":null}},{"type":"Feature","geometry":{"type":"Point","coordinates":[9.7157272,47.4941453]},"properties":{"id":"water:0c58b114-8422-4149-9828-e53bc1f04853","kind":"water","longitude":9.7157272,"latitude":47.4941453,"name":"Ivókút","city":"Lauterach","address":null,"covered":null,"access":null,"website":null,"phone":null,"source":"OpenStreetMap/node/10147732549","sourceUpdatedAt":null,"verifiedAt":null}},{"type":"Feature","geometry":{"type":"Point","coordinates":[9.747406,47.5041556]},"properties":{"id":"water:16e15db3-b392-4f23-9153-b4ddf1a57f04","kind":"water","longitude":9.747406,"latitude":47.5041556,"name":"Ivókút","city":"Bregenz","address":null,"covered":null,"access":null,"website":null,"phone":null,"source":"OpenStreetMap/node/2325365956","sourceUpdatedAt":null,"verifiedAt":null}},{"type":"Feature","geometry":{"type":"Point","coordinates":[9.7467896,47.5000522]},"properties":{"id":"water:24efe65a-bfd3-4f8f-b3cb-958aa74a1184","kind":"water","longitude":9.7467896,"latitude":47.5000522,"name":"Gebhard","city":"Bregenz","address":null,"covered":null,"access":null,"website":null,"phone":null,"source":"OpenStreetMap/node/2898124475","sourceUpdatedAt":null,"verifiedAt":null}},{"type":"Feature","geometry":{"type":"Point","coordinates":[9.746096,47.504214]},"properties":{"id":"water:46148efa-c7dc-4cfe-891b-c3845350680e","kind":"water","longitude":9.746096,"latitude":47.504214,"name":"Ivókút","city":"Bregenz","address":null,"covered":null,"access":null,"website":null,"phone":null,"source":"OpenStreetMap/node/3536518493","sourceUpdatedAt":null,"verifiedAt":null}},{"type":"Feature","geometry":{"type":"Point","coordinates":[9.740035,47.503575]},"properties":{"id":"water:7c2b3600-e49f-46f5-b89c-91f10678c751","kind":"water","longitude":9.740035,"latitude":47.503575,"name":"Ivókút","city":"Bregenz","address":null,"covered":null,"access":null,"website":null,"phone":null,"source":"OpenStreetMap/node/2407533100","sourceUpdatedAt":null,"verifiedAt":null}},{"type":"Feature","geometry":{"type":"Point","coordinates":[9.7541542,47.4948998]},"properties":{"id":"water:7f9e2fe6-4a3c-4869-98c6-8d671d03fb87","kind":"water","longitude":9.7541542,"latitude":47.4948998,"name":"Ivókút","city":"Bregenz","address":null,"covered":null,"access":null,"website":null,"phone":null,"source":"OpenStreetMap/node/7873664479","sourceUpdatedAt":null,"verifiedAt":null}},{"type":"Feature","geometry":{"type":"Point","coordinates":[9.7471866,47.4979177]},"properties":{"id":"water:8439b7a1-5abe-4693-8c29-c486a08e39cf","kind":"water","longitude":9.7471866,"latitude":47.4979177,"name":"Ivókút","city":"Bregenz","address":null,"covered":null,"access":null,"website":null,"phone":null,"source":"OpenStreetMap/node/4807863615","sourceUpdatedAt":null,"verifiedAt":null}},{"type":"Feature","geometry":{"type":"Point","coordinates":[9.7505177,47.4997903]},"properties":{"id":"water:8b7ce83c-7e75-4b46-a72e-301343d21881","kind":"water","longitude":9.7505177,"latitude":47.4997903,"name":"Ivókút","city":"Bregenz","address":null,"covered":null,"access":null,"website":null,"phone":null,"source":"OpenStreetMap/node/12165682357","sourceUpdatedAt":null,"verifiedAt":null}},{"type":"Feature","geometry":{"type":"Point","coordinates":[9.7320595,47.5040579]},"properties":{"id":"water:8c019d56-6457-4c90-90dc-ec0f1ade2008","kind":"water","longitude":9.7320595,"latitude":47.5040579,"name":"Ivókút","city":"Bregenz","address":null,"covered":null,"access":null,"website":null,"phone":null,"source":"OpenStreetMap/node/11433083502","sourceUpdatedAt":null,"verifiedAt":null}},{"type":"Feature","geometry":{"type":"Point","coordinates":[9.745216,47.505113]},"properties":{"id":"water:9555471f-bdcd-4151-8afa-1310aeccc0af","kind":"water","longitude":9.745216,"latitude":47.505113,"name":"Ivókút","city":"Bregenz","address":null,"covered":null,"access":null,"website":null,"phone":null,"source":"OpenStreetMap/node/3501268793","sourceUpdatedAt":null,"verifiedAt":null}},{"type":"Feature","geometry":{"type":"Point","coordinates":[9.745817,47.503446]},"properties":{"id":"water:b8fddb5d-1186-4101-a2f4-ce7e71b435fc","kind":"water","longitude":9.745817,"latitude":47.503446,"name":"Ivókút","city":"Bregenz","address":null,"covered":null,"access":null,"website":null,"phone":null,"source":"OpenStreetMap/node/2468739331","sourceUpdatedAt":null,"verifiedAt":null}},{"type":"Feature","geometry":{"type":"Point","coordinates":[9.7517795,47.4959765]},"properties":{"id":"water:c5934570-03d8-428d-9cec-9057569ac038","kind":"water","longitude":9.7517795,"latitude":47.4959765,"name":"Ivókút","city":"Bregenz","address":null,"covered":null,"access":null,"website":null,"phone":null,"source":"OpenStreetMap/node/4795862267","sourceUpdatedAt":null,"verifiedAt":null}},{"type":"Feature","geometry":{"type":"Point","coordinates":[9.7490115,47.4914295]},"properties":{"id":"water:db27b81d-ce33-4237-a6f5-967ed0b0a484","kind":"water","longitude":9.7490115,"latitude":47.4914295,"name":"Ivókút","city":"Bregenz","address":null,"covered":null,"access":null,"website":null,"phone":null,"source":"OpenStreetMap/node/2325332347","sourceUpdatedAt":null,"verifiedAt":null}},{"type":"Feature","geometry":{"type":"Point","coordinates":[9.7472778,47.5056502]},"properties":{"id":"water:dc198a93-7aa2-4810-8a58-0796060d951b","kind":"water","longitude":9.7472778,"latitude":47.5056502,"name":"Ivókút","city":"Bregenz","address":null,"covered":null,"access":null,"website":null,"phone":null,"source":"OpenStreetMap/node/8946831417","sourceUpdatedAt":null,"verifiedAt":null}},{"type":"Feature","geometry":{"type":"Point","coordinates":[9.7526417,47.504786]},"properties":{"id":"water:ec7de586-aac1-48b4-9caf-64525cc0c2e5","kind":"water","longitude":9.7526417,"latitude":47.504786,"name":"Ivókút","city":"Bregenz","address":null,"covered":null,"access":null,"website":null,"phone":null,"source":"OpenStreetMap/node/7756027585","sourceUpdatedAt":null,"verifiedAt":null}},{"type":"Feature","geometry":{"type":"Point","coordinates":[9.74712,47.504379]},"properties":{"id":"water:fba34391-dca0-40ce-880e-914307e356b7","kind":"water","longitude":9.74712,"latitude":47.504379,"name":"Ivókút","city":"Bregenz","address":null,"covered":null,"access":null,"website":null,"phone":null,"source":"OpenStreetMap/node/2370527636","sourceUpdatedAt":null,"verifiedAt":null}}]}