{"type":"FeatureCollection","features":[{"type":"Feature","geometry":{"type":"Point","coordinates":[9.7501976,47.2435725]},"properties":{"id":"water:02519ba0-88d7-42d5-859f-4ec43d7f2d26","kind":"water","longitude":9.7501976,"latitude":47.2435725,"name":"Ivókút","city":"Schnifis","address":null,"covered":null,"access":null,"website":null,"phone":null,"source":"OpenStreetMap/node/1445712353","sourceUpdatedAt":null,"verifiedAt":null}},{"type":"Feature","geometry":{"type":"Point","coordinates":[9.7529086,47.2434453]},"properties":{"id":"water:8df0b3af-08eb-4da3-905b-762926250e75","kind":"water","longitude":9.7529086,"latitude":47.2434453,"name":"Ivókút","city":"Schnifis","address":null,"covered":null,"access":null,"website":null,"phone":null,"source":"OpenStreetMap/node/1445712644","sourceUpdatedAt":null,"verifiedAt":null}},{"type":"Feature","geometry":{"type":"Point","coordinates":[9.7365502,47.2394341]},"properties":{"id":"water:a8041f5e-404a-442d-bd5f-184d4b4b76a1","kind":"water","longitude":9.7365502,"latitude":47.2394341,"name":"Ivókút","city":"Schnifis","address":null,"covered":null,"access":null,"website":null,"phone":null,"source":"OpenStreetMap/node/1881681027","sourceUpdatedAt":null,"verifiedAt":null}},{"type":"Feature","geometry":{"type":"Point","coordinates":[9.7170207,47.2219097]},"properties":{"id":"water:b1317776-d3e8-426e-a419-6a6bef48b106","kind":"water","longitude":9.7170207,"latitude":47.2219097,"name":"Ivókút","city":"Duns","address":null,"covered":null,"access":null,"website":null,"phone":null,"source":"OpenStreetMap/node/11005948562","sourceUpdatedAt":null,"verifiedAt":null}},{"type":"Feature","geometry":{"type":"Point","coordinates":[9.7362169,47.2204462]},"properties":{"id":"water:c38d565e-2ea5-42c0-a56e-1174749ea3bf","kind":"water","longitude":9.7362169,"latitude":47.2204462,"name":"Ivókút","city":"Schnifis","address":null,"covered":null,"access":null,"website":null,"phone":null,"source":"OpenStreetMap/node/11584908449","sourceUpdatedAt":null,"verifiedAt":null}}]}