{"type":"FeatureCollection","features":[{"type":"Feature","geometry":{"type":"Point","coordinates":[9.7235905,46.9881332]},"properties":{"id":"water:99c5814f-e497-4fc5-99d8-8841337d40db","kind":"water","longitude":9.7235905,"latitude":46.9881332,"name":"Drinking Fountain","city":"Schiers","address":null,"covered":null,"access":null,"website":null,"phone":null,"source":"OpenStreetMap/node/4341217180","sourceUpdatedAt":null,"verifiedAt":null}},{"type":"Feature","geometry":{"type":"Point","coordinates":[9.7154469,46.9983554]},"properties":{"id":"water:c20f9eea-13ac-4dc5-90ea-995e77dd86f8","kind":"water","longitude":9.7154469,"latitude":46.9983554,"name":"Drinking Fountain","city":"Schiers","address":null,"covered":null,"access":null,"website":null,"phone":null,"source":"OpenStreetMap/node/11118317815","sourceUpdatedAt":null,"verifiedAt":null}}]}