{"type":"FeatureCollection","features":[{"type":"Feature","geometry":{"type":"Point","coordinates":[9.7459863,45.8147211]},"properties":{"id":"water:04148acf-b5b0-4809-9571-67c5e0f80a3f","kind":"water","longitude":9.7459863,"latitude":45.8147211,"name":"Fontanella","city":"Costa di Serina","address":null,"covered":null,"access":null,"website":null,"phone":null,"source":"OpenStreetMap/node/1783468445","sourceUpdatedAt":null,"verifiedAt":null}},{"type":"Feature","geometry":{"type":"Point","coordinates":[9.7177554,45.8232028]},"properties":{"id":"water:06e7dfae-7e71-4cfb-ac51-5e0dc526a7ea","kind":"water","longitude":9.7177554,"latitude":45.8232028,"name":"Fontanella","city":"Algua","address":null,"covered":null,"access":null,"website":null,"phone":null,"source":"OpenStreetMap/node/11243123118","sourceUpdatedAt":null,"verifiedAt":null}},{"type":"Feature","geometry":{"type":"Point","coordinates":[9.747495,45.8004678]},"properties":{"id":"water:30bc6583-fd9c-4d7f-baf2-8a8d4cbc68de","kind":"water","longitude":9.747495,"latitude":45.8004678,"name":"Fontanella","city":"Selvino","address":null,"covered":null,"access":null,"website":null,"phone":null,"source":"OpenStreetMap/node/11196276611","sourceUpdatedAt":null,"verifiedAt":null}},{"type":"Feature","geometry":{"type":"Point","coordinates":[9.7200835,45.8053128]},"properties":{"id":"water:3ede0ff3-69c9-493b-ae50-3f8d12c1bace","kind":"water","longitude":9.7200835,"latitude":45.8053128,"name":"Fontanella","city":"Algua","address":null,"covered":null,"access":null,"website":null,"phone":null,"source":"OpenStreetMap/node/11351551658","sourceUpdatedAt":null,"verifiedAt":null}},{"type":"Feature","geometry":{"type":"Point","coordinates":[9.7353799,45.8056353]},"properties":{"id":"water:732cb4a9-6f2c-4349-be0f-12b71703a291","kind":"water","longitude":9.7353799,"latitude":45.8056353,"name":"Fontanella","city":"Algua","address":null,"covered":null,"access":null,"website":null,"phone":null,"source":"OpenStreetMap/node/11351326125","sourceUpdatedAt":null,"verifiedAt":null}},{"type":"Feature","geometry":{"type":"Point","coordinates":[9.7444338,45.8147083]},"properties":{"id":"water:a436c793-cd59-4a09-aa4c-6822a6036ec2","kind":"water","longitude":9.7444338,"latitude":45.8147083,"name":"Fontanella","city":"Costa di Serina","address":null,"covered":null,"access":null,"website":null,"phone":null,"source":"OpenStreetMap/node/1783535645","sourceUpdatedAt":null,"verifiedAt":null}},{"type":"Feature","geometry":{"type":"Point","coordinates":[9.7451854,45.827847]},"properties":{"id":"water:a6d01d46-6030-4fef-8c74-85a2e8a39a93","kind":"water","longitude":9.7451854,"latitude":45.827847,"name":"Fontanella","city":"Costa di Serina","address":null,"covered":null,"access":null,"website":null,"phone":null,"source":"OpenStreetMap/node/11036203718","sourceUpdatedAt":null,"verifiedAt":null}},{"type":"Feature","geometry":{"type":"Point","coordinates":[9.7198392,45.8235325]},"properties":{"id":"water:b1fad6e2-cbe1-4ed2-9641-2040bfff9523","kind":"water","longitude":9.7198392,"latitude":45.8235325,"name":"Fontanella","city":"Algua","address":null,"covered":null,"access":null,"website":null,"phone":null,"source":"OpenStreetMap/node/11179119877","sourceUpdatedAt":null,"verifiedAt":null}},{"type":"Feature","geometry":{"type":"Point","coordinates":[9.7172117,45.8004943]},"properties":{"id":"water:ccd0275a-20a5-4a94-b4dd-64c8d102dd41","kind":"water","longitude":9.7172117,"latitude":45.8004943,"name":"Fontanella","city":"Bracca","address":null,"covered":null,"access":null,"website":null,"phone":null,"source":"OpenStreetMap/node/11844773023","sourceUpdatedAt":null,"verifiedAt":null}},{"type":"Feature","geometry":{"type":"Point","coordinates":[9.7484885,45.8146145]},"properties":{"id":"water:d39d1efc-293c-41c9-923f-d7dec08990a7","kind":"water","longitude":9.7484885,"latitude":45.8146145,"name":"Fontanella","city":"Costa di Serina","address":null,"covered":null,"access":null,"website":null,"phone":null,"source":"OpenStreetMap/node/1783468446","sourceUpdatedAt":null,"verifiedAt":null}},{"type":"Feature","geometry":{"type":"Point","coordinates":[9.7518302,45.8163844]},"properties":{"id":"water:e16f8c6e-3b2c-4d21-89c4-6c48c00221cf","kind":"water","longitude":9.7518302,"latitude":45.8163844,"name":"Fontanella","city":"Costa di Serina","address":null,"covered":null,"access":null,"website":null,"phone":null,"source":"OpenStreetMap/node/5364298901","sourceUpdatedAt":null,"verifiedAt":null}},{"type":"Feature","geometry":{"type":"Point","coordinates":[9.7499478,45.8015905]},"properties":{"id":"water:f3aa97fa-5b3d-4891-948d-ce2f70e53446","kind":"water","longitude":9.7499478,"latitude":45.8015905,"name":"Fontanella","city":"Selvino","address":null,"covered":null,"access":null,"website":null,"phone":null,"source":"OpenStreetMap/node/11196287582","sourceUpdatedAt":null,"verifiedAt":null}},{"type":"Feature","geometry":{"type":"Point","coordinates":[9.7485574,45.8248689]},"properties":{"id":"water:f4a17d22-0df6-4299-b39b-f452c40df424","kind":"water","longitude":9.7485574,"latitude":45.8248689,"name":"Fontanella","city":"Costa di Serina","address":null,"covered":null,"access":null,"website":null,"phone":null,"source":"OpenStreetMap/node/10969256244","sourceUpdatedAt":null,"verifiedAt":null}}]}