{"type":"FeatureCollection","features":[{"type":"Feature","geometry":{"type":"Point","coordinates":[21.3257098,48.6474443]},"properties":{"id":"bikerack:0728fb4f-7d2c-4634-83b1-89fad61d81ca","kind":"bikerack","longitude":21.3257098,"latitude":48.6474443,"name":"Biciklitároló","city":"Kosice","address":null,"covered":false,"access":null,"website":null,"phone":null,"source":"OpenStreetMap/node/12612790973","sourceUpdatedAt":null,"verifiedAt":null}},{"type":"Feature","geometry":{"type":"Point","coordinates":[21.323861,48.6479867]},"properties":{"id":"bikerack:4224f0e4-9976-41ea-baae-be5b0d88b64d","kind":"bikerack","longitude":21.323861,"latitude":48.6479867,"name":"Biciklitároló","city":"Kosice","address":null,"covered":false,"access":null,"website":null,"phone":null,"source":"OpenStreetMap/node/12612790966","sourceUpdatedAt":null,"verifiedAt":null}}]}