{"type":"FeatureCollection","features":[{"type":"Feature","geometry":{"type":"Point","coordinates":[14.1333913,50.5331514]},"properties":{"id":"bikerack:02eb07db-2b3c-441f-8e88-1d4025de68a3","kind":"bikerack","longitude":14.1333913,"latitude":50.5331514,"name":"Bicycle Parking","city":"Litomerice","address":null,"covered":false,"access":null,"website":null,"phone":null,"source":"OpenStreetMap/node/13705356005","sourceUpdatedAt":null,"verifiedAt":null}},{"type":"Feature","geometry":{"type":"Point","coordinates":[14.1432929,50.5319843]},"properties":{"id":"bikerack:49ba20b5-3eaa-4a2a-9b8a-d6203d0adc6f","kind":"bikerack","longitude":14.1432929,"latitude":50.5319843,"name":"Bicycle Parking","city":"Litomerice","address":null,"covered":false,"access":null,"website":null,"phone":null,"source":"OpenStreetMap/node/12247174187","sourceUpdatedAt":null,"verifiedAt":null}},{"type":"Feature","geometry":{"type":"Point","coordinates":[14.132136,50.5335445]},"properties":{"id":"bikerack:76dafaef-5e24-433e-8469-8236bf267dce","kind":"bikerack","longitude":14.132136,"latitude":50.5335445,"name":"Bicycle Parking","city":"Litomerice","address":null,"covered":false,"access":null,"website":null,"phone":null,"source":"OpenStreetMap/node/11035325121","sourceUpdatedAt":null,"verifiedAt":null}},{"type":"Feature","geometry":{"type":"Point","coordinates":[14.1381274,50.5326749]},"properties":{"id":"bikerack:fa7987a0-8d99-4b0c-964b-204a91a80147","kind":"bikerack","longitude":14.1381274,"latitude":50.5326749,"name":"BikeTower","city":"Litomerice","address":null,"covered":true,"access":null,"website":null,"phone":null,"source":"OpenStreetMap/way/805328420","sourceUpdatedAt":null,"verifiedAt":null}},{"type":"Feature","geometry":{"type":"Point","coordinates":[14.1380929,50.5327232]},"properties":{"id":"repair:522ed985-39f9-4d59-8acc-3c39ef54b365","kind":"repair","longitude":14.1380929,"latitude":50.5327232,"name":"Bicycle Repair Station","city":"Litomerice","address":null,"covered":false,"access":null,"website":null,"phone":null,"source":"OpenStreetMap/node/13711390716","sourceUpdatedAt":null,"verifiedAt":null}},{"type":"Feature","geometry":{"type":"Point","coordinates":[14.1304179,50.5354255]},"properties":{"id":"service:3621a2b0-3893-4b83-b3a9-73fe4968ad68","kind":"service","longitude":14.1304179,"latitude":50.5354255,"name":"Bicycle Shop","city":"Litomerice","address":null,"covered":null,"access":null,"website":null,"phone":null,"source":"OpenStreetMap/node/6720652961","sourceUpdatedAt":null,"verifiedAt":null}},{"type":"Feature","geometry":{"type":"Point","coordinates":[14.1290551,50.535421]},"properties":{"id":"service:d8b6c650-9350-4aeb-ae39-af29e58b8587","kind":"service","longitude":14.1290551,"latitude":50.535421,"name":"Bicycle Shop","city":"Litomerice","address":null,"covered":null,"access":null,"website":null,"phone":null,"source":"OpenStreetMap/node/4172681879","sourceUpdatedAt":null,"verifiedAt":null}},{"type":"Feature","geometry":{"type":"Point","coordinates":[14.1341149,50.5337228]},"properties":{"id":"water:89b70692-46e6-449c-ad1b-66d670b7d743","kind":"water","longitude":14.1341149,"latitude":50.5337228,"name":"Drinking Fountain","city":"Litomerice","address":null,"covered":null,"access":null,"website":null,"phone":null,"source":"OpenStreetMap/node/2391844322","sourceUpdatedAt":null,"verifiedAt":null}}]}