{"type":"FeatureCollection","features":[{"type":"Feature","geometry":{"type":"Point","coordinates":[14.1235205,47.9719241]},"properties":{"id":"bikerack:93b63c54-441f-4b67-8b0c-72ccf28cade6","kind":"bikerack","longitude":14.1235205,"latitude":47.9719241,"name":"Biciklitároló","city":"Kremsmunster","address":null,"covered":true,"access":null,"website":null,"phone":null,"source":"OpenStreetMap/way/480489847","sourceUpdatedAt":null,"verifiedAt":null}},{"type":"Feature","geometry":{"type":"Point","coordinates":[14.123636,47.9725832]},"properties":{"id":"bikerack:b38e57d4-08ae-4006-a6b4-6d79f3674568","kind":"bikerack","longitude":14.123636,"latitude":47.9725832,"name":"Biciklitároló","city":"Kremsmunster","address":null,"covered":true,"access":null,"website":null,"phone":null,"source":"OpenStreetMap/way/454448486","sourceUpdatedAt":null,"verifiedAt":null}},{"type":"Feature","geometry":{"type":"Point","coordinates":[14.1212739,47.989323]},"properties":{"id":"bikerack:d12ec1e8-c61d-4c18-b68e-80cc8eff020e","kind":"bikerack","longitude":14.1212739,"latitude":47.989323,"name":"Biciklitároló","city":"Kremsmunster","address":null,"covered":false,"access":null,"website":null,"phone":null,"source":"OpenStreetMap/node/11780447440","sourceUpdatedAt":null,"verifiedAt":null}},{"type":"Feature","geometry":{"type":"Point","coordinates":[14.1168819,47.9895696]},"properties":{"id":"service:0d4c801f-2a8f-41a7-80df-d93915a4cb21","kind":"service","longitude":14.1168819,"latitude":47.9895696,"name":"BIKE-MASTER","city":"Wartberg an der Krems","address":null,"covered":null,"access":null,"website":null,"phone":null,"source":"OpenStreetMap/node/7519822352","sourceUpdatedAt":null,"verifiedAt":null}}]}