{"type":"FeatureCollection","features":[{"type":"Feature","geometry":{"type":"Point","coordinates":[16.1394182,46.9373006]},"properties":{"id":"bikerack:282e48dd-6e1c-4d7f-84f2-fd9dfa50ff4e","kind":"bikerack","longitude":16.1394182,"latitude":46.9373006,"name":"Biciklitároló","city":"Jennersdorf","address":null,"covered":false,"access":null,"website":null,"phone":null,"source":"OpenStreetMap/node/13393706220","sourceUpdatedAt":null,"verifiedAt":null}},{"type":"Feature","geometry":{"type":"Point","coordinates":[16.1408437,46.9373313]},"properties":{"id":"repair:53f31062-476b-4e88-9a38-8829cca63c68","kind":"repair","longitude":16.1408437,"latitude":46.9373313,"name":"Kerékpár szervizállomás","city":"Jennersdorf","address":null,"covered":false,"access":null,"website":null,"phone":null,"source":"OpenStreetMap/node/13039965655","sourceUpdatedAt":null,"verifiedAt":null}},{"type":"Feature","geometry":{"type":"Point","coordinates":[16.1336378,46.9205946]},"properties":{"id":"water:9fd95e16-91e8-4427-9db9-e196dd5bd30d","kind":"water","longitude":16.1336378,"latitude":46.9205946,"name":"Ivókút","city":"Sankt Martin an der Raab","address":null,"covered":null,"access":null,"website":null,"phone":null,"source":"OpenStreetMap/node/11048501858","sourceUpdatedAt":null,"verifiedAt":null}}]}