{"type":"FeatureCollection","features":[{"type":"Feature","geometry":{"type":"Point","coordinates":[19.8359764,46.7082635]},"properties":{"id":"bikerack:0383e704-1cba-42e3-acce-f7c8d76beacd","kind":"bikerack","longitude":19.8359764,"latitude":46.7082635,"name":"Biciklitároló","city":"Kiskunfelegyhaza","address":null,"covered":false,"access":null,"website":null,"phone":null,"source":"OpenStreetMap/way/1311694870","sourceUpdatedAt":"2026-04-04T22:50:04.678779+00:00","verifiedAt":null}},{"type":"Feature","geometry":{"type":"Point","coordinates":[19.8627612,46.7111551]},"properties":{"id":"bikerack:09431bdc-61f0-4c5d-b523-42633ebfb481","kind":"bikerack","longitude":19.8627612,"latitude":46.7111551,"name":"Biciklitároló","city":"Kiskunfelegyhaza","address":null,"covered":true,"access":null,"website":null,"phone":null,"source":"OpenStreetMap/node/3485197386","sourceUpdatedAt":"2026-04-04T22:50:04.678779+00:00","verifiedAt":null}},{"type":"Feature","geometry":{"type":"Point","coordinates":[19.8498447,46.7134105]},"properties":{"id":"bikerack:09ba36d7-0bf8-4b11-aa1a-d84c997cc772","kind":"bikerack","longitude":19.8498447,"latitude":46.7134105,"name":"Biciklitároló","city":"Kiskunfelegyhaza","address":null,"covered":false,"access":null,"website":null,"phone":null,"source":"OpenStreetMap/node/10719512018","sourceUpdatedAt":"2026-04-04T22:50:04.678779+00:00","verifiedAt":null}},{"type":"Feature","geometry":{"type":"Point","coordinates":[19.8457423,46.7112772]},"properties":{"id":"bikerack:09dcaa92-52eb-4832-a2e7-c3d131ab46b0","kind":"bikerack","longitude":19.8457423,"latitude":46.7112772,"name":"Biciklitároló","city":"Kiskunfelegyhaza","address":null,"covered":false,"access":null,"website":null,"phone":null,"source":"OpenStreetMap/node/10719433200","sourceUpdatedAt":"2026-04-04T22:50:04.678779+00:00","verifiedAt":null}},{"type":"Feature","geometry":{"type":"Point","coordinates":[19.8489314,46.6896935]},"properties":{"id":"bikerack:11234855-717a-4da0-badf-693398158879","kind":"bikerack","longitude":19.8489314,"latitude":46.6896935,"name":"Biciklitároló","city":"Kiskunfelegyhaza","address":null,"covered":false,"access":null,"website":null,"phone":null,"source":"OpenStreetMap/node/10721620027","sourceUpdatedAt":"2026-04-04T22:50:04.678779+00:00","verifiedAt":null}},{"type":"Feature","geometry":{"type":"Point","coordinates":[19.8449349,46.7107585]},"properties":{"id":"bikerack:128e453d-42ad-4194-a7d2-41c6a0eead04","kind":"bikerack","longitude":19.8449349,"latitude":46.7107585,"name":"Biciklitároló","city":"Kiskunfelegyhaza","address":null,"covered":false,"access":null,"website":null,"phone":null,"source":"OpenStreetMap/node/10719433202","sourceUpdatedAt":"2026-04-04T22:50:04.678779+00:00","verifiedAt":null}},{"type":"Feature","geometry":{"type":"Point","coordinates":[19.8438057,46.7103797]},"properties":{"id":"bikerack:12d95f51-890f-4aa4-8c93-875b0a69a692","kind":"bikerack","longitude":19.8438057,"latitude":46.7103797,"name":"Biciklitároló","city":"Kiskunfelegyhaza","address":null,"covered":false,"access":null,"website":null,"phone":null,"source":"OpenStreetMap/node/10719512106","sourceUpdatedAt":"2026-04-04T22:50:04.678779+00:00","verifiedAt":null}},{"type":"Feature","geometry":{"type":"Point","coordinates":[19.8484891,46.7116954]},"properties":{"id":"bikerack:18413efa-5808-4f91-8ea8-e02ac61703ad","kind":"bikerack","longitude":19.8484891,"latitude":46.7116954,"name":"Biciklitároló","city":"Kiskunfelegyhaza","address":null,"covered":false,"access":null,"website":null,"phone":null,"source":"OpenStreetMap/node/10719512043","sourceUpdatedAt":"2026-04-04T22:50:04.678779+00:00","verifiedAt":null}},{"type":"Feature","geometry":{"type":"Point","coordinates":[19.841435,46.7094325]},"properties":{"id":"bikerack:18957d20-62ed-4b0b-bf00-9a6e84192fa7","kind":"bikerack","longitude":19.841435,"latitude":46.7094325,"name":"Biciklitároló","city":"Kiskunfelegyhaza","address":null,"covered":true,"access":null,"website":null,"phone":null,"source":"OpenStreetMap/node/10719512110","sourceUpdatedAt":"2026-04-04T22:50:04.678779+00:00","verifiedAt":null}},{"type":"Feature","geometry":{"type":"Point","coordinates":[19.850184,46.7128257]},"properties":{"id":"bikerack:1cf312e2-76fc-4820-9f87-5e54bac3d28d","kind":"bikerack","longitude":19.850184,"latitude":46.7128257,"name":"Biciklitároló","city":"Kiskunfelegyhaza","address":null,"covered":false,"access":null,"website":null,"phone":null,"source":"OpenStreetMap/node/10719512033","sourceUpdatedAt":"2026-04-04T22:50:04.678779+00:00","verifiedAt":null}},{"type":"Feature","geometry":{"type":"Point","coordinates":[19.8505609,46.7117893]},"properties":{"id":"bikerack:1df321fe-10af-4a88-a7be-c750e456977c","kind":"bikerack","longitude":19.8505609,"latitude":46.7117893,"name":"Biciklitároló","city":"Kiskunfelegyhaza","address":null,"covered":false,"access":null,"website":null,"phone":null,"source":"OpenStreetMap/node/10721620063","sourceUpdatedAt":"2026-04-04T22:50:04.678779+00:00","verifiedAt":null}},{"type":"Feature","geometry":{"type":"Point","coordinates":[19.8497602,46.7144974]},"properties":{"id":"bikerack:27bffa66-8b35-4980-a447-d79778de25be","kind":"bikerack","longitude":19.8497602,"latitude":46.7144974,"name":"Biciklitároló","city":"Kiskunfelegyhaza","address":null,"covered":false,"access":null,"website":null,"phone":null,"source":"OpenStreetMap/node/10719512012","sourceUpdatedAt":"2026-04-04T22:50:04.678779+00:00","verifiedAt":null}},{"type":"Feature","geometry":{"type":"Point","coordinates":[19.8505703,46.7115604]},"properties":{"id":"bikerack:28661396-fdca-410c-9f34-a96333df33bf","kind":"bikerack","longitude":19.8505703,"latitude":46.7115604,"name":"Biciklitároló","city":"Kiskunfelegyhaza","address":null,"covered":false,"access":null,"website":null,"phone":null,"source":"OpenStreetMap/node/10721620062","sourceUpdatedAt":"2026-04-04T22:50:04.678779+00:00","verifiedAt":null}},{"type":"Feature","geometry":{"type":"Point","coordinates":[19.8445588,46.7106261]},"properties":{"id":"bikerack:2911e763-af6f-4b71-95fc-a08fb3e9263e","kind":"bikerack","longitude":19.8445588,"latitude":46.7106261,"name":"Biciklitároló","city":"Kiskunfelegyhaza","address":null,"covered":false,"access":null,"website":null,"phone":null,"source":"OpenStreetMap/node/10719433204","sourceUpdatedAt":"2026-04-04T22:50:04.678779+00:00","verifiedAt":null}},{"type":"Feature","geometry":{"type":"Point","coordinates":[19.9566661,46.6837998]},"properties":{"id":"bikerack:29e7f501-679f-4f3f-90f1-56158e61a3d8","kind":"bikerack","longitude":19.9566661,"latitude":46.6837998,"name":"Biciklitároló","city":"Palmonostora","address":null,"covered":false,"access":null,"website":null,"phone":null,"source":"OpenStreetMap/node/12531667860","sourceUpdatedAt":"2026-04-04T22:50:04.678779+00:00","verifiedAt":null}},{"type":"Feature","geometry":{"type":"Point","coordinates":[19.8498742,46.7137185]},"properties":{"id":"bikerack:2ace59ff-f8f7-44ca-a4d2-caf5e94fd793","kind":"bikerack","longitude":19.8498742,"latitude":46.7137185,"name":"Biciklitároló","city":"Kiskunfelegyhaza","address":null,"covered":false,"access":null,"website":null,"phone":null,"source":"OpenStreetMap/node/10719512017","sourceUpdatedAt":"2026-04-04T22:50:04.678779+00:00","verifiedAt":null}},{"type":"Feature","geometry":{"type":"Point","coordinates":[19.8516237,46.7113282]},"properties":{"id":"bikerack:2bf4e73b-2f0e-4385-910a-aa8c46ba9811","kind":"bikerack","longitude":19.8516237,"latitude":46.7113282,"name":"Biciklitároló","city":"Kiskunfelegyhaza","address":null,"covered":false,"access":null,"website":null,"phone":null,"source":"OpenStreetMap/node/10721674779","sourceUpdatedAt":"2026-04-04T22:50:04.678779+00:00","verifiedAt":null}},{"type":"Feature","geometry":{"type":"Point","coordinates":[19.8461272,46.7111116]},"properties":{"id":"bikerack:310b15dd-63a9-4e74-b895-fdac7a877ba0","kind":"bikerack","longitude":19.8461272,"latitude":46.7111116,"name":"Biciklitároló","city":"Kiskunfelegyhaza","address":null,"covered":false,"access":null,"website":null,"phone":null,"source":"OpenStreetMap/node/10719433194","sourceUpdatedAt":"2026-04-04T22:50:04.678779+00:00","verifiedAt":null}},{"type":"Feature","geometry":{"type":"Point","coordinates":[19.8461741,46.7112229]},"properties":{"id":"bikerack:330a693a-aa3c-4541-9b6e-bb3f11d85941","kind":"bikerack","longitude":19.8461741,"latitude":46.7112229,"name":"Biciklitároló","city":"Kiskunfelegyhaza","address":null,"covered":false,"access":null,"website":null,"phone":null,"source":"OpenStreetMap/node/10719433192","sourceUpdatedAt":"2026-04-04T22:50:04.678779+00:00","verifiedAt":null}},{"type":"Feature","geometry":{"type":"Point","coordinates":[19.8506722,46.7110231]},"properties":{"id":"bikerack:34239c02-4820-4b05-b5e5-e753383045d4","kind":"bikerack","longitude":19.8506722,"latitude":46.7110231,"name":"Biciklitároló","city":"Kiskunfelegyhaza","address":null,"covered":false,"access":null,"website":null,"phone":null,"source":"OpenStreetMap/node/12328527482","sourceUpdatedAt":"2026-04-04T22:50:04.678779+00:00","verifiedAt":null}},{"type":"Feature","geometry":{"type":"Point","coordinates":[19.8134354,46.7162253]},"properties":{"id":"bikerack:359a6145-391c-432d-9547-f6e3da43b410","kind":"bikerack","longitude":19.8134354,"latitude":46.7162253,"name":"Biciklitároló","city":"Kiskunfelegyhaza","address":null,"covered":false,"access":null,"website":null,"phone":null,"source":"OpenStreetMap/node/12778392985","sourceUpdatedAt":"2026-04-04T22:50:04.678779+00:00","verifiedAt":null}},{"type":"Feature","geometry":{"type":"Point","coordinates":[19.8497428,46.6948412]},"properties":{"id":"bikerack:36501cf0-903d-4f72-8a40-816063966dce","kind":"bikerack","longitude":19.8497428,"latitude":46.6948412,"name":"Biciklitároló","city":"Kiskunfelegyhaza","address":null,"covered":false,"access":null,"website":null,"phone":null,"source":"OpenStreetMap/node/10721620023","sourceUpdatedAt":"2026-04-04T22:50:04.678779+00:00","verifiedAt":null}},{"type":"Feature","geometry":{"type":"Point","coordinates":[19.8448303,46.7107291]},"properties":{"id":"bikerack:3662e68a-b9ea-4ddc-a03e-8ea81cff6ce6","kind":"bikerack","longitude":19.8448303,"latitude":46.7107291,"name":"Biciklitároló","city":"Kiskunfelegyhaza","address":null,"covered":false,"access":null,"website":null,"phone":null,"source":"OpenStreetMap/node/10719433203","sourceUpdatedAt":"2026-04-04T22:50:04.678779+00:00","verifiedAt":null}},{"type":"Feature","geometry":{"type":"Point","coordinates":[19.8421293,46.7096881]},"properties":{"id":"bikerack:380642f4-a98b-4ee2-a2a1-1f95c53e171d","kind":"bikerack","longitude":19.8421293,"latitude":46.7096881,"name":"Biciklitároló","city":"Kiskunfelegyhaza","address":null,"covered":false,"access":null,"website":null,"phone":null,"source":"OpenStreetMap/node/10719512109","sourceUpdatedAt":"2026-04-04T22:50:04.678779+00:00","verifiedAt":null}},{"type":"Feature","geometry":{"type":"Point","coordinates":[19.846456,46.7229036]},"properties":{"id":"bikerack:3872dac0-56bf-4521-a7bc-7843cabcb1ff","kind":"bikerack","longitude":19.846456,"latitude":46.7229036,"name":"Biciklitároló","city":"Kiskunfelegyhaza","address":null,"covered":true,"access":null,"website":null,"phone":null,"source":"OpenStreetMap/node/11878365878","sourceUpdatedAt":"2026-04-04T22:50:04.678779+00:00","verifiedAt":null}},{"type":"Feature","geometry":{"type":"Point","coordinates":[19.8477338,46.7117011]},"properties":{"id":"bikerack:39af7da6-6c26-44f6-b746-1d9c7e3b87c9","kind":"bikerack","longitude":19.8477338,"latitude":46.7117011,"name":"Biciklitároló","city":"Kiskunfelegyhaza","address":null,"covered":false,"access":null,"website":null,"phone":null,"source":"OpenStreetMap/node/10719512046","sourceUpdatedAt":"2026-04-04T22:50:04.678779+00:00","verifiedAt":null}},{"type":"Feature","geometry":{"type":"Point","coordinates":[19.8483789,46.7116404]},"properties":{"id":"bikerack:3d1d141f-b8fe-468c-9eaf-456638d13594","kind":"bikerack","longitude":19.8483789,"latitude":46.7116404,"name":"Biciklitároló","city":"Kiskunfelegyhaza","address":null,"covered":false,"access":null,"website":null,"phone":null,"source":"OpenStreetMap/node/10719512044","sourceUpdatedAt":"2026-04-04T22:50:04.678779+00:00","verifiedAt":null}},{"type":"Feature","geometry":{"type":"Point","coordinates":[19.7527169,46.7629685]},"properties":{"id":"bikerack:3dd9d9ed-b4b6-427d-81d2-8258d2244e7d","kind":"bikerack","longitude":19.7527169,"latitude":46.7629685,"name":"Biciklitároló","city":"Fueloepjakab","address":null,"covered":false,"access":null,"website":null,"phone":null,"source":"OpenStreetMap/node/5823228517","sourceUpdatedAt":"2026-04-04T22:50:04.678779+00:00","verifiedAt":null}},{"type":"Feature","geometry":{"type":"Point","coordinates":[19.8502363,46.7127006]},"properties":{"id":"bikerack:447e6411-7853-45d4-8d74-b29fc00fb981","kind":"bikerack","longitude":19.8502363,"latitude":46.7127006,"name":"Biciklitároló","city":"Kiskunfelegyhaza","address":null,"covered":false,"access":null,"website":null,"phone":null,"source":"OpenStreetMap/node/10719512034","sourceUpdatedAt":"2026-04-04T22:50:04.678779+00:00","verifiedAt":null}},{"type":"Feature","geometry":{"type":"Point","coordinates":[19.842765,46.709953]},"properties":{"id":"bikerack:45468b35-5e68-4ec2-baee-29db653fbb40","kind":"bikerack","longitude":19.842765,"latitude":46.709953,"name":"Biciklitároló","city":"Kiskunfelegyhaza","address":null,"covered":false,"access":null,"website":null,"phone":null,"source":"OpenStreetMap/node/10719512108","sourceUpdatedAt":"2026-04-04T22:50:04.678779+00:00","verifiedAt":null}},{"type":"Feature","geometry":{"type":"Point","coordinates":[19.8516465,46.7117342]},"properties":{"id":"bikerack:47d50f57-2697-46fe-82e3-9f05863a49ed","kind":"bikerack","longitude":19.8516465,"latitude":46.7117342,"name":"Biciklitároló","city":"Kiskunfelegyhaza","address":null,"covered":false,"access":null,"website":null,"phone":null,"source":"OpenStreetMap/node/10721674781","sourceUpdatedAt":"2026-04-04T22:50:04.678779+00:00","verifiedAt":null}},{"type":"Feature","geometry":{"type":"Point","coordinates":[20.0338355,46.7535411]},"properties":{"id":"bikerack:52d51c63-f958-4ff5-b54d-489b8c541b61","kind":"bikerack","longitude":20.0338355,"latitude":46.7535411,"name":"Biciklitároló","city":"Tiszaalpar","address":null,"covered":true,"access":null,"website":null,"phone":null,"source":"OpenStreetMap/node/10641183080","sourceUpdatedAt":"2026-04-04T22:50:04.678779+00:00","verifiedAt":null}},{"type":"Feature","geometry":{"type":"Point","coordinates":[19.8473315,46.7116266]},"properties":{"id":"bikerack:5612be7d-bcfd-4e8a-9bdb-56803b931210","kind":"bikerack","longitude":19.8473315,"latitude":46.7116266,"name":"Biciklitároló","city":"Kiskunfelegyhaza","address":null,"covered":false,"access":null,"website":null,"phone":null,"source":"OpenStreetMap/node/10719512051","sourceUpdatedAt":"2026-04-04T22:50:04.678779+00:00","verifiedAt":null}},{"type":"Feature","geometry":{"type":"Point","coordinates":[19.8467146,46.7114289]},"properties":{"id":"bikerack:593c32fc-42cb-432e-b4bd-9ca8532fe460","kind":"bikerack","longitude":19.8467146,"latitude":46.7114289,"name":"Biciklitároló","city":"Kiskunfelegyhaza","address":null,"covered":false,"access":null,"website":null,"phone":null,"source":"OpenStreetMap/node/10719433188","sourceUpdatedAt":"2026-04-04T22:50:04.678779+00:00","verifiedAt":null}},{"type":"Feature","geometry":{"type":"Point","coordinates":[19.8349795,46.7067146]},"properties":{"id":"bikerack:5deee111-fe08-4387-be07-10a640608f41","kind":"bikerack","longitude":19.8349795,"latitude":46.7067146,"name":"Biciklitároló","city":"Kiskunfelegyhaza","address":null,"covered":true,"access":null,"website":null,"phone":null,"source":"OpenStreetMap/way/1152478513","sourceUpdatedAt":"2026-04-04T22:50:04.678779+00:00","verifiedAt":null}},{"type":"Feature","geometry":{"type":"Point","coordinates":[19.8466703,46.7243756]},"properties":{"id":"bikerack:5e623da9-138d-411d-96d5-7acb8f04b2a1","kind":"bikerack","longitude":19.8466703,"latitude":46.7243756,"name":"Biciklitároló","city":"Kiskunfelegyhaza","address":null,"covered":false,"access":null,"website":null,"phone":null,"source":"OpenStreetMap/node/10721552820","sourceUpdatedAt":"2026-04-04T22:50:04.678779+00:00","verifiedAt":null}},{"type":"Feature","geometry":{"type":"Point","coordinates":[19.9902597,46.7815356]},"properties":{"id":"bikerack:5ed3af9c-56cb-4446-9c6a-c3d99e2e71e2","kind":"bikerack","longitude":19.9902597,"latitude":46.7815356,"name":"Biciklitároló","city":"Tiszaalpar","address":null,"covered":true,"access":null,"website":null,"phone":null,"source":"OpenStreetMap/node/10723220032","sourceUpdatedAt":"2026-04-04T22:50:04.678779+00:00","verifiedAt":null}},{"type":"Feature","geometry":{"type":"Point","coordinates":[19.8489811,46.7119162]},"properties":{"id":"bikerack:5ee7990e-4336-4298-923a-56d79a358e4d","kind":"bikerack","longitude":19.8489811,"latitude":46.7119162,"name":"Biciklitároló","city":"Kiskunfelegyhaza","address":null,"covered":false,"access":null,"website":null,"phone":null,"source":"OpenStreetMap/node/10719512041","sourceUpdatedAt":"2026-04-04T22:50:04.678779+00:00","verifiedAt":null}},{"type":"Feature","geometry":{"type":"Point","coordinates":[19.8375997,46.7083673]},"properties":{"id":"bikerack:5f7f5bcb-95b2-4278-962f-3fcb9b44f5bb","kind":"bikerack","longitude":19.8375997,"latitude":46.7083673,"name":"Biciklitároló","city":"Kiskunfelegyhaza","address":null,"covered":false,"access":null,"website":null,"phone":null,"source":"OpenStreetMap/node/12536275003","sourceUpdatedAt":"2026-04-04T22:50:04.678779+00:00","verifiedAt":null}},{"type":"Feature","geometry":{"type":"Point","coordinates":[19.851336,46.7113029]},"properties":{"id":"bikerack:62da2d30-6ab8-4be2-aae0-59a4e4583c21","kind":"bikerack","longitude":19.851336,"latitude":46.7113029,"name":"Biciklitároló","city":"Kiskunfelegyhaza","address":null,"covered":false,"access":null,"website":null,"phone":null,"source":"OpenStreetMap/node/10721674774","sourceUpdatedAt":"2026-04-04T22:50:04.678779+00:00","verifiedAt":null}},{"type":"Feature","geometry":{"type":"Point","coordinates":[19.8480503,46.7116459]},"properties":{"id":"bikerack:6430ee65-e976-47e7-8dd7-c9d9e7c75e39","kind":"bikerack","longitude":19.8480503,"latitude":46.7116459,"name":"Biciklitároló","city":"Kiskunfelegyhaza","address":null,"covered":false,"access":null,"website":null,"phone":null,"source":"OpenStreetMap/node/10719512049","sourceUpdatedAt":"2026-04-04T22:50:04.678779+00:00","verifiedAt":null}},{"type":"Feature","geometry":{"type":"Point","coordinates":[19.8488751,46.6894856]},"properties":{"id":"bikerack:6671dd1a-b5bc-4011-bfee-ff56364fc4ec","kind":"bikerack","longitude":19.8488751,"latitude":46.6894856,"name":"Biciklitároló","city":"Kiskunfelegyhaza","address":null,"covered":false,"access":null,"website":null,"phone":null,"source":"OpenStreetMap/node/10721620026","sourceUpdatedAt":"2026-04-04T22:50:04.678779+00:00","verifiedAt":null}},{"type":"Feature","geometry":{"type":"Point","coordinates":[19.9969498,46.7894001]},"properties":{"id":"bikerack:684e2b91-2cc9-4211-93fd-f85c73e72502","kind":"bikerack","longitude":19.9969498,"latitude":46.7894001,"name":"Biciklitároló","city":"Tiszaalpar","address":null,"covered":true,"access":null,"website":null,"phone":null,"source":"OpenStreetMap/way/1152881472","sourceUpdatedAt":"2026-04-04T22:50:04.678779+00:00","verifiedAt":null}},{"type":"Feature","geometry":{"type":"Point","coordinates":[19.7481446,46.7600786]},"properties":{"id":"bikerack:695b8a38-fac1-4b02-a720-dcc38809baca","kind":"bikerack","longitude":19.7481446,"latitude":46.7600786,"name":"Biciklitároló","city":"Fueloepjakab","address":null,"covered":false,"access":null,"website":null,"phone":null,"source":"OpenStreetMap/node/5823289513","sourceUpdatedAt":"2026-04-04T22:50:04.678779+00:00","verifiedAt":null}},{"type":"Feature","geometry":{"type":"Point","coordinates":[19.8469761,46.7114537]},"properties":{"id":"bikerack:6b53798a-300d-4b2f-8cf8-64adb62828c7","kind":"bikerack","longitude":19.8469761,"latitude":46.7114537,"name":"Biciklitároló","city":"Kiskunfelegyhaza","address":null,"covered":false,"access":null,"website":null,"phone":null,"source":"OpenStreetMap/node/10719512054","sourceUpdatedAt":"2026-04-04T22:50:04.678779+00:00","verifiedAt":null}},{"type":"Feature","geometry":{"type":"Point","coordinates":[19.8498501,46.7142997]},"properties":{"id":"bikerack:6c62715e-ab80-479f-bc53-154ac616a77f","kind":"bikerack","longitude":19.8498501,"latitude":46.7142997,"name":"Biciklitároló","city":"Kiskunfelegyhaza","address":null,"covered":false,"access":null,"website":null,"phone":null,"source":"OpenStreetMap/node/10719512014","sourceUpdatedAt":"2026-04-04T22:50:04.678779+00:00","verifiedAt":null}},{"type":"Feature","geometry":{"type":"Point","coordinates":[19.8476775,46.7115944]},"properties":{"id":"bikerack:6c7907cb-1fe8-4922-8086-abf4f9bb763e","kind":"bikerack","longitude":19.8476775,"latitude":46.7115944,"name":"Biciklitároló","city":"Kiskunfelegyhaza","address":null,"covered":false,"access":null,"website":null,"phone":null,"source":"OpenStreetMap/node/10719512050","sourceUpdatedAt":"2026-04-04T22:50:04.678779+00:00","verifiedAt":null}},{"type":"Feature","geometry":{"type":"Point","coordinates":[19.85075,46.7133093]},"properties":{"id":"bikerack:6d982722-b9fb-4c89-9d21-b87cfdfd3188","kind":"bikerack","longitude":19.85075,"latitude":46.7133093,"name":"Biciklitároló","city":"Kiskunfelegyhaza","address":null,"covered":false,"access":null,"website":null,"phone":null,"source":"OpenStreetMap/node/10721674790","sourceUpdatedAt":"2026-04-04T22:50:04.678779+00:00","verifiedAt":null}},{"type":"Feature","geometry":{"type":"Point","coordinates":[19.843457,46.710216]},"properties":{"id":"bikerack:6ecb14b9-1b4e-4457-8fc5-0d2f30ec51fe","kind":"bikerack","longitude":19.843457,"latitude":46.710216,"name":"Biciklitároló","city":"Kiskunfelegyhaza","address":null,"covered":false,"access":null,"website":null,"phone":null,"source":"OpenStreetMap/node/10719512107","sourceUpdatedAt":"2026-04-04T22:50:04.678779+00:00","verifiedAt":null}},{"type":"Feature","geometry":{"type":"Point","coordinates":[19.8492908,46.7118151]},"properties":{"id":"bikerack:6fc7f3da-8372-4bc5-b7f6-182d667cb91e","kind":"bikerack","longitude":19.8492908,"latitude":46.7118151,"name":"Biciklitároló","city":"Kiskunfelegyhaza","address":null,"covered":false,"access":null,"website":null,"phone":null,"source":"OpenStreetMap/node/10719512040","sourceUpdatedAt":"2026-04-04T22:50:04.678779+00:00","verifiedAt":null}},{"type":"Feature","geometry":{"type":"Point","coordinates":[19.957467,46.6832122]},"properties":{"id":"bikerack:71bc5bcd-2ea0-4804-9a93-a50dea9698a8","kind":"bikerack","longitude":19.957467,"latitude":46.6832122,"name":"Biciklitároló","city":"Palmonostora","address":null,"covered":false,"access":null,"website":null,"phone":null,"source":"OpenStreetMap/node/10721762494","sourceUpdatedAt":"2026-04-04T22:50:04.678779+00:00","verifiedAt":null}},{"type":"Feature","geometry":{"type":"Point","coordinates":[19.8518497,46.7119392]},"properties":{"id":"bikerack:738d2e8a-0e54-425a-ab1e-bd00290b872c","kind":"bikerack","longitude":19.8518497,"latitude":46.7119392,"name":"Biciklitároló","city":"Kiskunfelegyhaza","address":null,"covered":false,"access":null,"website":null,"phone":null,"source":"OpenStreetMap/node/10721674783","sourceUpdatedAt":"2026-04-04T22:50:04.678779+00:00","verifiedAt":null}},{"type":"Feature","geometry":{"type":"Point","coordinates":[19.8506065,46.7113774]},"properties":{"id":"bikerack:7ab16d30-413d-480a-adbe-86780ac3b45b","kind":"bikerack","longitude":19.8506065,"latitude":46.7113774,"name":"Biciklitároló","city":"Kiskunfelegyhaza","address":null,"covered":false,"access":null,"website":null,"phone":null,"source":"OpenStreetMap/node/10721620060","sourceUpdatedAt":"2026-04-04T22:50:04.678779+00:00","verifiedAt":null}},{"type":"Feature","geometry":{"type":"Point","coordinates":[19.8509793,46.7112155]},"properties":{"id":"bikerack:7b8f9107-0f31-4a14-8143-3db2d0ddda2c","kind":"bikerack","longitude":19.8509793,"latitude":46.7112155,"name":"Biciklitároló","city":"Kiskunfelegyhaza","address":null,"covered":false,"access":null,"website":null,"phone":null,"source":"OpenStreetMap/node/10721674773","sourceUpdatedAt":"2026-04-04T22:50:04.678779+00:00","verifiedAt":null}},{"type":"Feature","geometry":{"type":"Point","coordinates":[19.8440693,46.7104514]},"properties":{"id":"bikerack:7bb73cca-7fcb-432c-8abb-ea7b1d03b2b9","kind":"bikerack","longitude":19.8440693,"latitude":46.7104514,"name":"Biciklitároló","city":"Kiskunfelegyhaza","address":null,"covered":false,"access":null,"website":null,"phone":null,"source":"OpenStreetMap/node/10719512105","sourceUpdatedAt":"2026-04-04T22:50:04.678779+00:00","verifiedAt":null}},{"type":"Feature","geometry":{"type":"Point","coordinates":[19.8352437,46.7071373]},"properties":{"id":"bikerack:7c1f0c97-0937-44b2-bdd6-b4265c2f17b9","kind":"bikerack","longitude":19.8352437,"latitude":46.7071373,"name":"B+R","city":"Kiskunfelegyhaza","address":null,"covered":true,"access":null,"website":null,"phone":null,"source":"OpenStreetMap/node/1276820884","sourceUpdatedAt":"2026-04-04T22:50:04.687666+00:00","verifiedAt":null}},{"type":"Feature","geometry":{"type":"Point","coordinates":[19.8486917,46.7117336]},"properties":{"id":"bikerack:7e76b048-225b-4e5f-a2a7-0e5b9f5352d7","kind":"bikerack","longitude":19.8486917,"latitude":46.7117336,"name":"Biciklitároló","city":"Kiskunfelegyhaza","address":null,"covered":false,"access":null,"website":null,"phone":null,"source":"OpenStreetMap/node/10719512042","sourceUpdatedAt":"2026-04-04T22:50:04.678779+00:00","verifiedAt":null}},{"type":"Feature","geometry":{"type":"Point","coordinates":[19.8470888,46.7115907]},"properties":{"id":"bikerack:81864e20-4563-4f33-8564-9bcf14570689","kind":"bikerack","longitude":19.8470888,"latitude":46.7115907,"name":"Biciklitároló","city":"Kiskunfelegyhaza","address":null,"covered":false,"access":null,"website":null,"phone":null,"source":"OpenStreetMap/node/10719512053","sourceUpdatedAt":"2026-04-04T22:50:04.678779+00:00","verifiedAt":null}},{"type":"Feature","geometry":{"type":"Point","coordinates":[19.8510987,46.7127815]},"properties":{"id":"bikerack:870f7c50-9261-4245-afa1-7141cbe0bc5c","kind":"bikerack","longitude":19.8510987,"latitude":46.7127815,"name":"Biciklitároló","city":"Kiskunfelegyhaza","address":null,"covered":false,"access":null,"website":null,"phone":null,"source":"OpenStreetMap/node/10721674789","sourceUpdatedAt":"2026-04-04T22:50:04.678779+00:00","verifiedAt":null}},{"type":"Feature","geometry":{"type":"Point","coordinates":[19.8517129,46.7114937]},"properties":{"id":"bikerack:8d6d5e0f-5b85-4b95-b158-c03f5d2f5787","kind":"bikerack","longitude":19.8517129,"latitude":46.7114937,"name":"Biciklitároló","city":"Kiskunfelegyhaza","address":null,"covered":false,"access":null,"website":null,"phone":null,"source":"OpenStreetMap/node/10721674780","sourceUpdatedAt":"2026-04-04T22:50:04.678779+00:00","verifiedAt":null}},{"type":"Feature","geometry":{"type":"Point","coordinates":[19.8465443,46.7113893]},"properties":{"id":"bikerack:998c18d3-fd70-44d9-abf1-79efea4297e0","kind":"bikerack","longitude":19.8465443,"latitude":46.7113893,"name":"Biciklitároló","city":"Kiskunfelegyhaza","address":null,"covered":false,"access":null,"website":null,"phone":null,"source":"OpenStreetMap/node/10719433190","sourceUpdatedAt":"2026-04-04T22:50:04.678779+00:00","verifiedAt":null}},{"type":"Feature","geometry":{"type":"Point","coordinates":[19.8513333,46.7125443]},"properties":{"id":"bikerack:9cd18322-a315-408e-9b5d-a5e051b47a5e","kind":"bikerack","longitude":19.8513333,"latitude":46.7125443,"name":"Biciklitároló","city":"Kiskunfelegyhaza","address":null,"covered":false,"access":null,"website":null,"phone":null,"source":"OpenStreetMap/node/10721674785","sourceUpdatedAt":"2026-04-04T22:50:04.678779+00:00","verifiedAt":null}},{"type":"Feature","geometry":{"type":"Point","coordinates":[19.7618591,46.7331003]},"properties":{"id":"bikerack:a5782cd3-6e91-4a9b-8a3e-09c67d3127fb","kind":"bikerack","longitude":19.7618591,"latitude":46.7331003,"name":"Biciklitároló","city":"Fueloepjakab","address":null,"covered":false,"access":null,"website":null,"phone":null,"source":"OpenStreetMap/node/13041028602","sourceUpdatedAt":"2026-04-04T22:50:04.678779+00:00","verifiedAt":null}},{"type":"Feature","geometry":{"type":"Point","coordinates":[19.8498353,46.7143291]},"properties":{"id":"bikerack:a821f88d-d4d6-42e0-9ff5-59e823ca9ed1","kind":"bikerack","longitude":19.8498353,"latitude":46.7143291,"name":"Biciklitároló","city":"Kiskunfelegyhaza","address":null,"covered":false,"access":null,"website":null,"phone":null,"source":"OpenStreetMap/node/10719512013","sourceUpdatedAt":"2026-04-04T22:50:04.678779+00:00","verifiedAt":null}},{"type":"Feature","geometry":{"type":"Point","coordinates":[20.0337578,46.7532178]},"properties":{"id":"bikerack:abe4549a-ba42-422d-ac6c-ae9dde6dd110","kind":"bikerack","longitude":20.0337578,"latitude":46.7532178,"name":"Biciklitároló","city":"Tiszaalpar","address":null,"covered":true,"access":null,"website":null,"phone":null,"source":"OpenStreetMap/way/1352897717","sourceUpdatedAt":"2026-04-04T22:50:04.678779+00:00","verifiedAt":null}},{"type":"Feature","geometry":{"type":"Point","coordinates":[19.8514795,46.7113176]},"properties":{"id":"bikerack:ac380fd9-234f-4906-9a54-2082851094f7","kind":"bikerack","longitude":19.8514795,"latitude":46.7113176,"name":"Biciklitároló","city":"Kiskunfelegyhaza","address":null,"covered":true,"access":null,"website":null,"phone":null,"source":"OpenStreetMap/node/10721674775","sourceUpdatedAt":"2026-04-04T22:50:04.678779+00:00","verifiedAt":null}},{"type":"Feature","geometry":{"type":"Point","coordinates":[19.8505166,46.7134601]},"properties":{"id":"bikerack:ad6b7869-3a50-483b-aefd-0b47515c79be","kind":"bikerack","longitude":19.8505166,"latitude":46.7134601,"name":"Biciklitároló","city":"Kiskunfelegyhaza","address":null,"covered":false,"access":null,"website":null,"phone":null,"source":"OpenStreetMap/node/10721674792","sourceUpdatedAt":"2026-04-04T22:50:04.678779+00:00","verifiedAt":null}},{"type":"Feature","geometry":{"type":"Point","coordinates":[19.8498192,46.6947738]},"properties":{"id":"bikerack:b5076597-a2c5-4d02-b2c8-9d883e2ae340","kind":"bikerack","longitude":19.8498192,"latitude":46.6947738,"name":"Biciklitároló","city":"Kiskunfelegyhaza","address":null,"covered":true,"access":null,"website":null,"phone":null,"source":"OpenStreetMap/way/1152710273","sourceUpdatedAt":"2026-04-04T22:50:04.678779+00:00","verifiedAt":null}},{"type":"Feature","geometry":{"type":"Point","coordinates":[19.8459622,46.7111576]},"properties":{"id":"bikerack:b70f16f5-cc37-4ca0-a9ae-5af896d0ff62","kind":"bikerack","longitude":19.8459622,"latitude":46.7111576,"name":"Biciklitároló","city":"Kiskunfelegyhaza","address":null,"covered":false,"access":null,"website":null,"phone":null,"source":"OpenStreetMap/node/10719433195","sourceUpdatedAt":"2026-04-04T22:50:04.678779+00:00","verifiedAt":null}},{"type":"Feature","geometry":{"type":"Point","coordinates":[19.851159,46.7126583]},"properties":{"id":"bikerack:b90ac37d-052c-4871-a32f-0c58936b8aee","kind":"bikerack","longitude":19.851159,"latitude":46.7126583,"name":"Biciklitároló","city":"Kiskunfelegyhaza","address":null,"covered":false,"access":null,"website":null,"phone":null,"source":"OpenStreetMap/node/10721674787","sourceUpdatedAt":"2026-04-04T22:50:04.678779+00:00","verifiedAt":null}},{"type":"Feature","geometry":{"type":"Point","coordinates":[19.8502108,46.7137075]},"properties":{"id":"bikerack:bff43e21-10aa-4420-bffa-6a88492399d7","kind":"bikerack","longitude":19.8502108,"latitude":46.7137075,"name":"Biciklitároló","city":"Kiskunfelegyhaza","address":null,"covered":false,"access":null,"website":null,"phone":null,"source":"OpenStreetMap/node/10721674793","sourceUpdatedAt":"2026-04-04T22:50:04.678779+00:00","verifiedAt":null}},{"type":"Feature","geometry":{"type":"Point","coordinates":[19.850632,46.7134914]},"properties":{"id":"bikerack:c5f704b9-3f7f-4736-a9b2-b45398493e2d","kind":"bikerack","longitude":19.850632,"latitude":46.7134914,"name":"Biciklitároló","city":"Kiskunfelegyhaza","address":null,"covered":false,"access":null,"website":null,"phone":null,"source":"OpenStreetMap/node/10721674791","sourceUpdatedAt":"2026-04-04T22:50:04.678779+00:00","verifiedAt":null}},{"type":"Feature","geometry":{"type":"Point","coordinates":[19.8360661,46.7084034]},"properties":{"id":"bikerack:c81a5f63-a448-4d6a-9cd9-8fff42fe5f5a","kind":"bikerack","longitude":19.8360661,"latitude":46.7084034,"name":"Biciklitároló","city":"Kiskunfelegyhaza","address":null,"covered":false,"access":null,"website":null,"phone":null,"source":"OpenStreetMap/node/12058922619","sourceUpdatedAt":"2026-04-04T22:50:04.678779+00:00","verifiedAt":null}},{"type":"Feature","geometry":{"type":"Point","coordinates":[19.8520589,46.7119705]},"properties":{"id":"bikerack:c9dd7bf6-a108-4596-9b73-27413b553494","kind":"bikerack","longitude":19.8520589,"latitude":46.7119705,"name":"Biciklitároló","city":"Kiskunfelegyhaza","address":null,"covered":false,"access":null,"website":null,"phone":null,"source":"OpenStreetMap/node/10721674784","sourceUpdatedAt":"2026-04-04T22:50:04.678779+00:00","verifiedAt":null}},{"type":"Feature","geometry":{"type":"Point","coordinates":[19.8469345,46.7115539]},"properties":{"id":"bikerack:cb107983-1df8-490c-b65b-a46ea235536a","kind":"bikerack","longitude":19.8469345,"latitude":46.7115539,"name":"Biciklitároló","city":"Kiskunfelegyhaza","address":null,"covered":false,"access":null,"website":null,"phone":null,"source":"OpenStreetMap/node/10719512052","sourceUpdatedAt":"2026-04-04T22:50:04.678779+00:00","verifiedAt":null}},{"type":"Feature","geometry":{"type":"Point","coordinates":[19.8449993,46.7107806]},"properties":{"id":"bikerack:ce649ca7-315e-4215-9de0-799777a7282b","kind":"bikerack","longitude":19.8449993,"latitude":46.7107806,"name":"Biciklitároló","city":"Kiskunfelegyhaza","address":null,"covered":false,"access":null,"website":null,"phone":null,"source":"OpenStreetMap/node/10719433201","sourceUpdatedAt":"2026-04-04T22:50:04.678779+00:00","verifiedAt":null}},{"type":"Feature","geometry":{"type":"Point","coordinates":[19.7554712,46.5696077]},"properties":{"id":"bikerack:d16272ca-0da0-4fa8-8022-e61a3af2a922","kind":"bikerack","longitude":19.7554712,"latitude":46.5696077,"name":"Biciklitároló","city":"Jaszszentlaszlo","address":null,"covered":false,"access":null,"website":null,"phone":null,"source":"OpenStreetMap/node/7431917877","sourceUpdatedAt":"2026-04-04T22:50:04.678779+00:00","verifiedAt":null}},{"type":"Feature","geometry":{"type":"Point","coordinates":[19.8510906,46.7126381]},"properties":{"id":"bikerack:d179454d-2f8b-45ee-9afb-73f9688e3f0b","kind":"bikerack","longitude":19.8510906,"latitude":46.7126381,"name":"Biciklitároló","city":"Kiskunfelegyhaza","address":null,"covered":false,"access":null,"website":null,"phone":null,"source":"OpenStreetMap/node/10721674788","sourceUpdatedAt":"2026-04-04T22:50:04.678779+00:00","verifiedAt":null}},{"type":"Feature","geometry":{"type":"Point","coordinates":[19.8517022,46.7119273]},"properties":{"id":"bikerack:d826144c-7fea-4015-bd81-c773c768cc19","kind":"bikerack","longitude":19.8517022,"latitude":46.7119273,"name":"Biciklitároló","city":"Kiskunfelegyhaza","address":null,"covered":false,"access":null,"website":null,"phone":null,"source":"OpenStreetMap/node/10721674782","sourceUpdatedAt":"2026-04-04T22:50:04.678779+00:00","verifiedAt":null}},{"type":"Feature","geometry":{"type":"Point","coordinates":[19.8462747,46.7115447]},"properties":{"id":"bikerack:e1c44471-54e6-4ad7-8d86-90459bb8e487","kind":"bikerack","longitude":19.8462747,"latitude":46.7115447,"name":"Biciklitároló","city":"Kiskunfelegyhaza","address":null,"covered":false,"access":null,"website":null,"phone":null,"source":"OpenStreetMap/node/10719433189","sourceUpdatedAt":"2026-04-04T22:50:04.678779+00:00","verifiedAt":null}},{"type":"Feature","geometry":{"type":"Point","coordinates":[19.8480892,46.7117516]},"properties":{"id":"bikerack:eba5d03b-6a9a-4660-8473-bcb8e1d6d818","kind":"bikerack","longitude":19.8480892,"latitude":46.7117516,"name":"Biciklitároló","city":"Kiskunfelegyhaza","address":null,"covered":false,"access":null,"website":null,"phone":null,"source":"OpenStreetMap/node/10719512048","sourceUpdatedAt":"2026-04-04T22:50:04.678779+00:00","verifiedAt":null}},{"type":"Feature","geometry":{"type":"Point","coordinates":[19.8482957,46.7116266]},"properties":{"id":"bikerack:ed67d68a-deec-46da-a173-92503c2df959","kind":"bikerack","longitude":19.8482957,"latitude":46.7116266,"name":"Biciklitároló","city":"Kiskunfelegyhaza","address":null,"covered":false,"access":null,"website":null,"phone":null,"source":"OpenStreetMap/node/10719512045","sourceUpdatedAt":"2026-04-04T22:50:04.678779+00:00","verifiedAt":null}},{"type":"Feature","geometry":{"type":"Point","coordinates":[19.8512569,46.7124661]},"properties":{"id":"bikerack:edede167-78f6-435a-ac44-37e460629d3a","kind":"bikerack","longitude":19.8512569,"latitude":46.7124661,"name":"Biciklitároló","city":"Kiskunfelegyhaza","address":null,"covered":false,"access":null,"website":null,"phone":null,"source":"OpenStreetMap/node/10721674786","sourceUpdatedAt":"2026-04-04T22:50:04.678779+00:00","verifiedAt":null}},{"type":"Feature","geometry":{"type":"Point","coordinates":[20.0339529,46.753294]},"properties":{"id":"bikerack:f019d721-0b99-4d94-8988-af8641d1d7bd","kind":"bikerack","longitude":20.0339529,"latitude":46.753294,"name":"Biciklitároló","city":"Tiszaalpar","address":null,"covered":false,"access":null,"website":null,"phone":null,"source":"OpenStreetMap/node/10723220046","sourceUpdatedAt":"2026-04-04T22:50:04.678779+00:00","verifiedAt":null}},{"type":"Feature","geometry":{"type":"Point","coordinates":[19.8504764,46.7121489]},"properties":{"id":"bikerack:f0470442-8bfe-4db8-9beb-d559b94d16c0","kind":"bikerack","longitude":19.8504764,"latitude":46.7121489,"name":"Biciklitároló","city":"Kiskunfelegyhaza","address":null,"covered":false,"access":null,"website":null,"phone":null,"source":"OpenStreetMap/node/10719512035","sourceUpdatedAt":"2026-04-04T22:50:04.678779+00:00","verifiedAt":null}},{"type":"Feature","geometry":{"type":"Point","coordinates":[19.835169,46.7071252]},"properties":{"id":"bikerack:f3ed28fe-df75-434b-b42f-45b0d917d9a1","kind":"bikerack","longitude":19.835169,"latitude":46.7071252,"name":"Biciklitároló","city":"Kiskunfelegyhaza","address":null,"covered":false,"access":null,"website":null,"phone":null,"source":"OpenStreetMap/node/10719512126","sourceUpdatedAt":"2026-04-04T22:50:04.678779+00:00","verifiedAt":null}},{"type":"Feature","geometry":{"type":"Point","coordinates":[19.850589,46.7114473]},"properties":{"id":"bikerack:f5b4dc25-2016-4b2d-ab68-949433e51a94","kind":"bikerack","longitude":19.850589,"latitude":46.7114473,"name":"Biciklitároló","city":"Kiskunfelegyhaza","address":null,"covered":false,"access":null,"website":null,"phone":null,"source":"OpenStreetMap/node/10721620061","sourceUpdatedAt":"2026-04-04T22:50:04.678779+00:00","verifiedAt":null}},{"type":"Feature","geometry":{"type":"Point","coordinates":[19.850176,46.7105397]},"properties":{"id":"bikerack:f88a70ce-970a-4b29-93a1-adbb81ed1869","kind":"bikerack","longitude":19.850176,"latitude":46.7105397,"name":"Biciklitároló","city":"Kiskunfelegyhaza","address":null,"covered":false,"access":null,"website":null,"phone":null,"source":"OpenStreetMap/node/10721620053","sourceUpdatedAt":"2026-04-04T22:50:04.678779+00:00","verifiedAt":null}},{"type":"Feature","geometry":{"type":"Point","coordinates":[19.8461728,46.71113]},"properties":{"id":"bikerack:f8a69f73-7b23-4948-a3d2-44345b1f8c6b","kind":"bikerack","longitude":19.8461728,"latitude":46.71113,"name":"Biciklitároló","city":"Kiskunfelegyhaza","address":null,"covered":false,"access":null,"website":null,"phone":null,"source":"OpenStreetMap/node/10719433193","sourceUpdatedAt":"2026-04-04T22:50:04.678779+00:00","verifiedAt":null}},{"type":"Feature","geometry":{"type":"Point","coordinates":[19.9571291,46.6837568]},"properties":{"id":"bikerack:f8f54252-e668-4971-ade3-cda6559f2f86","kind":"bikerack","longitude":19.9571291,"latitude":46.6837568,"name":"Biciklitároló","city":"Palmonostora","address":null,"covered":false,"access":null,"website":null,"phone":null,"source":"OpenStreetMap/node/10721762495","sourceUpdatedAt":"2026-04-04T22:50:04.678779+00:00","verifiedAt":null}},{"type":"Feature","geometry":{"type":"Point","coordinates":[19.7938037,46.6942466]},"properties":{"id":"bikerack:f9841047-bb67-462d-83e4-fd47200179fb","kind":"bikerack","longitude":19.7938037,"latitude":46.6942466,"name":"Biciklitároló","city":"Kiskunfelegyhaza","address":null,"covered":false,"access":null,"website":null,"phone":null,"source":"OpenStreetMap/node/12778392986","sourceUpdatedAt":"2026-04-04T22:50:04.678779+00:00","verifiedAt":null}},{"type":"Feature","geometry":{"type":"Point","coordinates":[19.8479323,46.7117305]},"properties":{"id":"bikerack:fa46d7a6-2845-49a6-a827-782e2ae9a3af","kind":"bikerack","longitude":19.8479323,"latitude":46.7117305,"name":"Biciklitároló","city":"Kiskunfelegyhaza","address":null,"covered":false,"access":null,"website":null,"phone":null,"source":"OpenStreetMap/node/10719512047","sourceUpdatedAt":"2026-04-04T22:50:04.678779+00:00","verifiedAt":null}},{"type":"Feature","geometry":{"type":"Point","coordinates":[19.8512706,46.7110834]},"properties":{"id":"bikerack:fdb5f067-3c7c-43c1-8dc2-76814d91f9ff","kind":"bikerack","longitude":19.8512706,"latitude":46.7110834,"name":"Biciklitároló","city":"Kiskunfelegyhaza","address":null,"covered":false,"access":null,"website":null,"phone":null,"source":"OpenStreetMap/node/12328527483","sourceUpdatedAt":"2026-04-04T22:50:04.678779+00:00","verifiedAt":null}},{"type":"Feature","geometry":{"type":"Point","coordinates":[19.8464155,46.7113581]},"properties":{"id":"bikerack:ff807ddd-13ce-45c1-8f87-fa4ac46cb0b0","kind":"bikerack","longitude":19.8464155,"latitude":46.7113581,"name":"Biciklitároló","city":"Kiskunfelegyhaza","address":null,"covered":false,"access":null,"website":null,"phone":null,"source":"OpenStreetMap/node/10719433191","sourceUpdatedAt":"2026-04-04T22:50:04.678779+00:00","verifiedAt":null}},{"type":"Feature","geometry":{"type":"Point","coordinates":[19.8502471,46.7104734]},"properties":{"id":"service:279c3249-6b78-4ce8-92c6-cf81b0bc6b0d","kind":"service","longitude":19.8502471,"latitude":46.7104734,"name":"Motor & Kerékpár Világ","city":"Kiskunfelegyhaza","address":null,"covered":null,"access":null,"website":null,"phone":null,"source":"OpenStreetMap/node/10721620054","sourceUpdatedAt":"2026-04-04T22:58:27.613865+00:00","verifiedAt":null}},{"type":"Feature","geometry":{"type":"Point","coordinates":[19.8488132,46.71165]},"properties":{"id":"service:f4fc79d0-924b-45f1-8084-f85306ddbfc1","kind":"service","longitude":19.8488132,"latitude":46.71165,"name":"Bringabarát Kerékpárbolt és Szerviz","city":"Kiskunfélegyháza","address":null,"covered":null,"access":null,"website":null,"phone":null,"source":"OpenStreetMap/node/6556337044","sourceUpdatedAt":"2026-04-04T22:50:15.63529+00:00","verifiedAt":null}},{"type":"Feature","geometry":{"type":"Point","coordinates":[19.8455446,46.707298]},"properties":{"id":"water:03579fe2-4b95-4c79-8004-355d5c23c563","kind":"water","longitude":19.8455446,"latitude":46.707298,"name":"Ivókút","city":null,"address":null,"covered":null,"access":null,"website":null,"phone":null,"source":"OpenStreetMap","sourceUpdatedAt":"2026-04-04T22:50:22.71606+00:00","verifiedAt":null}},{"type":"Feature","geometry":{"type":"Point","coordinates":[19.8540756,46.7107463]},"properties":{"id":"water:070599fc-3933-49ec-ad5b-e0a827a436a8","kind":"water","longitude":19.8540756,"latitude":46.7107463,"name":"Ivókút","city":null,"address":null,"covered":null,"access":null,"website":null,"phone":null,"source":"OpenStreetMap","sourceUpdatedAt":"2026-04-04T22:50:22.71606+00:00","verifiedAt":null}},{"type":"Feature","geometry":{"type":"Point","coordinates":[19.8433717,46.7068754]},"properties":{"id":"water:096c6c9b-2c91-46ac-8c47-c29ea3d3e7b6","kind":"water","longitude":19.8433717,"latitude":46.7068754,"name":"Ivókút","city":null,"address":null,"covered":null,"access":null,"website":null,"phone":null,"source":"OpenStreetMap","sourceUpdatedAt":"2026-04-04T22:50:22.71606+00:00","verifiedAt":null}},{"type":"Feature","geometry":{"type":"Point","coordinates":[19.8463633,46.7010335]},"properties":{"id":"water:1227e16d-c7c3-4480-82ce-d12c72f2b080","kind":"water","longitude":19.8463633,"latitude":46.7010335,"name":"Ivókút","city":null,"address":null,"covered":null,"access":null,"website":null,"phone":null,"source":"OpenStreetMap","sourceUpdatedAt":"2026-04-04T22:50:22.71606+00:00","verifiedAt":null}},{"type":"Feature","geometry":{"type":"Point","coordinates":[19.834865,46.7067194]},"properties":{"id":"water:130df48a-9b69-4e9c-9cf3-9ae8bcdc2fd7","kind":"water","longitude":19.834865,"latitude":46.7067194,"name":"Ivókút","city":null,"address":null,"covered":null,"access":null,"website":null,"phone":null,"source":"OpenStreetMap","sourceUpdatedAt":"2026-04-04T22:50:22.71606+00:00","verifiedAt":null}},{"type":"Feature","geometry":{"type":"Point","coordinates":[19.7587,46.56841]},"properties":{"id":"water:13f818cd-6ec5-4fe6-9298-b93059d00625","kind":"water","longitude":19.7587,"latitude":46.56841,"name":"Ivókút","city":null,"address":null,"covered":null,"access":null,"website":null,"phone":null,"source":"OpenStreetMap","sourceUpdatedAt":"2026-04-04T22:50:22.71606+00:00","verifiedAt":null}},{"type":"Feature","geometry":{"type":"Point","coordinates":[19.8468125,46.7120284]},"properties":{"id":"water:170e432f-bea3-4d70-a72f-7b81b067ea0b","kind":"water","longitude":19.8468125,"latitude":46.7120284,"name":"Ivókút","city":null,"address":null,"covered":null,"access":null,"website":null,"phone":null,"source":"OpenStreetMap","sourceUpdatedAt":"2026-04-04T22:50:22.71606+00:00","verifiedAt":null}},{"type":"Feature","geometry":{"type":"Point","coordinates":[19.8427885,46.7099713]},"properties":{"id":"water:173fc473-2815-4982-9ad3-bbc0d31c71e5","kind":"water","longitude":19.8427885,"latitude":46.7099713,"name":"Ivókút","city":null,"address":null,"covered":null,"access":null,"website":null,"phone":null,"source":"OpenStreetMap","sourceUpdatedAt":"2026-04-04T22:50:22.71606+00:00","verifiedAt":null}},{"type":"Feature","geometry":{"type":"Point","coordinates":[19.7541809,46.5682295]},"properties":{"id":"water:1de25815-be01-40f6-b590-84f45ea2bad6","kind":"water","longitude":19.7541809,"latitude":46.5682295,"name":"Ivókút","city":null,"address":null,"covered":null,"access":null,"website":null,"phone":null,"source":"OpenStreetMap","sourceUpdatedAt":"2026-04-04T22:50:22.71606+00:00","verifiedAt":null}},{"type":"Feature","geometry":{"type":"Point","coordinates":[19.9621316,46.6848951]},"properties":{"id":"water:21255bd7-2fd6-439e-80cd-20b5e907e8aa","kind":"water","longitude":19.9621316,"latitude":46.6848951,"name":"Ivókút","city":null,"address":null,"covered":null,"access":null,"website":null,"phone":null,"source":"OpenStreetMap","sourceUpdatedAt":"2026-04-04T22:50:22.71606+00:00","verifiedAt":null}},{"type":"Feature","geometry":{"type":"Point","coordinates":[19.7225,46.741833]},"properties":{"id":"water:216a7984-196e-4207-ab29-aa3f93346b99","kind":"water","longitude":19.7225,"latitude":46.741833,"name":"Ivókút","city":null,"address":null,"covered":null,"access":null,"website":null,"phone":null,"source":"OpenStreetMap","sourceUpdatedAt":"2026-04-04T22:50:22.71606+00:00","verifiedAt":null}},{"type":"Feature","geometry":{"type":"Point","coordinates":[19.7225807,46.7403029]},"properties":{"id":"water:25d54fb0-b3b4-4972-92fd-625d44a41ec9","kind":"water","longitude":19.7225807,"latitude":46.7403029,"name":"Ivókút","city":null,"address":null,"covered":null,"access":null,"website":null,"phone":null,"source":"OpenStreetMap","sourceUpdatedAt":"2026-04-04T22:50:22.71606+00:00","verifiedAt":null}},{"type":"Feature","geometry":{"type":"Point","coordinates":[19.8485577,46.711939]},"properties":{"id":"water:2b743321-3c9c-44a7-818c-cb685869017c","kind":"water","longitude":19.8485577,"latitude":46.711939,"name":"Ivókút","city":null,"address":null,"covered":null,"access":null,"website":null,"phone":null,"source":"OpenStreetMap","sourceUpdatedAt":"2026-04-04T22:50:22.71606+00:00","verifiedAt":null}},{"type":"Feature","geometry":{"type":"Point","coordinates":[19.8565557,46.7130364]},"properties":{"id":"water:2c2bb462-e945-4a6a-a564-fd19a5639812","kind":"water","longitude":19.8565557,"latitude":46.7130364,"name":"Ivókút","city":null,"address":null,"covered":null,"access":null,"website":null,"phone":null,"source":"OpenStreetMap","sourceUpdatedAt":"2026-04-04T22:50:22.71606+00:00","verifiedAt":null}},{"type":"Feature","geometry":{"type":"Point","coordinates":[19.8502524,46.7080581]},"properties":{"id":"water:2fce3c26-720e-4077-9274-435c6886f083","kind":"water","longitude":19.8502524,"latitude":46.7080581,"name":"Ivókút","city":null,"address":null,"covered":null,"access":null,"website":null,"phone":null,"source":"OpenStreetMap","sourceUpdatedAt":"2026-04-04T22:50:22.71606+00:00","verifiedAt":null}},{"type":"Feature","geometry":{"type":"Point","coordinates":[19.8585604,46.7125334]},"properties":{"id":"water:3074540b-c028-4185-b4e5-0f4750bece2b","kind":"water","longitude":19.8585604,"latitude":46.7125334,"name":"Ivókút","city":null,"address":null,"covered":null,"access":null,"website":null,"phone":null,"source":"OpenStreetMap","sourceUpdatedAt":"2026-04-04T22:50:22.71606+00:00","verifiedAt":null}},{"type":"Feature","geometry":{"type":"Point","coordinates":[19.8675574,46.725357]},"properties":{"id":"water:43a60dab-6c3f-482d-b992-e33d0c0dfe98","kind":"water","longitude":19.8675574,"latitude":46.725357,"name":"Ivókút","city":null,"address":null,"covered":null,"access":null,"website":null,"phone":null,"source":"OpenStreetMap","sourceUpdatedAt":"2026-04-04T22:50:22.71606+00:00","verifiedAt":null}},{"type":"Feature","geometry":{"type":"Point","coordinates":[19.748493,46.573022]},"properties":{"id":"water:43ef86ca-8317-4060-8d29-e2d3479c61c2","kind":"water","longitude":19.748493,"latitude":46.573022,"name":"Ivókút","city":null,"address":null,"covered":null,"access":null,"website":null,"phone":null,"source":"OpenStreetMap","sourceUpdatedAt":"2026-04-04T22:50:22.71606+00:00","verifiedAt":null}},{"type":"Feature","geometry":{"type":"Point","coordinates":[19.8447249,46.7173472]},"properties":{"id":"water:4b470007-eb2c-45b7-9831-7076278b280c","kind":"water","longitude":19.8447249,"latitude":46.7173472,"name":"Ivókút","city":null,"address":null,"covered":null,"access":null,"website":null,"phone":null,"source":"OpenStreetMap","sourceUpdatedAt":"2026-04-04T22:50:22.71606+00:00","verifiedAt":null}},{"type":"Feature","geometry":{"type":"Point","coordinates":[19.8563379,46.7064757]},"properties":{"id":"water:5b98a81c-4ede-4113-9f8e-d5081fc5d2b0","kind":"water","longitude":19.8563379,"latitude":46.7064757,"name":"Ivókút","city":null,"address":null,"covered":null,"access":null,"website":null,"phone":null,"source":"OpenStreetMap","sourceUpdatedAt":"2026-04-04T22:50:22.71606+00:00","verifiedAt":null}},{"type":"Feature","geometry":{"type":"Point","coordinates":[19.7550504,46.5652472]},"properties":{"id":"water:60d989cd-d34d-4d6d-b9f5-d3d0eb747fcd","kind":"water","longitude":19.7550504,"latitude":46.5652472,"name":"Ivókút","city":null,"address":null,"covered":null,"access":null,"website":null,"phone":null,"source":"OpenStreetMap","sourceUpdatedAt":"2026-04-04T22:50:22.71606+00:00","verifiedAt":null}},{"type":"Feature","geometry":{"type":"Point","coordinates":[19.8477051,46.7219395]},"properties":{"id":"water:6a997255-5ebf-4d74-9713-dd5e12d2909f","kind":"water","longitude":19.8477051,"latitude":46.7219395,"name":"Ivókút","city":null,"address":null,"covered":null,"access":null,"website":null,"phone":null,"source":"OpenStreetMap","sourceUpdatedAt":"2026-04-04T22:50:22.71606+00:00","verifiedAt":null}},{"type":"Feature","geometry":{"type":"Point","coordinates":[19.8521684,46.7182987]},"properties":{"id":"water:71556e46-28d3-4cb0-b1ff-89a46b72a1aa","kind":"water","longitude":19.8521684,"latitude":46.7182987,"name":"Ivókút","city":null,"address":null,"covered":null,"access":null,"website":null,"phone":null,"source":"OpenStreetMap","sourceUpdatedAt":"2026-04-04T22:50:22.71606+00:00","verifiedAt":null}},{"type":"Feature","geometry":{"type":"Point","coordinates":[19.8496288,46.7050518]},"properties":{"id":"water:78977c0e-ed50-465d-9a31-315da26cf0e1","kind":"water","longitude":19.8496288,"latitude":46.7050518,"name":"Ivókút","city":null,"address":null,"covered":null,"access":null,"website":null,"phone":null,"source":"OpenStreetMap","sourceUpdatedAt":"2026-04-04T22:50:22.71606+00:00","verifiedAt":null}},{"type":"Feature","geometry":{"type":"Point","coordinates":[19.8658972,46.7250587]},"properties":{"id":"water:78bde9f8-8465-4a11-9c0e-cfe371e06aa0","kind":"water","longitude":19.8658972,"latitude":46.7250587,"name":"Ivókút","city":null,"address":null,"covered":null,"access":null,"website":null,"phone":null,"source":"OpenStreetMap","sourceUpdatedAt":"2026-04-04T22:50:22.71606+00:00","verifiedAt":null}},{"type":"Feature","geometry":{"type":"Point","coordinates":[19.8493377,46.6956208]},"properties":{"id":"water:7ae1722f-e8b5-49f7-a135-96261a248203","kind":"water","longitude":19.8493377,"latitude":46.6956208,"name":"Ivókút","city":null,"address":null,"covered":null,"access":null,"website":null,"phone":null,"source":"OpenStreetMap","sourceUpdatedAt":"2026-04-04T22:50:22.71606+00:00","verifiedAt":null}},{"type":"Feature","geometry":{"type":"Point","coordinates":[19.8472379,46.7079536]},"properties":{"id":"water:7b9dfd78-6531-4857-a519-c8b687d1d6dd","kind":"water","longitude":19.8472379,"latitude":46.7079536,"name":"Ivókút","city":null,"address":null,"covered":null,"access":null,"website":null,"phone":null,"source":"OpenStreetMap","sourceUpdatedAt":"2026-04-04T22:50:22.71606+00:00","verifiedAt":null}},{"type":"Feature","geometry":{"type":"Point","coordinates":[19.8528986,46.724553]},"properties":{"id":"water:7fb493d7-4885-42ef-bb4d-3ea30a6e0740","kind":"water","longitude":19.8528986,"latitude":46.724553,"name":"Ivókút","city":null,"address":null,"covered":null,"access":null,"website":null,"phone":null,"source":"OpenStreetMap","sourceUpdatedAt":"2026-04-04T22:50:22.71606+00:00","verifiedAt":null}},{"type":"Feature","geometry":{"type":"Point","coordinates":[19.9306798,46.6213202]},"properties":{"id":"water:812e5800-f73f-4b4d-b9a6-58e9eda409a7","kind":"water","longitude":19.9306798,"latitude":46.6213202,"name":"Ivókút","city":null,"address":null,"covered":null,"access":null,"website":null,"phone":null,"source":"OpenStreetMap","sourceUpdatedAt":"2026-04-04T22:50:22.71606+00:00","verifiedAt":null}},{"type":"Feature","geometry":{"type":"Point","coordinates":[19.8380434,46.7138323]},"properties":{"id":"water:82079336-f8a7-4c4f-b2f5-a76d3926ca23","kind":"water","longitude":19.8380434,"latitude":46.7138323,"name":"Ivókút","city":null,"address":null,"covered":null,"access":null,"website":null,"phone":null,"source":"OpenStreetMap","sourceUpdatedAt":"2026-04-04T22:50:22.71606+00:00","verifiedAt":null}},{"type":"Feature","geometry":{"type":"Point","coordinates":[19.8423277,46.7023662]},"properties":{"id":"water:8a414e4c-7820-474f-bd22-2a95a9de5acd","kind":"water","longitude":19.8423277,"latitude":46.7023662,"name":"Ivókút","city":null,"address":null,"covered":null,"access":null,"website":null,"phone":null,"source":"OpenStreetMap","sourceUpdatedAt":"2026-04-04T22:50:22.71606+00:00","verifiedAt":null}},{"type":"Feature","geometry":{"type":"Point","coordinates":[19.84148,46.70351]},"properties":{"id":"water:8c3d82b4-3673-4c05-931c-1196673883d6","kind":"water","longitude":19.84148,"latitude":46.70351,"name":"Ivókút","city":null,"address":null,"covered":null,"access":null,"website":null,"phone":null,"source":"OpenStreetMap","sourceUpdatedAt":"2026-04-04T22:50:22.71606+00:00","verifiedAt":null}},{"type":"Feature","geometry":{"type":"Point","coordinates":[19.8627409,46.7110952]},"properties":{"id":"water:8e3c3a65-d0bb-4b07-aeec-56678b57664a","kind":"water","longitude":19.8627409,"latitude":46.7110952,"name":"Ivókút","city":null,"address":null,"covered":null,"access":null,"website":null,"phone":null,"source":"OpenStreetMap","sourceUpdatedAt":"2026-04-04T22:50:22.71606+00:00","verifiedAt":null}},{"type":"Feature","geometry":{"type":"Point","coordinates":[19.8329964,46.7176526]},"properties":{"id":"water:8e590b9c-d28b-46be-8e12-95ec177e7f3a","kind":"water","longitude":19.8329964,"latitude":46.7176526,"name":"Ivókút","city":null,"address":null,"covered":null,"access":null,"website":null,"phone":null,"source":"OpenStreetMap","sourceUpdatedAt":"2026-04-04T22:50:22.71606+00:00","verifiedAt":null}},{"type":"Feature","geometry":{"type":"Point","coordinates":[20.0350837,46.753721]},"properties":{"id":"water:8ff9d5c9-b30c-4c9f-83e3-4ef649b2d39f","kind":"water","longitude":20.0350837,"latitude":46.753721,"name":"Ivókút","city":null,"address":null,"covered":null,"access":null,"website":null,"phone":null,"source":"OpenStreetMap","sourceUpdatedAt":"2026-04-04T22:50:22.71606+00:00","verifiedAt":null}},{"type":"Feature","geometry":{"type":"Point","coordinates":[19.86662,46.7106485]},"properties":{"id":"water:911156f7-20ce-45b5-8201-0621ac5edee6","kind":"water","longitude":19.86662,"latitude":46.7106485,"name":"Ivókút","city":null,"address":null,"covered":null,"access":null,"website":null,"phone":null,"source":"OpenStreetMap","sourceUpdatedAt":"2026-04-04T22:50:22.71606+00:00","verifiedAt":null}},{"type":"Feature","geometry":{"type":"Point","coordinates":[19.8494529,46.7225869]},"properties":{"id":"water:92837e49-c16b-496d-9b82-fe90edb28cdd","kind":"water","longitude":19.8494529,"latitude":46.7225869,"name":"Ivókút","city":null,"address":null,"covered":null,"access":null,"website":null,"phone":null,"source":"OpenStreetMap","sourceUpdatedAt":"2026-04-04T22:50:22.71606+00:00","verifiedAt":null}},{"type":"Feature","geometry":{"type":"Point","coordinates":[19.8471368,46.7034772]},"properties":{"id":"water:95531583-b310-4bf3-b6b7-0bf6b38b4ef9","kind":"water","longitude":19.8471368,"latitude":46.7034772,"name":"Ivókút","city":null,"address":null,"covered":null,"access":null,"website":null,"phone":null,"source":"OpenStreetMap","sourceUpdatedAt":"2026-04-04T22:50:22.71606+00:00","verifiedAt":null}},{"type":"Feature","geometry":{"type":"Point","coordinates":[19.8578811,46.7114449]},"properties":{"id":"water:96ebec6f-1531-4db7-bf90-d17a2cd14317","kind":"water","longitude":19.8578811,"latitude":46.7114449,"name":"Ivókút","city":null,"address":null,"covered":null,"access":null,"website":null,"phone":null,"source":"OpenStreetMap","sourceUpdatedAt":"2026-04-04T22:50:22.71606+00:00","verifiedAt":null}},{"type":"Feature","geometry":{"type":"Point","coordinates":[19.8549178,46.7066699]},"properties":{"id":"water:97c80928-64fd-49df-8581-c1d7b68a6981","kind":"water","longitude":19.8549178,"latitude":46.7066699,"name":"Ivókút","city":null,"address":null,"covered":null,"access":null,"website":null,"phone":null,"source":"OpenStreetMap","sourceUpdatedAt":"2026-04-04T22:50:22.71606+00:00","verifiedAt":null}},{"type":"Feature","geometry":{"type":"Point","coordinates":[19.840798,46.7109531]},"properties":{"id":"water:98f9861a-a8c7-429d-ada3-d468f331d9b3","kind":"water","longitude":19.840798,"latitude":46.7109531,"name":"Ivókút","city":null,"address":null,"covered":null,"access":null,"website":null,"phone":null,"source":"OpenStreetMap","sourceUpdatedAt":"2026-04-04T22:50:22.71606+00:00","verifiedAt":null}},{"type":"Feature","geometry":{"type":"Point","coordinates":[19.7549125,46.7577654]},"properties":{"id":"water:990b1dd1-9d1b-4eab-9a9b-1ec31d9d420d","kind":"water","longitude":19.7549125,"latitude":46.7577654,"name":"Ivókút","city":null,"address":null,"covered":null,"access":null,"website":null,"phone":null,"source":"OpenStreetMap","sourceUpdatedAt":"2026-04-04T22:50:22.71606+00:00","verifiedAt":null}},{"type":"Feature","geometry":{"type":"Point","coordinates":[19.8211798,46.6730729]},"properties":{"id":"water:9a26d069-68da-42e8-834d-455188c62831","kind":"water","longitude":19.8211798,"latitude":46.6730729,"name":"Ivókút","city":null,"address":null,"covered":null,"access":null,"website":null,"phone":null,"source":"OpenStreetMap","sourceUpdatedAt":"2026-04-04T22:50:22.71606+00:00","verifiedAt":null}},{"type":"Feature","geometry":{"type":"Point","coordinates":[20.0264608,46.7591721]},"properties":{"id":"water:9e97dd80-98b6-4840-90c8-d9efc9fa8465","kind":"water","longitude":20.0264608,"latitude":46.7591721,"name":"Ivókút","city":null,"address":null,"covered":null,"access":null,"website":null,"phone":null,"source":"OpenStreetMap","sourceUpdatedAt":"2026-04-04T22:50:22.71606+00:00","verifiedAt":null}},{"type":"Feature","geometry":{"type":"Point","coordinates":[19.842674,46.7161606]},"properties":{"id":"water:a049ac80-c17a-4081-9287-12fec773a629","kind":"water","longitude":19.842674,"latitude":46.7161606,"name":"Ivókút","city":null,"address":null,"covered":null,"access":null,"website":null,"phone":null,"source":"OpenStreetMap","sourceUpdatedAt":"2026-04-04T22:50:22.71606+00:00","verifiedAt":null}},{"type":"Feature","geometry":{"type":"Point","coordinates":[19.7990718,46.7004265]},"properties":{"id":"water:a11904a8-66e6-4d0e-b2ab-f603adc57195","kind":"water","longitude":19.7990718,"latitude":46.7004265,"name":"Ivókút","city":null,"address":null,"covered":null,"access":null,"website":null,"phone":null,"source":"OpenStreetMap","sourceUpdatedAt":"2026-04-04T22:50:22.71606+00:00","verifiedAt":null}},{"type":"Feature","geometry":{"type":"Point","coordinates":[19.8483426,46.7173662]},"properties":{"id":"water:a583d47d-0cf8-4375-9a07-426dc35de608","kind":"water","longitude":19.8483426,"latitude":46.7173662,"name":"Ivókút","city":null,"address":null,"covered":null,"access":null,"website":null,"phone":null,"source":"OpenStreetMap","sourceUpdatedAt":"2026-04-04T22:50:22.71606+00:00","verifiedAt":null}},{"type":"Feature","geometry":{"type":"Point","coordinates":[19.8523086,46.7114923]},"properties":{"id":"water:a60d5d26-6ed3-4a36-84ff-b525b21622bc","kind":"water","longitude":19.8523086,"latitude":46.7114923,"name":"Ivókút","city":null,"address":null,"covered":null,"access":null,"website":null,"phone":null,"source":"OpenStreetMap","sourceUpdatedAt":"2026-04-04T22:50:22.71606+00:00","verifiedAt":null}},{"type":"Feature","geometry":{"type":"Point","coordinates":[19.8564105,46.7075403]},"properties":{"id":"water:a7375e9f-3ded-4240-a8d6-32576ccdf750","kind":"water","longitude":19.8564105,"latitude":46.7075403,"name":"Ivókút","city":null,"address":null,"covered":null,"access":null,"website":null,"phone":null,"source":"OpenStreetMap","sourceUpdatedAt":"2026-04-04T22:50:22.71606+00:00","verifiedAt":null}},{"type":"Feature","geometry":{"type":"Point","coordinates":[19.8438131,46.7076121]},"properties":{"id":"water:a784c383-cea3-4e64-a19f-b482ae6f8156","kind":"water","longitude":19.8438131,"latitude":46.7076121,"name":"Ivókút","city":null,"address":null,"covered":null,"access":null,"website":null,"phone":null,"source":"OpenStreetMap","sourceUpdatedAt":"2026-04-04T22:50:22.71606+00:00","verifiedAt":null}},{"type":"Feature","geometry":{"type":"Point","coordinates":[19.9579958,46.683119]},"properties":{"id":"water:af725a62-3fec-4935-af81-0547c5d7b2f1","kind":"water","longitude":19.9579958,"latitude":46.683119,"name":"Ivókút","city":null,"address":null,"covered":null,"access":null,"website":null,"phone":null,"source":"OpenStreetMap","sourceUpdatedAt":"2026-04-04T22:50:22.71606+00:00","verifiedAt":null}},{"type":"Feature","geometry":{"type":"Point","coordinates":[20.0387648,46.7504187]},"properties":{"id":"water:b1f9651d-0c79-45da-bd76-a71d86991ccd","kind":"water","longitude":20.0387648,"latitude":46.7504187,"name":"Ivókút","city":null,"address":null,"covered":null,"access":null,"website":null,"phone":null,"source":"OpenStreetMap","sourceUpdatedAt":"2026-04-04T22:50:22.71606+00:00","verifiedAt":null}},{"type":"Feature","geometry":{"type":"Point","coordinates":[20.0221411,46.6037472]},"properties":{"id":"water:b2955ec7-fe04-431a-ad39-7b4e6fa705e4","kind":"water","longitude":20.0221411,"latitude":46.6037472,"name":"Ivókút","city":null,"address":null,"covered":null,"access":null,"website":null,"phone":null,"source":"OpenStreetMap","sourceUpdatedAt":"2026-04-04T22:50:22.71606+00:00","verifiedAt":null}},{"type":"Feature","geometry":{"type":"Point","coordinates":[19.8595715,46.7151256]},"properties":{"id":"water:b41d7a5e-05ae-4efd-8dd9-895fbd3be559","kind":"water","longitude":19.8595715,"latitude":46.7151256,"name":"Ivókút","city":null,"address":null,"covered":null,"access":null,"website":null,"phone":null,"source":"OpenStreetMap","sourceUpdatedAt":"2026-04-04T22:50:22.71606+00:00","verifiedAt":null}},{"type":"Feature","geometry":{"type":"Point","coordinates":[20.024841,46.587966]},"properties":{"id":"water:b95bbfd6-469c-430c-ab77-fe1778e7acc9","kind":"water","longitude":20.024841,"latitude":46.587966,"name":"Ivókút","city":null,"address":null,"covered":null,"access":null,"website":null,"phone":null,"source":"OpenStreetMap","sourceUpdatedAt":"2026-04-04T22:50:22.71606+00:00","verifiedAt":null}},{"type":"Feature","geometry":{"type":"Point","coordinates":[19.7895415,46.6903432]},"properties":{"id":"water:bc17936e-25f4-4bdf-98ec-056cfd5ab0d5","kind":"water","longitude":19.7895415,"latitude":46.6903432,"name":"Ivókút","city":null,"address":null,"covered":null,"access":null,"website":null,"phone":null,"source":"OpenStreetMap","sourceUpdatedAt":"2026-04-04T22:50:22.71606+00:00","verifiedAt":null}},{"type":"Feature","geometry":{"type":"Point","coordinates":[19.9678338,46.6769469]},"properties":{"id":"water:c3d165c5-7f04-42dc-b1ea-ede5c3840a57","kind":"water","longitude":19.9678338,"latitude":46.6769469,"name":"Ivókút","city":null,"address":null,"covered":null,"access":null,"website":null,"phone":null,"source":"OpenStreetMap","sourceUpdatedAt":"2026-04-04T22:50:22.71606+00:00","verifiedAt":null}},{"type":"Feature","geometry":{"type":"Point","coordinates":[19.955455,46.6845852]},"properties":{"id":"water:c88dcb96-d260-473d-b444-ce7602ea54f5","kind":"water","longitude":19.955455,"latitude":46.6845852,"name":"Ivókút","city":null,"address":null,"covered":null,"access":null,"website":null,"phone":null,"source":"OpenStreetMap","sourceUpdatedAt":"2026-04-04T22:50:22.71606+00:00","verifiedAt":null}},{"type":"Feature","geometry":{"type":"Point","coordinates":[19.8515987,46.6925947]},"properties":{"id":"water:cac2658d-7ec2-4ac9-a6fb-11e809e0d9b4","kind":"water","longitude":19.8515987,"latitude":46.6925947,"name":"Ivókút","city":null,"address":null,"covered":null,"access":null,"website":null,"phone":null,"source":"OpenStreetMap","sourceUpdatedAt":"2026-04-04T22:50:22.71606+00:00","verifiedAt":null}},{"type":"Feature","geometry":{"type":"Point","coordinates":[19.8535294,46.7154644]},"properties":{"id":"water:cc5eb850-b449-4a5b-bc68-ef88e315585c","kind":"water","longitude":19.8535294,"latitude":46.7154644,"name":"Ivókút","city":null,"address":null,"covered":null,"access":null,"website":null,"phone":null,"source":"OpenStreetMap","sourceUpdatedAt":"2026-04-04T22:50:22.71606+00:00","verifiedAt":null}},{"type":"Feature","geometry":{"type":"Point","coordinates":[19.8529504,46.7114327]},"properties":{"id":"water:cd8e86b7-da81-434f-92ec-9e7d69a1fe81","kind":"water","longitude":19.8529504,"latitude":46.7114327,"name":"Ivókút","city":null,"address":null,"covered":null,"access":null,"website":null,"phone":null,"source":"OpenStreetMap","sourceUpdatedAt":"2026-04-04T22:50:22.71606+00:00","verifiedAt":null}},{"type":"Feature","geometry":{"type":"Point","coordinates":[19.8540519,46.7177833]},"properties":{"id":"water:cfbd5f56-3a74-4415-9ca3-c7cd95ecae79","kind":"water","longitude":19.8540519,"latitude":46.7177833,"name":"Ivókút","city":null,"address":null,"covered":null,"access":null,"website":null,"phone":null,"source":"OpenStreetMap","sourceUpdatedAt":"2026-04-04T22:50:22.71606+00:00","verifiedAt":null}},{"type":"Feature","geometry":{"type":"Point","coordinates":[19.8513715,46.7129531]},"properties":{"id":"water:d1656e63-8b60-450e-b460-8f32dbd930cc","kind":"water","longitude":19.8513715,"latitude":46.7129531,"name":"Ivókút","city":null,"address":null,"covered":null,"access":null,"website":null,"phone":null,"source":"OpenStreetMap","sourceUpdatedAt":"2026-04-04T22:50:22.71606+00:00","verifiedAt":null}},{"type":"Feature","geometry":{"type":"Point","coordinates":[19.8587636,46.6187912]},"properties":{"id":"water:d87d63b0-4dcb-4053-a933-8d647e0267d3","kind":"water","longitude":19.8587636,"latitude":46.6187912,"name":"Ivókút","city":null,"address":null,"covered":null,"access":null,"website":null,"phone":null,"source":"OpenStreetMap","sourceUpdatedAt":"2026-04-04T22:50:22.71606+00:00","verifiedAt":null}},{"type":"Feature","geometry":{"type":"Point","coordinates":[19.8530902,46.7024827]},"properties":{"id":"water:d998383a-97e1-4a2e-8e47-518990b0d0fd","kind":"water","longitude":19.8530902,"latitude":46.7024827,"name":"Ivókút","city":null,"address":null,"covered":null,"access":null,"website":null,"phone":null,"source":"OpenStreetMap","sourceUpdatedAt":"2026-04-04T22:50:22.71606+00:00","verifiedAt":null}},{"type":"Feature","geometry":{"type":"Point","coordinates":[19.8394771,46.7146307]},"properties":{"id":"water:d9bef8f3-b41a-4955-8c7d-33ca28285a59","kind":"water","longitude":19.8394771,"latitude":46.7146307,"name":"Ivókút","city":null,"address":null,"covered":null,"access":null,"website":null,"phone":null,"source":"OpenStreetMap","sourceUpdatedAt":"2026-04-04T22:50:22.71606+00:00","verifiedAt":null}},{"type":"Feature","geometry":{"type":"Point","coordinates":[19.8582948,46.709056]},"properties":{"id":"water:e03dd421-92c4-4d9f-9006-1b886d7596e0","kind":"water","longitude":19.8582948,"latitude":46.709056,"name":"Ivókút","city":null,"address":null,"covered":null,"access":null,"website":null,"phone":null,"source":"OpenStreetMap","sourceUpdatedAt":"2026-04-04T22:50:22.71606+00:00","verifiedAt":null}},{"type":"Feature","geometry":{"type":"Point","coordinates":[19.749895,46.7631208]},"properties":{"id":"water:e2bcf378-b08a-4710-9adc-37ee4e542784","kind":"water","longitude":19.749895,"latitude":46.7631208,"name":"Ivókút","city":null,"address":null,"covered":null,"access":null,"website":null,"phone":null,"source":"OpenStreetMap","sourceUpdatedAt":"2026-04-04T22:50:22.71606+00:00","verifiedAt":null}},{"type":"Feature","geometry":{"type":"Point","coordinates":[19.864117,46.618867]},"properties":{"id":"water:e4b231cf-74c7-41c0-b83c-4b2b7f10c544","kind":"water","longitude":19.864117,"latitude":46.618867,"name":"Ivókút","city":null,"address":null,"covered":null,"access":null,"website":null,"phone":null,"source":"OpenStreetMap","sourceUpdatedAt":"2026-04-04T22:50:22.71606+00:00","verifiedAt":null}},{"type":"Feature","geometry":{"type":"Point","coordinates":[20.0336254,46.6158985]},"properties":{"id":"water:e812de98-b5d1-419f-b5f1-508d20476e5d","kind":"water","longitude":20.0336254,"latitude":46.6158985,"name":"Ivókút","city":null,"address":null,"covered":null,"access":null,"website":null,"phone":null,"source":"OpenStreetMap","sourceUpdatedAt":"2026-04-04T22:50:22.71606+00:00","verifiedAt":null}},{"type":"Feature","geometry":{"type":"Point","coordinates":[20.03449,46.75307]},"properties":{"id":"water:e85684b2-ba37-4c4c-9223-edd51db55bdf","kind":"water","longitude":20.03449,"latitude":46.75307,"name":"Ivókút","city":null,"address":null,"covered":null,"access":null,"website":null,"phone":null,"source":"OpenStreetMap","sourceUpdatedAt":"2026-04-04T22:50:22.71606+00:00","verifiedAt":null}},{"type":"Feature","geometry":{"type":"Point","coordinates":[19.8549825,46.7180313]},"properties":{"id":"water:ebac0a03-7f4c-4ce4-a692-68d49549be8d","kind":"water","longitude":19.8549825,"latitude":46.7180313,"name":"Ivókút","city":null,"address":null,"covered":null,"access":null,"website":null,"phone":null,"source":"OpenStreetMap","sourceUpdatedAt":"2026-04-04T22:50:22.71606+00:00","verifiedAt":null}},{"type":"Feature","geometry":{"type":"Point","coordinates":[19.8535494,46.6935265]},"properties":{"id":"water:f2c78c7b-dbe7-4b41-b837-3ad3ef67f3c0","kind":"water","longitude":19.8535494,"latitude":46.6935265,"name":"Ivókút","city":null,"address":null,"covered":null,"access":null,"website":null,"phone":null,"source":"OpenStreetMap","sourceUpdatedAt":"2026-04-04T22:50:22.71606+00:00","verifiedAt":null}},{"type":"Feature","geometry":{"type":"Point","coordinates":[19.886515,46.6803691]},"properties":{"id":"water:f36494e4-c03a-4258-bcc0-b619bb348595","kind":"water","longitude":19.886515,"latitude":46.6803691,"name":"Ivókút","city":null,"address":null,"covered":null,"access":null,"website":null,"phone":null,"source":"OpenStreetMap","sourceUpdatedAt":"2026-04-04T22:50:22.71606+00:00","verifiedAt":null}},{"type":"Feature","geometry":{"type":"Point","coordinates":[19.8649044,46.617193]},"properties":{"id":"water:f42af47d-5540-4a1e-aa96-f64a58933c0a","kind":"water","longitude":19.8649044,"latitude":46.617193,"name":"Ivókút","city":null,"address":null,"covered":null,"access":null,"website":null,"phone":null,"source":"OpenStreetMap","sourceUpdatedAt":"2026-04-04T22:50:22.71606+00:00","verifiedAt":null}},{"type":"Feature","geometry":{"type":"Point","coordinates":[19.7603411,46.5685211]},"properties":{"id":"water:f5edfe3d-5d7e-4056-b765-c863f95c48c1","kind":"water","longitude":19.7603411,"latitude":46.5685211,"name":"Ivókút","city":null,"address":null,"covered":null,"access":null,"website":null,"phone":null,"source":"OpenStreetMap","sourceUpdatedAt":"2026-04-04T22:50:22.71606+00:00","verifiedAt":null}},{"type":"Feature","geometry":{"type":"Point","coordinates":[19.844459,46.6138759]},"properties":{"id":"water:fad1f84f-46f6-4a9f-8957-fcf1ffcb10f5","kind":"water","longitude":19.844459,"latitude":46.6138759,"name":"Ivókút","city":null,"address":null,"covered":null,"access":null,"website":null,"phone":null,"source":"OpenStreetMap","sourceUpdatedAt":"2026-04-04T22:50:22.71606+00:00","verifiedAt":null}},{"type":"Feature","geometry":{"type":"Point","coordinates":[19.7629361,46.566941]},"properties":{"id":"water:fce068ce-3abf-4449-97cf-ba4b1c983618","kind":"water","longitude":19.7629361,"latitude":46.566941,"name":"Ivókút","city":null,"address":null,"covered":null,"access":null,"website":null,"phone":null,"source":"OpenStreetMap","sourceUpdatedAt":"2026-04-04T22:50:22.71606+00:00","verifiedAt":null}},{"type":"Feature","geometry":{"type":"Point","coordinates":[20.0298252,46.6222459]},"properties":{"id":"water:fd8f0eae-77e7-4d5a-a0ee-6a662f65151a","kind":"water","longitude":20.0298252,"latitude":46.6222459,"name":"Ivókút","city":null,"address":null,"covered":null,"access":null,"website":null,"phone":null,"source":"OpenStreetMap","sourceUpdatedAt":"2026-04-04T22:50:22.71606+00:00","verifiedAt":null}},{"type":"Feature","geometry":{"type":"Point","coordinates":[19.8557906,46.725886]},"properties":{"id":"water:fdc21fa8-88c2-4abb-8a07-e99c6484d0f6","kind":"water","longitude":19.8557906,"latitude":46.725886,"name":"Ivókút","city":null,"address":null,"covered":null,"access":null,"website":null,"phone":null,"source":"OpenStreetMap","sourceUpdatedAt":"2026-04-04T22:50:22.71606+00:00","verifiedAt":null}},{"type":"Feature","geometry":{"type":"Point","coordinates":[19.8412117,46.7207338]},"properties":{"id":"water:fffea96f-483d-467f-893e-131598c156e9","kind":"water","longitude":19.8412117,"latitude":46.7207338,"name":"Ivókút","city":null,"address":null,"covered":null,"access":null,"website":null,"phone":null,"source":"OpenStreetMap","sourceUpdatedAt":"2026-04-04T22:50:22.71606+00:00","verifiedAt":null}}]}