{"type":"FeatureCollection","features":[{"type":"Feature","geometry":{"type":"Point","coordinates":[8.7102156,53.2698045]},"properties":{"id":"bikerack:7c19f3db-f7ae-4520-aa07-06ec66ae6876","kind":"bikerack","longitude":8.7102156,"latitude":53.2698045,"name":"Fahrradabstellplatz","city":"Wulsbuttel","address":null,"covered":false,"access":null,"website":null,"phone":null,"source":"OpenStreetMap/node/13418214749","sourceUpdatedAt":null,"verifiedAt":null}},{"type":"Feature","geometry":{"type":"Point","coordinates":[8.710449,53.2536287]},"properties":{"id":"repair:9c926c7c-31cc-4331-bc55-897096ed7f45","kind":"repair","longitude":8.710449,"latitude":53.2536287,"name":"Fahrrad-Reparaturstation","city":"Ritterhude","address":null,"covered":false,"access":null,"website":null,"phone":null,"source":"OpenStreetMap/node/12887060601","sourceUpdatedAt":null,"verifiedAt":null}}]}