{"type":"FeatureCollection","features":[{"type":"Feature","geometry":{"type":"Point","coordinates":[8.7028045,53.1733198]},"properties":{"id":"bikerack:02d23651-62cc-4412-9926-2bf7cd0c27bb","kind":"bikerack","longitude":8.7028045,"latitude":53.1733198,"name":"Fahrradabstellplatz","city":"Ritterhude","address":null,"covered":false,"access":null,"website":null,"phone":null,"source":"OpenStreetMap/way/495035800","sourceUpdatedAt":null,"verifiedAt":null}},{"type":"Feature","geometry":{"type":"Point","coordinates":[8.7178279,53.176874]},"properties":{"id":"bikerack:09581f92-126c-4cb0-aad1-ba370f70d468","kind":"bikerack","longitude":8.7178279,"latitude":53.176874,"name":"Fahrradabstellplatz","city":"Ritterhude","address":null,"covered":true,"access":null,"website":null,"phone":null,"source":"OpenStreetMap/node/3729997029","sourceUpdatedAt":null,"verifiedAt":null}},{"type":"Feature","geometry":{"type":"Point","coordinates":[8.7325897,53.1832244]},"properties":{"id":"bikerack:19f10927-2f5f-4274-8def-a57d3783604b","kind":"bikerack","longitude":8.7325897,"latitude":53.1832244,"name":"Fahrradabstellplatz","city":"Ritterhude","address":null,"covered":false,"access":null,"website":null,"phone":null,"source":"OpenStreetMap/node/9887413002","sourceUpdatedAt":null,"verifiedAt":null}},{"type":"Feature","geometry":{"type":"Point","coordinates":[8.7331641,53.1845846]},"properties":{"id":"bikerack:20766af9-d5f0-49e2-832a-f179bffb04e5","kind":"bikerack","longitude":8.7331641,"latitude":53.1845846,"name":"Fahrradabstellplatz","city":"Ritterhude","address":null,"covered":false,"access":null,"website":null,"phone":null,"source":"OpenStreetMap/node/9887413003","sourceUpdatedAt":null,"verifiedAt":null}},{"type":"Feature","geometry":{"type":"Point","coordinates":[8.7021814,53.1732941]},"properties":{"id":"bikerack:2e030ca7-fe08-4658-b1ad-3c7b0fb753cc","kind":"bikerack","longitude":8.7021814,"latitude":53.1732941,"name":"Fahrradabstellplatz","city":"Ritterhude","address":null,"covered":false,"access":null,"website":null,"phone":null,"source":"OpenStreetMap/way/413132504","sourceUpdatedAt":null,"verifiedAt":null}},{"type":"Feature","geometry":{"type":"Point","coordinates":[8.7407023,53.1844067]},"properties":{"id":"bikerack:354e5d81-8405-476a-9db6-87fa94486a66","kind":"bikerack","longitude":8.7407023,"latitude":53.1844067,"name":"Fahrradabstellplatz","city":"Ritterhude","address":null,"covered":false,"access":null,"website":null,"phone":null,"source":"OpenStreetMap/node/12542778687","sourceUpdatedAt":null,"verifiedAt":null}},{"type":"Feature","geometry":{"type":"Point","coordinates":[8.7379183,53.1963498]},"properties":{"id":"bikerack:429db12d-2e67-4c84-957e-ab399babbdc0","kind":"bikerack","longitude":8.7379183,"latitude":53.1963498,"name":"Am Weißen Rieden 42","city":"Ritterhude","address":null,"covered":false,"access":null,"website":null,"phone":null,"source":"OpenStreetMap/node/4450433300","sourceUpdatedAt":null,"verifiedAt":null}},{"type":"Feature","geometry":{"type":"Point","coordinates":[8.7331725,53.184451]},"properties":{"id":"bikerack:7cc6aec5-820e-4931-b0bf-3cb9765d8bf2","kind":"bikerack","longitude":8.7331725,"latitude":53.184451,"name":"Fahrradabstellplatz","city":"Ritterhude","address":null,"covered":false,"access":null,"website":null,"phone":null,"source":"OpenStreetMap/node/9887413001","sourceUpdatedAt":null,"verifiedAt":null}},{"type":"Feature","geometry":{"type":"Point","coordinates":[8.7326878,53.1842063]},"properties":{"id":"bikerack:ba9cbdb2-6769-403c-92e9-2e2a6f994b93","kind":"bikerack","longitude":8.7326878,"latitude":53.1842063,"name":"Fahrradabstellplatz","city":"Ritterhude","address":null,"covered":false,"access":null,"website":null,"phone":null,"source":"OpenStreetMap/node/9887413000","sourceUpdatedAt":null,"verifiedAt":null}},{"type":"Feature","geometry":{"type":"Point","coordinates":[8.7322357,53.1842629]},"properties":{"id":"bikerack:c0519d45-2aa0-4768-8d63-1eb772ec3276","kind":"bikerack","longitude":8.7322357,"latitude":53.1842629,"name":"Fahrradabstellplatz","city":"Ritterhude","address":null,"covered":false,"access":null,"website":null,"phone":null,"source":"OpenStreetMap/node/9887412995","sourceUpdatedAt":null,"verifiedAt":null}},{"type":"Feature","geometry":{"type":"Point","coordinates":[8.7238047,53.1786173]},"properties":{"id":"bikerack:d9535499-44c9-4472-97c0-b49514ad0b4d","kind":"bikerack","longitude":8.7238047,"latitude":53.1786173,"name":"Fahrradabstellplatz","city":"Ritterhude","address":null,"covered":true,"access":null,"website":null,"phone":null,"source":"OpenStreetMap/way/205641800","sourceUpdatedAt":null,"verifiedAt":null}},{"type":"Feature","geometry":{"type":"Point","coordinates":[8.7097714,53.1919581]},"properties":{"id":"bikerack:eb9d588c-7677-4886-9c5c-204077a3bfc4","kind":"bikerack","longitude":8.7097714,"latitude":53.1919581,"name":"Fahrradabstellplatz","city":"Ritterhude","address":null,"covered":false,"access":null,"website":null,"phone":null,"source":"OpenStreetMap/node/13264059330","sourceUpdatedAt":null,"verifiedAt":null}},{"type":"Feature","geometry":{"type":"Point","coordinates":[8.7415457,53.1805224]},"properties":{"id":"service:a2164e08-9a01-4fb0-a303-6b20c664d590","kind":"service","longitude":8.7415457,"latitude":53.1805224,"name":"Zweiradhaus Lübke","city":"Ritterhude","address":null,"covered":null,"access":null,"website":null,"phone":null,"source":"OpenStreetMap/way/45777527","sourceUpdatedAt":null,"verifiedAt":null}}]}