{"type":"FeatureCollection","features":[{"type":"Feature","geometry":{"type":"Point","coordinates":[8.7293659,53.0023451]},"properties":{"id":"bikerack:077e8f6d-5dee-4a2a-a628-b7435e56519f","kind":"bikerack","longitude":8.7293659,"latitude":53.0023451,"name":"Fahrradabstellplatz","city":"Stuhr","address":null,"covered":false,"access":null,"website":null,"phone":null,"source":"OpenStreetMap/node/10716618942","sourceUpdatedAt":null,"verifiedAt":null}},{"type":"Feature","geometry":{"type":"Point","coordinates":[8.7014034,53.0125983]},"properties":{"id":"bikerack:9ca781a9-6652-49e3-8385-b72088191188","kind":"bikerack","longitude":8.7014034,"latitude":53.0125983,"name":"Fahrradabstellplatz","city":"Stuhr","address":null,"covered":false,"access":null,"website":null,"phone":null,"source":"OpenStreetMap/node/12795558902","sourceUpdatedAt":null,"verifiedAt":null}},{"type":"Feature","geometry":{"type":"Point","coordinates":[8.7259377,53.006493]},"properties":{"id":"bikerack:ccad89e2-6595-47d4-8cc6-8d868eba3879","kind":"bikerack","longitude":8.7259377,"latitude":53.006493,"name":"Fahrradabstellplatz","city":"Stuhr","address":null,"covered":false,"access":null,"website":null,"phone":null,"source":"OpenStreetMap/node/7612630294","sourceUpdatedAt":null,"verifiedAt":null}},{"type":"Feature","geometry":{"type":"Point","coordinates":[8.7050658,52.999191]},"properties":{"id":"bikerack:f62f4ecb-d5fa-428a-b6ae-1873bf44befe","kind":"bikerack","longitude":8.7050658,"latitude":52.999191,"name":"Fahrradabstellplatz","city":"Kirchseelte","address":null,"covered":false,"access":null,"website":null,"phone":null,"source":"OpenStreetMap/node/6845775949","sourceUpdatedAt":null,"verifiedAt":null}}]}