{"type":"FeatureCollection","features":[{"type":"Feature","geometry":{"type":"Point","coordinates":[8.7303913,50.540465]},"properties":{"id":"bikerack:01987ecf-14db-42a8-96e2-be1afee4fb6d","kind":"bikerack","longitude":8.7303913,"latitude":50.540465,"name":"Fahrradabstellplatz","city":"Giessen","address":null,"covered":false,"access":null,"website":null,"phone":null,"source":"OpenStreetMap/node/9776932527","sourceUpdatedAt":null,"verifiedAt":null}},{"type":"Feature","geometry":{"type":"Point","coordinates":[8.7022676,50.5353385]},"properties":{"id":"bikerack:099fc3bb-1644-414d-ab28-15ea7b7b04ed","kind":"bikerack","longitude":8.7022676,"latitude":50.5353385,"name":"Fahrradabstellplatz","city":"Langgons","address":null,"covered":false,"access":null,"website":null,"phone":null,"source":"OpenStreetMap/node/5779958123","sourceUpdatedAt":null,"verifiedAt":null}},{"type":"Feature","geometry":{"type":"Point","coordinates":[8.7140611,50.534034]},"properties":{"id":"bikerack:0b088ff1-fa6d-48a7-9c35-3f3a29904ef0","kind":"bikerack","longitude":8.7140611,"latitude":50.534034,"name":"Fahrradabstellplatz","city":"Langgons","address":null,"covered":true,"access":null,"website":null,"phone":null,"source":"OpenStreetMap/node/8691165697","sourceUpdatedAt":null,"verifiedAt":null}},{"type":"Feature","geometry":{"type":"Point","coordinates":[8.7298715,50.5389304]},"properties":{"id":"bikerack:1ba996f1-d5f4-4cff-ac76-27cdcd4bbc87","kind":"bikerack","longitude":8.7298715,"latitude":50.5389304,"name":"Fahrradabstellplatz","city":"Giessen","address":null,"covered":false,"access":null,"website":null,"phone":null,"source":"OpenStreetMap/node/5895011649","sourceUpdatedAt":null,"verifiedAt":null}},{"type":"Feature","geometry":{"type":"Point","coordinates":[8.7158851,50.536271]},"properties":{"id":"bikerack:226b94ec-7a1a-4113-ac2b-bdaeb216e06d","kind":"bikerack","longitude":8.7158851,"latitude":50.536271,"name":"Fahrradabstellplatz","city":"Langgons","address":null,"covered":false,"access":null,"website":null,"phone":null,"source":"OpenStreetMap/node/4228585031","sourceUpdatedAt":null,"verifiedAt":null}},{"type":"Feature","geometry":{"type":"Point","coordinates":[8.7157872,50.5328341]},"properties":{"id":"bikerack:2804d080-3127-43e9-90d0-e16ff426485a","kind":"bikerack","longitude":8.7157872,"latitude":50.5328341,"name":"Fahrradabstellplatz","city":"Langgons","address":null,"covered":false,"access":null,"website":null,"phone":null,"source":"OpenStreetMap/node/12050113782","sourceUpdatedAt":null,"verifiedAt":null}},{"type":"Feature","geometry":{"type":"Point","coordinates":[8.708096,50.5337722]},"properties":{"id":"bikerack:2ba94460-2231-430e-b3e4-a257e40b72c1","kind":"bikerack","longitude":8.708096,"latitude":50.5337722,"name":"Fahrradabstellplatz","city":"Langgons","address":null,"covered":false,"access":null,"website":null,"phone":null,"source":"OpenStreetMap/node/4228584994","sourceUpdatedAt":null,"verifiedAt":null}},{"type":"Feature","geometry":{"type":"Point","coordinates":[8.7239398,50.5388478]},"properties":{"id":"bikerack:4ffd3d04-186b-4a98-9b18-15811e2327b9","kind":"bikerack","longitude":8.7239398,"latitude":50.5388478,"name":"Fahrradabstellplatz","city":"Giessen","address":null,"covered":false,"access":null,"website":null,"phone":null,"source":"OpenStreetMap/node/4228585123","sourceUpdatedAt":null,"verifiedAt":null}},{"type":"Feature","geometry":{"type":"Point","coordinates":[8.7328215,50.539568]},"properties":{"id":"bikerack:510642bc-1058-4460-83a3-f1c6ee6dfce8","kind":"bikerack","longitude":8.7328215,"latitude":50.539568,"name":"Fahrradabstellplatz","city":"Giessen","address":null,"covered":false,"access":null,"website":null,"phone":null,"source":"OpenStreetMap/node/10583663960","sourceUpdatedAt":null,"verifiedAt":null}},{"type":"Feature","geometry":{"type":"Point","coordinates":[8.7142752,50.5342785]},"properties":{"id":"bikerack:79ca6109-4903-4510-888f-db05d59d9bd4","kind":"bikerack","longitude":8.7142752,"latitude":50.5342785,"name":"Fahrradabstellplatz","city":"Langgons","address":null,"covered":true,"access":null,"website":null,"phone":null,"source":"OpenStreetMap/node/4228585009","sourceUpdatedAt":null,"verifiedAt":null}},{"type":"Feature","geometry":{"type":"Point","coordinates":[8.7244855,50.5400032]},"properties":{"id":"bikerack:9db6c8c7-75af-4c0c-85b6-36203ffc612a","kind":"bikerack","longitude":8.7244855,"latitude":50.5400032,"name":"Fahrradabstellplatz","city":"Giessen","address":null,"covered":false,"access":null,"website":null,"phone":null,"source":"OpenStreetMap/node/11879318457","sourceUpdatedAt":null,"verifiedAt":null}},{"type":"Feature","geometry":{"type":"Point","coordinates":[8.7313373,50.5391418]},"properties":{"id":"bikerack:9ef53686-3704-4a6e-858d-1902bd37b310","kind":"bikerack","longitude":8.7313373,"latitude":50.5391418,"name":"Fahrradabstellplatz","city":"Giessen","address":null,"covered":false,"access":null,"website":null,"phone":null,"source":"OpenStreetMap/node/5150136881","sourceUpdatedAt":null,"verifiedAt":null}},{"type":"Feature","geometry":{"type":"Point","coordinates":[8.7148893,50.5343467]},"properties":{"id":"bikerack:a497a8e4-3249-462a-8fa0-434ae277d6c3","kind":"bikerack","longitude":8.7148893,"latitude":50.5343467,"name":"Fahrradabstellplatz","city":"Langgons","address":null,"covered":false,"access":null,"website":null,"phone":null,"source":"OpenStreetMap/node/1433738778","sourceUpdatedAt":null,"verifiedAt":null}},{"type":"Feature","geometry":{"type":"Point","coordinates":[8.7215473,50.5356096]},"properties":{"id":"bikerack:a57063b1-1c4e-47a4-b0d1-8fd972138354","kind":"bikerack","longitude":8.7215473,"latitude":50.5356096,"name":"Fahrradabstellplatz","city":"Langgons","address":null,"covered":false,"access":null,"website":null,"phone":null,"source":"OpenStreetMap/node/4228585030","sourceUpdatedAt":null,"verifiedAt":null}},{"type":"Feature","geometry":{"type":"Point","coordinates":[8.7157658,50.5328094]},"properties":{"id":"bikerack:a6fa1d0e-fabe-451f-af31-6f7e517f295d","kind":"bikerack","longitude":8.7157658,"latitude":50.5328094,"name":"Fahrradabstellplatz","city":"Langgons","address":null,"covered":false,"access":null,"website":null,"phone":null,"source":"OpenStreetMap/node/12050113783","sourceUpdatedAt":null,"verifiedAt":null}},{"type":"Feature","geometry":{"type":"Point","coordinates":[8.7258819,50.5382871]},"properties":{"id":"bikerack:abdb477c-38a6-4f64-a8a3-5be521f683b9","kind":"bikerack","longitude":8.7258819,"latitude":50.5382871,"name":"Fahrradabstellplatz","city":"Giessen","address":null,"covered":false,"access":null,"website":null,"phone":null,"source":"OpenStreetMap/node/8691165706","sourceUpdatedAt":null,"verifiedAt":null}},{"type":"Feature","geometry":{"type":"Point","coordinates":[8.7311362,50.5391154]},"properties":{"id":"bikerack:ae64100c-e1e1-4d4e-934d-4283a96e970a","kind":"bikerack","longitude":8.7311362,"latitude":50.5391154,"name":"Fahrradabstellplatz","city":"Giessen","address":null,"covered":false,"access":null,"website":null,"phone":null,"source":"OpenStreetMap/node/5150136882","sourceUpdatedAt":null,"verifiedAt":null}},{"type":"Feature","geometry":{"type":"Point","coordinates":[8.7233105,50.5363243]},"properties":{"id":"bikerack:b7e2a2db-21d6-4ae8-a19c-70e4b88c1cb4","kind":"bikerack","longitude":8.7233105,"latitude":50.5363243,"name":"Fahrradabstellplatz","city":"Langgons","address":null,"covered":false,"access":null,"website":null,"phone":null,"source":"OpenStreetMap/node/4226978724","sourceUpdatedAt":null,"verifiedAt":null}},{"type":"Feature","geometry":{"type":"Point","coordinates":[8.7263203,50.5394572]},"properties":{"id":"bikerack:ba765d0d-e129-4ad8-a641-35dc1a2f322a","kind":"bikerack","longitude":8.7263203,"latitude":50.5394572,"name":"Fahrradabstellplatz","city":"Giessen","address":null,"covered":false,"access":null,"website":null,"phone":null,"source":"OpenStreetMap/node/5310627465","sourceUpdatedAt":null,"verifiedAt":null}},{"type":"Feature","geometry":{"type":"Point","coordinates":[8.7312071,50.5400283]},"properties":{"id":"bikerack:c231012a-3fc2-4d7d-89f0-29a680a046cb","kind":"bikerack","longitude":8.7312071,"latitude":50.5400283,"name":"Fahrradabstellplatz","city":"Giessen","address":null,"covered":false,"access":null,"website":null,"phone":null,"source":"OpenStreetMap/node/3354428417","sourceUpdatedAt":null,"verifiedAt":null}},{"type":"Feature","geometry":{"type":"Point","coordinates":[8.733918,50.5405074]},"properties":{"id":"bikerack:cc4e3dfd-06d3-4b5b-8288-f05a51a90cd5","kind":"bikerack","longitude":8.733918,"latitude":50.5405074,"name":"Fahrradabstellplatz","city":"Giessen","address":null,"covered":false,"access":null,"website":null,"phone":null,"source":"OpenStreetMap/node/3354428418","sourceUpdatedAt":null,"verifiedAt":null}},{"type":"Feature","geometry":{"type":"Point","coordinates":[8.7293139,50.5377474]},"properties":{"id":"bikerack:dc94ef53-f02d-4751-9f81-21322bb75892","kind":"bikerack","longitude":8.7293139,"latitude":50.5377474,"name":"Fahrradabstellplatz","city":"Giessen","address":null,"covered":true,"access":null,"website":null,"phone":null,"source":"OpenStreetMap/node/4226978728","sourceUpdatedAt":null,"verifiedAt":null}},{"type":"Feature","geometry":{"type":"Point","coordinates":[8.7144115,50.5345968]},"properties":{"id":"bikerack:e09de912-4858-498e-a6a3-9af248ad6b3a","kind":"bikerack","longitude":8.7144115,"latitude":50.5345968,"name":"Fahrradabstellplatz","city":"Langgons","address":null,"covered":false,"access":null,"website":null,"phone":null,"source":"OpenStreetMap/node/1433738781","sourceUpdatedAt":null,"verifiedAt":null}},{"type":"Feature","geometry":{"type":"Point","coordinates":[8.7062801,50.5314778]},"properties":{"id":"bikerack:edb57173-011f-4557-9d4a-ecdde7cb7ef2","kind":"bikerack","longitude":8.7062801,"latitude":50.5314778,"name":"Fahrradabstellplatz","city":"Langgons","address":null,"covered":false,"access":null,"website":null,"phone":null,"source":"OpenStreetMap/node/7024260375","sourceUpdatedAt":null,"verifiedAt":null}},{"type":"Feature","geometry":{"type":"Point","coordinates":[8.7256256,50.5379349]},"properties":{"id":"bikerack:ee5f1785-76b1-4c95-b845-501187d2e3b1","kind":"bikerack","longitude":8.7256256,"latitude":50.5379349,"name":"Fahrradabstellplatz","city":"Langgons","address":null,"covered":false,"access":null,"website":null,"phone":null,"source":"OpenStreetMap/node/4228585069","sourceUpdatedAt":null,"verifiedAt":null}},{"type":"Feature","geometry":{"type":"Point","coordinates":[8.7259032,50.5389603]},"properties":{"id":"bikerack:f754a107-8b8c-48a5-9045-23d95914aa3b","kind":"bikerack","longitude":8.7259032,"latitude":50.5389603,"name":"Fahrradabstellplatz","city":"Giessen","address":null,"covered":false,"access":null,"website":null,"phone":null,"source":"OpenStreetMap/node/4228585127","sourceUpdatedAt":null,"verifiedAt":null}},{"type":"Feature","geometry":{"type":"Point","coordinates":[8.7152374,50.5349549]},"properties":{"id":"water:c0e80701-02b1-47f8-bbc9-4f6cbe102b0a","kind":"water","longitude":8.7152374,"latitude":50.5349549,"name":"Trinkwasser","city":"Langgons","address":null,"covered":null,"access":null,"website":null,"phone":null,"source":"OpenStreetMap/node/4227022133","sourceUpdatedAt":null,"verifiedAt":null}}]}