{"type":"FeatureCollection","features":[{"type":"Feature","geometry":{"type":"Point","coordinates":[8.7024979,48.1449774]},"properties":{"id":"bikerack:2161154f-4c62-482c-a42b-a22e6740e40f","kind":"bikerack","longitude":8.7024979,"latitude":48.1449774,"name":"Fahrradabstellplatz","city":"Wellendingen","address":null,"covered":false,"access":null,"website":null,"phone":null,"source":"OpenStreetMap/node/11949874966","sourceUpdatedAt":null,"verifiedAt":null}},{"type":"Feature","geometry":{"type":"Point","coordinates":[8.7018426,48.1471842]},"properties":{"id":"bikerack:e6c7c6aa-0ade-412f-a0d2-337dd34c20db","kind":"bikerack","longitude":8.7018426,"latitude":48.1471842,"name":"Fahrradabstellplatz","city":"Wellendingen","address":null,"covered":false,"access":null,"website":null,"phone":null,"source":"OpenStreetMap/node/11832157142","sourceUpdatedAt":null,"verifiedAt":null}}]}