{"type":"FeatureCollection","features":[{"type":"Feature","geometry":{"type":"Point","coordinates":[8.7278164,47.5356116]},"properties":{"id":"bikerack:1f5c2f8e-8eec-4e51-857e-7b2b9ab9aa11","kind":"bikerack","longitude":8.7278164,"latitude":47.5356116,"name":"Bicycle Parking","city":"Seuzach Dorf","address":null,"covered":false,"access":null,"website":null,"phone":null,"source":"OpenStreetMap/way/138349183","sourceUpdatedAt":null,"verifiedAt":null}},{"type":"Feature","geometry":{"type":"Point","coordinates":[8.737987,47.5351968]},"properties":{"id":"bikerack:3aead5fe-1d9d-43d0-ae7f-7b3eb57afdf0","kind":"bikerack","longitude":8.737987,"latitude":47.5351968,"name":"Bicycle Parking","city":"Seuzach / Seuzach (Dorf)","address":null,"covered":false,"access":null,"website":null,"phone":null,"source":"OpenStreetMap/way/1293290320","sourceUpdatedAt":null,"verifiedAt":null}},{"type":"Feature","geometry":{"type":"Point","coordinates":[8.7137215,47.5261175]},"properties":{"id":"bikerack:536172d1-2c3c-42fc-ae0e-02c15d45759d","kind":"bikerack","longitude":8.7137215,"latitude":47.5261175,"name":"Bicycle Parking","city":"Veltheim","address":null,"covered":true,"access":null,"website":null,"phone":null,"source":"OpenStreetMap/way/448994511","sourceUpdatedAt":null,"verifiedAt":null}},{"type":"Feature","geometry":{"type":"Point","coordinates":[8.7133759,47.5259416]},"properties":{"id":"bikerack:5883dd3d-873c-46a1-8fbb-b89423255c02","kind":"bikerack","longitude":8.7133759,"latitude":47.5259416,"name":"Bicycle Parking","city":"Veltheim","address":null,"covered":true,"access":null,"website":null,"phone":null,"source":"OpenStreetMap/way/448994512","sourceUpdatedAt":null,"verifiedAt":null}},{"type":"Feature","geometry":{"type":"Point","coordinates":[8.7390724,47.535905]},"properties":{"id":"bikerack:8f455ac8-9583-4338-bdb4-25f73c5dd94c","kind":"bikerack","longitude":8.7390724,"latitude":47.535905,"name":"Bicycle Parking","city":"Seuzach / Seuzach (Dorf)","address":null,"covered":true,"access":null,"website":null,"phone":null,"source":"OpenStreetMap/way/1191562394","sourceUpdatedAt":null,"verifiedAt":null}},{"type":"Feature","geometry":{"type":"Point","coordinates":[8.7407626,47.5347023]},"properties":{"id":"bikerack:94301472-9994-4f31-b1c0-048df9a13046","kind":"bikerack","longitude":8.7407626,"latitude":47.5347023,"name":"Bicycle Parking","city":"Seuzach / Seuzach (Dorf)","address":null,"covered":true,"access":null,"website":null,"phone":null,"source":"OpenStreetMap/way/1191560647","sourceUpdatedAt":null,"verifiedAt":null}},{"type":"Feature","geometry":{"type":"Point","coordinates":[8.7270069,47.5342385]},"properties":{"id":"bikerack:a99b8dd6-8831-48b7-bbb3-518d88854c29","kind":"bikerack","longitude":8.7270069,"latitude":47.5342385,"name":"Bicycle Parking","city":"Seuzach Dorf","address":null,"covered":false,"access":null,"website":null,"phone":null,"source":"OpenStreetMap/way/1325280823","sourceUpdatedAt":null,"verifiedAt":null}},{"type":"Feature","geometry":{"type":"Point","coordinates":[8.7329186,47.5386116]},"properties":{"id":"bikerack:b1cc07d4-f2c1-470f-a2bf-633356eb46da","kind":"bikerack","longitude":8.7329186,"latitude":47.5386116,"name":"Bicycle Parking","city":"Seuzach Dorf","address":null,"covered":false,"access":null,"website":null,"phone":null,"source":"OpenStreetMap/way/137931601","sourceUpdatedAt":null,"verifiedAt":null}},{"type":"Feature","geometry":{"type":"Point","coordinates":[8.7287755,47.5384077]},"properties":{"id":"bikerack:bdad0aef-28ae-4e54-aa95-fa9e6a362912","kind":"bikerack","longitude":8.7287755,"latitude":47.5384077,"name":"Bicycle Parking","city":"Seuzach Dorf","address":null,"covered":false,"access":null,"website":null,"phone":null,"source":"OpenStreetMap/way/1339285524","sourceUpdatedAt":null,"verifiedAt":null}},{"type":"Feature","geometry":{"type":"Point","coordinates":[8.7285248,47.5362344]},"properties":{"id":"bikerack:c64e915c-1acd-45bf-b42e-9c12cdaaa48c","kind":"bikerack","longitude":8.7285248,"latitude":47.5362344,"name":"Bicycle Parking","city":"Seuzach Dorf","address":null,"covered":false,"access":null,"website":null,"phone":null,"source":"OpenStreetMap/way/1339285537","sourceUpdatedAt":null,"verifiedAt":null}},{"type":"Feature","geometry":{"type":"Point","coordinates":[8.7133855,47.5263117]},"properties":{"id":"bikerack:d36bb369-30bf-4721-9a18-683124d6444e","kind":"bikerack","longitude":8.7133855,"latitude":47.5263117,"name":"Bicycle Parking","city":"Veltheim","address":null,"covered":true,"access":null,"website":null,"phone":null,"source":"OpenStreetMap/way/448994507","sourceUpdatedAt":null,"verifiedAt":null}},{"type":"Feature","geometry":{"type":"Point","coordinates":[8.7350332,47.5258621]},"properties":{"id":"bikerack:f49ad610-6f8b-4e10-9391-6ba9c3237b7f","kind":"bikerack","longitude":8.7350332,"latitude":47.5258621,"name":"Bicycle Parking","city":"Seuzach Dorf / Breite-Weid","address":null,"covered":false,"access":null,"website":null,"phone":null,"source":"OpenStreetMap/node/4300546890","sourceUpdatedAt":null,"verifiedAt":null}},{"type":"Feature","geometry":{"type":"Point","coordinates":[8.7382887,47.5361591]},"properties":{"id":"bikerack:f4b6ad97-5350-4e9f-8a2b-8289c44e2cbd","kind":"bikerack","longitude":8.7382887,"latitude":47.5361591,"name":"Bicycle Parking","city":"Seuzach / Seuzach (Dorf)","address":null,"covered":true,"access":null,"website":null,"phone":null,"source":"OpenStreetMap/way/116582471","sourceUpdatedAt":null,"verifiedAt":null}},{"type":"Feature","geometry":{"type":"Point","coordinates":[8.7358619,47.5361979]},"properties":{"id":"service:2ca9a9f4-04e7-434f-a2ec-f930d0b9a3e4","kind":"service","longitude":8.7358619,"latitude":47.5361979,"name":"Velo Wernli","city":"Seuzach","address":null,"covered":null,"access":null,"website":null,"phone":null,"source":"OpenStreetMap/node/1504082699","sourceUpdatedAt":null,"verifiedAt":null}},{"type":"Feature","geometry":{"type":"Point","coordinates":[8.7156711,47.5342017]},"properties":{"id":"service:2e324e14-7b4b-46b5-9e54-0945556fc974","kind":"service","longitude":8.7156711,"latitude":47.5342017,"name":"FOX Zweiradtechnik GmbH","city":"Seuzach","address":null,"covered":null,"access":null,"website":null,"phone":null,"source":"OpenStreetMap/way/50561445","sourceUpdatedAt":null,"verifiedAt":null}},{"type":"Feature","geometry":{"type":"Point","coordinates":[8.7082377,47.546808]},"properties":{"id":"service:748dfb15-b7eb-4472-b5e4-a86174ca2590","kind":"service","longitude":8.7082377,"latitude":47.546808,"name":"Velo Fino","city":"Hettlingen","address":null,"covered":null,"access":null,"website":null,"phone":null,"source":"OpenStreetMap/node/3228758472","sourceUpdatedAt":null,"verifiedAt":null}},{"type":"Feature","geometry":{"type":"Point","coordinates":[8.7077291,47.5463005]},"properties":{"id":"water:0d383be5-a4da-4445-b384-32e0cba8bcb1","kind":"water","longitude":8.7077291,"latitude":47.5463005,"name":"Drinking Fountain","city":"Hettlingen","address":null,"covered":null,"access":null,"website":null,"phone":null,"source":"OpenStreetMap/node/3537256592","sourceUpdatedAt":null,"verifiedAt":null}},{"type":"Feature","geometry":{"type":"Point","coordinates":[8.7303235,47.5360966]},"properties":{"id":"water:181a7af2-fe84-45ee-bbd1-37068e004d97","kind":"water","longitude":8.7303235,"latitude":47.5360966,"name":"Drinking Fountain","city":"Seuzach Dorf","address":null,"covered":null,"access":null,"website":null,"phone":null,"source":"OpenStreetMap/node/11591386221","sourceUpdatedAt":null,"verifiedAt":null}},{"type":"Feature","geometry":{"type":"Point","coordinates":[8.7142895,47.5343378]},"properties":{"id":"water:190f36c7-05c0-444c-a4d0-d9e39be0a203","kind":"water","longitude":8.7142895,"latitude":47.5343378,"name":"Drinking Fountain","city":"Hettlingen","address":null,"covered":null,"access":null,"website":null,"phone":null,"source":"OpenStreetMap/node/734879832","sourceUpdatedAt":null,"verifiedAt":null}},{"type":"Feature","geometry":{"type":"Point","coordinates":[8.7138232,47.5344683]},"properties":{"id":"water:5023d4c8-62b2-48a8-9dd2-601a20729eb9","kind":"water","longitude":8.7138232,"latitude":47.5344683,"name":"Drinking Fountain","city":"Hettlingen","address":null,"covered":null,"access":null,"website":null,"phone":null,"source":"OpenStreetMap/node/734879785","sourceUpdatedAt":null,"verifiedAt":null}},{"type":"Feature","geometry":{"type":"Point","coordinates":[8.7067433,47.545663]},"properties":{"id":"water:6bc58112-0ed9-410c-b464-26bc27a53443","kind":"water","longitude":8.7067433,"latitude":47.545663,"name":"Drinking Fountain","city":"Hettlingen","address":null,"covered":null,"access":null,"website":null,"phone":null,"source":"OpenStreetMap/node/3537256551","sourceUpdatedAt":null,"verifiedAt":null}},{"type":"Feature","geometry":{"type":"Point","coordinates":[8.7428785,47.538236]},"properties":{"id":"water:a5d68c0e-777f-4174-81db-71feccfd6e0b","kind":"water","longitude":8.7428785,"latitude":47.538236,"name":"Drinking Fountain","city":"Seuzach / Seuzach (Dorf)","address":null,"covered":null,"access":null,"website":null,"phone":null,"source":"OpenStreetMap/node/9655519360","sourceUpdatedAt":null,"verifiedAt":null}},{"type":"Feature","geometry":{"type":"Point","coordinates":[8.7340359,47.5295265]},"properties":{"id":"water:b96735cc-4be5-4861-a825-9c49b082da77","kind":"water","longitude":8.7340359,"latitude":47.5295265,"name":"Hochgrüt","city":"Seuzach Dorf / Breite-Weid","address":null,"covered":null,"access":null,"website":null,"phone":null,"source":"OpenStreetMap/node/13430786519","sourceUpdatedAt":null,"verifiedAt":null}},{"type":"Feature","geometry":{"type":"Point","coordinates":[8.726593,47.5340514]},"properties":{"id":"water:d0d1c3e8-e5e5-4061-8f3c-b9ac7347cfff","kind":"water","longitude":8.726593,"latitude":47.5340514,"name":"Drinking Fountain","city":"Seuzach Dorf","address":null,"covered":null,"access":null,"website":null,"phone":null,"source":"OpenStreetMap/node/7147405794","sourceUpdatedAt":null,"verifiedAt":null}},{"type":"Feature","geometry":{"type":"Point","coordinates":[8.7447396,47.542118]},"properties":{"id":"water:e02e7b3e-2bb3-43ce-994c-e4c5cb961ca0","kind":"water","longitude":8.7447396,"latitude":47.542118,"name":"Drinking Fountain","city":"Seuzach / Seuzach (Dorf)","address":null,"covered":null,"access":null,"website":null,"phone":null,"source":"OpenStreetMap/node/9655602068","sourceUpdatedAt":null,"verifiedAt":null}}]}