{"type":"FeatureCollection","features":[{"type":"Feature","geometry":{"type":"Point","coordinates":[8.7056038,47.4835869]},"properties":{"id":"bikerack:57810995-d1b8-48bb-94c4-b7313837d7ac","kind":"bikerack","longitude":8.7056038,"latitude":47.4835869,"name":"Bicycle Parking","city":"Toess (Kreis 4) / Eichliacker","address":null,"covered":false,"access":null,"website":null,"phone":null,"source":"OpenStreetMap/way/42075741","sourceUpdatedAt":null,"verifiedAt":null}},{"type":"Feature","geometry":{"type":"Point","coordinates":[8.7095682,47.473009]},"properties":{"id":"bikerack:58e90cec-0aec-41cf-a765-3019e38a5d28","kind":"bikerack","longitude":8.7095682,"latitude":47.473009,"name":"Bicycle Parking","city":"Toss","address":null,"covered":false,"access":null,"website":null,"phone":null,"source":"OpenStreetMap/node/10701587417","sourceUpdatedAt":null,"verifiedAt":null}},{"type":"Feature","geometry":{"type":"Point","coordinates":[8.7262948,47.4775615]},"properties":{"id":"bikerack:a328dc21-6b2b-48dd-ad5a-0f94c7d635eb","kind":"bikerack","longitude":8.7262948,"latitude":47.4775615,"name":"Bicycle Parking","city":"Stadt Winterthur (Kreis 1) / Heiligberg","address":null,"covered":false,"access":null,"website":null,"phone":null,"source":"OpenStreetMap/node/11663029195","sourceUpdatedAt":null,"verifiedAt":null}},{"type":"Feature","geometry":{"type":"Point","coordinates":[8.7041749,47.4864559]},"properties":{"id":"bikerack:cbccac51-5059-4875-8d5f-cb4f33f2a2c4","kind":"bikerack","longitude":8.7041749,"latitude":47.4864559,"name":"Bicycle Parking","city":"Toess (Kreis 4) / Eichliacker","address":null,"covered":false,"access":null,"website":null,"phone":null,"source":"OpenStreetMap/node/4853269686","sourceUpdatedAt":null,"verifiedAt":null}},{"type":"Feature","geometry":{"type":"Point","coordinates":[8.7095675,47.473046]},"properties":{"id":"bikerack:d4b9dcc0-8f8f-4c86-b3c1-9bdbb464b153","kind":"bikerack","longitude":8.7095675,"latitude":47.473046,"name":"Bicycle Parking","city":"Toss","address":null,"covered":false,"access":null,"website":null,"phone":null,"source":"OpenStreetMap/node/10701587418","sourceUpdatedAt":null,"verifiedAt":null}},{"type":"Feature","geometry":{"type":"Point","coordinates":[8.706772,47.4865856]},"properties":{"id":"bikerack:dda04f0a-179b-4e74-aad0-78233e5b5138","kind":"bikerack","longitude":8.706772,"latitude":47.4865856,"name":"Bicycle Parking","city":"Toess (Kreis 4) / Eichliacker","address":null,"covered":true,"access":null,"website":null,"phone":null,"source":"OpenStreetMap/node/12228261543","sourceUpdatedAt":null,"verifiedAt":null}},{"type":"Feature","geometry":{"type":"Point","coordinates":[8.7026785,47.4762294]},"properties":{"id":"bikerack:fb730088-b2d3-442c-bfe4-a21c1b6a1aa3","kind":"bikerack","longitude":8.7026785,"latitude":47.4762294,"name":"Bicycle Parking","city":"Toss","address":null,"covered":false,"access":null,"website":null,"phone":null,"source":"OpenStreetMap/way/1286450086","sourceUpdatedAt":null,"verifiedAt":null}},{"type":"Feature","geometry":{"type":"Point","coordinates":[8.7284534,47.4628171]},"properties":{"id":"water:33aab0d6-6b6a-4dba-867b-a065582926c7","kind":"water","longitude":8.7284534,"latitude":47.4628171,"name":"Drinking Fountain","city":"Mattenbach (Kreis 7)","address":null,"covered":null,"access":null,"website":null,"phone":null,"source":"OpenStreetMap/node/1366258991","sourceUpdatedAt":null,"verifiedAt":null}},{"type":"Feature","geometry":{"type":"Point","coordinates":[8.719745,47.4742875]},"properties":{"id":"water:57ded0a3-c17d-48a3-a89a-c7d4f25b9d17","kind":"water","longitude":8.719745,"latitude":47.4742875,"name":"Drinking Fountain","city":"Toess (Kreis 4) / Eichliacker","address":null,"covered":null,"access":null,"website":null,"phone":null,"source":"OpenStreetMap/node/1408847362","sourceUpdatedAt":null,"verifiedAt":null}},{"type":"Feature","geometry":{"type":"Point","coordinates":[8.7153313,47.4644297]},"properties":{"id":"water:59ca0367-3540-42fd-8384-bd5fcec2209e","kind":"water","longitude":8.7153313,"latitude":47.4644297,"name":"Drinking Fountain","city":"Toss","address":null,"covered":null,"access":null,"website":null,"phone":null,"source":"OpenStreetMap/node/7476506077","sourceUpdatedAt":null,"verifiedAt":null}},{"type":"Feature","geometry":{"type":"Point","coordinates":[8.7372089,47.4766431]},"properties":{"id":"water:6853a81e-72f3-4e4f-a214-a6e375393893","kind":"water","longitude":8.7372089,"latitude":47.4766431,"name":"Drinking Fountain","city":"Mattenbach (Kreis 7)","address":null,"covered":null,"access":null,"website":null,"phone":null,"source":"OpenStreetMap/node/2804414634","sourceUpdatedAt":null,"verifiedAt":null}},{"type":"Feature","geometry":{"type":"Point","coordinates":[8.7125683,47.4610664]},"properties":{"id":"water:783b2d01-ff43-47a7-a4bc-2b2af91fdab3","kind":"water","longitude":8.7125683,"latitude":47.4610664,"name":"Drinking Fountain","city":"Toss","address":null,"covered":null,"access":null,"website":null,"phone":null,"source":"OpenStreetMap/node/11670287566","sourceUpdatedAt":null,"verifiedAt":null}},{"type":"Feature","geometry":{"type":"Point","coordinates":[8.7413626,47.4770935]},"properties":{"id":"water:8f8902fa-bd07-4b3f-b8f1-cf0eebf579ad","kind":"water","longitude":8.7413626,"latitude":47.4770935,"name":"Drinking Fountain","city":"Mattenbach (Kreis 7)","address":null,"covered":null,"access":null,"website":null,"phone":null,"source":"OpenStreetMap/node/2177614982","sourceUpdatedAt":null,"verifiedAt":null}},{"type":"Feature","geometry":{"type":"Point","coordinates":[8.7097503,47.4720594]},"properties":{"id":"water:a31b0247-2466-4e13-b5b6-9be62e469385","kind":"water","longitude":8.7097503,"latitude":47.4720594,"name":"Drinking Fountain","city":"Toss","address":null,"covered":null,"access":null,"website":null,"phone":null,"source":"OpenStreetMap/node/2281799988","sourceUpdatedAt":null,"verifiedAt":null}},{"type":"Feature","geometry":{"type":"Point","coordinates":[8.7263299,47.4774757]},"properties":{"id":"water:d2ef3a31-93ef-4141-a3c4-cd118271e6a8","kind":"water","longitude":8.7263299,"latitude":47.4774757,"name":"Drinking Fountain","city":"Stadt Winterthur (Kreis 1) / Heiligberg","address":null,"covered":null,"access":null,"website":null,"phone":null,"source":"OpenStreetMap/node/9893074777","sourceUpdatedAt":null,"verifiedAt":null}},{"type":"Feature","geometry":{"type":"Point","coordinates":[8.7090711,47.4731572]},"properties":{"id":"water:e580c774-ef9e-4dc6-b7e8-efc089682149","kind":"water","longitude":8.7090711,"latitude":47.4731572,"name":"Drinking Fountain","city":"Toss","address":null,"covered":null,"access":null,"website":null,"phone":null,"source":"OpenStreetMap/node/9507254923","sourceUpdatedAt":null,"verifiedAt":null}},{"type":"Feature","geometry":{"type":"Point","coordinates":[8.7253759,47.4672988]},"properties":{"id":"water:ef9ffd29-a2fc-4554-b973-abec49fb742b","kind":"water","longitude":8.7253759,"latitude":47.4672988,"name":"Drinking Fountain","city":"Toss","address":null,"covered":null,"access":null,"website":null,"phone":null,"source":"OpenStreetMap/node/2281802770","sourceUpdatedAt":null,"verifiedAt":null}},{"type":"Feature","geometry":{"type":"Point","coordinates":[8.7012553,47.4707631]},"properties":{"id":"water:f3f77b28-2561-4f6d-9a64-157723898358","kind":"water","longitude":8.7012553,"latitude":47.4707631,"name":"Steigbrunnen","city":"Toss","address":null,"covered":null,"access":null,"website":null,"phone":null,"source":"OpenStreetMap/node/4350186526","sourceUpdatedAt":null,"verifiedAt":null}},{"type":"Feature","geometry":{"type":"Point","coordinates":[8.7449309,47.4825015]},"properties":{"id":"water:f433deca-601b-4b58-b0c6-0d6792a8b018","kind":"water","longitude":8.7449309,"latitude":47.4825015,"name":"Drinking Fountain","city":"Mattenbach (Kreis 7)","address":null,"covered":null,"access":null,"website":null,"phone":null,"source":"OpenStreetMap/node/10928247195","sourceUpdatedAt":null,"verifiedAt":null}}]}