{"type":"FeatureCollection","features":[{"type":"Feature","geometry":{"type":"Point","coordinates":[8.7069808,47.3229044]},"properties":{"id":"bikerack:00a996db-0fc2-4b86-a285-b1ef6084b6ea","kind":"bikerack","longitude":8.7069808,"latitude":47.3229044,"name":"Bicycle Parking","city":"Monchaltorf","address":null,"covered":false,"access":null,"website":null,"phone":null,"source":"OpenStreetMap/node/9013974429","sourceUpdatedAt":null,"verifiedAt":null}},{"type":"Feature","geometry":{"type":"Point","coordinates":[8.723087,47.3099442]},"properties":{"id":"water:94b61e9c-bfdf-42b4-ab99-3feaa69f8094","kind":"water","longitude":8.723087,"latitude":47.3099442,"name":"Drinking Fountain","city":"Monchaltorf","address":null,"covered":null,"access":null,"website":null,"phone":null,"source":"OpenStreetMap/node/9722665953","sourceUpdatedAt":null,"verifiedAt":null}},{"type":"Feature","geometry":{"type":"Point","coordinates":[8.7114142,47.3328523]},"properties":{"id":"water:a7e6bb10-9a28-404d-9803-106a9201bb28","kind":"water","longitude":8.7114142,"latitude":47.3328523,"name":"Drinking Fountain","city":"Uster / Kirch-Uster","address":null,"covered":null,"access":null,"website":null,"phone":null,"source":"OpenStreetMap/node/370084567","sourceUpdatedAt":null,"verifiedAt":null}},{"type":"Feature","geometry":{"type":"Point","coordinates":[8.7214633,47.310124]},"properties":{"id":"water:c3123144-154a-433d-9249-dc8a3dfd2135","kind":"water","longitude":8.7214633,"latitude":47.310124,"name":"Drinking Fountain","city":"Monchaltorf","address":null,"covered":null,"access":null,"website":null,"phone":null,"source":"OpenStreetMap/node/2465808144","sourceUpdatedAt":null,"verifiedAt":null}},{"type":"Feature","geometry":{"type":"Point","coordinates":[8.7111766,47.3315719]},"properties":{"id":"water:cfcb348b-a4da-44da-b7eb-1955353b326c","kind":"water","longitude":8.7111766,"latitude":47.3315719,"name":"Drinking Fountain","city":"Uster / Kirch-Uster","address":null,"covered":null,"access":null,"website":null,"phone":null,"source":"OpenStreetMap/node/234833416","sourceUpdatedAt":null,"verifiedAt":null}},{"type":"Feature","geometry":{"type":"Point","coordinates":[8.7216646,47.3103006]},"properties":{"id":"water:faa8c55c-bf41-429b-a7c5-2755149783a4","kind":"water","longitude":8.7216646,"latitude":47.3103006,"name":"Drinking Fountain","city":"Monchaltorf","address":null,"covered":null,"access":null,"website":null,"phone":null,"source":"OpenStreetMap/node/2928850587","sourceUpdatedAt":null,"verifiedAt":null}}]}