{"type":"FeatureCollection","features":[{"type":"Feature","geometry":{"type":"Point","coordinates":[8.71517,45.2177139]},"properties":{"id":"water:74bdb214-0a00-4828-a25a-069bcebb5c56","kind":"water","longitude":8.71517,"latitude":45.2177139,"name":"Fontanella","city":"Olevano di Lomellina","address":null,"covered":null,"access":null,"website":null,"phone":null,"source":"OpenStreetMap/node/639779988","sourceUpdatedAt":null,"verifiedAt":null}},{"type":"Feature","geometry":{"type":"Point","coordinates":[8.7182924,45.2133388]},"properties":{"id":"water:921d5b30-bd11-4d37-aabb-a871676288d7","kind":"water","longitude":8.7182924,"latitude":45.2133388,"name":"Fontanella","city":"Olevano di Lomellina","address":null,"covered":null,"access":null,"website":null,"phone":null,"source":"OpenStreetMap/node/2686961247","sourceUpdatedAt":null,"verifiedAt":null}}]}