{"type":"FeatureCollection","features":[{"type":"Feature","geometry":{"type":"Point","coordinates":[20.4644347,50.7997024]},"properties":{"id":"bikerack:557aba2f-83e2-4681-bb25-8736aefeb565","kind":"bikerack","longitude":20.4644347,"latitude":50.7997024,"name":"Biciklitároló","city":"Checiny","address":null,"covered":false,"access":null,"website":null,"phone":null,"source":"OpenStreetMap/node/13180351775","sourceUpdatedAt":null,"verifiedAt":null}},{"type":"Feature","geometry":{"type":"Point","coordinates":[20.4622953,50.7996646]},"properties":{"id":"water:0e2ced00-c902-4f95-a910-2a0d94517cda","kind":"water","longitude":20.4622953,"latitude":50.7996646,"name":"Ivókút","city":"Checiny","address":null,"covered":null,"access":null,"website":null,"phone":null,"source":"OpenStreetMap/node/2974821329","sourceUpdatedAt":null,"verifiedAt":null}},{"type":"Feature","geometry":{"type":"Point","coordinates":[20.4617875,50.7998039]},"properties":{"id":"water:57745882-6e13-4c22-b1b8-28c39bd42e01","kind":"water","longitude":20.4617875,"latitude":50.7998039,"name":"Ivókút","city":"Checiny","address":null,"covered":null,"access":null,"website":null,"phone":null,"source":"OpenStreetMap/node/2974821331","sourceUpdatedAt":null,"verifiedAt":null}},{"type":"Feature","geometry":{"type":"Point","coordinates":[20.4619838,50.7997532]},"properties":{"id":"water:b8061004-5100-4553-a6ef-01eac28ac7e2","kind":"water","longitude":20.4619838,"latitude":50.7997532,"name":"Ivókút","city":"Checiny","address":null,"covered":null,"access":null,"website":null,"phone":null,"source":"OpenStreetMap/node/2974821330","sourceUpdatedAt":null,"verifiedAt":null}},{"type":"Feature","geometry":{"type":"Point","coordinates":[20.4624421,50.7999346]},"properties":{"id":"water:c8fe238b-3ab2-4c5a-80da-0e83bd03010d","kind":"water","longitude":20.4624421,"latitude":50.7999346,"name":"Ścieżka mnicha – Ivókút","city":"Checiny","address":null,"covered":null,"access":null,"website":null,"phone":null,"source":"OpenStreetMap/node/10904385054","sourceUpdatedAt":null,"verifiedAt":null}},{"type":"Feature","geometry":{"type":"Point","coordinates":[20.4616139,50.7998562]},"properties":{"id":"water:d209ad02-64ac-41bf-9f2c-c3d63a1797bb","kind":"water","longitude":20.4616139,"latitude":50.7998562,"name":"Ivókút","city":"Checiny","address":null,"covered":null,"access":null,"website":null,"phone":null,"source":"OpenStreetMap/node/2974821332","sourceUpdatedAt":null,"verifiedAt":null}}]}