{"type":"FeatureCollection","features":[{"type":"Feature","geometry":{"type":"Point","coordinates":[20.4377241,49.5569019]},"properties":{"id":"bikerack:7047d88d-17dd-4edd-a057-084fff96315b","kind":"bikerack","longitude":20.4377241,"latitude":49.5569019,"name":"Biciklitároló","city":"Lacko","address":null,"covered":false,"access":null,"website":null,"phone":null,"source":"OpenStreetMap/node/4173867463","sourceUpdatedAt":null,"verifiedAt":null}},{"type":"Feature","geometry":{"type":"Point","coordinates":[20.4357137,49.557568]},"properties":{"id":"service:3eefe023-fbbb-41ea-ba3d-54e0cfefe9f2","kind":"service","longitude":20.4357137,"latitude":49.557568,"name":"Firma Handlowa Pasoń, QSi Sport","city":"Lacko","address":null,"covered":null,"access":null,"website":null,"phone":null,"source":"OpenStreetMap/way/385155399","sourceUpdatedAt":null,"verifiedAt":null}}]}