{"type":"FeatureCollection","features":[{"type":"Feature","geometry":{"type":"Point","coordinates":[20.4481792,49.1598126]},"properties":{"id":"bikerack:13c9be6c-358c-45e3-9f98-3c2a4fd1a669","kind":"bikerack","longitude":20.4481792,"latitude":49.1598126,"name":"Biciklitároló","city":"Kezmarok","address":null,"covered":false,"access":null,"website":null,"phone":null,"source":"OpenStreetMap/node/9082425984","sourceUpdatedAt":null,"verifiedAt":null}},{"type":"Feature","geometry":{"type":"Point","coordinates":[20.4500634,49.1789633]},"properties":{"id":"bikerack:184612b3-712f-4016-9757-49689a5e9947","kind":"bikerack","longitude":20.4500634,"latitude":49.1789633,"name":"Biciklitároló","city":"Spisska Bela","address":null,"covered":false,"access":null,"website":null,"phone":null,"source":"OpenStreetMap/node/11414710219","sourceUpdatedAt":null,"verifiedAt":null}},{"type":"Feature","geometry":{"type":"Point","coordinates":[20.4501374,49.1789432]},"properties":{"id":"repair:56336308-3bbd-46b9-b45b-d66f70669b6d","kind":"repair","longitude":20.4501374,"latitude":49.1789432,"name":"Kerékpár szervizállomás","city":"Spisska Bela","address":null,"covered":false,"access":null,"website":null,"phone":null,"source":"OpenStreetMap/node/11414710218","sourceUpdatedAt":null,"verifiedAt":null}}]}