{"type":"FeatureCollection","features":[{"type":"Feature","geometry":{"type":"Point","coordinates":[13.2950757,46.3574165]},"properties":{"id":"water:4bf2c6a4-d8ff-4983-bd64-702fdf10c3ef","kind":"water","longitude":13.2950757,"latitude":46.3574165,"name":"Fontanella","city":"Prato","address":null,"covered":null,"access":null,"website":null,"phone":null,"source":"OpenStreetMap/node/3062873141","sourceUpdatedAt":null,"verifiedAt":null}},{"type":"Feature","geometry":{"type":"Point","coordinates":[13.294525,46.355573]},"properties":{"id":"water:52c136d6-a789-4f98-a3c3-d8c4196d17b0","kind":"water","longitude":13.294525,"latitude":46.355573,"name":"Fontanella","city":"Prato","address":null,"covered":null,"access":null,"website":null,"phone":null,"source":"OpenStreetMap/node/8016695822","sourceUpdatedAt":null,"verifiedAt":null}},{"type":"Feature","geometry":{"type":"Point","coordinates":[13.30691,46.3736941]},"properties":{"id":"water:56f9fd96-2b8f-459a-8ba5-da115d4bd9cb","kind":"water","longitude":13.30691,"latitude":46.3736941,"name":"Fontanella","city":"Prato","address":null,"covered":null,"access":null,"website":null,"phone":null,"source":"OpenStreetMap/node/3062873142","sourceUpdatedAt":null,"verifiedAt":null}},{"type":"Feature","geometry":{"type":"Point","coordinates":[13.3151039,46.3722521]},"properties":{"id":"water:b32dc1f9-4bb7-41ff-81af-169a3055e484","kind":"water","longitude":13.3151039,"latitude":46.3722521,"name":"Fontanella","city":"Prato","address":null,"covered":null,"access":null,"website":null,"phone":null,"source":"OpenStreetMap/node/13236546479","sourceUpdatedAt":null,"verifiedAt":null}}]}