{"type":"FeatureCollection","features":[{"type":"Feature","geometry":{"type":"Point","coordinates":[13.2813451,46.0442382]},"properties":{"id":"bikerack:45f3cfa2-27a5-4313-ba74-7b9ae5e5b632","kind":"bikerack","longitude":13.2813451,"latitude":46.0442382,"name":"Parcheggio bici","city":"Pradamano","address":null,"covered":false,"access":null,"website":null,"phone":null,"source":"OpenStreetMap/node/6524148334","sourceUpdatedAt":null,"verifiedAt":null}},{"type":"Feature","geometry":{"type":"Point","coordinates":[13.2791515,46.0690457]},"properties":{"id":"water:45e0e5b6-0adf-4e92-b580-132e3bcf30fa","kind":"water","longitude":13.2791515,"latitude":46.0690457,"name":"Fontanella","city":"Udine","address":null,"covered":null,"access":null,"website":null,"phone":null,"source":"OpenStreetMap/node/9751915093","sourceUpdatedAt":null,"verifiedAt":null}},{"type":"Feature","geometry":{"type":"Point","coordinates":[13.2781177,46.0612758]},"properties":{"id":"water:5c636c21-471d-4fac-a18b-e60c768e224f","kind":"water","longitude":13.2781177,"latitude":46.0612758,"name":"Fontanella","city":"Udine","address":null,"covered":null,"access":null,"website":null,"phone":null,"source":"OpenStreetMap/node/13123670916","sourceUpdatedAt":null,"verifiedAt":null}}]}