{"type":"FeatureCollection","features":[{"type":"Feature","geometry":{"type":"Point","coordinates":[10.5593247,52.2921508]},"properties":{"id":"bikerack:05651fb2-946c-42eb-8684-60b920420e7e","kind":"bikerack","longitude":10.5593247,"latitude":52.2921508,"name":"Fahrradabstellplatz","city":"Braunschweig","address":null,"covered":false,"access":null,"website":null,"phone":null,"source":"OpenStreetMap/way/679308897","sourceUpdatedAt":null,"verifiedAt":null}},{"type":"Feature","geometry":{"type":"Point","coordinates":[10.5542834,52.27726]},"properties":{"id":"bikerack:0b26b84a-2426-4f1d-834a-ab92361442be","kind":"bikerack","longitude":10.5542834,"latitude":52.27726,"name":"Fahrradabstellplatz","city":"Braunschweig","address":null,"covered":false,"access":null,"website":null,"phone":null,"source":"OpenStreetMap/way/1112708284","sourceUpdatedAt":null,"verifiedAt":null}},{"type":"Feature","geometry":{"type":"Point","coordinates":[10.5471855,52.2778938]},"properties":{"id":"bikerack:0f5ccaca-ea1b-4d46-8f51-dbc6ab9afe47","kind":"bikerack","longitude":10.5471855,"latitude":52.2778938,"name":"Fahrradabstellplatz","city":"Braunschweig","address":null,"covered":false,"access":null,"website":null,"phone":null,"source":"OpenStreetMap/way/610215170","sourceUpdatedAt":null,"verifiedAt":null}},{"type":"Feature","geometry":{"type":"Point","coordinates":[10.5761803,52.2688064]},"properties":{"id":"bikerack:19ae3c1a-6103-4c5f-a5dd-74f27064b3e8","kind":"bikerack","longitude":10.5761803,"latitude":52.2688064,"name":"Fahrradabstellplatz","city":"Braunschweig","address":null,"covered":false,"access":null,"website":null,"phone":null,"source":"OpenStreetMap/node/12977639431","sourceUpdatedAt":null,"verifiedAt":null}},{"type":"Feature","geometry":{"type":"Point","coordinates":[10.5800626,52.2842748]},"properties":{"id":"bikerack:1ff30dcf-6bbb-4b18-afe0-76aa60101e6c","kind":"bikerack","longitude":10.5800626,"latitude":52.2842748,"name":"Fahrradabstellplatz","city":"Braunschweig","address":null,"covered":false,"access":null,"website":null,"phone":null,"source":"OpenStreetMap/node/13658334195","sourceUpdatedAt":null,"verifiedAt":null}},{"type":"Feature","geometry":{"type":"Point","coordinates":[10.5494957,52.2763192]},"properties":{"id":"bikerack:2eb87ee2-72a3-4d3c-b41a-f9e8626fa14a","kind":"bikerack","longitude":10.5494957,"latitude":52.2763192,"name":"Fahrradabstellplatz","city":"Braunschweig","address":null,"covered":false,"access":null,"website":null,"phone":null,"source":"OpenStreetMap/node/11208022637","sourceUpdatedAt":null,"verifiedAt":null}},{"type":"Feature","geometry":{"type":"Point","coordinates":[10.5496782,52.2763356]},"properties":{"id":"bikerack:354f2934-902c-4cbd-aa4b-b0acfc1785b2","kind":"bikerack","longitude":10.5496782,"latitude":52.2763356,"name":"Fahrradabstellplatz","city":"Braunschweig","address":null,"covered":false,"access":null,"website":null,"phone":null,"source":"OpenStreetMap/node/11208022837","sourceUpdatedAt":null,"verifiedAt":null}},{"type":"Feature","geometry":{"type":"Point","coordinates":[10.5484586,52.2690147]},"properties":{"id":"bikerack:36222650-0b8a-47ce-bba6-fe5e01ec2224","kind":"bikerack","longitude":10.5484586,"latitude":52.2690147,"name":"Fahrradabstellplatz","city":"Braunschweig","address":null,"covered":false,"access":null,"website":null,"phone":null,"source":"OpenStreetMap/node/12103749471","sourceUpdatedAt":null,"verifiedAt":null}},{"type":"Feature","geometry":{"type":"Point","coordinates":[10.5482372,52.2801999]},"properties":{"id":"bikerack:3e03ef46-76d7-4c10-8123-a770d853213e","kind":"bikerack","longitude":10.5482372,"latitude":52.2801999,"name":"Fahrradabstellplatz","city":"Braunschweig","address":null,"covered":false,"access":null,"website":null,"phone":null,"source":"OpenStreetMap/way/610215182","sourceUpdatedAt":null,"verifiedAt":null}},{"type":"Feature","geometry":{"type":"Point","coordinates":[10.5485201,52.2685929]},"properties":{"id":"bikerack:421bd1ad-a3e3-461f-9abb-8c69497bf937","kind":"bikerack","longitude":10.5485201,"latitude":52.2685929,"name":"Fahrradabstellplatz","city":"Braunschweig","address":null,"covered":false,"access":null,"website":null,"phone":null,"source":"OpenStreetMap/way/1151612435","sourceUpdatedAt":null,"verifiedAt":null}},{"type":"Feature","geometry":{"type":"Point","coordinates":[10.5765813,52.2838692]},"properties":{"id":"bikerack:42fd2b80-d155-43a2-8213-7e49e1e059e5","kind":"bikerack","longitude":10.5765813,"latitude":52.2838692,"name":"Fahrradabstellplatz","city":"Braunschweig","address":null,"covered":false,"access":null,"website":null,"phone":null,"source":"OpenStreetMap/way/831387226","sourceUpdatedAt":null,"verifiedAt":null}},{"type":"Feature","geometry":{"type":"Point","coordinates":[10.5479283,52.2803147]},"properties":{"id":"bikerack:46547b4a-7edc-435a-a5c6-60897a971be8","kind":"bikerack","longitude":10.5479283,"latitude":52.2803147,"name":"Fahrradabstellplatz","city":"Braunschweig","address":null,"covered":true,"access":null,"website":null,"phone":null,"source":"OpenStreetMap/way/610215184","sourceUpdatedAt":null,"verifiedAt":null}},{"type":"Feature","geometry":{"type":"Point","coordinates":[10.5825384,52.2834837]},"properties":{"id":"bikerack:49253fcf-99a3-47bb-aefa-4f361c7b3356","kind":"bikerack","longitude":10.5825384,"latitude":52.2834837,"name":"Fahrradabstellplatz","city":"Braunschweig","address":null,"covered":false,"access":null,"website":null,"phone":null,"source":"OpenStreetMap/node/3366776990","sourceUpdatedAt":null,"verifiedAt":null}},{"type":"Feature","geometry":{"type":"Point","coordinates":[10.5468944,52.2800979]},"properties":{"id":"bikerack:4dfecc8e-a387-47b9-8797-039499eaf9cb","kind":"bikerack","longitude":10.5468944,"latitude":52.2800979,"name":"Fahrradabstellplatz","city":"Braunschweig","address":null,"covered":false,"access":null,"website":null,"phone":null,"source":"OpenStreetMap/way/610215181","sourceUpdatedAt":null,"verifiedAt":null}},{"type":"Feature","geometry":{"type":"Point","coordinates":[10.5766038,52.2837848]},"properties":{"id":"bikerack:4eba2cc5-9b14-46e4-b1e3-63dc9eca4cee","kind":"bikerack","longitude":10.5766038,"latitude":52.2837848,"name":"Fahrradabstellplatz","city":"Braunschweig","address":null,"covered":false,"access":null,"website":null,"phone":null,"source":"OpenStreetMap/node/7762516268","sourceUpdatedAt":null,"verifiedAt":null}},{"type":"Feature","geometry":{"type":"Point","coordinates":[10.5517211,52.2785484]},"properties":{"id":"bikerack:4f7313da-c5ca-4a97-98d8-b26278ffc4ba","kind":"bikerack","longitude":10.5517211,"latitude":52.2785484,"name":"Fahrradabstellplatz","city":"Braunschweig","address":null,"covered":false,"access":null,"website":null,"phone":null,"source":"OpenStreetMap/node/9276057902","sourceUpdatedAt":null,"verifiedAt":null}},{"type":"Feature","geometry":{"type":"Point","coordinates":[10.58034,52.2833884]},"properties":{"id":"bikerack:50d489be-0dee-4c0c-bdf6-9c04a0bed12e","kind":"bikerack","longitude":10.58034,"latitude":52.2833884,"name":"Fahrradabstellplatz","city":"Braunschweig","address":null,"covered":false,"access":null,"website":null,"phone":null,"source":"OpenStreetMap/node/13658334165","sourceUpdatedAt":null,"verifiedAt":null}},{"type":"Feature","geometry":{"type":"Point","coordinates":[10.5613777,52.2891026]},"properties":{"id":"bikerack:54ffc47b-ad96-438b-8a8c-e6e97dfa9e1a","kind":"bikerack","longitude":10.5613777,"latitude":52.2891026,"name":"Fahrradabstellplatz","city":"Braunschweig","address":null,"covered":false,"access":null,"website":null,"phone":null,"source":"OpenStreetMap/way/1300097068","sourceUpdatedAt":null,"verifiedAt":null}},{"type":"Feature","geometry":{"type":"Point","coordinates":[10.5474437,52.2841784]},"properties":{"id":"bikerack:579f600e-2afe-47ae-a97e-2774d675d58d","kind":"bikerack","longitude":10.5474437,"latitude":52.2841784,"name":"Fahrradabstellplatz","city":"Braunschweig","address":null,"covered":true,"access":null,"website":null,"phone":null,"source":"OpenStreetMap/node/6354213223","sourceUpdatedAt":null,"verifiedAt":null}},{"type":"Feature","geometry":{"type":"Point","coordinates":[10.5613342,52.2897687]},"properties":{"id":"bikerack:5875654e-bd1b-4444-8642-7c48ecfc9297","kind":"bikerack","longitude":10.5613342,"latitude":52.2897687,"name":"Fahrradabstellplatz","city":"Braunschweig","address":null,"covered":false,"access":null,"website":null,"phone":null,"source":"OpenStreetMap/node/3366720851","sourceUpdatedAt":null,"verifiedAt":null}},{"type":"Feature","geometry":{"type":"Point","coordinates":[10.5632274,52.2853392]},"properties":{"id":"bikerack:5957cf98-7903-4a24-9740-000cfcc0a9a5","kind":"bikerack","longitude":10.5632274,"latitude":52.2853392,"name":"Fahrradabstellplatz","city":"Braunschweig","address":null,"covered":false,"access":null,"website":null,"phone":null,"source":"OpenStreetMap/node/13089406009","sourceUpdatedAt":null,"verifiedAt":null}},{"type":"Feature","geometry":{"type":"Point","coordinates":[10.5640736,52.2855441]},"properties":{"id":"bikerack:5addcbff-a1ed-43b5-83da-52a534e85bf1","kind":"bikerack","longitude":10.5640736,"latitude":52.2855441,"name":"Fahrradabstellplatz","city":"Braunschweig","address":null,"covered":false,"access":null,"website":null,"phone":null,"source":"OpenStreetMap/node/1684996380","sourceUpdatedAt":null,"verifiedAt":null}},{"type":"Feature","geometry":{"type":"Point","coordinates":[10.5479599,52.2799643]},"properties":{"id":"bikerack:5bd611e6-cf7d-409c-afed-69dfb647b581","kind":"bikerack","longitude":10.5479599,"latitude":52.2799643,"name":"Fahrradabstellplatz","city":"Braunschweig","address":null,"covered":false,"access":null,"website":null,"phone":null,"source":"OpenStreetMap/way/610215177","sourceUpdatedAt":null,"verifiedAt":null}},{"type":"Feature","geometry":{"type":"Point","coordinates":[10.5557556,52.2909678]},"properties":{"id":"bikerack:5e580bc7-f557-4d7e-9e86-4d9d3a885250","kind":"bikerack","longitude":10.5557556,"latitude":52.2909678,"name":"Fahrradabstellplatz","city":"Braunschweig","address":null,"covered":false,"access":null,"website":null,"phone":null,"source":"OpenStreetMap/way/1115552516","sourceUpdatedAt":null,"verifiedAt":null}},{"type":"Feature","geometry":{"type":"Point","coordinates":[10.5707413,52.2704344]},"properties":{"id":"bikerack:6339b97a-9d91-4176-ae86-bbe8d90c32a0","kind":"bikerack","longitude":10.5707413,"latitude":52.2704344,"name":"Fahrradabstellplatz","city":"Braunschweig","address":null,"covered":false,"access":null,"website":null,"phone":null,"source":"OpenStreetMap/node/12192191102","sourceUpdatedAt":null,"verifiedAt":null}},{"type":"Feature","geometry":{"type":"Point","coordinates":[10.5527115,52.2778772]},"properties":{"id":"bikerack:63cabb86-aa60-46f8-9f94-c59442db0fad","kind":"bikerack","longitude":10.5527115,"latitude":52.2778772,"name":"Fahrradabstellplatz","city":"Braunschweig","address":null,"covered":false,"access":null,"website":null,"phone":null,"source":"OpenStreetMap/node/9276057895","sourceUpdatedAt":null,"verifiedAt":null}},{"type":"Feature","geometry":{"type":"Point","coordinates":[10.5504416,52.2773088]},"properties":{"id":"bikerack:64db4c51-90fa-4ec7-a172-2a5bb64f89e6","kind":"bikerack","longitude":10.5504416,"latitude":52.2773088,"name":"Fahrradabstellplatz","city":"Braunschweig","address":null,"covered":true,"access":null,"website":null,"phone":null,"source":"OpenStreetMap/way/945418612","sourceUpdatedAt":null,"verifiedAt":null}},{"type":"Feature","geometry":{"type":"Point","coordinates":[10.5553908,52.2774011]},"properties":{"id":"bikerack:67e2bab4-02f1-4ba1-bb3e-dac14c075707","kind":"bikerack","longitude":10.5553908,"latitude":52.2774011,"name":"Fahrradabstellplatz","city":"Braunschweig","address":null,"covered":false,"access":null,"website":null,"phone":null,"source":"OpenStreetMap/way/1112708280","sourceUpdatedAt":null,"verifiedAt":null}},{"type":"Feature","geometry":{"type":"Point","coordinates":[10.5577266,52.2789205]},"properties":{"id":"bikerack:690ed0ac-dee2-464c-a37e-6c8ca659c1b0","kind":"bikerack","longitude":10.5577266,"latitude":52.2789205,"name":"Fahrradabstellplatz","city":"Braunschweig","address":null,"covered":false,"access":null,"website":null,"phone":null,"source":"OpenStreetMap/node/12874736264","sourceUpdatedAt":null,"verifiedAt":null}},{"type":"Feature","geometry":{"type":"Point","coordinates":[10.553268,52.2781558]},"properties":{"id":"bikerack:6e6d7900-f5ea-4c04-a2dd-7ab8c09dd239","kind":"bikerack","longitude":10.553268,"latitude":52.2781558,"name":"Fahrradabstellplatz","city":"Braunschweig","address":null,"covered":false,"access":null,"website":null,"phone":null,"source":"OpenStreetMap/node/10202264694","sourceUpdatedAt":null,"verifiedAt":null}},{"type":"Feature","geometry":{"type":"Point","coordinates":[10.5476328,52.2839839]},"properties":{"id":"bikerack:6f14d0ea-d67c-4208-9ee1-41f16ee6b149","kind":"bikerack","longitude":10.5476328,"latitude":52.2839839,"name":"Fahrradabstellplatz","city":"Braunschweig","address":null,"covered":false,"access":null,"website":null,"phone":null,"source":"OpenStreetMap/way/1102660509","sourceUpdatedAt":null,"verifiedAt":null}},{"type":"Feature","geometry":{"type":"Point","coordinates":[10.5662912,52.2688133]},"properties":{"id":"bikerack:7301c1d1-61e8-44d8-954b-46ed679455af","kind":"bikerack","longitude":10.5662912,"latitude":52.2688133,"name":"Fahrradabstellplatz","city":"Braunschweig","address":null,"covered":false,"access":null,"website":null,"phone":null,"source":"OpenStreetMap/node/12328829209","sourceUpdatedAt":null,"verifiedAt":null}},{"type":"Feature","geometry":{"type":"Point","coordinates":[10.5543812,52.2773008]},"properties":{"id":"bikerack:73301763-ee34-42a3-9a26-948a49144d57","kind":"bikerack","longitude":10.5543812,"latitude":52.2773008,"name":"Fahrradabstellplatz","city":"Braunschweig","address":null,"covered":false,"access":null,"website":null,"phone":null,"source":"OpenStreetMap/way/1112708283","sourceUpdatedAt":null,"verifiedAt":null}},{"type":"Feature","geometry":{"type":"Point","coordinates":[10.5507115,52.2729095]},"properties":{"id":"bikerack:7b0a4b02-7c51-4a5e-aaf9-a918af6fa6e7","kind":"bikerack","longitude":10.5507115,"latitude":52.2729095,"name":"Fahrradabstellplatz","city":"Braunschweig","address":null,"covered":false,"access":null,"website":null,"phone":null,"source":"OpenStreetMap/node/11992630131","sourceUpdatedAt":null,"verifiedAt":null}},{"type":"Feature","geometry":{"type":"Point","coordinates":[10.5746853,52.2869304]},"properties":{"id":"bikerack:7b7836e0-1ab1-4b0d-b7ef-f04990a5bfcd","kind":"bikerack","longitude":10.5746853,"latitude":52.2869304,"name":"Fahrradabstellplatz","city":"Braunschweig","address":null,"covered":false,"access":null,"website":null,"phone":null,"source":"OpenStreetMap/node/6587235585","sourceUpdatedAt":null,"verifiedAt":null}},{"type":"Feature","geometry":{"type":"Point","coordinates":[10.5489626,52.2789727]},"properties":{"id":"bikerack:834acaa2-cdb8-40ff-a6e6-446d54773c1d","kind":"bikerack","longitude":10.5489626,"latitude":52.2789727,"name":"Fahrradabstellplatz","city":"Braunschweig","address":null,"covered":false,"access":null,"website":null,"phone":null,"source":"OpenStreetMap/way/610195604","sourceUpdatedAt":null,"verifiedAt":null}},{"type":"Feature","geometry":{"type":"Point","coordinates":[10.5601882,52.2908749]},"properties":{"id":"bikerack:87f0161b-04c6-4150-b843-4ad5218b0b47","kind":"bikerack","longitude":10.5601882,"latitude":52.2908749,"name":"Fahrradabstellplatz","city":"Braunschweig","address":null,"covered":false,"access":null,"website":null,"phone":null,"source":"OpenStreetMap/way/679903184","sourceUpdatedAt":null,"verifiedAt":null}},{"type":"Feature","geometry":{"type":"Point","coordinates":[10.5546138,52.2773464]},"properties":{"id":"bikerack:8b396f4a-82a6-4aa3-a7df-1f04777ff660","kind":"bikerack","longitude":10.5546138,"latitude":52.2773464,"name":"Fahrradabstellplatz","city":"Braunschweig","address":null,"covered":false,"access":null,"website":null,"phone":null,"source":"OpenStreetMap/way/1112708281","sourceUpdatedAt":null,"verifiedAt":null}},{"type":"Feature","geometry":{"type":"Point","coordinates":[10.5506676,52.2766706]},"properties":{"id":"bikerack:8dc30762-f33a-479c-b05c-037f7b160a89","kind":"bikerack","longitude":10.5506676,"latitude":52.2766706,"name":"Fahrradabstellplatz","city":"Braunschweig","address":null,"covered":false,"access":null,"website":null,"phone":null,"source":"OpenStreetMap/node/10180726150","sourceUpdatedAt":null,"verifiedAt":null}},{"type":"Feature","geometry":{"type":"Point","coordinates":[10.551531,52.2780851]},"properties":{"id":"bikerack:8f23716a-6f93-4bae-89b8-327342b6355a","kind":"bikerack","longitude":10.551531,"latitude":52.2780851,"name":"Fahrradabstellplatz","city":"Braunschweig","address":null,"covered":false,"access":null,"website":null,"phone":null,"source":"OpenStreetMap/node/9276057908","sourceUpdatedAt":null,"verifiedAt":null}},{"type":"Feature","geometry":{"type":"Point","coordinates":[10.5609326,52.2812065]},"properties":{"id":"bikerack:90091fbb-2504-4e8c-8f17-05c461459fb2","kind":"bikerack","longitude":10.5609326,"latitude":52.2812065,"name":"Fahrradabstellplatz","city":"Braunschweig","address":null,"covered":false,"access":null,"website":null,"phone":null,"source":"OpenStreetMap/node/12271480285","sourceUpdatedAt":null,"verifiedAt":null}},{"type":"Feature","geometry":{"type":"Point","coordinates":[10.5758985,52.2698262]},"properties":{"id":"bikerack:90e04428-a474-4764-8c17-1d16212b1ae7","kind":"bikerack","longitude":10.5758985,"latitude":52.2698262,"name":"Fahrradabstellplatz","city":"Braunschweig","address":null,"covered":false,"access":null,"website":null,"phone":null,"source":"OpenStreetMap/node/12192149635","sourceUpdatedAt":null,"verifiedAt":null}},{"type":"Feature","geometry":{"type":"Point","coordinates":[10.5684376,52.2899838]},"properties":{"id":"bikerack:9b13c73e-0f1c-4843-afdf-1ea068d04e8b","kind":"bikerack","longitude":10.5684376,"latitude":52.2899838,"name":"Fahrradabstellplatz","city":"Braunschweig","address":null,"covered":false,"access":null,"website":null,"phone":null,"source":"OpenStreetMap/node/12614987049","sourceUpdatedAt":null,"verifiedAt":null}},{"type":"Feature","geometry":{"type":"Point","coordinates":[10.5496031,52.2763475]},"properties":{"id":"bikerack:9d0067c0-a3bd-473e-811b-eb3731b7d841","kind":"bikerack","longitude":10.5496031,"latitude":52.2763475,"name":"Fahrradabstellplatz","city":"Braunschweig","address":null,"covered":false,"access":null,"website":null,"phone":null,"source":"OpenStreetMap/node/11208022737","sourceUpdatedAt":null,"verifiedAt":null}},{"type":"Feature","geometry":{"type":"Point","coordinates":[10.5554985,52.2911945]},"properties":{"id":"bikerack:9dd4197d-02dc-4e68-b574-62170b8e1524","kind":"bikerack","longitude":10.5554985,"latitude":52.2911945,"name":"Fahrradabstellplatz","city":"Braunschweig","address":null,"covered":false,"access":null,"website":null,"phone":null,"source":"OpenStreetMap/node/2458114712","sourceUpdatedAt":null,"verifiedAt":null}},{"type":"Feature","geometry":{"type":"Point","coordinates":[10.5895082,52.29058]},"properties":{"id":"bikerack:a1200f4f-a32e-40fb-a6fb-67530a425ee6","kind":"bikerack","longitude":10.5895082,"latitude":52.29058,"name":"Fahrradabstellplatz","city":"Braunschweig","address":null,"covered":false,"access":null,"website":null,"phone":null,"source":"OpenStreetMap/node/6232935740","sourceUpdatedAt":null,"verifiedAt":null}},{"type":"Feature","geometry":{"type":"Point","coordinates":[10.5525673,52.2787051]},"properties":{"id":"bikerack:a8d641e1-c829-4be6-b815-22b40853c3b5","kind":"bikerack","longitude":10.5525673,"latitude":52.2787051,"name":"Fahrradabstellplatz","city":"Braunschweig","address":null,"covered":false,"access":null,"website":null,"phone":null,"source":"OpenStreetMap/node/8327736511","sourceUpdatedAt":null,"verifiedAt":null}},{"type":"Feature","geometry":{"type":"Point","coordinates":[10.5528536,52.2781468]},"properties":{"id":"bikerack:aa980c26-ffa5-4d4c-9722-8eaced256023","kind":"bikerack","longitude":10.5528536,"latitude":52.2781468,"name":"Fahrradabstellplatz","city":"Braunschweig","address":null,"covered":false,"access":null,"website":null,"phone":null,"source":"OpenStreetMap/node/9276057915","sourceUpdatedAt":null,"verifiedAt":null}},{"type":"Feature","geometry":{"type":"Point","coordinates":[10.559702,52.2906553]},"properties":{"id":"bikerack:ac9727bd-e21f-442a-9594-ad3e807ca318","kind":"bikerack","longitude":10.559702,"latitude":52.2906553,"name":"Fahrradabstellplatz","city":"Braunschweig","address":null,"covered":false,"access":null,"website":null,"phone":null,"source":"OpenStreetMap/way/56335927","sourceUpdatedAt":null,"verifiedAt":null}},{"type":"Feature","geometry":{"type":"Point","coordinates":[10.5523896,52.278251]},"properties":{"id":"bikerack:ad4c3a2f-34b7-4796-9644-71512c9ab07f","kind":"bikerack","longitude":10.5523896,"latitude":52.278251,"name":"Fahrradabstellplatz","city":"Braunschweig","address":null,"covered":false,"access":null,"website":null,"phone":null,"source":"OpenStreetMap/node/9276057897","sourceUpdatedAt":null,"verifiedAt":null}},{"type":"Feature","geometry":{"type":"Point","coordinates":[10.5634104,52.2853532]},"properties":{"id":"bikerack:ae97b19a-0237-464a-b1be-998f241a0e31","kind":"bikerack","longitude":10.5634104,"latitude":52.2853532,"name":"Fahrradabstellplatz","city":"Braunschweig","address":null,"covered":false,"access":null,"website":null,"phone":null,"source":"OpenStreetMap/node/13089393606","sourceUpdatedAt":null,"verifiedAt":null}},{"type":"Feature","geometry":{"type":"Point","coordinates":[10.5802164,52.2837771]},"properties":{"id":"bikerack:b2f563d7-8cb6-4dfd-a9ce-8c2c2d3a9e1a","kind":"bikerack","longitude":10.5802164,"latitude":52.2837771,"name":"Fahrradabstellplatz","city":"Braunschweig","address":null,"covered":false,"access":null,"website":null,"phone":null,"source":"OpenStreetMap/node/13658334166","sourceUpdatedAt":null,"verifiedAt":null}},{"type":"Feature","geometry":{"type":"Point","coordinates":[10.5835933,52.2851656]},"properties":{"id":"bikerack:b4920f3f-cc1d-4117-9dc5-a9c95f5c21c7","kind":"bikerack","longitude":10.5835933,"latitude":52.2851656,"name":"Fahrradabstellplatz","city":"Braunschweig","address":null,"covered":false,"access":null,"website":null,"phone":null,"source":"OpenStreetMap/node/1685972919","sourceUpdatedAt":null,"verifiedAt":null}},{"type":"Feature","geometry":{"type":"Point","coordinates":[10.5485752,52.2713814]},"properties":{"id":"bikerack:b8b222a7-988a-4230-91b5-2dcebcd4af17","kind":"bikerack","longitude":10.5485752,"latitude":52.2713814,"name":"Fahrradabstellplatz","city":"Braunschweig","address":null,"covered":false,"access":null,"website":null,"phone":null,"source":"OpenStreetMap/way/679319843","sourceUpdatedAt":null,"verifiedAt":null}},{"type":"Feature","geometry":{"type":"Point","coordinates":[10.577986,52.2696689]},"properties":{"id":"bikerack:b96162ab-eccb-4b44-8db1-61abb27390a8","kind":"bikerack","longitude":10.577986,"latitude":52.2696689,"name":"Fahrradabstellplatz","city":"Braunschweig","address":null,"covered":false,"access":null,"website":null,"phone":null,"source":"OpenStreetMap/way/1148303223","sourceUpdatedAt":null,"verifiedAt":null}},{"type":"Feature","geometry":{"type":"Point","coordinates":[10.5516815,52.2779203]},"properties":{"id":"bikerack:bc5a15f9-ab14-4e4b-bba8-fee3b33e033a","kind":"bikerack","longitude":10.5516815,"latitude":52.2779203,"name":"Fahrradabstellplatz","city":"Braunschweig","address":null,"covered":false,"access":null,"website":null,"phone":null,"source":"OpenStreetMap/node/9276057914","sourceUpdatedAt":null,"verifiedAt":null}},{"type":"Feature","geometry":{"type":"Point","coordinates":[10.551177,52.2725403]},"properties":{"id":"bikerack:c8148eea-23d6-4ecc-ab6a-7a95142c7acc","kind":"bikerack","longitude":10.551177,"latitude":52.2725403,"name":"Fahrradabstellplatz","city":"Braunschweig","address":null,"covered":false,"access":null,"website":null,"phone":null,"source":"OpenStreetMap/way/679319845","sourceUpdatedAt":null,"verifiedAt":null}},{"type":"Feature","geometry":{"type":"Point","coordinates":[10.5485215,52.2829278]},"properties":{"id":"bikerack:c8c0aa49-3a5c-4845-8c43-77dd02efd95b","kind":"bikerack","longitude":10.5485215,"latitude":52.2829278,"name":"Fahrradabstellplatz","city":"Braunschweig","address":null,"covered":false,"access":null,"website":null,"phone":null,"source":"OpenStreetMap/way/1135373453","sourceUpdatedAt":null,"verifiedAt":null}},{"type":"Feature","geometry":{"type":"Point","coordinates":[10.5497063,52.2762215]},"properties":{"id":"bikerack:cb4132bc-7e37-4a19-b14e-a0aba28c1373","kind":"bikerack","longitude":10.5497063,"latitude":52.2762215,"name":"Fahrradabstellplatz","city":"Braunschweig","address":null,"covered":true,"access":null,"website":null,"phone":null,"source":"OpenStreetMap/node/11208022838","sourceUpdatedAt":null,"verifiedAt":null}},{"type":"Feature","geometry":{"type":"Point","coordinates":[10.5582377,52.2913095]},"properties":{"id":"bikerack:cd9db12a-0171-4ec8-9bc8-9cb1dca937b2","kind":"bikerack","longitude":10.5582377,"latitude":52.2913095,"name":"Fahrradabstellplatz","city":"Braunschweig","address":null,"covered":false,"access":null,"website":null,"phone":null,"source":"OpenStreetMap/way/679308899","sourceUpdatedAt":null,"verifiedAt":null}},{"type":"Feature","geometry":{"type":"Point","coordinates":[10.5559712,52.2903888]},"properties":{"id":"bikerack:d1d0fac3-2fe4-44f0-98c1-6b6e83b92031","kind":"bikerack","longitude":10.5559712,"latitude":52.2903888,"name":"Fahrradabstellplatz","city":"Braunschweig","address":null,"covered":false,"access":null,"website":null,"phone":null,"source":"OpenStreetMap/way/1115552517","sourceUpdatedAt":null,"verifiedAt":null}},{"type":"Feature","geometry":{"type":"Point","coordinates":[10.5519752,52.2781656]},"properties":{"id":"bikerack:e0066ca5-3e90-4877-9c58-e4a6299a17cb","kind":"bikerack","longitude":10.5519752,"latitude":52.2781656,"name":"Fahrradabstellplatz","city":"Braunschweig","address":null,"covered":false,"access":null,"website":null,"phone":null,"source":"OpenStreetMap/node/9276057905","sourceUpdatedAt":null,"verifiedAt":null}},{"type":"Feature","geometry":{"type":"Point","coordinates":[10.5611257,52.2906566]},"properties":{"id":"bikerack:ebfb11a4-4897-4951-a324-91f8dae7c5bc","kind":"bikerack","longitude":10.5611257,"latitude":52.2906566,"name":"Fahrradabstellplatz","city":"Braunschweig","address":null,"covered":false,"access":null,"website":null,"phone":null,"source":"OpenStreetMap/node/6203500269","sourceUpdatedAt":null,"verifiedAt":null}},{"type":"Feature","geometry":{"type":"Point","coordinates":[10.5592032,52.2792917]},"properties":{"id":"bikerack:ee9215d3-3646-4dad-95c3-8fa7a2b26bad","kind":"bikerack","longitude":10.5592032,"latitude":52.2792917,"name":"Fahrradabstellplatz","city":"Braunschweig","address":null,"covered":false,"access":null,"website":null,"phone":null,"source":"OpenStreetMap/way/1112710930","sourceUpdatedAt":null,"verifiedAt":null}},{"type":"Feature","geometry":{"type":"Point","coordinates":[10.5481302,52.2803323]},"properties":{"id":"bikerack:f144a3b5-e664-4938-aff8-1620587b5f11","kind":"bikerack","longitude":10.5481302,"latitude":52.2803323,"name":"Fahrradabstellplatz","city":"Braunschweig","address":null,"covered":true,"access":null,"website":null,"phone":null,"source":"OpenStreetMap/way/610215183","sourceUpdatedAt":null,"verifiedAt":null}},{"type":"Feature","geometry":{"type":"Point","coordinates":[10.548715,52.2690439]},"properties":{"id":"bikerack:f7f6a48d-0c77-49ab-a02a-467c66cbec4b","kind":"bikerack","longitude":10.548715,"latitude":52.2690439,"name":"Fahrradabstellplatz","city":"Braunschweig","address":null,"covered":false,"access":null,"website":null,"phone":null,"source":"OpenStreetMap/node/10050996169","sourceUpdatedAt":null,"verifiedAt":null}},{"type":"Feature","geometry":{"type":"Point","coordinates":[10.5545045,52.2773386]},"properties":{"id":"bikerack:f97241f2-1b3d-4b19-9b44-37456e8a4628","kind":"bikerack","longitude":10.5545045,"latitude":52.2773386,"name":"Fahrradabstellplatz","city":"Braunschweig","address":null,"covered":false,"access":null,"website":null,"phone":null,"source":"OpenStreetMap/way/1112708282","sourceUpdatedAt":null,"verifiedAt":null}},{"type":"Feature","geometry":{"type":"Point","coordinates":[10.5525687,52.2786405]},"properties":{"id":"repair:a74c4cfb-73ef-434f-aaeb-d570cff21662","kind":"repair","longitude":10.5525687,"latitude":52.2786405,"name":"Fahrradreparaturstation","city":"Braunschweig","address":null,"covered":false,"access":null,"website":null,"phone":null,"source":"OpenStreetMap/node/12346259558","sourceUpdatedAt":null,"verifiedAt":null}},{"type":"Feature","geometry":{"type":"Point","coordinates":[10.5503827,52.2772594]},"properties":{"id":"repair:ebba2f3f-cb8e-4539-aaba-38bd52e84459","kind":"repair","longitude":10.5503827,"latitude":52.2772594,"name":"Fahrradreparaturstation","city":"Braunschweig","address":null,"covered":false,"access":null,"website":null,"phone":null,"source":"OpenStreetMap/node/10202179488","sourceUpdatedAt":null,"verifiedAt":null}},{"type":"Feature","geometry":{"type":"Point","coordinates":[10.5784007,52.2839186]},"properties":{"id":"service:4b091767-40d2-4542-b97f-dbc5074ebaac","kind":"service","longitude":10.5784007,"latitude":52.2839186,"name":"radspezial","city":"Braunschweig","address":null,"covered":null,"access":null,"website":null,"phone":null,"source":"OpenStreetMap/node/7028280815","sourceUpdatedAt":null,"verifiedAt":null}},{"type":"Feature","geometry":{"type":"Point","coordinates":[10.5603645,52.2921984]},"properties":{"id":"service:70ee12c7-9a4b-4fb1-b3a1-80cfc17bec0d","kind":"service","longitude":10.5603645,"latitude":52.2921984,"name":"Zweirad Schulz Querum","city":"Braunschweig","address":null,"covered":null,"access":null,"website":null,"phone":null,"source":"OpenStreetMap/way/106986828","sourceUpdatedAt":null,"verifiedAt":null}},{"type":"Feature","geometry":{"type":"Point","coordinates":[10.5587862,52.2831383]},"properties":{"id":"water:044f398a-8c3b-4c5a-9ce1-4c8165021aab","kind":"water","longitude":10.5587862,"latitude":52.2831383,"name":"Trinkwasser","city":"Braunschweig","address":null,"covered":null,"access":null,"website":null,"phone":null,"source":"OpenStreetMap/node/11452191270","sourceUpdatedAt":null,"verifiedAt":null}}]}