{"type":"FeatureCollection","features":[{"type":"Feature","geometry":{"type":"Point","coordinates":[10.5522944,45.7580697]},"properties":{"id":"water:68a1ff8f-0949-4ce1-9732-97cc4b3e75be","kind":"water","longitude":10.5522944,"latitude":45.7580697,"name":"Fontanella","city":"Capovalle","address":null,"covered":null,"access":null,"website":null,"phone":null,"source":"OpenStreetMap/node/7180915052","sourceUpdatedAt":null,"verifiedAt":null}},{"type":"Feature","geometry":{"type":"Point","coordinates":[10.5718814,45.7637395]},"properties":{"id":"water:99335709-d67a-4b6d-a16b-921f19c71aa4","kind":"water","longitude":10.5718814,"latitude":45.7637395,"name":"Fontanella","city":"Valvestino","address":null,"covered":null,"access":null,"website":null,"phone":null,"source":"OpenStreetMap/node/4129802621","sourceUpdatedAt":null,"verifiedAt":null}},{"type":"Feature","geometry":{"type":"Point","coordinates":[10.5481441,45.7534478]},"properties":{"id":"water:eea725c9-a039-4fa6-ba9e-81ac31e17e6a","kind":"water","longitude":10.5481441,"latitude":45.7534478,"name":"Fontanella","city":"Capovalle","address":null,"covered":null,"access":null,"website":null,"phone":null,"source":"OpenStreetMap/node/1882657280","sourceUpdatedAt":null,"verifiedAt":null}}]}