{"type":"FeatureCollection","features":[{"type":"Feature","geometry":{"type":"Point","coordinates":[11.9558662,54.6968884]},"properties":{"id":"bikerack:77f2375a-ab6f-4e83-8dfd-c64d7635c736","kind":"bikerack","longitude":11.9558662,"latitude":54.6968884,"name":"Bicycle Parking","city":"Nykobing Falster","address":null,"covered":false,"access":null,"website":null,"phone":null,"source":"OpenStreetMap/node/13159402400","sourceUpdatedAt":null,"verifiedAt":null}},{"type":"Feature","geometry":{"type":"Point","coordinates":[11.9572586,54.6979315]},"properties":{"id":"bikerack:833ddc68-a0a6-4c4e-af31-c586669fd545","kind":"bikerack","longitude":11.9572586,"latitude":54.6979315,"name":"Bicycle Parking","city":"Nykobing Falster","address":null,"covered":false,"access":null,"website":null,"phone":null,"source":"OpenStreetMap/node/13146968483","sourceUpdatedAt":null,"verifiedAt":null}},{"type":"Feature","geometry":{"type":"Point","coordinates":[11.9645398,54.6906312]},"properties":{"id":"bikerack:8831e716-6384-4e9a-b233-3405c125f8ed","kind":"bikerack","longitude":11.9645398,"latitude":54.6906312,"name":"Bicycle Parking","city":"Nykobing Falster","address":null,"covered":false,"access":null,"website":null,"phone":null,"source":"OpenStreetMap/node/4705492797","sourceUpdatedAt":null,"verifiedAt":null}},{"type":"Feature","geometry":{"type":"Point","coordinates":[11.9673449,54.6904759]},"properties":{"id":"bikerack:eca0f251-f00d-495e-a436-d3dea9b8ff16","kind":"bikerack","longitude":11.9673449,"latitude":54.6904759,"name":"Bicycle Parking","city":"Nykobing Falster","address":null,"covered":true,"access":null,"website":null,"phone":null,"source":"OpenStreetMap/way/1117012691","sourceUpdatedAt":null,"verifiedAt":null}}]}