{"type":"FeatureCollection","features":[{"type":"Feature","geometry":{"type":"Point","coordinates":[11.97738,52.1941822]},"properties":{"id":"bikerack:395781e5-5d1d-4420-9447-82dcf9ee71a6","kind":"bikerack","longitude":11.97738,"latitude":52.1941822,"name":"Fahrradabstellplatz","city":"Mockern","address":null,"covered":false,"access":null,"website":null,"phone":null,"source":"OpenStreetMap/node/7358283557","sourceUpdatedAt":null,"verifiedAt":null}},{"type":"Feature","geometry":{"type":"Point","coordinates":[11.9843647,52.2112045]},"properties":{"id":"bikerack:9305c096-6745-4206-85ad-efd5eb8dc3e0","kind":"bikerack","longitude":11.9843647,"latitude":52.2112045,"name":"Fahrradabstellplatz","city":"Mockern","address":null,"covered":false,"access":null,"website":null,"phone":null,"source":"OpenStreetMap/node/5607042314","sourceUpdatedAt":null,"verifiedAt":null}}]}