{"type":"FeatureCollection","features":[{"type":"Feature","geometry":{"type":"Point","coordinates":[11.9765514,51.7532177]},"properties":{"id":"bikerack:660c78dc-0591-4c78-bbef-823f5380d4d5","kind":"bikerack","longitude":11.9765514,"latitude":51.7532177,"name":"Fahrradabstellplatz","city":"Koethen","address":null,"covered":true,"access":null,"website":null,"phone":null,"source":"OpenStreetMap/way/692436314","sourceUpdatedAt":null,"verifiedAt":null}},{"type":"Feature","geometry":{"type":"Point","coordinates":[11.9880888,51.7527408]},"properties":{"id":"bikerack:78ce9276-cfbc-478d-bfbe-7aca477460b1","kind":"bikerack","longitude":11.9880888,"latitude":51.7527408,"name":"Fahrradabstellplatz","city":"Koethen","address":null,"covered":true,"access":null,"website":null,"phone":null,"source":"OpenStreetMap/node/1509259610","sourceUpdatedAt":null,"verifiedAt":null}},{"type":"Feature","geometry":{"type":"Point","coordinates":[11.9885556,51.750652]},"properties":{"id":"bikerack:99ce3c3c-5c5d-4b06-8ad5-c9d9141c2f89","kind":"bikerack","longitude":11.9885556,"latitude":51.750652,"name":"Fahrradabstellplatz","city":"Koethen","address":null,"covered":true,"access":null,"website":null,"phone":null,"source":"OpenStreetMap/node/3579339799","sourceUpdatedAt":null,"verifiedAt":null}},{"type":"Feature","geometry":{"type":"Point","coordinates":[11.9764348,51.7481234]},"properties":{"id":"service:72d6d125-2b8c-4088-803f-90b79176beaf","kind":"service","longitude":11.9764348,"latitude":51.7481234,"name":"Zweirad-Groth","city":"Köthen (Anhalt)","address":null,"covered":null,"access":null,"website":null,"phone":null,"source":"OpenStreetMap/node/3573239495","sourceUpdatedAt":null,"verifiedAt":null}},{"type":"Feature","geometry":{"type":"Point","coordinates":[11.9795988,51.7503622]},"properties":{"id":"service:db99a79b-25fa-4820-915a-14d88900d155","kind":"service","longitude":11.9795988,"latitude":51.7503622,"name":"A&V Fahrrad Eck","city":"Köthen (Anhalt)","address":null,"covered":null,"access":null,"website":null,"phone":null,"source":"OpenStreetMap/node/1392335646","sourceUpdatedAt":null,"verifiedAt":null}},{"type":"Feature","geometry":{"type":"Point","coordinates":[11.9724105,51.7526228]},"properties":{"id":"service:e6f3f53e-8ea6-48e7-8056-2303029ef3d8","kind":"service","longitude":11.9724105,"latitude":51.7526228,"name":"Fahrradmanufaktur Albatros","city":"Köthen (Anhalt)","address":null,"covered":null,"access":null,"website":null,"phone":null,"source":"OpenStreetMap/node/3700699524","sourceUpdatedAt":null,"verifiedAt":null}},{"type":"Feature","geometry":{"type":"Point","coordinates":[11.9760856,51.7515532]},"properties":{"id":"water:979199dc-6437-4be5-81d9-2822356cfe9a","kind":"water","longitude":11.9760856,"latitude":51.7515532,"name":"Trinkwasser","city":"Koethen","address":null,"covered":null,"access":null,"website":null,"phone":null,"source":"OpenStreetMap/node/11251558002","sourceUpdatedAt":null,"verifiedAt":null}}]}