{"type":"FeatureCollection","features":[{"type":"Feature","geometry":{"type":"Point","coordinates":[11.9845172,46.3625749]},"properties":{"id":"water:796f6d7b-b82b-4142-9ebc-905b2328d53c","kind":"water","longitude":11.9845172,"latitude":46.3625749,"name":"Fontanella","city":"Cencenighe Agordino","address":null,"covered":null,"access":null,"website":null,"phone":null,"source":"OpenStreetMap/node/12985350310","sourceUpdatedAt":null,"verifiedAt":null}},{"type":"Feature","geometry":{"type":"Point","coordinates":[11.9544768,46.3470206]},"properties":{"id":"water:c8e6bf24-5c74-40cc-8bdc-f27eea54878f","kind":"water","longitude":11.9544768,"latitude":46.3470206,"name":"Fontanella","city":"Cencenighe Agordino","address":null,"covered":null,"access":null,"website":null,"phone":null,"source":"OpenStreetMap/node/3760862512","sourceUpdatedAt":null,"verifiedAt":null}}]}