{"type":"FeatureCollection","features":[{"type":"Feature","geometry":{"type":"Point","coordinates":[24.0679963,49.7958746]},"properties":{"id":"bikerack:03f3d930-e7f8-4624-994c-4f3e8003224b","kind":"bikerack","longitude":24.0679963,"latitude":49.7958746,"name":"Bicycle Parking","city":"L'viv","address":null,"covered":false,"access":null,"website":null,"phone":null,"source":"OpenStreetMap/node/10923503415","sourceUpdatedAt":null,"verifiedAt":null}},{"type":"Feature","geometry":{"type":"Point","coordinates":[24.0459784,49.8091494]},"properties":{"id":"bikerack:0b0a1050-0de8-4dc0-add2-9f8786ef4f47","kind":"bikerack","longitude":24.0459784,"latitude":49.8091494,"name":"Bicycle Parking","city":"L'viv","address":null,"covered":false,"access":null,"website":null,"phone":null,"source":"OpenStreetMap/node/3712448991","sourceUpdatedAt":null,"verifiedAt":null}},{"type":"Feature","geometry":{"type":"Point","coordinates":[24.0590434,49.7949867]},"properties":{"id":"bikerack:0e438795-1c79-45fb-b8c0-e67076f90a27","kind":"bikerack","longitude":24.0590434,"latitude":49.7949867,"name":"Bicycle Parking","city":"L'viv","address":null,"covered":false,"access":null,"website":null,"phone":null,"source":"OpenStreetMap/node/4854224046","sourceUpdatedAt":null,"verifiedAt":null}},{"type":"Feature","geometry":{"type":"Point","coordinates":[24.0539212,49.7949809]},"properties":{"id":"bikerack:2389b455-455e-4c5b-8ca6-c8eaad6c5d53","kind":"bikerack","longitude":24.0539212,"latitude":49.7949809,"name":"Bicycle Parking","city":"L'viv","address":null,"covered":false,"access":null,"website":null,"phone":null,"source":"OpenStreetMap/node/4935284664","sourceUpdatedAt":null,"verifiedAt":null}},{"type":"Feature","geometry":{"type":"Point","coordinates":[24.0600635,49.7845206]},"properties":{"id":"bikerack:26551107-2c4a-4734-bf85-f700e8c7a059","kind":"bikerack","longitude":24.0600635,"latitude":49.7845206,"name":"Bicycle Parking","city":"Solonka","address":null,"covered":false,"access":null,"website":null,"phone":null,"source":"OpenStreetMap/node/3698840219","sourceUpdatedAt":null,"verifiedAt":null}},{"type":"Feature","geometry":{"type":"Point","coordinates":[24.0606336,49.7942593]},"properties":{"id":"bikerack:272f7ef7-fb27-4eb8-bc21-452093e3ff8f","kind":"bikerack","longitude":24.0606336,"latitude":49.7942593,"name":"Bicycle Parking","city":"L'viv","address":null,"covered":false,"access":null,"website":null,"phone":null,"source":"OpenStreetMap/node/8124394011","sourceUpdatedAt":null,"verifiedAt":null}},{"type":"Feature","geometry":{"type":"Point","coordinates":[24.0608989,49.7848519]},"properties":{"id":"bikerack:401ea52b-399e-4f94-9789-569958b0970b","kind":"bikerack","longitude":24.0608989,"latitude":49.7848519,"name":"Bicycle Parking","city":"Solonka","address":null,"covered":false,"access":null,"website":null,"phone":null,"source":"OpenStreetMap/node/2769628298","sourceUpdatedAt":null,"verifiedAt":null}},{"type":"Feature","geometry":{"type":"Point","coordinates":[24.0623844,49.7944345]},"properties":{"id":"bikerack:5644729e-be07-4aa5-a6a6-fd9ae7a16b35","kind":"bikerack","longitude":24.0623844,"latitude":49.7944345,"name":"Bicycle Parking","city":"L'viv","address":null,"covered":false,"access":null,"website":null,"phone":null,"source":"OpenStreetMap/node/10923487693","sourceUpdatedAt":null,"verifiedAt":null}},{"type":"Feature","geometry":{"type":"Point","coordinates":[24.0659179,49.8017968]},"properties":{"id":"bikerack:7391ca73-a5da-42ea-b357-d67bb27a2fe8","kind":"bikerack","longitude":24.0659179,"latitude":49.8017968,"name":"Bicycle Parking","city":"L'viv","address":null,"covered":false,"access":null,"website":null,"phone":null,"source":"OpenStreetMap/node/7553704154","sourceUpdatedAt":null,"verifiedAt":null}},{"type":"Feature","geometry":{"type":"Point","coordinates":[24.0575919,49.7921299]},"properties":{"id":"bikerack:943c2eef-10d9-4895-ae84-1a857fa09587","kind":"bikerack","longitude":24.0575919,"latitude":49.7921299,"name":"Bicycle Parking","city":"L'viv","address":null,"covered":false,"access":null,"website":null,"phone":null,"source":"OpenStreetMap/node/4935284663","sourceUpdatedAt":null,"verifiedAt":null}},{"type":"Feature","geometry":{"type":"Point","coordinates":[24.0569459,49.8059013]},"properties":{"id":"bikerack:9b2ae118-9906-444c-9b8c-5072d5050bb3","kind":"bikerack","longitude":24.0569459,"latitude":49.8059013,"name":"Bicycle Parking","city":"L'viv","address":null,"covered":false,"access":null,"website":null,"phone":null,"source":"OpenStreetMap/node/5163185081","sourceUpdatedAt":null,"verifiedAt":null}},{"type":"Feature","geometry":{"type":"Point","coordinates":[24.0439982,49.8087047]},"properties":{"id":"bikerack:a6af30bf-fbd7-4687-a393-44e39f55868d","kind":"bikerack","longitude":24.0439982,"latitude":49.8087047,"name":"Bicycle Parking","city":"L'viv","address":null,"covered":false,"access":null,"website":null,"phone":null,"source":"OpenStreetMap/node/8850531240","sourceUpdatedAt":null,"verifiedAt":null}},{"type":"Feature","geometry":{"type":"Point","coordinates":[24.0439962,49.8086843]},"properties":{"id":"bikerack:c055f369-d3cd-4563-83cd-9643930365bb","kind":"bikerack","longitude":24.0439962,"latitude":49.8086843,"name":"Bicycle Parking","city":"L'viv","address":null,"covered":false,"access":null,"website":null,"phone":null,"source":"OpenStreetMap/node/8850531241","sourceUpdatedAt":null,"verifiedAt":null}},{"type":"Feature","geometry":{"type":"Point","coordinates":[24.0581271,49.8001466]},"properties":{"id":"bikerack:e39c785d-af4c-4aed-98d1-b131c42c1e4a","kind":"bikerack","longitude":24.0581271,"latitude":49.8001466,"name":"вулиця Антіна Манастирського 2 – Bicycle Parking","city":"L'viv","address":null,"covered":false,"access":null,"website":null,"phone":null,"source":"OpenStreetMap/node/4807399118","sourceUpdatedAt":null,"verifiedAt":null}},{"type":"Feature","geometry":{"type":"Point","coordinates":[24.0459837,49.8091711]},"properties":{"id":"bikerack:efeb8c34-80e9-440c-b670-862fe0d340e1","kind":"bikerack","longitude":24.0459837,"latitude":49.8091711,"name":"Bicycle Parking","city":"L'viv","address":null,"covered":false,"access":null,"website":null,"phone":null,"source":"OpenStreetMap/node/7797694423","sourceUpdatedAt":null,"verifiedAt":null}},{"type":"Feature","geometry":{"type":"Point","coordinates":[24.0701712,49.800379]},"properties":{"id":"service:1fce3233-8e8b-4166-8039-6813189755ee","kind":"service","longitude":24.0701712,"latitude":49.800379,"name":"ВелоСервіс","city":"L'viv","address":null,"covered":null,"access":null,"website":null,"phone":null,"source":"OpenStreetMap/node/4722610028","sourceUpdatedAt":null,"verifiedAt":null}},{"type":"Feature","geometry":{"type":"Point","coordinates":[24.0581748,49.8001656]},"properties":{"id":"service:46363a4f-e728-46e2-9046-98fb8f30d6ca","kind":"service","longitude":24.0581748,"latitude":49.8001656,"name":"Вело-Захід","city":"L'viv","address":null,"covered":null,"access":null,"website":null,"phone":null,"source":"OpenStreetMap/node/4499088145","sourceUpdatedAt":null,"verifiedAt":null}},{"type":"Feature","geometry":{"type":"Point","coordinates":[24.0468656,49.7985438]},"properties":{"id":"service:a6036e0d-d606-4b3f-be4e-bbef4d5283a7","kind":"service","longitude":24.0468656,"latitude":49.7985438,"name":"Велобайк","city":"L'viv","address":null,"covered":null,"access":null,"website":null,"phone":null,"source":"OpenStreetMap/node/2509465791","sourceUpdatedAt":null,"verifiedAt":null}},{"type":"Feature","geometry":{"type":"Point","coordinates":[24.0508832,49.7994769]},"properties":{"id":"water:005522a4-5b0f-4ebd-bb4c-8dbe74b71728","kind":"water","longitude":24.0508832,"latitude":49.7994769,"name":"Drinking Fountain","city":"L'viv","address":null,"covered":null,"access":null,"website":null,"phone":null,"source":"OpenStreetMap/node/6699975014","sourceUpdatedAt":null,"verifiedAt":null}},{"type":"Feature","geometry":{"type":"Point","coordinates":[24.0623032,49.783991]},"properties":{"id":"water:0ec60539-c511-4780-97eb-e8c7b47fe08e","kind":"water","longitude":24.0623032,"latitude":49.783991,"name":"Drinking Fountain","city":"Solonka","address":null,"covered":null,"access":null,"website":null,"phone":null,"source":"OpenStreetMap/node/7083678776","sourceUpdatedAt":null,"verifiedAt":null}},{"type":"Feature","geometry":{"type":"Point","coordinates":[24.0576179,49.7854403]},"properties":{"id":"water:14a64299-9a73-4bb5-b63a-b083446cc376","kind":"water","longitude":24.0576179,"latitude":49.7854403,"name":"Drinking Fountain","city":"Solonka","address":null,"covered":null,"access":null,"website":null,"phone":null,"source":"OpenStreetMap/node/3698842844","sourceUpdatedAt":null,"verifiedAt":null}},{"type":"Feature","geometry":{"type":"Point","coordinates":[24.0661749,49.7934593]},"properties":{"id":"water:1858af23-967a-45b4-b910-5679b59cf1f1","kind":"water","longitude":24.0661749,"latitude":49.7934593,"name":"Природа","city":"L'viv","address":null,"covered":null,"access":null,"website":null,"phone":null,"source":"OpenStreetMap/node/9929744151","sourceUpdatedAt":null,"verifiedAt":null}},{"type":"Feature","geometry":{"type":"Point","coordinates":[24.0527219,49.7874216]},"properties":{"id":"water:1c9dd2df-b703-49c1-a62e-774f6addee52","kind":"water","longitude":24.0527219,"latitude":49.7874216,"name":"Drinking Fountain","city":"Solonka","address":null,"covered":null,"access":null,"website":null,"phone":null,"source":"OpenStreetMap/node/4591157156","sourceUpdatedAt":null,"verifiedAt":null}},{"type":"Feature","geometry":{"type":"Point","coordinates":[24.0571854,49.7965891]},"properties":{"id":"water:3d978611-78c9-49c9-b59f-3098a20d8e53","kind":"water","longitude":24.0571854,"latitude":49.7965891,"name":"Drinking Fountain","city":"L'viv","address":null,"covered":null,"access":null,"website":null,"phone":null,"source":"OpenStreetMap/node/8221994381","sourceUpdatedAt":null,"verifiedAt":null}},{"type":"Feature","geometry":{"type":"Point","coordinates":[24.0596742,49.7857291]},"properties":{"id":"water:42dbaaad-b63f-474d-af2f-d0e8f85f7c84","kind":"water","longitude":24.0596742,"latitude":49.7857291,"name":"Drinking Fountain","city":"Solonka","address":null,"covered":null,"access":null,"website":null,"phone":null,"source":"OpenStreetMap/node/4590546494","sourceUpdatedAt":null,"verifiedAt":null}},{"type":"Feature","geometry":{"type":"Point","coordinates":[24.0448174,49.7955937]},"properties":{"id":"water:57bc4bfa-160e-4ec2-9290-ce820676fefb","kind":"water","longitude":24.0448174,"latitude":49.7955937,"name":"Розена","city":"L'viv","address":null,"covered":null,"access":null,"website":null,"phone":null,"source":"OpenStreetMap/node/9927297854","sourceUpdatedAt":null,"verifiedAt":null}},{"type":"Feature","geometry":{"type":"Point","coordinates":[24.0723458,49.7909229]},"properties":{"id":"water:5f9315cf-e1fa-4cdb-a360-b3ece03aa86c","kind":"water","longitude":24.0723458,"latitude":49.7909229,"name":"Акватермінал","city":"L'viv","address":null,"covered":null,"access":null,"website":null,"phone":null,"source":"OpenStreetMap/node/9465560445","sourceUpdatedAt":null,"verifiedAt":null}},{"type":"Feature","geometry":{"type":"Point","coordinates":[24.048897,49.787642]},"properties":{"id":"water:6693c415-abe2-48bd-8ada-4a2fbfe40c56","kind":"water","longitude":24.048897,"latitude":49.787642,"name":"Drinking Fountain","city":"Solonka","address":null,"covered":null,"access":null,"website":null,"phone":null,"source":"OpenStreetMap/node/10206998776","sourceUpdatedAt":null,"verifiedAt":null}},{"type":"Feature","geometry":{"type":"Point","coordinates":[24.0521383,49.7819274]},"properties":{"id":"water:79f648b9-cb0d-4cfe-a898-2654ac2867b3","kind":"water","longitude":24.0521383,"latitude":49.7819274,"name":"Drinking Fountain","city":"Solonka","address":null,"covered":null,"access":null,"website":null,"phone":null,"source":"OpenStreetMap/node/4498704092","sourceUpdatedAt":null,"verifiedAt":null}},{"type":"Feature","geometry":{"type":"Point","coordinates":[24.0598759,49.7933578]},"properties":{"id":"water:7c85a2e9-750f-4e12-81e9-61f34121bfb7","kind":"water","longitude":24.0598759,"latitude":49.7933578,"name":"Drinking Fountain","city":"L'viv","address":null,"covered":null,"access":null,"website":null,"phone":null,"source":"OpenStreetMap/node/8143887498","sourceUpdatedAt":null,"verifiedAt":null}},{"type":"Feature","geometry":{"type":"Point","coordinates":[24.0433663,49.7977929]},"properties":{"id":"water:7ec39a3f-76a8-437c-acdb-1551837168ed","kind":"water","longitude":24.0433663,"latitude":49.7977929,"name":"Drinking Fountain","city":"L'viv","address":null,"covered":null,"access":null,"website":null,"phone":null,"source":"OpenStreetMap/node/6897688755","sourceUpdatedAt":null,"verifiedAt":null}},{"type":"Feature","geometry":{"type":"Point","coordinates":[24.0578067,49.7879966]},"properties":{"id":"water:932eef1f-8b3d-4a06-b3a8-e80a6de259a6","kind":"water","longitude":24.0578067,"latitude":49.7879966,"name":"Drinking Fountain","city":"Solonka","address":null,"covered":null,"access":null,"website":null,"phone":null,"source":"OpenStreetMap/node/4590546493","sourceUpdatedAt":null,"verifiedAt":null}},{"type":"Feature","geometry":{"type":"Point","coordinates":[24.0618643,49.7956396]},"properties":{"id":"water:a94d380b-d40b-4f55-895b-f37e47b88d7d","kind":"water","longitude":24.0618643,"latitude":49.7956396,"name":"Drinking Fountain","city":"L'viv","address":null,"covered":null,"access":null,"website":null,"phone":null,"source":"OpenStreetMap/node/8120946996","sourceUpdatedAt":null,"verifiedAt":null}},{"type":"Feature","geometry":{"type":"Point","coordinates":[24.0578126,49.7829493]},"properties":{"id":"water:ab8eaee9-febf-41a3-8646-7bf6fba3bda9","kind":"water","longitude":24.0578126,"latitude":49.7829493,"name":"Drinking Fountain","city":"Solonka","address":null,"covered":null,"access":null,"website":null,"phone":null,"source":"OpenStreetMap/node/3698840200","sourceUpdatedAt":null,"verifiedAt":null}},{"type":"Feature","geometry":{"type":"Point","coordinates":[24.0637276,49.7899833]},"properties":{"id":"water:af5807ee-7880-446d-8f1d-f7e68855b6b6","kind":"water","longitude":24.0637276,"latitude":49.7899833,"name":"Drinking Fountain","city":"L'viv","address":null,"covered":null,"access":null,"website":null,"phone":null,"source":"OpenStreetMap/node/7083678779","sourceUpdatedAt":null,"verifiedAt":null}},{"type":"Feature","geometry":{"type":"Point","coordinates":[24.066917,49.7863661]},"properties":{"id":"water:cf89c999-dfef-41aa-8cb9-6ec4ec862971","kind":"water","longitude":24.066917,"latitude":49.7863661,"name":"Drinking Fountain","city":"Solonka","address":null,"covered":null,"access":null,"website":null,"phone":null,"source":"OpenStreetMap/node/7128843186","sourceUpdatedAt":null,"verifiedAt":null}}]}