{"type":"FeatureCollection","features":[{"type":"Feature","geometry":{"type":"Point","coordinates":[12.5791099,52.4803807]},"properties":{"id":"bikerack:7308e51f-ab41-4f06-afd7-8fe2bc3971c3","kind":"bikerack","longitude":12.5791099,"latitude":52.4803807,"name":"Fahrradabstellplatz","city":"Brandenburg an der Havel","address":null,"covered":false,"access":null,"website":null,"phone":null,"source":"OpenStreetMap/node/11985754232","sourceUpdatedAt":null,"verifiedAt":null}},{"type":"Feature","geometry":{"type":"Point","coordinates":[12.5817449,52.4799869]},"properties":{"id":"repair:ff117f4a-fb40-46e8-bb81-031672235d1f","kind":"repair","longitude":12.5817449,"latitude":52.4799869,"name":"Fahrradreparaturstation","city":"Brandenburg an der Havel","address":null,"covered":false,"access":null,"website":null,"phone":null,"source":"OpenStreetMap/node/7684364107","sourceUpdatedAt":null,"verifiedAt":null}}]}