{"type":"FeatureCollection","features":[{"type":"Feature","geometry":{"type":"Point","coordinates":[12.6118563,50.5741049]},"properties":{"id":"bikerack:52cac2c3-b725-44af-84ab-3595a08434d4","kind":"bikerack","longitude":12.6118563,"latitude":50.5741049,"name":"Fahrradabstellplatz","city":"Schneeberg","address":null,"covered":false,"access":null,"website":null,"phone":null,"source":"OpenStreetMap/way/1122944026","sourceUpdatedAt":null,"verifiedAt":null}},{"type":"Feature","geometry":{"type":"Point","coordinates":[12.5989212,50.5930661]},"properties":{"id":"water:fcf1407b-90cb-4015-961d-a485c4621e2e","kind":"water","longitude":12.5989212,"latitude":50.5930661,"name":"Trinkwasser","city":"Schneeberg","address":null,"covered":null,"access":null,"website":null,"phone":null,"source":"OpenStreetMap/node/12902072361","sourceUpdatedAt":null,"verifiedAt":null}}]}