{"type":"FeatureCollection","features":[{"type":"Feature","geometry":{"type":"Point","coordinates":[12.5906244,48.256127]},"properties":{"id":"bikerack:18c62c52-6707-4e4c-a791-8d73c379a324","kind":"bikerack","longitude":12.5906244,"latitude":48.256127,"name":"Fahrradabstellplatz","city":"Toging am Inn","address":null,"covered":false,"access":null,"website":null,"phone":null,"source":"OpenStreetMap/node/11611425890","sourceUpdatedAt":null,"verifiedAt":null}},{"type":"Feature","geometry":{"type":"Point","coordinates":[12.5948366,48.2586951]},"properties":{"id":"bikerack:225745c5-3507-4a63-b7a7-979d35cc99ab","kind":"bikerack","longitude":12.5948366,"latitude":48.2586951,"name":"B+R Box","city":"Toging am Inn","address":null,"covered":false,"access":null,"website":null,"phone":null,"source":"OpenStreetMap/node/13122947510","sourceUpdatedAt":null,"verifiedAt":null}},{"type":"Feature","geometry":{"type":"Point","coordinates":[12.5995986,48.2564128]},"properties":{"id":"bikerack:4a9287ea-d1a6-45f6-9fdd-e26807601924","kind":"bikerack","longitude":12.5995986,"latitude":48.2564128,"name":"Fahrradabstellplatz","city":"Toging am Inn","address":null,"covered":false,"access":null,"website":null,"phone":null,"source":"OpenStreetMap/node/7726172627","sourceUpdatedAt":null,"verifiedAt":null}},{"type":"Feature","geometry":{"type":"Point","coordinates":[12.5943619,48.2587209]},"properties":{"id":"bikerack:83aaf70a-af03-4f92-9032-000a3f38e0a0","kind":"bikerack","longitude":12.5943619,"latitude":48.2587209,"name":"Fahrradabstellplatz","city":"Toging am Inn","address":null,"covered":true,"access":null,"website":null,"phone":null,"source":"OpenStreetMap/way/455688146","sourceUpdatedAt":null,"verifiedAt":null}},{"type":"Feature","geometry":{"type":"Point","coordinates":[12.5815994,48.2639083]},"properties":{"id":"service:063d3887-469c-47dc-bc2f-ac1e51fce21f","kind":"service","longitude":12.5815994,"latitude":48.2639083,"name":"Zweirad Kayar","city":"Töging am Inn","address":null,"covered":null,"access":null,"website":null,"phone":null,"source":"OpenStreetMap/node/7796147745","sourceUpdatedAt":null,"verifiedAt":null}},{"type":"Feature","geometry":{"type":"Point","coordinates":[12.57477,48.2796358]},"properties":{"id":"service:2c17a77b-bfdc-4695-83e6-df0d7e6e6c0c","kind":"service","longitude":12.57477,"latitude":48.2796358,"name":"Matzinger","city":"Erharting","address":null,"covered":null,"access":null,"website":null,"phone":null,"source":"OpenStreetMap/node/3796125630","sourceUpdatedAt":null,"verifiedAt":null}},{"type":"Feature","geometry":{"type":"Point","coordinates":[12.6012479,48.2612023]},"properties":{"id":"service:66a7d5b5-d0a2-4e51-b824-cdf49770b786","kind":"service","longitude":12.6012479,"latitude":48.2612023,"name":"e-motion","city":"Töging am Inn","address":null,"covered":null,"access":null,"website":null,"phone":null,"source":"OpenStreetMap/node/12698757297","sourceUpdatedAt":null,"verifiedAt":null}},{"type":"Feature","geometry":{"type":"Point","coordinates":[12.5922598,48.2557873]},"properties":{"id":"service:ea30ad74-55f6-4c87-bdf3-65c4f580ffce","kind":"service","longitude":12.5922598,"latitude":48.2557873,"name":"bikegarage","city":"Toging am Inn","address":null,"covered":null,"access":null,"website":null,"phone":null,"source":"OpenStreetMap/node/6253971496","sourceUpdatedAt":null,"verifiedAt":null}},{"type":"Feature","geometry":{"type":"Point","coordinates":[12.5907801,48.2561448]},"properties":{"id":"water:0bda9b7e-04fe-404a-aec0-d315844b155b","kind":"water","longitude":12.5907801,"latitude":48.2561448,"name":"EURO-Trinkbrunnen","city":"Toging am Inn","address":null,"covered":null,"access":null,"website":null,"phone":null,"source":"OpenStreetMap/node/12069857809","sourceUpdatedAt":null,"verifiedAt":null}}]}