{"type":"FeatureCollection","features":[{"type":"Feature","geometry":{"type":"Point","coordinates":[12.5975058,47.9437507]},"properties":{"id":"bikerack:3536c501-bd3d-4454-af0f-f43bfeb3a180","kind":"bikerack","longitude":12.5975058,"latitude":47.9437507,"name":"Fahrradabstellplatz","city":"Traunreut","address":null,"covered":true,"access":null,"website":null,"phone":null,"source":"OpenStreetMap/way/1389525093","sourceUpdatedAt":null,"verifiedAt":null}},{"type":"Feature","geometry":{"type":"Point","coordinates":[12.5957374,47.9595092]},"properties":{"id":"bikerack:4838bdb9-83eb-4e4b-8f0f-563fda158a49","kind":"bikerack","longitude":12.5957374,"latitude":47.9595092,"name":"Fahrradabstellplatz","city":"Traunreut","address":null,"covered":true,"access":null,"website":null,"phone":null,"source":"OpenStreetMap/way/1047069063","sourceUpdatedAt":null,"verifiedAt":null}},{"type":"Feature","geometry":{"type":"Point","coordinates":[12.5963617,47.9600417]},"properties":{"id":"bikerack:4cf23a70-f81d-4dc7-9f3e-4bf681500dfe","kind":"bikerack","longitude":12.5963617,"latitude":47.9600417,"name":"Fahrradabstellplatz","city":"Traunreut","address":null,"covered":false,"access":null,"website":null,"phone":null,"source":"OpenStreetMap/way/539043588","sourceUpdatedAt":null,"verifiedAt":null}},{"type":"Feature","geometry":{"type":"Point","coordinates":[12.608322,47.9581555]},"properties":{"id":"bikerack:8d24a3f4-aa16-4d2a-b56f-1d3e28f30894","kind":"bikerack","longitude":12.608322,"latitude":47.9581555,"name":"Fahrradabstellplatz","city":"Traunreut","address":null,"covered":true,"access":null,"website":null,"phone":null,"source":"OpenStreetMap/way/854285223","sourceUpdatedAt":null,"verifiedAt":null}},{"type":"Feature","geometry":{"type":"Point","coordinates":[12.59657,47.9580906]},"properties":{"id":"bikerack:94ad4871-d036-4546-8879-577ff24541d1","kind":"bikerack","longitude":12.59657,"latitude":47.9580906,"name":"Fahrradabstellplatz","city":"Traunreut","address":null,"covered":true,"access":null,"website":null,"phone":null,"source":"OpenStreetMap/way/538832789","sourceUpdatedAt":null,"verifiedAt":null}},{"type":"Feature","geometry":{"type":"Point","coordinates":[12.5955424,47.9591614]},"properties":{"id":"bikerack:9d8c651f-67f0-4326-9c8b-c330265bc3fa","kind":"bikerack","longitude":12.5955424,"latitude":47.9591614,"name":"Fahrradabstellplatz","city":"Traunreut","address":null,"covered":false,"access":null,"website":null,"phone":null,"source":"OpenStreetMap/way/538572122","sourceUpdatedAt":null,"verifiedAt":null}},{"type":"Feature","geometry":{"type":"Point","coordinates":[12.5965412,47.9581784]},"properties":{"id":"bikerack:a340be9b-8cb0-4885-84f5-68a0a865934b","kind":"bikerack","longitude":12.5965412,"latitude":47.9581784,"name":"Fahrradabstellplatz","city":"Traunreut","address":null,"covered":false,"access":null,"website":null,"phone":null,"source":"OpenStreetMap/way/539043576","sourceUpdatedAt":null,"verifiedAt":null}},{"type":"Feature","geometry":{"type":"Point","coordinates":[12.6044987,47.9588168]},"properties":{"id":"bikerack:eb83b3ca-4b20-403e-ae82-71dff39fc956","kind":"bikerack","longitude":12.6044987,"latitude":47.9588168,"name":"Fahrradabstellplatz","city":"Traunreut","address":null,"covered":false,"access":null,"website":null,"phone":null,"source":"OpenStreetMap/node/2599622394","sourceUpdatedAt":null,"verifiedAt":null}},{"type":"Feature","geometry":{"type":"Point","coordinates":[12.5966037,47.9579679]},"properties":{"id":"bikerack:fcee561e-1dd3-4b37-9b3b-6653c1c64f50","kind":"bikerack","longitude":12.5966037,"latitude":47.9579679,"name":"Fahrradabstellplatz","city":"Traunreut","address":null,"covered":false,"access":null,"website":null,"phone":null,"source":"OpenStreetMap/way/538832793","sourceUpdatedAt":null,"verifiedAt":null}},{"type":"Feature","geometry":{"type":"Point","coordinates":[12.6085958,47.9581087]},"properties":{"id":"repair:38671c1c-a75b-4f9b-a28a-a7166c2d7d83","kind":"repair","longitude":12.6085958,"latitude":47.9581087,"name":"Fahrradreparaturstation","city":"Traunreut","address":null,"covered":false,"access":null,"website":null,"phone":null,"source":"OpenStreetMap/node/8927155586","sourceUpdatedAt":null,"verifiedAt":null}},{"type":"Feature","geometry":{"type":"Point","coordinates":[12.5882563,47.9578829]},"properties":{"id":"service:7087b8b7-c92b-4904-a4c5-24150fec52f0","kind":"service","longitude":12.5882563,"latitude":47.9578829,"name":"MC BIKE TRADE","city":"Traunreut","address":null,"covered":null,"access":null,"website":null,"phone":null,"source":"OpenStreetMap/node/12208965779","sourceUpdatedAt":null,"verifiedAt":null}},{"type":"Feature","geometry":{"type":"Point","coordinates":[12.5948974,47.9346182]},"properties":{"id":"service:9f998c88-1a86-44b7-98ea-565d203d2d2d","kind":"service","longitude":12.5948974,"latitude":47.9346182,"name":"Wallner","city":"Traunreut","address":null,"covered":null,"access":null,"website":null,"phone":null,"source":"OpenStreetMap/node/2619293886","sourceUpdatedAt":null,"verifiedAt":null}}]}