{"type":"FeatureCollection","features":[{"type":"Feature","geometry":{"type":"Point","coordinates":[12.596667,47.3787842]},"properties":{"id":"service:17e3f5f1-057d-405a-a294-8bbdf8d298ec","kind":"service","longitude":12.596667,"latitude":47.3787842,"name":"Bike'n Soul E-Bike Shop","city":"Saalbach","address":null,"covered":null,"access":null,"website":null,"phone":null,"source":"OpenStreetMap/node/4455425290","sourceUpdatedAt":null,"verifiedAt":null}},{"type":"Feature","geometry":{"type":"Point","coordinates":[12.5942318,47.378432]},"properties":{"id":"water:66504c7b-acbb-4c6c-bdd7-2f886ac4a3f4","kind":"water","longitude":12.5942318,"latitude":47.378432,"name":"Ivókút","city":"Saalbach","address":null,"covered":null,"access":null,"website":null,"phone":null,"source":"OpenStreetMap/node/12075779470","sourceUpdatedAt":null,"verifiedAt":null}},{"type":"Feature","geometry":{"type":"Point","coordinates":[12.5746003,47.3756847]},"properties":{"id":"water:792f1c57-e1ba-4dc7-b62c-b11594f42d31","kind":"water","longitude":12.5746003,"latitude":47.3756847,"name":"Ivókút","city":"Saalbach","address":null,"covered":null,"access":null,"website":null,"phone":null,"source":"OpenStreetMap/node/12041495827","sourceUpdatedAt":null,"verifiedAt":null}},{"type":"Feature","geometry":{"type":"Point","coordinates":[12.5898559,47.3797598]},"properties":{"id":"water:d28974a0-4bbe-4c1e-a2bc-26b9e941b781","kind":"water","longitude":12.5898559,"latitude":47.3797598,"name":"Ivókút","city":"Saalbach","address":null,"covered":null,"access":null,"website":null,"phone":null,"source":"OpenStreetMap/node/6783444496","sourceUpdatedAt":null,"verifiedAt":null}},{"type":"Feature","geometry":{"type":"Point","coordinates":[12.5888056,47.3768359]},"properties":{"id":"water:e621c434-3b90-4ff7-bd23-d83dff753922","kind":"water","longitude":12.5888056,"latitude":47.3768359,"name":"Ivókút","city":"Saalbach","address":null,"covered":null,"access":null,"website":null,"phone":null,"source":"OpenStreetMap/node/12144349315","sourceUpdatedAt":null,"verifiedAt":null}}]}