{"type":"FeatureCollection","features":[{"type":"Feature","geometry":{"type":"Point","coordinates":[9.1507101,54.0932871]},"properties":{"id":"bikerack:566aa6dd-8161-4aa2-a950-366dd3807031","kind":"bikerack","longitude":9.1507101,"latitude":54.0932871,"name":"Fahrradabstellplatz","city":"Bargenstedt","address":null,"covered":false,"access":null,"website":null,"phone":null,"source":"OpenStreetMap/node/13113974798","sourceUpdatedAt":null,"verifiedAt":null}},{"type":"Feature","geometry":{"type":"Point","coordinates":[9.1488788,54.092908]},"properties":{"id":"bikerack:e30fdc1a-1c31-4a41-ade4-fd2914c0c3ab","kind":"bikerack","longitude":9.1488788,"latitude":54.092908,"name":"Fahrradabstellplatz","city":"Bargenstedt","address":null,"covered":false,"access":null,"website":null,"phone":null,"source":"OpenStreetMap/node/13113974797","sourceUpdatedAt":null,"verifiedAt":null}},{"type":"Feature","geometry":{"type":"Point","coordinates":[9.1489774,54.0928852]},"properties":{"id":"repair:f24d9253-2deb-4b4b-b18a-be4ed9503f22","kind":"repair","longitude":9.1489774,"latitude":54.0928852,"name":"Fahrradreparaturstation","city":"Bargenstedt","address":null,"covered":false,"access":null,"website":null,"phone":null,"source":"OpenStreetMap/node/13113974796","sourceUpdatedAt":null,"verifiedAt":null}}]}