{"type":"FeatureCollection","features":[{"type":"Feature","geometry":{"type":"Point","coordinates":[9.1490314,47.4366001]},"properties":{"id":"bikerack:1a7556db-7aad-426c-9b32-9ec0131bf567","kind":"bikerack","longitude":9.1490314,"latitude":47.4366001,"name":"Bicycle Parking","city":"Uzwil","address":null,"covered":true,"access":null,"website":null,"phone":null,"source":"OpenStreetMap/node/13076046714","sourceUpdatedAt":null,"verifiedAt":null}},{"type":"Feature","geometry":{"type":"Point","coordinates":[9.1454826,47.4414894]},"properties":{"id":"bikerack:1c318476-2542-47f2-bcb4-119c598a6809","kind":"bikerack","longitude":9.1454826,"latitude":47.4414894,"name":"Bicycle Parking","city":"Uzwil","address":null,"covered":true,"access":null,"website":null,"phone":null,"source":"OpenStreetMap/way/1117211637","sourceUpdatedAt":null,"verifiedAt":null}},{"type":"Feature","geometry":{"type":"Point","coordinates":[9.1411722,47.4340309]},"properties":{"id":"bikerack:20ca6638-aff2-4609-b8eb-bc4c414e5329","kind":"bikerack","longitude":9.1411722,"latitude":47.4340309,"name":"Bicycle Parking","city":"Uzwil","address":null,"covered":false,"access":null,"website":null,"phone":null,"source":"OpenStreetMap/node/12839878331","sourceUpdatedAt":null,"verifiedAt":null}},{"type":"Feature","geometry":{"type":"Point","coordinates":[9.1416329,47.4339941]},"properties":{"id":"bikerack:4009020b-7942-42ee-b654-2f297716df00","kind":"bikerack","longitude":9.1416329,"latitude":47.4339941,"name":"Bicycle Parking","city":"Uzwil","address":null,"covered":false,"access":null,"website":null,"phone":null,"source":"OpenStreetMap/node/12839891497","sourceUpdatedAt":null,"verifiedAt":null}},{"type":"Feature","geometry":{"type":"Point","coordinates":[9.1409657,47.4342153]},"properties":{"id":"bikerack:786be8b6-cbe7-41ea-9f60-92cca249342f","kind":"bikerack","longitude":9.1409657,"latitude":47.4342153,"name":"Bicycle Parking","city":"Uzwil","address":null,"covered":false,"access":null,"website":null,"phone":null,"source":"OpenStreetMap/node/12839869279","sourceUpdatedAt":null,"verifiedAt":null}},{"type":"Feature","geometry":{"type":"Point","coordinates":[9.1418167,47.4394815]},"properties":{"id":"bikerack:cc4b0546-382f-4029-ae0f-78bc571e373f","kind":"bikerack","longitude":9.1418167,"latitude":47.4394815,"name":"Bicycle Parking","city":"Uzwil","address":null,"covered":false,"access":null,"website":null,"phone":null,"source":"OpenStreetMap/way/996876578","sourceUpdatedAt":null,"verifiedAt":null}},{"type":"Feature","geometry":{"type":"Point","coordinates":[9.1595198,47.4458245]},"properties":{"id":"service:9b46252c-a763-4c94-ab7d-d78915a817d7","kind":"service","longitude":9.1595198,"latitude":47.4458245,"name":"Kalberer Zweirad-Sport","city":"Uzwil","address":null,"covered":null,"access":null,"website":null,"phone":null,"source":"OpenStreetMap/node/9491495228","sourceUpdatedAt":null,"verifiedAt":null}}]}