{"type":"FeatureCollection","features":[{"type":"Feature","geometry":{"type":"Point","coordinates":[9.1727192,47.1178377]},"properties":{"id":"bikerack:5d931ffc-d5cd-420a-afd2-e59f6491d389","kind":"bikerack","longitude":9.1727192,"latitude":47.1178377,"name":"Bicycle Parking","city":"Amden","address":null,"covered":true,"access":null,"website":null,"phone":null,"source":"OpenStreetMap/way/169200903","sourceUpdatedAt":null,"verifiedAt":null}},{"type":"Feature","geometry":{"type":"Point","coordinates":[9.1729314,47.1174258]},"properties":{"id":"water:4cfc6328-b8be-4476-a33b-fefe19961b2f","kind":"water","longitude":9.1729314,"latitude":47.1174258,"name":"Drinking Fountain","city":"Amden","address":null,"covered":null,"access":null,"website":null,"phone":null,"source":"OpenStreetMap/node/9020090247","sourceUpdatedAt":null,"verifiedAt":null}},{"type":"Feature","geometry":{"type":"Point","coordinates":[9.1723569,47.1181743]},"properties":{"id":"water:50cf411d-66ba-4426-be44-ffb6a63593e0","kind":"water","longitude":9.1723569,"latitude":47.1181743,"name":"Drinking Fountain","city":"Amden","address":null,"covered":null,"access":null,"website":null,"phone":null,"source":"OpenStreetMap/node/9299887254","sourceUpdatedAt":null,"verifiedAt":null}},{"type":"Feature","geometry":{"type":"Point","coordinates":[9.1549325,47.1151472]},"properties":{"id":"water:5db913ea-fed3-4600-ad75-69eb1d2ef1c4","kind":"water","longitude":9.1549325,"latitude":47.1151472,"name":"Drinking Fountain","city":"Amden","address":null,"covered":null,"access":null,"website":null,"phone":null,"source":"OpenStreetMap/node/2431484957","sourceUpdatedAt":null,"verifiedAt":null}},{"type":"Feature","geometry":{"type":"Point","coordinates":[9.1692021,47.1122555]},"properties":{"id":"water:5fd6936a-ede0-4ff2-ad4c-ae95493698df","kind":"water","longitude":9.1692021,"latitude":47.1122555,"name":"Drinking Fountain","city":"Amden","address":null,"covered":null,"access":null,"website":null,"phone":null,"source":"OpenStreetMap/node/9202190902","sourceUpdatedAt":null,"verifiedAt":null}},{"type":"Feature","geometry":{"type":"Point","coordinates":[9.1551073,47.1019802]},"properties":{"id":"water:7abd4f6f-7ca6-4dcd-875e-b5f0fbbdda94","kind":"water","longitude":9.1551073,"latitude":47.1019802,"name":"Drinking Fountain","city":"Amden","address":null,"covered":null,"access":null,"website":null,"phone":null,"source":"OpenStreetMap/node/2428358514","sourceUpdatedAt":null,"verifiedAt":null}},{"type":"Feature","geometry":{"type":"Point","coordinates":[9.1496896,47.1118349]},"properties":{"id":"water:7e932898-43a1-4a61-b950-5940fd63d11c","kind":"water","longitude":9.1496896,"latitude":47.1118349,"name":"Drinking Fountain","city":"Amden","address":null,"covered":null,"access":null,"website":null,"phone":null,"source":"OpenStreetMap/node/2509506461","sourceUpdatedAt":null,"verifiedAt":null}},{"type":"Feature","geometry":{"type":"Point","coordinates":[9.1744859,47.1178907]},"properties":{"id":"water:cd40525d-3afa-4268-9f1c-4be4f8198bba","kind":"water","longitude":9.1744859,"latitude":47.1178907,"name":"Drinking Fountain","city":"Amden","address":null,"covered":null,"access":null,"website":null,"phone":null,"source":"OpenStreetMap/node/9299887258","sourceUpdatedAt":null,"verifiedAt":null}},{"type":"Feature","geometry":{"type":"Point","coordinates":[9.1456417,47.1164679]},"properties":{"id":"water:ed78d47a-5158-42af-ba76-d2232aa1479d","kind":"water","longitude":9.1456417,"latitude":47.1164679,"name":"Drinking Fountain","city":"Amden","address":null,"covered":null,"access":null,"website":null,"phone":null,"source":"OpenStreetMap/node/2476632632","sourceUpdatedAt":null,"verifiedAt":null}}]}