{"type":"FeatureCollection","features":[{"type":"Feature","geometry":{"type":"Point","coordinates":[9.1607195,46.777023]},"properties":{"id":"water:35017559-1426-40e0-956a-9f82c48c33fe","kind":"water","longitude":9.1607195,"latitude":46.777023,"name":"Drinking Fountain","city":"Ilanz","address":null,"covered":null,"access":null,"website":null,"phone":null,"source":"OpenStreetMap/node/5841892691","sourceUpdatedAt":null,"verifiedAt":null}},{"type":"Feature","geometry":{"type":"Point","coordinates":[9.1630215,46.7900326]},"properties":{"id":"water:434befab-312e-4522-82e8-738ed9efa160","kind":"water","longitude":9.1630215,"latitude":46.7900326,"name":"Drinking Fountain","city":"Ilanz","address":null,"covered":null,"access":null,"website":null,"phone":null,"source":"OpenStreetMap/node/7227922157","sourceUpdatedAt":null,"verifiedAt":null}},{"type":"Feature","geometry":{"type":"Point","coordinates":[9.1509969,46.7785743]},"properties":{"id":"water:467bc353-8569-495f-8c54-7aa51c870ef1","kind":"water","longitude":9.1509969,"latitude":46.7785743,"name":"Drinking Fountain","city":"Ilanz","address":null,"covered":null,"access":null,"website":null,"phone":null,"source":"OpenStreetMap/node/5841895064","sourceUpdatedAt":null,"verifiedAt":null}},{"type":"Feature","geometry":{"type":"Point","coordinates":[9.1519914,46.7786315]},"properties":{"id":"water:4d4eac1c-7069-4a80-8c08-a62d9b823437","kind":"water","longitude":9.1519914,"latitude":46.7786315,"name":"Drinking Fountain","city":"Ilanz","address":null,"covered":null,"access":null,"website":null,"phone":null,"source":"OpenStreetMap/node/5841895087","sourceUpdatedAt":null,"verifiedAt":null}},{"type":"Feature","geometry":{"type":"Point","coordinates":[9.1797841,46.7771439]},"properties":{"id":"water:6c90ecbc-75ed-4b2b-a9e6-56bdfe7119d1","kind":"water","longitude":9.1797841,"latitude":46.7771439,"name":"Drinking Fountain","city":"Ilanz","address":null,"covered":null,"access":null,"website":null,"phone":null,"source":"OpenStreetMap/node/5841867876","sourceUpdatedAt":null,"verifiedAt":null}},{"type":"Feature","geometry":{"type":"Point","coordinates":[9.1432128,46.7907869]},"properties":{"id":"water:8b85e47a-7929-4819-9c6c-3da5e4805471","kind":"water","longitude":9.1432128,"latitude":46.7907869,"name":"Drinking Fountain","city":"Ilanz","address":null,"covered":null,"access":null,"website":null,"phone":null,"source":"OpenStreetMap/node/5841895090","sourceUpdatedAt":null,"verifiedAt":null}},{"type":"Feature","geometry":{"type":"Point","coordinates":[9.150311,46.7793057]},"properties":{"id":"water:b34632b8-b02d-4c0e-92d7-d0211e1e9728","kind":"water","longitude":9.150311,"latitude":46.7793057,"name":"Drinking Fountain","city":"Ilanz","address":null,"covered":null,"access":null,"website":null,"phone":null,"source":"OpenStreetMap/node/5841895065","sourceUpdatedAt":null,"verifiedAt":null}},{"type":"Feature","geometry":{"type":"Point","coordinates":[9.1749317,46.7788925]},"properties":{"id":"water:b963669d-ccae-4539-9d26-e14b95c207d2","kind":"water","longitude":9.1749317,"latitude":46.7788925,"name":"Drinking Fountain","city":"Ilanz","address":null,"covered":null,"access":null,"website":null,"phone":null,"source":"OpenStreetMap/node/5841892692","sourceUpdatedAt":null,"verifiedAt":null}}]}