{"type":"FeatureCollection","features":[{"type":"Feature","geometry":{"type":"Point","coordinates":[9.1640803,46.0810071]},"properties":{"id":"water:78a3fc8d-60d2-4fe2-870b-8305ada0d325","kind":"water","longitude":9.1640803,"latitude":46.0810071,"name":"Fontanella","city":"Cusino","address":null,"covered":null,"access":null,"website":null,"phone":null,"source":"OpenStreetMap/node/3368860583","sourceUpdatedAt":null,"verifiedAt":null}},{"type":"Feature","geometry":{"type":"Point","coordinates":[9.1734029,46.0760173]},"properties":{"id":"water:ade4dd39-13ff-487d-921a-1574f8e8b17e","kind":"water","longitude":9.1734029,"latitude":46.0760173,"name":"Fontanella","city":"Cusino","address":null,"covered":null,"access":null,"website":null,"phone":null,"source":"OpenStreetMap/node/280222278","sourceUpdatedAt":null,"verifiedAt":null}},{"type":"Feature","geometry":{"type":"Point","coordinates":[9.1522679,46.0734727]},"properties":{"id":"water:ba20134d-fb14-4a26-9fc1-08378d253402","kind":"water","longitude":9.1522679,"latitude":46.0734727,"name":"Fontanella","city":"Cusino","address":null,"covered":null,"access":null,"website":null,"phone":null,"source":"OpenStreetMap/node/6445320539","sourceUpdatedAt":null,"verifiedAt":null}}]}