{"type":"FeatureCollection","features":[{"type":"Feature","geometry":{"type":"Point","coordinates":[12.4633847,51.5919121]},"properties":{"id":"bikerack:dbbe2ef1-d3fb-44c9-a62e-cd4c6ad9db1a","kind":"bikerack","longitude":12.4633847,"latitude":51.5919121,"name":"Fahrradabstellplatz","city":"Lobnitz","address":null,"covered":false,"access":null,"website":null,"phone":null,"source":"OpenStreetMap/node/11998242988","sourceUpdatedAt":null,"verifiedAt":null}},{"type":"Feature","geometry":{"type":"Point","coordinates":[12.4630057,51.5920003]},"properties":{"id":"bikerack:fd0f3fd4-cafe-4adc-ab2a-3132f916255c","kind":"bikerack","longitude":12.4630057,"latitude":51.5920003,"name":"Fahrradabstellplatz","city":"Lobnitz","address":null,"covered":false,"access":null,"website":null,"phone":null,"source":"OpenStreetMap/node/11998229347","sourceUpdatedAt":null,"verifiedAt":null}}]}