{"type":"FeatureCollection","features":[{"type":"Feature","geometry":{"type":"Point","coordinates":[16.0891665,47.048157]},"properties":{"id":"service:21c6833d-ab2a-46ad-acd6-94e6e549b91e","kind":"service","longitude":16.0891665,"latitude":47.048157,"name":"Radsport Samer Cube Store Fürstenfeld","city":"Fürstenfeld","address":null,"covered":null,"access":null,"website":null,"phone":null,"source":"OpenStreetMap/way/201763758","sourceUpdatedAt":null,"verifiedAt":null}},{"type":"Feature","geometry":{"type":"Point","coordinates":[16.0903117,47.0470646]},"properties":{"id":"water:f2ed9118-89ab-449d-b430-ec8aba8b55be","kind":"water","longitude":16.0903117,"latitude":47.0470646,"name":"Ivókút","city":"Fuerstenfeld","address":null,"covered":null,"access":null,"website":null,"phone":null,"source":"OpenStreetMap/node/11191160947","sourceUpdatedAt":null,"verifiedAt":null}}]}