{"type":"FeatureCollection","features":[{"type":"Feature","geometry":{"type":"Point","coordinates":[22.1198125,50.0665533]},"properties":{"id":"bikerack:058271e8-63ca-4065-824f-84ed4d928784","kind":"bikerack","longitude":22.1198125,"latitude":50.0665533,"name":"Biciklitároló","city":"Krasne","address":null,"covered":false,"access":null,"website":null,"phone":null,"source":"OpenStreetMap/node/13141219314","sourceUpdatedAt":null,"verifiedAt":null}},{"type":"Feature","geometry":{"type":"Point","coordinates":[22.1060145,50.086706]},"properties":{"id":"bikerack:fb184331-5456-47bd-83ca-b2755c0714f1","kind":"bikerack","longitude":22.1060145,"latitude":50.086706,"name":"Biciklitároló","city":"Wolka Podlesna","address":null,"covered":false,"access":null,"website":null,"phone":null,"source":"OpenStreetMap/node/10944466952","sourceUpdatedAt":null,"verifiedAt":null}}]}