{"type":"FeatureCollection","features":[{"type":"Feature","geometry":{"type":"Point","coordinates":[9.6508924,54.2740503]},"properties":{"id":"bikerack:0c92e952-b35b-4f0f-9624-f96f74ef9a71","kind":"bikerack","longitude":9.6508924,"latitude":54.2740503,"name":"Fahrradabstellplatz","city":"Westerronfeld","address":null,"covered":false,"access":null,"website":null,"phone":null,"source":"OpenStreetMap/node/1936072195","sourceUpdatedAt":null,"verifiedAt":null}},{"type":"Feature","geometry":{"type":"Point","coordinates":[9.664505,54.289837]},"properties":{"id":"repair:11bc5ed7-de71-48a3-b1a5-ef6cded53156","kind":"repair","longitude":9.664505,"latitude":54.289837,"name":"Fahrradreparaturstation","city":"Westerronfeld","address":null,"covered":false,"access":null,"website":null,"phone":null,"source":"OpenStreetMap/node/6513309278","sourceUpdatedAt":null,"verifiedAt":null}},{"type":"Feature","geometry":{"type":"Point","coordinates":[9.6474553,54.2803545]},"properties":{"id":"service:fb95a083-9355-44b2-84e3-6527744f9a33","kind":"service","longitude":9.6474553,"latitude":54.2803545,"name":"RATH bike and more","city":"Westerrönfeld","address":null,"covered":null,"access":null,"website":null,"phone":null,"source":"OpenStreetMap/node/1601569340","sourceUpdatedAt":null,"verifiedAt":null}}]}