{"type":"FeatureCollection","features":[{"type":"Feature","geometry":{"type":"Point","coordinates":[9.66677,53.4585175]},"properties":{"id":"bikerack:284b4433-bafc-4bd1-84ce-e21b3ebec0ec","kind":"bikerack","longitude":9.66677,"latitude":53.4585175,"name":"Fahrradabstellplatz","city":"Buxtehude","address":null,"covered":false,"access":null,"website":null,"phone":null,"source":"OpenStreetMap/node/1427978803","sourceUpdatedAt":null,"verifiedAt":null}},{"type":"Feature","geometry":{"type":"Point","coordinates":[9.6658322,53.4603207]},"properties":{"id":"bikerack:bafb0415-694e-454a-9b85-e4f745eac090","kind":"bikerack","longitude":9.6658322,"latitude":53.4603207,"name":"Fahrradabstellplatz","city":"Buxtehude","address":null,"covered":false,"access":null,"website":null,"phone":null,"source":"OpenStreetMap/node/1427978808","sourceUpdatedAt":null,"verifiedAt":null}},{"type":"Feature","geometry":{"type":"Point","coordinates":[9.6647916,53.4596228]},"properties":{"id":"bikerack:e55bf2ae-e128-48c6-b0e2-0067cfa014e2","kind":"bikerack","longitude":9.6647916,"latitude":53.4596228,"name":"Fahrradabstellplatz","city":"Buxtehude","address":null,"covered":false,"access":null,"website":null,"phone":null,"source":"OpenStreetMap/node/1427978828","sourceUpdatedAt":null,"verifiedAt":null}},{"type":"Feature","geometry":{"type":"Point","coordinates":[9.6629739,53.460816]},"properties":{"id":"bikerack:ede0c8cd-09a0-4667-94e1-d3af0e672534","kind":"bikerack","longitude":9.6629739,"latitude":53.460816,"name":"Fahrradabstellplatz","city":"Buxtehude","address":null,"covered":true,"access":null,"website":null,"phone":null,"source":"OpenStreetMap/node/1427978814","sourceUpdatedAt":null,"verifiedAt":null}}]}