{"type":"FeatureCollection","features":[{"type":"Feature","geometry":{"type":"Point","coordinates":[9.6602858,45.6214784]},"properties":{"id":"bikerack:13e3d9d6-b0e4-49ef-b709-a8ca16aa18a4","kind":"bikerack","longitude":9.6602858,"latitude":45.6214784,"name":"Parcheggio bici","city":"Comun Nuovo","address":null,"covered":false,"access":null,"website":null,"phone":null,"source":"OpenStreetMap/node/5615202905","sourceUpdatedAt":null,"verifiedAt":null}},{"type":"Feature","geometry":{"type":"Point","coordinates":[9.6611533,45.6233208]},"properties":{"id":"service:cef858e6-e4e4-46a2-88ff-0439a108bd51","kind":"service","longitude":9.6611533,"latitude":45.6233208,"name":"Mirka bici e moto","city":"Comun Nuovo","address":null,"covered":null,"access":null,"website":null,"phone":null,"source":"OpenStreetMap/node/3203250376","sourceUpdatedAt":null,"verifiedAt":null}},{"type":"Feature","geometry":{"type":"Point","coordinates":[9.6670885,45.6234145]},"properties":{"id":"water:505cf582-b1c0-4628-bb50-926b633bb34f","kind":"water","longitude":9.6670885,"latitude":45.6234145,"name":"Fontanella","city":"Comun Nuovo","address":null,"covered":null,"access":null,"website":null,"phone":null,"source":"OpenStreetMap/node/3194580692","sourceUpdatedAt":null,"verifiedAt":null}},{"type":"Feature","geometry":{"type":"Point","coordinates":[9.6584426,45.6251064]},"properties":{"id":"water:9e748ac4-9bca-4eda-a52f-13259ad32be1","kind":"water","longitude":9.6584426,"latitude":45.6251064,"name":"Fontanella","city":"Comun Nuovo","address":null,"covered":null,"access":null,"website":null,"phone":null,"source":"OpenStreetMap/node/4044813944","sourceUpdatedAt":null,"verifiedAt":null}},{"type":"Feature","geometry":{"type":"Point","coordinates":[9.6560115,45.6229091]},"properties":{"id":"water:eb44ef4c-065c-4301-9905-6f8b7abdfd58","kind":"water","longitude":9.6560115,"latitude":45.6229091,"name":"Fontanella","city":"Comun Nuovo","address":null,"covered":null,"access":null,"website":null,"phone":null,"source":"OpenStreetMap/node/2268023445","sourceUpdatedAt":null,"verifiedAt":null}},{"type":"Feature","geometry":{"type":"Point","coordinates":[9.6605219,45.6206914]},"properties":{"id":"water:ef4b8937-0fc3-40e1-9300-7db2ff3bc181","kind":"water","longitude":9.6605219,"latitude":45.6206914,"name":"Fontanella","city":"Comun Nuovo","address":null,"covered":null,"access":null,"website":null,"phone":null,"source":"OpenStreetMap/node/5615202918","sourceUpdatedAt":null,"verifiedAt":null}}]}