{"type":"FeatureCollection","features":[{"type":"Feature","geometry":{"type":"Point","coordinates":[14.4627599,53.4266868]},"properties":{"id":"bikerack:09e5108e-3c36-4ca8-8b09-019a5b86374f","kind":"bikerack","longitude":14.4627599,"latitude":53.4266868,"name":"Biciklitároló","city":"Przeclaw","address":null,"covered":false,"access":null,"website":null,"phone":null,"source":"OpenStreetMap/way/1443011050","sourceUpdatedAt":null,"verifiedAt":null}},{"type":"Feature","geometry":{"type":"Point","coordinates":[14.4972258,53.4225234]},"properties":{"id":"bikerack:0e5fcf71-a43d-4875-a1f9-4f6997d87e2d","kind":"bikerack","longitude":14.4972258,"latitude":53.4225234,"name":"Biciklitároló","city":"Przeclaw","address":null,"covered":false,"access":null,"website":null,"phone":null,"source":"OpenStreetMap/node/9701382580","sourceUpdatedAt":null,"verifiedAt":null}},{"type":"Feature","geometry":{"type":"Point","coordinates":[14.4823676,53.4245492]},"properties":{"id":"bikerack:14b3274b-6dcb-418f-8437-3764f18bfaba","kind":"bikerack","longitude":14.4823676,"latitude":53.4245492,"name":"Biciklitároló","city":"Przeclaw","address":null,"covered":false,"access":null,"website":null,"phone":null,"source":"OpenStreetMap/node/9032634673","sourceUpdatedAt":null,"verifiedAt":null}},{"type":"Feature","geometry":{"type":"Point","coordinates":[14.4833464,53.4254771]},"properties":{"id":"bikerack:22e144cb-c9fa-4854-987e-f8af300bc77c","kind":"bikerack","longitude":14.4833464,"latitude":53.4254771,"name":"Biciklitároló","city":"Przeclaw","address":null,"covered":false,"access":null,"website":null,"phone":null,"source":"OpenStreetMap/node/9032634666","sourceUpdatedAt":null,"verifiedAt":null}},{"type":"Feature","geometry":{"type":"Point","coordinates":[14.4626014,53.4267033]},"properties":{"id":"bikerack:2ad1391e-9564-4917-9551-c6004cbbcbd8","kind":"bikerack","longitude":14.4626014,"latitude":53.4267033,"name":"Biciklitároló","city":"Przeclaw","address":null,"covered":false,"access":null,"website":null,"phone":null,"source":"OpenStreetMap/way/1443011048","sourceUpdatedAt":null,"verifiedAt":null}},{"type":"Feature","geometry":{"type":"Point","coordinates":[14.4883535,53.4341499]},"properties":{"id":"bikerack:3379c408-9ba6-4839-9170-ee9044c72d56","kind":"bikerack","longitude":14.4883535,"latitude":53.4341499,"name":"Biciklitároló","city":"Przeclaw","address":null,"covered":false,"access":null,"website":null,"phone":null,"source":"OpenStreetMap/node/8484122737","sourceUpdatedAt":null,"verifiedAt":null}},{"type":"Feature","geometry":{"type":"Point","coordinates":[14.4626849,53.4267018]},"properties":{"id":"bikerack:35ff6bcb-616f-45ad-8043-e7019d38e294","kind":"bikerack","longitude":14.4626849,"latitude":53.4267018,"name":"Biciklitároló","city":"Przeclaw","address":null,"covered":false,"access":null,"website":null,"phone":null,"source":"OpenStreetMap/way/1443011049","sourceUpdatedAt":null,"verifiedAt":null}},{"type":"Feature","geometry":{"type":"Point","coordinates":[14.4967391,53.4269747]},"properties":{"id":"bikerack:46c3e45b-353e-481e-be92-36a082db10ac","kind":"bikerack","longitude":14.4967391,"latitude":53.4269747,"name":"Biciklitároló","city":"Szczecin","address":null,"covered":false,"access":null,"website":null,"phone":null,"source":"OpenStreetMap/node/11948094151","sourceUpdatedAt":null,"verifiedAt":null}},{"type":"Feature","geometry":{"type":"Point","coordinates":[14.4967689,53.4268122]},"properties":{"id":"bikerack:5c3d4275-2605-44e1-bf90-85a34a533c44","kind":"bikerack","longitude":14.4967689,"latitude":53.4268122,"name":"Biciklitároló","city":"Szczecin","address":null,"covered":false,"access":null,"website":null,"phone":null,"source":"OpenStreetMap/node/11948094152","sourceUpdatedAt":null,"verifiedAt":null}},{"type":"Feature","geometry":{"type":"Point","coordinates":[14.4914447,53.42107]},"properties":{"id":"bikerack:5e40ad36-561d-4e41-aa22-d6875d622ee6","kind":"bikerack","longitude":14.4914447,"latitude":53.42107,"name":"Biciklitároló","city":"Przeclaw","address":null,"covered":false,"access":null,"website":null,"phone":null,"source":"OpenStreetMap/node/9688461950","sourceUpdatedAt":null,"verifiedAt":null}},{"type":"Feature","geometry":{"type":"Point","coordinates":[14.4886993,53.4329841]},"properties":{"id":"bikerack:6128b9a9-6f76-4a28-a983-f90688f60e7e","kind":"bikerack","longitude":14.4886993,"latitude":53.4329841,"name":"Biciklitároló","city":"Przeclaw","address":null,"covered":false,"access":null,"website":null,"phone":null,"source":"OpenStreetMap/node/8484122736","sourceUpdatedAt":null,"verifiedAt":null}},{"type":"Feature","geometry":{"type":"Point","coordinates":[14.482288,53.4244871]},"properties":{"id":"bikerack:670da5e4-a128-47ce-a01a-be978444864c","kind":"bikerack","longitude":14.482288,"latitude":53.4244871,"name":"Biciklitároló","city":"Przeclaw","address":null,"covered":false,"access":null,"website":null,"phone":null,"source":"OpenStreetMap/node/9032634672","sourceUpdatedAt":null,"verifiedAt":null}},{"type":"Feature","geometry":{"type":"Point","coordinates":[14.4815151,53.4238625]},"properties":{"id":"bikerack:687e9946-982a-4138-b49e-6bffc2fa3aad","kind":"bikerack","longitude":14.4815151,"latitude":53.4238625,"name":"Biciklitároló","city":"Przeclaw","address":null,"covered":false,"access":null,"website":null,"phone":null,"source":"OpenStreetMap/node/9032634665","sourceUpdatedAt":null,"verifiedAt":null}},{"type":"Feature","geometry":{"type":"Point","coordinates":[14.4628839,53.4267005]},"properties":{"id":"bikerack:9565e19a-1b6f-4629-b8d8-ffc8eab42257","kind":"bikerack","longitude":14.4628839,"latitude":53.4267005,"name":"Biciklitároló","city":"Przeclaw","address":null,"covered":false,"access":null,"website":null,"phone":null,"source":"OpenStreetMap/way/1443011051","sourceUpdatedAt":null,"verifiedAt":null}},{"type":"Feature","geometry":{"type":"Point","coordinates":[14.4625326,53.4266936]},"properties":{"id":"bikerack:af867a82-c60b-4009-8c70-c22120cc5a4b","kind":"bikerack","longitude":14.4625326,"latitude":53.4266936,"name":"Biciklitároló","city":"Przeclaw","address":null,"covered":false,"access":null,"website":null,"phone":null,"source":"OpenStreetMap/way/1443011047","sourceUpdatedAt":null,"verifiedAt":null}},{"type":"Feature","geometry":{"type":"Point","coordinates":[14.4959056,53.4313755]},"properties":{"id":"bikerack:bc8d327c-62ac-4e3b-a0b6-c958ce951f63","kind":"bikerack","longitude":14.4959056,"latitude":53.4313755,"name":"Biciklitároló","city":"Szczecin","address":null,"covered":false,"access":null,"website":null,"phone":null,"source":"OpenStreetMap/node/12074106549","sourceUpdatedAt":null,"verifiedAt":null}},{"type":"Feature","geometry":{"type":"Point","coordinates":[14.4911271,53.4211608]},"properties":{"id":"bikerack:c7b70c8e-f5a6-4bee-910e-8e990d56f689","kind":"bikerack","longitude":14.4911271,"latitude":53.4211608,"name":"Biciklitároló","city":"Przeclaw","address":null,"covered":false,"access":null,"website":null,"phone":null,"source":"OpenStreetMap/node/9688461951","sourceUpdatedAt":null,"verifiedAt":null}},{"type":"Feature","geometry":{"type":"Point","coordinates":[14.4853961,53.4277557]},"properties":{"id":"bikerack:d0509fe2-0984-4cf7-9512-98a8858bc93c","kind":"bikerack","longitude":14.4853961,"latitude":53.4277557,"name":"Biciklitároló","city":"Przeclaw","address":null,"covered":false,"access":null,"website":null,"phone":null,"source":"OpenStreetMap/node/7812188116","sourceUpdatedAt":null,"verifiedAt":null}},{"type":"Feature","geometry":{"type":"Point","coordinates":[14.4904954,53.4229559]},"properties":{"id":"bikerack:d508d7e4-f6e3-4546-bfc1-c6afaed92fdf","kind":"bikerack","longitude":14.4904954,"latitude":53.4229559,"name":"Biciklitároló","city":"Przeclaw","address":null,"covered":false,"access":null,"website":null,"phone":null,"source":"OpenStreetMap/node/9688461949","sourceUpdatedAt":null,"verifiedAt":null}},{"type":"Feature","geometry":{"type":"Point","coordinates":[14.483127,53.4253103]},"properties":{"id":"bikerack:dbbd9ac1-e3ac-4e5f-9150-453670d75a09","kind":"bikerack","longitude":14.483127,"latitude":53.4253103,"name":"Biciklitároló","city":"Przeclaw","address":null,"covered":false,"access":null,"website":null,"phone":null,"source":"OpenStreetMap/node/9032634670","sourceUpdatedAt":null,"verifiedAt":null}},{"type":"Feature","geometry":{"type":"Point","coordinates":[14.4629624,53.4266747]},"properties":{"id":"bikerack:dc799d46-a8b0-44d3-ad0e-b52196673192","kind":"bikerack","longitude":14.4629624,"latitude":53.4266747,"name":"Biciklitároló","city":"Przeclaw","address":null,"covered":false,"access":null,"website":null,"phone":null,"source":"OpenStreetMap/way/1443011052","sourceUpdatedAt":null,"verifiedAt":null}},{"type":"Feature","geometry":{"type":"Point","coordinates":[14.4903748,53.4235599]},"properties":{"id":"bikerack:e513fc71-e119-418d-b388-b6180de27a91","kind":"bikerack","longitude":14.4903748,"latitude":53.4235599,"name":"Biciklitároló","city":"Przeclaw","address":null,"covered":false,"access":null,"website":null,"phone":null,"source":"OpenStreetMap/node/9688461948","sourceUpdatedAt":null,"verifiedAt":null}},{"type":"Feature","geometry":{"type":"Point","coordinates":[14.4827222,53.4249661]},"properties":{"id":"bikerack:fb1c3764-216a-477c-a018-2994270c2bf7","kind":"bikerack","longitude":14.4827222,"latitude":53.4249661,"name":"Biciklitároló","city":"Przeclaw","address":null,"covered":false,"access":null,"website":null,"phone":null,"source":"OpenStreetMap/node/9032634671","sourceUpdatedAt":null,"verifiedAt":null}},{"type":"Feature","geometry":{"type":"Point","coordinates":[14.4853715,53.4277638]},"properties":{"id":"repair:fa64168f-64ae-407a-8a0f-53ff9a120177","kind":"repair","longitude":14.4853715,"latitude":53.4277638,"name":"Kerékpár szervizállomás","city":"Przeclaw","address":null,"covered":false,"access":null,"website":null,"phone":null,"source":"OpenStreetMap/node/7812188117","sourceUpdatedAt":null,"verifiedAt":null}},{"type":"Feature","geometry":{"type":"Point","coordinates":[14.4940784,53.4251852]},"properties":{"id":"service:71e0ea3f-b0c4-4f5e-9b61-25ece8612415","kind":"service","longitude":14.4940784,"latitude":53.4251852,"name":"Tarnowski Ryszard. Serwis rowerowy","city":"Przeclaw","address":null,"covered":null,"access":null,"website":null,"phone":null,"source":"OpenStreetMap/node/7118733443","sourceUpdatedAt":null,"verifiedAt":null}},{"type":"Feature","geometry":{"type":"Point","coordinates":[14.4657518,53.4300115]},"properties":{"id":"service:9362e85f-1c70-4ffb-8e9a-5040551e94dc","kind":"service","longitude":14.4657518,"latitude":53.4300115,"name":"Sklep i Serwis Rowerowy Bike-Team","city":"Przeclaw","address":null,"covered":null,"access":null,"website":null,"phone":null,"source":"OpenStreetMap/node/9929214685","sourceUpdatedAt":null,"verifiedAt":null}},{"type":"Feature","geometry":{"type":"Point","coordinates":[14.4984401,53.4223245]},"properties":{"id":"service:990b9763-4736-4bb7-9bb6-9bd05d313ae4","kind":"service","longitude":14.4984401,"latitude":53.4223245,"name":"Konik Sport","city":"Szczecin","address":null,"covered":null,"access":null,"website":null,"phone":null,"source":"OpenStreetMap/node/499143214","sourceUpdatedAt":null,"verifiedAt":null}},{"type":"Feature","geometry":{"type":"Point","coordinates":[14.4985539,53.4353731]},"properties":{"id":"service:c672bdf0-d088-43dd-910f-be9d35b12167","kind":"service","longitude":14.4985539,"latitude":53.4353731,"name":"Sklep rowerowy Cieślak","city":"Szczecin","address":null,"covered":null,"access":null,"website":null,"phone":null,"source":"OpenStreetMap/node/2849886922","sourceUpdatedAt":null,"verifiedAt":null}}]}