{"type":"FeatureCollection","features":[{"type":"Feature","geometry":{"type":"Point","coordinates":[14.4750522,51.0465063]},"properties":{"id":"bikerack:4f0b3a17-f4df-48f5-940f-c03947bf80cf","kind":"bikerack","longitude":14.4750522,"latitude":51.0465063,"name":"Fahrradabstellplatz","city":"Oppach","address":null,"covered":false,"access":null,"website":null,"phone":null,"source":"OpenStreetMap/node/1857877077","sourceUpdatedAt":null,"verifiedAt":null}},{"type":"Feature","geometry":{"type":"Point","coordinates":[14.4807557,51.0422679]},"properties":{"id":"bikerack:b148de49-06ec-4f7f-8a9d-72d11be66a77","kind":"bikerack","longitude":14.4807557,"latitude":51.0422679,"name":"Fahrradabstellplatz","city":"Oppach","address":null,"covered":true,"access":null,"website":null,"phone":null,"source":"OpenStreetMap/way/403713171","sourceUpdatedAt":null,"verifiedAt":null}},{"type":"Feature","geometry":{"type":"Point","coordinates":[14.4879692,51.0547227]},"properties":{"id":"bikerack:ed8af181-fc18-4635-931c-474f81cbca1f","kind":"bikerack","longitude":14.4879692,"latitude":51.0547227,"name":"Fahrradabstellplatz","city":"Oppach","address":null,"covered":true,"access":null,"website":null,"phone":null,"source":"OpenStreetMap/way/1416299450","sourceUpdatedAt":null,"verifiedAt":null}}]}