{"type":"FeatureCollection","features":[{"type":"Feature","geometry":{"type":"Point","coordinates":[14.4625103,49.0909012]},"properties":{"id":"bikerack:2c9b3691-8e0e-40d5-9837-38cdb39a89aa","kind":"bikerack","longitude":14.4625103,"latitude":49.0909012,"name":"Bicycle Parking","city":"Hluboka nad Vltavou","address":null,"covered":false,"access":null,"website":null,"phone":null,"source":"OpenStreetMap/node/7454136047","sourceUpdatedAt":null,"verifiedAt":null}},{"type":"Feature","geometry":{"type":"Point","coordinates":[14.4626379,49.0908847]},"properties":{"id":"bikerack:c0720ac1-8397-42da-bb30-3bd60b2dbb4b","kind":"bikerack","longitude":14.4626379,"latitude":49.0908847,"name":"Bicycle Parking","city":"Hluboka nad Vltavou","address":null,"covered":false,"access":null,"website":null,"phone":null,"source":"OpenStreetMap/node/7454107472","sourceUpdatedAt":null,"verifiedAt":null}}]}