{"type":"FeatureCollection","features":[{"type":"Feature","geometry":{"type":"Point","coordinates":[19.0330873,50.3986585]},"properties":{"id":"bikerack:f50b5810-a575-430b-83c0-d1e89e620c06","kind":"bikerack","longitude":19.0330873,"latitude":50.3986585,"name":"Biciklitároló","city":"Rogoznik","address":null,"covered":false,"access":null,"website":null,"phone":null,"source":"OpenStreetMap/node/12077358130","sourceUpdatedAt":null,"verifiedAt":null}},{"type":"Feature","geometry":{"type":"Point","coordinates":[19.0568021,50.4005727]},"properties":{"id":"water:a3ebdd71-d3ff-40f1-9c6e-01635f7f7e41","kind":"water","longitude":19.0568021,"latitude":50.4005727,"name":"Obszar Źródliskowy Dopływów Jaworznika","city":"Rogoznik","address":null,"covered":null,"access":null,"website":null,"phone":null,"source":"OpenStreetMap/node/2083816959","sourceUpdatedAt":null,"verifiedAt":null}}]}