{"type":"FeatureCollection","features":[{"type":"Feature","geometry":{"type":"Point","coordinates":[19.068035,47.749927]},"properties":{"id":"water:08192833-2de5-4199-b6f8-ac177e7fb32b","kind":"water","longitude":19.068035,"latitude":47.749927,"name":"Ivókút","city":null,"address":null,"covered":null,"access":null,"website":null,"phone":null,"source":"OpenStreetMap","sourceUpdatedAt":null,"verifiedAt":null}},{"type":"Feature","geometry":{"type":"Point","coordinates":[19.0696336,47.7521939]},"properties":{"id":"water:633ce222-bde8-4040-82b0-f26b61f49601","kind":"water","longitude":19.0696336,"latitude":47.7521939,"name":"Ivókút","city":null,"address":null,"covered":null,"access":null,"website":null,"phone":null,"source":"OpenStreetMap","sourceUpdatedAt":null,"verifiedAt":null}},{"type":"Feature","geometry":{"type":"Point","coordinates":[19.06583,47.7462769]},"properties":{"id":"water:64d12c35-2366-4b0e-8104-619235f24adb","kind":"water","longitude":19.06583,"latitude":47.7462769,"name":"Ivókút","city":null,"address":null,"covered":null,"access":null,"website":null,"phone":null,"source":"OpenStreetMap","sourceUpdatedAt":null,"verifiedAt":null}},{"type":"Feature","geometry":{"type":"Point","coordinates":[19.0688286,47.7539647]},"properties":{"id":"water:eadff6e5-9d29-440f-bf60-61db4b6ba3ae","kind":"water","longitude":19.0688286,"latitude":47.7539647,"name":"Ivókút","city":null,"address":null,"covered":null,"access":null,"website":null,"phone":null,"source":"OpenStreetMap","sourceUpdatedAt":null,"verifiedAt":null}}]}