{"type":"FeatureCollection","features":[{"type":"Feature","geometry":{"type":"Point","coordinates":[15.2442987,47.0028553]},"properties":{"id":"bikerack:7205f1b9-aa6c-499d-8142-118ee589aa63","kind":"bikerack","longitude":15.2442987,"latitude":47.0028553,"name":"B+R","city":"Ligist","address":null,"covered":false,"access":null,"website":null,"phone":null,"source":"OpenStreetMap/way/229498654","sourceUpdatedAt":null,"verifiedAt":null}},{"type":"Feature","geometry":{"type":"Point","coordinates":[15.2070204,46.9934685]},"properties":{"id":"water:095b5613-4f0e-4b8d-85bc-09ce50c92d67","kind":"water","longitude":15.2070204,"latitude":46.9934685,"name":"Ivókút","city":"Ligist","address":null,"covered":null,"access":null,"website":null,"phone":null,"source":"OpenStreetMap/node/12751894282","sourceUpdatedAt":null,"verifiedAt":null}},{"type":"Feature","geometry":{"type":"Point","coordinates":[15.2144229,46.9924507]},"properties":{"id":"water:a4bf88cc-1af1-43ef-b469-72d3d1b6a894","kind":"water","longitude":15.2144229,"latitude":46.9924507,"name":"Ivókút","city":"Ligist","address":null,"covered":null,"access":null,"website":null,"phone":null,"source":"OpenStreetMap/node/12077204784","sourceUpdatedAt":null,"verifiedAt":null}}]}