{"type":"FeatureCollection","features":[{"type":"Feature","geometry":{"type":"Point","coordinates":[23.3457507,53.2185754]},"properties":{"id":"bikerack:06f87eba-4efd-486c-abe7-eba31c9aca18","kind":"bikerack","longitude":23.3457507,"latitude":53.2185754,"name":"Biciklitároló","city":"Suprasl","address":null,"covered":false,"access":null,"website":null,"phone":null,"source":"OpenStreetMap/node/13414145529","sourceUpdatedAt":null,"verifiedAt":null}},{"type":"Feature","geometry":{"type":"Point","coordinates":[23.3455982,53.2187413]},"properties":{"id":"bikerack:12c6a536-998d-4dd8-b47d-ea43b386b022","kind":"bikerack","longitude":23.3455982,"latitude":53.2187413,"name":"Biciklitároló","city":"Suprasl","address":null,"covered":false,"access":null,"website":null,"phone":null,"source":"OpenStreetMap/node/13414145528","sourceUpdatedAt":null,"verifiedAt":null}},{"type":"Feature","geometry":{"type":"Point","coordinates":[23.3358346,53.2107658]},"properties":{"id":"bikerack:e1d217fb-2100-4a7f-a1f4-b38bf2384288","kind":"bikerack","longitude":23.3358346,"latitude":53.2107658,"name":"Biciklitároló","city":"Suprasl","address":null,"covered":false,"access":null,"website":null,"phone":null,"source":"OpenStreetMap/node/3279533217","sourceUpdatedAt":null,"verifiedAt":null}},{"type":"Feature","geometry":{"type":"Point","coordinates":[23.3368798,53.2109873]},"properties":{"id":"water:ad7a08c7-67c9-4220-a2fb-272519a55947","kind":"water","longitude":23.3368798,"latitude":53.2109873,"name":"Ivókút","city":"Suprasl","address":null,"covered":null,"access":null,"website":null,"phone":null,"source":"OpenStreetMap/node/5093307878","sourceUpdatedAt":null,"verifiedAt":null}}]}