{"type":"FeatureCollection","features":[{"type":"Feature","geometry":{"type":"Point","coordinates":[24.0242452,54.4024571]},"properties":{"id":"bikerack:3ca358ce-8747-4070-8adf-1fa7f7aee1cc","kind":"bikerack","longitude":24.0242452,"latitude":54.4024571,"name":"Bicycle Parking","city":"Alytus","address":null,"covered":false,"access":null,"website":null,"phone":null,"source":"OpenStreetMap/node/3556516802","sourceUpdatedAt":null,"verifiedAt":null}},{"type":"Feature","geometry":{"type":"Point","coordinates":[24.0167455,54.4075055]},"properties":{"id":"bikerack:771e2b2f-b63d-4d43-9aae-e4008ec204bc","kind":"bikerack","longitude":24.0167455,"latitude":54.4075055,"name":"Bicycle Parking","city":"Alytus","address":null,"covered":false,"access":null,"website":null,"phone":null,"source":"OpenStreetMap/node/3556516796","sourceUpdatedAt":null,"verifiedAt":null}},{"type":"Feature","geometry":{"type":"Point","coordinates":[24.030577,54.4052745]},"properties":{"id":"bikerack:821bfa52-bb3c-4845-90a2-d19d30bd04fa","kind":"bikerack","longitude":24.030577,"latitude":54.4052745,"name":"Parkūras","city":"Alytus","address":null,"covered":false,"access":null,"website":null,"phone":null,"source":"OpenStreetMap/node/6820846387","sourceUpdatedAt":null,"verifiedAt":null}},{"type":"Feature","geometry":{"type":"Point","coordinates":[24.0351949,54.393811]},"properties":{"id":"service:24029198-5774-4008-913c-4393ad93af94","kind":"service","longitude":24.0351949,"latitude":54.393811,"name":"Dviračiai","city":"Alytus","address":null,"covered":null,"access":null,"website":null,"phone":null,"source":"OpenStreetMap/node/7996932577","sourceUpdatedAt":null,"verifiedAt":null}},{"type":"Feature","geometry":{"type":"Point","coordinates":[24.0290445,54.4051422]},"properties":{"id":"water:56747b75-9229-4a51-aa53-a5ebefc25f66","kind":"water","longitude":24.0290445,"latitude":54.4051422,"name":"Drinking Fountain","city":"Alytus","address":null,"covered":null,"access":null,"website":null,"phone":null,"source":"OpenStreetMap/node/11246055396","sourceUpdatedAt":null,"verifiedAt":null}},{"type":"Feature","geometry":{"type":"Point","coordinates":[24.026085,54.4040984]},"properties":{"id":"water:907f72ed-1e85-4c5b-aa3b-192bd8033374","kind":"water","longitude":24.026085,"latitude":54.4040984,"name":"Drinking Fountain","city":"Alytus","address":null,"covered":null,"access":null,"website":null,"phone":null,"source":"OpenStreetMap/node/11246055397","sourceUpdatedAt":null,"verifiedAt":null}}]}