{"type":"FeatureCollection","features":[{"type":"Feature","geometry":{"type":"Point","coordinates":[24.0255406,45.1363012]},"properties":{"id":"water:59e6c36b-6036-4e04-93b5-de154d6a50b0","kind":"water","longitude":24.0255406,"latitude":45.1363012,"name":"Cișmea","city":"Horezu","address":null,"covered":null,"access":null,"website":null,"phone":null,"source":"OpenStreetMap/node/13114797836","sourceUpdatedAt":null,"verifiedAt":null}},{"type":"Feature","geometry":{"type":"Point","coordinates":[24.0247828,45.1367329]},"properties":{"id":"water:69b1ce28-ec23-476f-8e6f-c2e8df2c4e51","kind":"water","longitude":24.0247828,"latitude":45.1367329,"name":"Cișmea","city":"Horezu","address":null,"covered":null,"access":null,"website":null,"phone":null,"source":"OpenStreetMap/node/13114797835","sourceUpdatedAt":null,"verifiedAt":null}},{"type":"Feature","geometry":{"type":"Point","coordinates":[24.0322345,45.1328557]},"properties":{"id":"water:d1e50df5-70d2-40f5-89bf-1b1f48bfe380","kind":"water","longitude":24.0322345,"latitude":45.1328557,"name":"Cișmea","city":"Horezu","address":null,"covered":null,"access":null,"website":null,"phone":null,"source":"OpenStreetMap/node/13115004420","sourceUpdatedAt":null,"verifiedAt":null}}]}