{"type":"FeatureCollection","features":[{"type":"Feature","geometry":{"type":"Point","coordinates":[17.1375192,48.9598698]},"properties":{"id":"bikerack:06e557e1-b5e6-44cd-89c4-b5936dfd1f9f","kind":"bikerack","longitude":17.1375192,"latitude":48.9598698,"name":"Bicycle Parking","city":"Milotice","address":null,"covered":false,"access":null,"website":null,"phone":null,"source":"OpenStreetMap/node/10936513293","sourceUpdatedAt":null,"verifiedAt":null}},{"type":"Feature","geometry":{"type":"Point","coordinates":[17.1376104,48.9599359]},"properties":{"id":"bikerack:5234179a-0d59-43c5-b14f-84b9d1d36db5","kind":"bikerack","longitude":17.1376104,"latitude":48.9599359,"name":"Bicycle Parking","city":"Milotice","address":null,"covered":false,"access":null,"website":null,"phone":null,"source":"OpenStreetMap/node/10936513292","sourceUpdatedAt":null,"verifiedAt":null}},{"type":"Feature","geometry":{"type":"Point","coordinates":[17.1374297,48.9598117]},"properties":{"id":"bikerack:ab973652-f6b5-41cb-a752-8bdbca2be352","kind":"bikerack","longitude":17.1374297,"latitude":48.9598117,"name":"Bicycle Parking","city":"Milotice","address":null,"covered":false,"access":null,"website":null,"phone":null,"source":"OpenStreetMap/node/10936513294","sourceUpdatedAt":null,"verifiedAt":null}}]}