{"type":"FeatureCollection","features":[{"type":"Feature","geometry":{"type":"Point","coordinates":[16.3127178,48.1278911]},"properties":{"id":"bikerack:05a92331-c0d7-4e7c-8607-36fe83d6b68a","kind":"bikerack","longitude":16.3127178,"latitude":48.1278911,"name":"Biciklitároló","city":"Vosendorf","address":null,"covered":false,"access":null,"website":null,"phone":null,"source":"OpenStreetMap/node/13104564891","sourceUpdatedAt":null,"verifiedAt":null}},{"type":"Feature","geometry":{"type":"Point","coordinates":[16.3250261,48.1354967]},"properties":{"id":"bikerack:085a8ee4-dc1a-478b-a051-e5b055d1e392","kind":"bikerack","longitude":16.3250261,"latitude":48.1354967,"name":"Biciklitároló","city":"Vosendorf","address":null,"covered":true,"access":null,"website":null,"phone":null,"source":"OpenStreetMap/node/3529254272","sourceUpdatedAt":null,"verifiedAt":null}},{"type":"Feature","geometry":{"type":"Point","coordinates":[16.3133185,48.1363503]},"properties":{"id":"bikerack:0e4ed712-9db2-479a-8dbf-070060871597","kind":"bikerack","longitude":16.3133185,"latitude":48.1363503,"name":"Biciklitároló","city":"Vosendorf","address":null,"covered":false,"access":null,"website":null,"phone":null,"source":"OpenStreetMap/node/3029799766","sourceUpdatedAt":null,"verifiedAt":null}},{"type":"Feature","geometry":{"type":"Point","coordinates":[16.318503,48.1097304]},"properties":{"id":"bikerack:169a7edb-97dc-4925-beb2-056c8c9952d2","kind":"bikerack","longitude":16.318503,"latitude":48.1097304,"name":"Biciklitároló","city":"Vosendorf","address":null,"covered":false,"access":null,"website":null,"phone":null,"source":"OpenStreetMap/node/9575429316","sourceUpdatedAt":null,"verifiedAt":null}},{"type":"Feature","geometry":{"type":"Point","coordinates":[16.3137894,48.1298541]},"properties":{"id":"bikerack:1d7a8fc6-ec11-44e4-ba51-2764ff6c6b66","kind":"bikerack","longitude":16.3137894,"latitude":48.1298541,"name":"Biciklitároló","city":"Vosendorf","address":null,"covered":false,"access":null,"website":null,"phone":null,"source":"OpenStreetMap/node/8939871993","sourceUpdatedAt":null,"verifiedAt":null}},{"type":"Feature","geometry":{"type":"Point","coordinates":[16.3204958,48.1175706]},"properties":{"id":"bikerack:1fc6c799-0b4e-451a-9061-4f194dcc62ac","kind":"bikerack","longitude":16.3204958,"latitude":48.1175706,"name":"Biciklitároló","city":"Vosendorf","address":null,"covered":false,"access":null,"website":null,"phone":null,"source":"OpenStreetMap/node/13130601772","sourceUpdatedAt":null,"verifiedAt":null}},{"type":"Feature","geometry":{"type":"Point","coordinates":[16.3098395,48.1279519]},"properties":{"id":"bikerack:2df59d86-4635-4c63-8cd1-2c4dc4d548ea","kind":"bikerack","longitude":16.3098395,"latitude":48.1279519,"name":"Biciklitároló","city":"Vosendorf","address":null,"covered":false,"access":null,"website":null,"phone":null,"source":"OpenStreetMap/node/8939889944","sourceUpdatedAt":null,"verifiedAt":null}},{"type":"Feature","geometry":{"type":"Point","coordinates":[16.3184206,48.114243]},"properties":{"id":"bikerack:31a27190-c474-469e-823c-20d645428fe7","kind":"bikerack","longitude":16.3184206,"latitude":48.114243,"name":"Fahrradabstellplatz","city":"Vosendorf","address":null,"covered":false,"access":null,"website":null,"phone":null,"source":"OpenStreetMap/node/12461623005","sourceUpdatedAt":null,"verifiedAt":null}},{"type":"Feature","geometry":{"type":"Point","coordinates":[16.3148631,48.111331]},"properties":{"id":"bikerack:3e063475-c5d2-44f5-ad23-9d960837b420","kind":"bikerack","longitude":16.3148631,"latitude":48.111331,"name":"Biciklitároló","city":"Vosendorf","address":null,"covered":false,"access":null,"website":null,"phone":null,"source":"OpenStreetMap/node/12840508100","sourceUpdatedAt":null,"verifiedAt":null}},{"type":"Feature","geometry":{"type":"Point","coordinates":[16.3099026,48.1299815]},"properties":{"id":"bikerack:4799ce2c-abce-4368-9e5e-6476fa32578f","kind":"bikerack","longitude":16.3099026,"latitude":48.1299815,"name":"Biciklitároló","city":"Vosendorf","address":null,"covered":false,"access":null,"website":null,"phone":null,"source":"OpenStreetMap/node/3218038115","sourceUpdatedAt":null,"verifiedAt":null}},{"type":"Feature","geometry":{"type":"Point","coordinates":[16.3157225,48.1335276]},"properties":{"id":"bikerack:50343cba-4cb8-4a7a-b389-8392da329bb2","kind":"bikerack","longitude":16.3157225,"latitude":48.1335276,"name":"Biciklitároló","city":"Vosendorf","address":null,"covered":false,"access":null,"website":null,"phone":null,"source":"OpenStreetMap/node/10109984032","sourceUpdatedAt":null,"verifiedAt":null}},{"type":"Feature","geometry":{"type":"Point","coordinates":[16.3125664,48.1363215]},"properties":{"id":"bikerack:61cee7c4-8c15-44b4-8d7d-908a8ffa5d32","kind":"bikerack","longitude":16.3125664,"latitude":48.1363215,"name":"Biciklitároló","city":"Vosendorf","address":null,"covered":false,"access":null,"website":null,"phone":null,"source":"OpenStreetMap/node/3028467368","sourceUpdatedAt":null,"verifiedAt":null}},{"type":"Feature","geometry":{"type":"Point","coordinates":[16.3100234,48.1298433]},"properties":{"id":"bikerack:66fe1ea7-4b73-49bd-8ead-5058ea712d44","kind":"bikerack","longitude":16.3100234,"latitude":48.1298433,"name":"Biciklitároló","city":"Vosendorf","address":null,"covered":false,"access":null,"website":null,"phone":null,"source":"OpenStreetMap/node/13109208252","sourceUpdatedAt":null,"verifiedAt":null}},{"type":"Feature","geometry":{"type":"Point","coordinates":[16.3143459,48.1264938]},"properties":{"id":"bikerack:68d99b6b-6ff9-4d84-9ce9-0e610f12fadb","kind":"bikerack","longitude":16.3143459,"latitude":48.1264938,"name":"Biciklitároló","city":"Vosendorf","address":null,"covered":false,"access":null,"website":null,"phone":null,"source":"OpenStreetMap/node/5854356911","sourceUpdatedAt":null,"verifiedAt":null}},{"type":"Feature","geometry":{"type":"Point","coordinates":[16.3121412,48.1082491]},"properties":{"id":"bikerack:7549abac-39f3-45b7-ab51-96f08e213201","kind":"bikerack","longitude":16.3121412,"latitude":48.1082491,"name":"Biciklitároló","city":"Wiener Neudorf","address":null,"covered":true,"access":null,"website":null,"phone":null,"source":"OpenStreetMap/node/12840532203","sourceUpdatedAt":null,"verifiedAt":null}},{"type":"Feature","geometry":{"type":"Point","coordinates":[16.3094807,48.1298977]},"properties":{"id":"bikerack:86ad74ea-e360-491e-a26c-c708215cea3b","kind":"bikerack","longitude":16.3094807,"latitude":48.1298977,"name":"Biciklitároló","city":"Vosendorf","address":null,"covered":false,"access":null,"website":null,"phone":null,"source":"OpenStreetMap/node/3139158974","sourceUpdatedAt":null,"verifiedAt":null}},{"type":"Feature","geometry":{"type":"Point","coordinates":[16.3167289,48.1105696]},"properties":{"id":"bikerack:8b0cc2ff-bc6c-4ff1-b708-3d807d4e8609","kind":"bikerack","longitude":16.3167289,"latitude":48.1105696,"name":"Biciklitároló","city":"Vosendorf","address":null,"covered":true,"access":null,"website":null,"phone":null,"source":"OpenStreetMap/node/10202034957","sourceUpdatedAt":null,"verifiedAt":null}},{"type":"Feature","geometry":{"type":"Point","coordinates":[16.3098667,48.1297619]},"properties":{"id":"bikerack:92f7495b-c08c-4c97-b7c7-fc8b45402e66","kind":"bikerack","longitude":16.3098667,"latitude":48.1297619,"name":"Biciklitároló","city":"Vosendorf","address":null,"covered":false,"access":null,"website":null,"phone":null,"source":"OpenStreetMap/node/2790422216","sourceUpdatedAt":null,"verifiedAt":null}},{"type":"Feature","geometry":{"type":"Point","coordinates":[16.3196754,48.1256649]},"properties":{"id":"bikerack:98f39339-59aa-4d40-b459-f0e314db4b40","kind":"bikerack","longitude":16.3196754,"latitude":48.1256649,"name":"Biciklitároló","city":"Vosendorf","address":null,"covered":true,"access":null,"website":null,"phone":null,"source":"OpenStreetMap/node/9310775561","sourceUpdatedAt":null,"verifiedAt":null}},{"type":"Feature","geometry":{"type":"Point","coordinates":[16.3096994,48.1282688]},"properties":{"id":"bikerack:997dddfc-aff1-41e0-9ea5-32189bfb3eaa","kind":"bikerack","longitude":16.3096994,"latitude":48.1282688,"name":"Biciklitároló","city":"Vosendorf","address":null,"covered":false,"access":null,"website":null,"phone":null,"source":"OpenStreetMap/node/4227410389","sourceUpdatedAt":null,"verifiedAt":null}},{"type":"Feature","geometry":{"type":"Point","coordinates":[16.3174871,48.1170803]},"properties":{"id":"bikerack:a6543ed9-66cc-46cf-bf07-7f89c0af7034","kind":"bikerack","longitude":16.3174871,"latitude":48.1170803,"name":"Biciklitároló","city":"Vosendorf","address":null,"covered":false,"access":null,"website":null,"phone":null,"source":"OpenStreetMap/node/13130601771","sourceUpdatedAt":null,"verifiedAt":null}},{"type":"Feature","geometry":{"type":"Point","coordinates":[16.3145021,48.1286589]},"properties":{"id":"bikerack:acd824a6-2d6d-4400-81f5-ccad112a88dc","kind":"bikerack","longitude":16.3145021,"latitude":48.1286589,"name":"Biciklitároló","city":"Vosendorf","address":null,"covered":false,"access":null,"website":null,"phone":null,"source":"OpenStreetMap/node/13104217117","sourceUpdatedAt":null,"verifiedAt":null}},{"type":"Feature","geometry":{"type":"Point","coordinates":[16.3252949,48.1348705]},"properties":{"id":"bikerack:bc9c1960-fe16-44c2-ad8b-75d3f257294d","kind":"bikerack","longitude":16.3252949,"latitude":48.1348705,"name":"Biciklitároló","city":"Vosendorf","address":null,"covered":false,"access":null,"website":null,"phone":null,"source":"OpenStreetMap/node/3529254255","sourceUpdatedAt":null,"verifiedAt":null}},{"type":"Feature","geometry":{"type":"Point","coordinates":[16.3170824,48.1106867]},"properties":{"id":"bikerack:bec5dad4-92aa-4d9e-852a-1ee015e1bba3","kind":"bikerack","longitude":16.3170824,"latitude":48.1106867,"name":"Fahrradabstellplatz","city":"Vosendorf","address":null,"covered":false,"access":null,"website":null,"phone":null,"source":"OpenStreetMap/node/9264909537","sourceUpdatedAt":null,"verifiedAt":null}},{"type":"Feature","geometry":{"type":"Point","coordinates":[16.3430167,48.1204197]},"properties":{"id":"bikerack:c4f1be29-b8e0-4d53-991b-952505aa6267","kind":"bikerack","longitude":16.3430167,"latitude":48.1204197,"name":"nextbike (Standort 317231)","city":"Vosendorf","address":null,"covered":false,"access":null,"website":null,"phone":null,"source":"OpenStreetMap/node/8228292902","sourceUpdatedAt":null,"verifiedAt":null}},{"type":"Feature","geometry":{"type":"Point","coordinates":[16.3134477,48.1297823]},"properties":{"id":"bikerack:c7be75a0-9724-427f-974e-2588aab55d0c","kind":"bikerack","longitude":16.3134477,"latitude":48.1297823,"name":"Biciklitároló","city":"Vosendorf","address":null,"covered":false,"access":null,"website":null,"phone":null,"source":"OpenStreetMap/node/8939891099","sourceUpdatedAt":null,"verifiedAt":null}},{"type":"Feature","geometry":{"type":"Point","coordinates":[16.313273,48.1366582]},"properties":{"id":"bikerack:dc6a7a1e-5779-4565-b59d-d762b6bafb47","kind":"bikerack","longitude":16.313273,"latitude":48.1366582,"name":"Biciklitároló","city":"Vosendorf","address":null,"covered":true,"access":null,"website":null,"phone":null,"source":"OpenStreetMap/node/5605483936","sourceUpdatedAt":null,"verifiedAt":null}},{"type":"Feature","geometry":{"type":"Point","coordinates":[16.3195112,48.1256882]},"properties":{"id":"bikerack:e974d44e-b550-493a-b455-3cf41e84413a","kind":"bikerack","longitude":16.3195112,"latitude":48.1256882,"name":"Biciklitároló","city":"Vosendorf","address":null,"covered":false,"access":null,"website":null,"phone":null,"source":"OpenStreetMap/node/9310775562","sourceUpdatedAt":null,"verifiedAt":null}},{"type":"Feature","geometry":{"type":"Point","coordinates":[16.3093936,48.1277585]},"properties":{"id":"bikerack:eb2d8468-4a29-4c13-9f62-d182bc948f2e","kind":"bikerack","longitude":16.3093936,"latitude":48.1277585,"name":"Biciklitároló","city":"Vosendorf","address":null,"covered":true,"access":null,"website":null,"phone":null,"source":"OpenStreetMap/node/4227410390","sourceUpdatedAt":null,"verifiedAt":null}},{"type":"Feature","geometry":{"type":"Point","coordinates":[16.3102888,48.1313739]},"properties":{"id":"bikerack:efe52504-fb8b-4142-a45b-5bd7e7c6ea03","kind":"bikerack","longitude":16.3102888,"latitude":48.1313739,"name":"Biciklitároló","city":"Vosendorf","address":null,"covered":false,"access":null,"website":null,"phone":null,"source":"OpenStreetMap/node/6309139873","sourceUpdatedAt":null,"verifiedAt":null}},{"type":"Feature","geometry":{"type":"Point","coordinates":[16.3195604,48.1257041]},"properties":{"id":"repair:87b4f37c-12fc-4c29-a080-6d0ec21c765e","kind":"repair","longitude":16.3195604,"latitude":48.1257041,"name":"Kerékpár szervizállomás","city":"Vosendorf","address":null,"covered":false,"access":null,"website":null,"phone":null,"source":"OpenStreetMap/node/8503985900","sourceUpdatedAt":null,"verifiedAt":null}},{"type":"Feature","geometry":{"type":"Point","coordinates":[16.3098689,48.1299024]},"properties":{"id":"repair:c7685a57-ba14-4d95-8be0-daab01728631","kind":"repair","longitude":16.3098689,"latitude":48.1299024,"name":"Kerékpár szervizállomás","city":"Vosendorf","address":null,"covered":false,"access":null,"website":null,"phone":null,"source":"OpenStreetMap/node/12196497813","sourceUpdatedAt":null,"verifiedAt":null}},{"type":"Feature","geometry":{"type":"Point","coordinates":[16.3098547,48.1335713]},"properties":{"id":"service:cca8ecae-4d87-4d41-81ab-d11bbb27c3df","kind":"service","longitude":16.3098547,"latitude":48.1335713,"name":"e-motion e-Bike Welt Wien","city":"Wien","address":null,"covered":null,"access":null,"website":null,"phone":null,"source":"OpenStreetMap/way/129436090","sourceUpdatedAt":null,"verifiedAt":null}},{"type":"Feature","geometry":{"type":"Point","coordinates":[16.3166714,48.1202836]},"properties":{"id":"service:cf2784b0-dd14-4f1d-8479-f94e4e7c603a","kind":"service","longitude":16.3166714,"latitude":48.1202836,"name":"Zweirad-Center Stadler","city":"Vösendorf","address":null,"covered":null,"access":null,"website":null,"phone":null,"source":"OpenStreetMap/node/7459249216","sourceUpdatedAt":null,"verifiedAt":null}},{"type":"Feature","geometry":{"type":"Point","coordinates":[16.3221675,48.1324392]},"properties":{"id":"service:e90345b5-6671-45b2-b945-842c51add9e0","kind":"service","longitude":16.3221675,"latitude":48.1324392,"name":"Bernhard Kohl Fahrrad & Fitness","city":"Wien","address":null,"covered":null,"access":null,"website":null,"phone":null,"source":"OpenStreetMap/node/1427842883","sourceUpdatedAt":null,"verifiedAt":null}},{"type":"Feature","geometry":{"type":"Point","coordinates":[16.3053517,48.1079775]},"properties":{"id":"service:ed43691e-bde7-410f-9e2a-7027d0830d7a","kind":"service","longitude":16.3053517,"latitude":48.1079775,"name":"CUBE Store Wien Süd by Multicycle","city":"Brunn am Gebirge","address":null,"covered":null,"access":null,"website":null,"phone":null,"source":"OpenStreetMap/way/243943559","sourceUpdatedAt":null,"verifiedAt":null}},{"type":"Feature","geometry":{"type":"Point","coordinates":[16.3434615,48.1224938]},"properties":{"id":"water:1f8523f6-72aa-46f7-ba98-c40604494b32","kind":"water","longitude":16.3434615,"latitude":48.1224938,"name":"Ivókút","city":"Vosendorf","address":null,"covered":null,"access":null,"website":null,"phone":null,"source":"OpenStreetMap/node/1402323255","sourceUpdatedAt":null,"verifiedAt":null}},{"type":"Feature","geometry":{"type":"Point","coordinates":[16.3420501,48.1203572]},"properties":{"id":"water:4ef94038-d33e-41fc-84b1-bcdeaeec0a96","kind":"water","longitude":16.3420501,"latitude":48.1203572,"name":"Ivókút","city":"Vosendorf","address":null,"covered":null,"access":null,"website":null,"phone":null,"source":"OpenStreetMap/node/4887982304","sourceUpdatedAt":null,"verifiedAt":null}},{"type":"Feature","geometry":{"type":"Point","coordinates":[16.312888,48.1286365]},"properties":{"id":"water:57c472f9-5d2e-4799-83b7-0d37be5c534e","kind":"water","longitude":16.312888,"latitude":48.1286365,"name":"Ivókút","city":"Vosendorf","address":null,"covered":null,"access":null,"website":null,"phone":null,"source":"OpenStreetMap/node/13598734593","sourceUpdatedAt":null,"verifiedAt":null}},{"type":"Feature","geometry":{"type":"Point","coordinates":[16.3102585,48.1227274]},"properties":{"id":"water:60339d87-e343-41fa-b7fc-4cf2de7e43eb","kind":"water","longitude":16.3102585,"latitude":48.1227274,"name":"Ivókút","city":"Brunn am Gebirge","address":null,"covered":null,"access":null,"website":null,"phone":null,"source":"OpenStreetMap/node/291569627","sourceUpdatedAt":null,"verifiedAt":null}},{"type":"Feature","geometry":{"type":"Point","coordinates":[16.3100702,48.1259924]},"properties":{"id":"water:7b59156a-e623-4f29-9736-c1b28346edfa","kind":"water","longitude":16.3100702,"latitude":48.1259924,"name":"Ivókút","city":"Vosendorf","address":null,"covered":null,"access":null,"website":null,"phone":null,"source":"OpenStreetMap/node/13598734594","sourceUpdatedAt":null,"verifiedAt":null}},{"type":"Feature","geometry":{"type":"Point","coordinates":[16.3100112,48.1299591]},"properties":{"id":"water:92a05985-3171-4cf3-a381-7615b1602d54","kind":"water","longitude":16.3100112,"latitude":48.1299591,"name":"Ivókút","city":"Vosendorf","address":null,"covered":null,"access":null,"website":null,"phone":null,"source":"OpenStreetMap/node/12196493210","sourceUpdatedAt":null,"verifiedAt":null}},{"type":"Feature","geometry":{"type":"Point","coordinates":[16.3126202,48.13043]},"properties":{"id":"water:ad4af82c-03f3-4357-81cd-d5bc8112b626","kind":"water","longitude":16.3126202,"latitude":48.13043,"name":"Ivókút","city":"Vosendorf","address":null,"covered":null,"access":null,"website":null,"phone":null,"source":"OpenStreetMap/node/919619891","sourceUpdatedAt":null,"verifiedAt":null}},{"type":"Feature","geometry":{"type":"Point","coordinates":[16.3122395,48.1263829]},"properties":{"id":"water:b58f4c57-1d9b-4963-a974-bed893f88feb","kind":"water","longitude":16.3122395,"latitude":48.1263829,"name":"Ivókút","city":"Vosendorf","address":null,"covered":null,"access":null,"website":null,"phone":null,"source":"OpenStreetMap/node/13648180469","sourceUpdatedAt":null,"verifiedAt":null}},{"type":"Feature","geometry":{"type":"Point","coordinates":[16.3100147,48.1299849]},"properties":{"id":"water:b5d4bf39-6990-46e0-823d-575189c4748b","kind":"water","longitude":16.3100147,"latitude":48.1299849,"name":"Ivókút","city":"Vosendorf","address":null,"covered":null,"access":null,"website":null,"phone":null,"source":"OpenStreetMap/node/5987041118","sourceUpdatedAt":null,"verifiedAt":null}},{"type":"Feature","geometry":{"type":"Point","coordinates":[16.3138362,48.1309704]},"properties":{"id":"water:b5e4c937-9ec4-462e-9c03-0db166720e41","kind":"water","longitude":16.3138362,"latitude":48.1309704,"name":"Ivókút","city":"Vosendorf","address":null,"covered":null,"access":null,"website":null,"phone":null,"source":"OpenStreetMap/node/919619875","sourceUpdatedAt":null,"verifiedAt":null}},{"type":"Feature","geometry":{"type":"Point","coordinates":[16.3435052,48.121176]},"properties":{"id":"water:ba4a7f21-1942-4fb4-b7c0-c06be5cf3506","kind":"water","longitude":16.3435052,"latitude":48.121176,"name":"Ivókút","city":"Vosendorf","address":null,"covered":null,"access":null,"website":null,"phone":null,"source":"OpenStreetMap/node/10936267478","sourceUpdatedAt":null,"verifiedAt":null}},{"type":"Feature","geometry":{"type":"Point","coordinates":[16.3111082,48.1265188]},"properties":{"id":"water:bcb1dca4-d194-4762-ae06-bceafac59537","kind":"water","longitude":16.3111082,"latitude":48.1265188,"name":"Ivókút","city":"Vosendorf","address":null,"covered":null,"access":null,"website":null,"phone":null,"source":"OpenStreetMap/node/13648180468","sourceUpdatedAt":null,"verifiedAt":null}},{"type":"Feature","geometry":{"type":"Point","coordinates":[16.312671,48.1262753]},"properties":{"id":"water:cd620772-673e-49dd-8611-54e53a96096d","kind":"water","longitude":16.312671,"latitude":48.1262753,"name":"Ivókút","city":"Vosendorf","address":null,"covered":null,"access":null,"website":null,"phone":null,"source":"OpenStreetMap/node/13648180470","sourceUpdatedAt":null,"verifiedAt":null}}]}