{"type":"FeatureCollection","features":[{"type":"Feature","geometry":{"type":"Point","coordinates":[9.8004151,47.671312]},"properties":{"id":"bikerack:153e3fb2-0ef7-45ae-b6c0-9ad8bb3e1286","kind":"bikerack","longitude":9.8004151,"latitude":47.671312,"name":"Fahrradabstellplatz","city":"Wangen im Allgau","address":null,"covered":false,"access":null,"website":null,"phone":null,"source":"OpenStreetMap/node/13081464457","sourceUpdatedAt":null,"verifiedAt":null}},{"type":"Feature","geometry":{"type":"Point","coordinates":[9.8232766,47.67923]},"properties":{"id":"bikerack:25bfd91c-2ba1-459e-9a31-c6a16d207db1","kind":"bikerack","longitude":9.8232766,"latitude":47.67923,"name":"Fahrradabstellplatz","city":"Wangen im Allgau","address":null,"covered":false,"access":null,"website":null,"phone":null,"source":"OpenStreetMap/node/11691961569","sourceUpdatedAt":null,"verifiedAt":null}},{"type":"Feature","geometry":{"type":"Point","coordinates":[9.8257812,47.6807116]},"properties":{"id":"bikerack:263c6a89-78e1-4ba0-b1c2-f44df7da6ae9","kind":"bikerack","longitude":9.8257812,"latitude":47.6807116,"name":"Fahrradabstellplatz","city":"Wangen im Allgau","address":null,"covered":true,"access":null,"website":null,"phone":null,"source":"OpenStreetMap/node/12182187025","sourceUpdatedAt":null,"verifiedAt":null}},{"type":"Feature","geometry":{"type":"Point","coordinates":[9.8381594,47.6875348]},"properties":{"id":"bikerack:318ba17f-17f6-469a-bc9a-efd999ec03ca","kind":"bikerack","longitude":9.8381594,"latitude":47.6875348,"name":"Fahrradabstellplatz","city":"Wangen im Allgau","address":null,"covered":true,"access":null,"website":null,"phone":null,"source":"OpenStreetMap/way/1346881925","sourceUpdatedAt":null,"verifiedAt":null}},{"type":"Feature","geometry":{"type":"Point","coordinates":[9.8314526,47.6842661]},"properties":{"id":"bikerack:36674f79-cf96-4de6-ad3a-aa1b73f83d71","kind":"bikerack","longitude":9.8314526,"latitude":47.6842661,"name":"Fahrradabstellplatz","city":"Wangen im Allgau","address":null,"covered":true,"access":null,"website":null,"phone":null,"source":"OpenStreetMap/way/1310468462","sourceUpdatedAt":null,"verifiedAt":null}},{"type":"Feature","geometry":{"type":"Point","coordinates":[9.8267578,47.677817]},"properties":{"id":"bikerack:3c410674-ed30-40d4-a072-a5ded5bcf41c","kind":"bikerack","longitude":9.8267578,"latitude":47.677817,"name":"Fahrradabstellplatz","city":"Wangen im Allgau","address":null,"covered":false,"access":null,"website":null,"phone":null,"source":"OpenStreetMap/node/12630597583","sourceUpdatedAt":null,"verifiedAt":null}},{"type":"Feature","geometry":{"type":"Point","coordinates":[9.8314962,47.6894296]},"properties":{"id":"bikerack:69ce5e99-a048-40c2-8d5f-6fafb78136b9","kind":"bikerack","longitude":9.8314962,"latitude":47.6894296,"name":"Fahrradabstellplatz","city":"Wangen im Allgau","address":null,"covered":false,"access":null,"website":null,"phone":null,"source":"OpenStreetMap/way/1199463076","sourceUpdatedAt":null,"verifiedAt":null}},{"type":"Feature","geometry":{"type":"Point","coordinates":[9.8354032,47.6871153]},"properties":{"id":"bikerack:6d4f4915-023c-47af-96c5-0e08d0526fe3","kind":"bikerack","longitude":9.8354032,"latitude":47.6871153,"name":"Fahrradabstellplatz","city":"Wangen im Allgau","address":null,"covered":false,"access":null,"website":null,"phone":null,"source":"OpenStreetMap/node/12189929641","sourceUpdatedAt":null,"verifiedAt":null}},{"type":"Feature","geometry":{"type":"Point","coordinates":[9.834382,47.6858123]},"properties":{"id":"bikerack:8499b631-57f1-4584-8fc5-d59dc566fed7","kind":"bikerack","longitude":9.834382,"latitude":47.6858123,"name":"Fahrradabstellplatz","city":"Wangen im Allgau","address":null,"covered":false,"access":null,"website":null,"phone":null,"source":"OpenStreetMap/node/12237852444","sourceUpdatedAt":null,"verifiedAt":null}},{"type":"Feature","geometry":{"type":"Point","coordinates":[9.8238028,47.6794394]},"properties":{"id":"bikerack:892da33a-ead9-41ea-aa5f-12486ef876e8","kind":"bikerack","longitude":9.8238028,"latitude":47.6794394,"name":"Fahrradabstellplatz","city":"Wangen im Allgau","address":null,"covered":false,"access":null,"website":null,"phone":null,"source":"OpenStreetMap/way/1232743569","sourceUpdatedAt":null,"verifiedAt":null}},{"type":"Feature","geometry":{"type":"Point","coordinates":[9.8340247,47.6863523]},"properties":{"id":"bikerack:a3144aa1-0af8-48ce-a587-8e9c1cf2f99c","kind":"bikerack","longitude":9.8340247,"latitude":47.6863523,"name":"Fahrradabstellplatz","city":"Wangen im Allgau","address":null,"covered":false,"access":null,"website":null,"phone":null,"source":"OpenStreetMap/node/12098615556","sourceUpdatedAt":null,"verifiedAt":null}},{"type":"Feature","geometry":{"type":"Point","coordinates":[9.8312158,47.689413]},"properties":{"id":"bikerack:af79db83-870e-4448-8ab8-cb790dd3b17b","kind":"bikerack","longitude":9.8312158,"latitude":47.689413,"name":"Fahrradabstellplatz","city":"Wangen im Allgau","address":null,"covered":true,"access":null,"website":null,"phone":null,"source":"OpenStreetMap/way/1199463080","sourceUpdatedAt":null,"verifiedAt":null}},{"type":"Feature","geometry":{"type":"Point","coordinates":[9.7998778,47.6718208]},"properties":{"id":"bikerack:b068a116-de35-4572-9cd9-782dba22e938","kind":"bikerack","longitude":9.7998778,"latitude":47.6718208,"name":"Fahrradabstellplatz","city":"Wangen im Allgau","address":null,"covered":false,"access":null,"website":null,"phone":null,"source":"OpenStreetMap/node/13081464449","sourceUpdatedAt":null,"verifiedAt":null}},{"type":"Feature","geometry":{"type":"Point","coordinates":[9.8304655,47.689331]},"properties":{"id":"bikerack:b0ab7e94-803b-4351-87c5-3f652210977b","kind":"bikerack","longitude":9.8304655,"latitude":47.689331,"name":"Fahrradabstellplatz","city":"Wangen im Allgau","address":null,"covered":false,"access":null,"website":null,"phone":null,"source":"OpenStreetMap/way/1422088891","sourceUpdatedAt":null,"verifiedAt":null}},{"type":"Feature","geometry":{"type":"Point","coordinates":[9.8351483,47.6865052]},"properties":{"id":"bikerack:baf9e681-91d9-4210-b3b8-8fcece639494","kind":"bikerack","longitude":9.8351483,"latitude":47.6865052,"name":"Fahrradabstellplatz","city":"Wangen im Allgau","address":null,"covered":false,"access":null,"website":null,"phone":null,"source":"OpenStreetMap/node/12189916863","sourceUpdatedAt":null,"verifiedAt":null}},{"type":"Feature","geometry":{"type":"Point","coordinates":[9.8339319,47.6854083]},"properties":{"id":"bikerack:dd08dd4d-dc60-4bc4-b7c0-e15a60816dce","kind":"bikerack","longitude":9.8339319,"latitude":47.6854083,"name":"Fahrradabstellplatz","city":"Wangen im Allgau","address":null,"covered":false,"access":null,"website":null,"phone":null,"source":"OpenStreetMap/node/12162002501","sourceUpdatedAt":null,"verifiedAt":null}},{"type":"Feature","geometry":{"type":"Point","coordinates":[9.8216931,47.6787541]},"properties":{"id":"bikerack:eb3355f8-c828-455f-bfb2-3de5a806b2bd","kind":"bikerack","longitude":9.8216931,"latitude":47.6787541,"name":"Fahrradabstellplatz","city":"Wangen im Allgau","address":null,"covered":false,"access":null,"website":null,"phone":null,"source":"OpenStreetMap/node/12212391505","sourceUpdatedAt":null,"verifiedAt":null}},{"type":"Feature","geometry":{"type":"Point","coordinates":[9.832477,47.6845539]},"properties":{"id":"bikerack:f4618d61-ee98-4b4a-9684-259c52d37205","kind":"bikerack","longitude":9.832477,"latitude":47.6845539,"name":"Fahrradabstellplatz","city":"Wangen im Allgau","address":null,"covered":false,"access":null,"website":null,"phone":null,"source":"OpenStreetMap/node/12633364768","sourceUpdatedAt":null,"verifiedAt":null}},{"type":"Feature","geometry":{"type":"Point","coordinates":[9.8382328,47.6875412]},"properties":{"id":"repair:62b5f04e-4805-4463-a2f3-436633b982ee","kind":"repair","longitude":9.8382328,"latitude":47.6875412,"name":"Fahrradreparaturstation","city":"Wangen im Allgau","address":null,"covered":false,"access":null,"website":null,"phone":null,"source":"OpenStreetMap/node/7663974529","sourceUpdatedAt":null,"verifiedAt":null}},{"type":"Feature","geometry":{"type":"Point","coordinates":[9.8387504,47.6837372]},"properties":{"id":"repair:96e67493-e459-4015-84eb-afcffeb626b4","kind":"repair","longitude":9.8387504,"latitude":47.6837372,"name":"Mantis","city":"Wangen im Allgau","address":null,"covered":false,"access":null,"website":null,"phone":null,"source":"OpenStreetMap/node/11263610922","sourceUpdatedAt":null,"verifiedAt":null}},{"type":"Feature","geometry":{"type":"Point","coordinates":[9.83528,47.6868]},"properties":{"id":"repair:b670a064-8626-49d7-a79f-a512a1a55c45","kind":"repair","longitude":9.83528,"latitude":47.6868,"name":"RadReiseRegion Naturschutzkammern","city":"Wangen im Allgau","address":null,"covered":false,"access":null,"website":null,"phone":null,"source":"OpenStreetMap/node/7877435014","sourceUpdatedAt":null,"verifiedAt":null}},{"type":"Feature","geometry":{"type":"Point","coordinates":[9.8387731,47.6837824]},"properties":{"id":"service:a043f361-0169-4491-a111-3f45aacb8b7d","kind":"service","longitude":9.8387731,"latitude":47.6837824,"name":"Radrezept","city":"Wangen im Allgäu","address":null,"covered":null,"access":null,"website":null,"phone":null,"source":"OpenStreetMap/node/1255246710","sourceUpdatedAt":null,"verifiedAt":null}},{"type":"Feature","geometry":{"type":"Point","coordinates":[9.8276297,47.6942927]},"properties":{"id":"service:eead0126-d2cd-4c27-8b84-cae4afd1862d","kind":"service","longitude":9.8276297,"latitude":47.6942927,"name":"Der Keller","city":"Wangen im Allgäu","address":null,"covered":null,"access":null,"website":null,"phone":null,"source":"OpenStreetMap/node/1023173845","sourceUpdatedAt":null,"verifiedAt":null}},{"type":"Feature","geometry":{"type":"Point","coordinates":[9.8365527,47.6910543]},"properties":{"id":"water:31024aaa-c712-465c-beba-74948d3c726a","kind":"water","longitude":9.8365527,"latitude":47.6910543,"name":"Trinkwasser","city":"Wangen im Allgau","address":null,"covered":null,"access":null,"website":null,"phone":null,"source":"OpenStreetMap/node/855085033","sourceUpdatedAt":null,"verifiedAt":null}}]}