{"type":"FeatureCollection","features":[{"type":"Feature","geometry":{"type":"Point","coordinates":[9.8345313,47.4511352]},"properties":{"id":"bikerack:90a9e6a9-cabe-482d-b79e-e4c21fddbbd3","kind":"bikerack","longitude":9.8345313,"latitude":47.4511352,"name":"Biciklitároló","city":"Doren","address":null,"covered":false,"access":null,"website":null,"phone":null,"source":"OpenStreetMap/node/12971107375","sourceUpdatedAt":null,"verifiedAt":null}},{"type":"Feature","geometry":{"type":"Point","coordinates":[9.831139,47.450775]},"properties":{"id":"bikerack:b2305ae4-8a28-4c0a-abac-12f625fe9e71","kind":"bikerack","longitude":9.831139,"latitude":47.450775,"name":"Biciklitároló","city":"Doren","address":null,"covered":false,"access":null,"website":null,"phone":null,"source":"OpenStreetMap/node/3575556094","sourceUpdatedAt":null,"verifiedAt":null}},{"type":"Feature","geometry":{"type":"Point","coordinates":[9.8309107,47.4506251]},"properties":{"id":"bikerack:c470d77b-47f7-4885-ab4c-82fefb23406b","kind":"bikerack","longitude":9.8309107,"latitude":47.4506251,"name":"Biciklitároló","city":"Bildstein","address":null,"covered":false,"access":null,"website":null,"phone":null,"source":"OpenStreetMap/node/3575555993","sourceUpdatedAt":null,"verifiedAt":null}},{"type":"Feature","geometry":{"type":"Point","coordinates":[9.8033864,47.4473854]},"properties":{"id":"water:79a15bb1-185b-4167-8a25-25667cb6a372","kind":"water","longitude":9.8033864,"latitude":47.4473854,"name":"Ivókút","city":"Bildstein","address":null,"covered":null,"access":null,"website":null,"phone":null,"source":"OpenStreetMap/node/12300045017","sourceUpdatedAt":null,"verifiedAt":null}},{"type":"Feature","geometry":{"type":"Point","coordinates":[9.8188393,47.4448436]},"properties":{"id":"water:7c1db656-bc3f-424c-ac48-315a811095cf","kind":"water","longitude":9.8188393,"latitude":47.4448436,"name":"Ivókút","city":"Bildstein","address":null,"covered":null,"access":null,"website":null,"phone":null,"source":"OpenStreetMap/node/11646337975","sourceUpdatedAt":null,"verifiedAt":null}},{"type":"Feature","geometry":{"type":"Point","coordinates":[9.8312774,47.4503104]},"properties":{"id":"water:c9012c71-c4c7-45b6-ba78-ec78b73defcd","kind":"water","longitude":9.8312774,"latitude":47.4503104,"name":"Ivókút","city":"Doren","address":null,"covered":null,"access":null,"website":null,"phone":null,"source":"OpenStreetMap/node/3575556093","sourceUpdatedAt":null,"verifiedAt":null}},{"type":"Feature","geometry":{"type":"Point","coordinates":[9.8308653,47.4506541]},"properties":{"id":"water:cab831c4-0f1c-4a9d-8b71-85883944ed28","kind":"water","longitude":9.8308653,"latitude":47.4506541,"name":"Ivókút","city":"Bildstein","address":null,"covered":null,"access":null,"website":null,"phone":null,"source":"OpenStreetMap/node/12071696235","sourceUpdatedAt":null,"verifiedAt":null}}]}