{"type":"FeatureCollection","features":[{"type":"Feature","geometry":{"type":"Point","coordinates":[9.8365451,45.5528292]},"properties":{"id":"water:22c88e00-639e-4228-9109-4085e822a5a8","kind":"water","longitude":9.8365451,"latitude":45.5528292,"name":"Fontanella","city":"Cividate al Piano","address":null,"covered":null,"access":null,"website":null,"phone":null,"source":"OpenStreetMap/node/6504863352","sourceUpdatedAt":null,"verifiedAt":null}},{"type":"Feature","geometry":{"type":"Point","coordinates":[9.8250821,45.5526597]},"properties":{"id":"water:e88b8e87-d100-476b-9460-6b83819b0276","kind":"water","longitude":9.8250821,"latitude":45.5526597,"name":"Fontanella","city":"Cividate al Piano","address":null,"covered":null,"access":null,"website":null,"phone":null,"source":"OpenStreetMap/node/12057235138","sourceUpdatedAt":null,"verifiedAt":null}}]}