{"type":"FeatureCollection","features":[{"type":"Feature","geometry":{"type":"Point","coordinates":[18.4122343,49.6661658]},"properties":{"id":"bikerack:24bb3d13-2058-4f3b-89b3-9fe40331d8de","kind":"bikerack","longitude":18.4122343,"latitude":49.6661658,"name":"Bicycle Parking","city":"Dobra","address":null,"covered":false,"access":null,"website":null,"phone":null,"source":"OpenStreetMap/node/8752776619","sourceUpdatedAt":null,"verifiedAt":null}},{"type":"Feature","geometry":{"type":"Point","coordinates":[18.3825971,49.6479962]},"properties":{"id":"bikerack:52de33e3-078a-4209-a77d-a21cc70e3907","kind":"bikerack","longitude":18.3825971,"latitude":49.6479962,"name":"Bicycle Parking","city":"Baska","address":null,"covered":false,"access":null,"website":null,"phone":null,"source":"OpenStreetMap/node/6723421398","sourceUpdatedAt":null,"verifiedAt":null}},{"type":"Feature","geometry":{"type":"Point","coordinates":[18.3703124,49.6449549]},"properties":{"id":"bikerack:56ead7f9-3a23-4719-99cb-b184b7100f5f","kind":"bikerack","longitude":18.3703124,"latitude":49.6449549,"name":"Bicycle Parking","city":"Baska","address":null,"covered":false,"access":null,"website":null,"phone":null,"source":"OpenStreetMap/node/12176480632","sourceUpdatedAt":null,"verifiedAt":null}},{"type":"Feature","geometry":{"type":"Point","coordinates":[18.3824208,49.6483496]},"properties":{"id":"bikerack:a74887a3-f9e9-4f5f-9179-0d8234807c7f","kind":"bikerack","longitude":18.3824208,"latitude":49.6483496,"name":"Bicycle Parking","city":"Baska","address":null,"covered":false,"access":null,"website":null,"phone":null,"source":"OpenStreetMap/node/6723417243","sourceUpdatedAt":null,"verifiedAt":null}},{"type":"Feature","geometry":{"type":"Point","coordinates":[18.400343,49.6544314]},"properties":{"id":"bikerack:c1a29d7a-d61d-47f0-aab7-2068219c6c55","kind":"bikerack","longitude":18.400343,"latitude":49.6544314,"name":"Bicycle Parking","city":"Dobra","address":null,"covered":false,"access":null,"website":null,"phone":null,"source":"OpenStreetMap/node/7316886465","sourceUpdatedAt":null,"verifiedAt":null}},{"type":"Feature","geometry":{"type":"Point","coordinates":[18.3821122,49.649727]},"properties":{"id":"bikerack:ffd7c708-60d4-443f-bc59-24ce6773a761","kind":"bikerack","longitude":18.3821122,"latitude":49.649727,"name":"Bicycle Parking","city":"Baska","address":null,"covered":false,"access":null,"website":null,"phone":null,"source":"OpenStreetMap/node/6723412260","sourceUpdatedAt":null,"verifiedAt":null}}]}