{"type":"FeatureCollection","features":[{"type":"Feature","geometry":{"type":"Point","coordinates":[18.4044442,49.3502259]},"properties":{"id":"bikerack:74b4ad54-d59e-44a4-8915-239895035fce","kind":"bikerack","longitude":18.4044442,"latitude":49.3502259,"name":"Biciklitároló","city":"Velke Karlovice","address":null,"covered":false,"access":null,"website":null,"phone":null,"source":"OpenStreetMap/node/2385529206","sourceUpdatedAt":null,"verifiedAt":null}},{"type":"Feature","geometry":{"type":"Point","coordinates":[18.3767047,49.3259363]},"properties":{"id":"bikerack:7d2b1fe0-c7aa-47b2-bb72-a24459aa0601","kind":"bikerack","longitude":18.3767047,"latitude":49.3259363,"name":"Biciklitároló","city":"Velke Karlovice","address":null,"covered":false,"access":null,"website":null,"phone":null,"source":"OpenStreetMap/node/2367065160","sourceUpdatedAt":null,"verifiedAt":null}},{"type":"Feature","geometry":{"type":"Point","coordinates":[18.3748048,49.3277057]},"properties":{"id":"bikerack:8dbaebd0-aa3f-4b7b-a28d-f16ef1546226","kind":"bikerack","longitude":18.3748048,"latitude":49.3277057,"name":"Biciklitároló","city":"Velke Karlovice","address":null,"covered":false,"access":null,"website":null,"phone":null,"source":"OpenStreetMap/node/9188635253","sourceUpdatedAt":null,"verifiedAt":null}}]}