{"type":"FeatureCollection","features":[{"type":"Feature","geometry":{"type":"Point","coordinates":[18.3724161,49.1302752]},"properties":{"id":"bikerack:2b639d61-6642-4396-828e-b1c966c5649a","kind":"bikerack","longitude":18.3724161,"latitude":49.1302752,"name":"Biciklitároló","city":"Puchov","address":null,"covered":true,"access":null,"website":null,"phone":null,"source":"OpenStreetMap/node/9043703876","sourceUpdatedAt":null,"verifiedAt":null}},{"type":"Feature","geometry":{"type":"Point","coordinates":[18.3865723,49.1336829]},"properties":{"id":"bikerack:4ffc2414-8335-422e-a60c-9767ec6ce433","kind":"bikerack","longitude":18.3865723,"latitude":49.1336829,"name":"Biciklitároló","city":"Povazska Bystrica","address":null,"covered":false,"access":null,"website":null,"phone":null,"source":"OpenStreetMap/node/9696365542","sourceUpdatedAt":null,"verifiedAt":null}},{"type":"Feature","geometry":{"type":"Point","coordinates":[18.3730114,49.1301592]},"properties":{"id":"repair:5fa848b2-8f22-4891-9d12-e3f9d2e6ed98","kind":"repair","longitude":18.3730114,"latitude":49.1301592,"name":"Kerékpár szervizállomás","city":"Puchov","address":null,"covered":false,"access":null,"website":null,"phone":null,"source":"OpenStreetMap/node/13340521217","sourceUpdatedAt":null,"verifiedAt":null}},{"type":"Feature","geometry":{"type":"Point","coordinates":[18.3736816,49.1294638]},"properties":{"id":"water:de6c337e-fa0c-4f6a-9ae1-3b48564bb1a5","kind":"water","longitude":18.3736816,"latitude":49.1294638,"name":"Ivókút","city":"Puchov","address":null,"covered":null,"access":null,"website":null,"phone":null,"source":"OpenStreetMap/node/12921918531","sourceUpdatedAt":null,"verifiedAt":null}}]}