{"type":"FeatureCollection","features":[{"type":"Feature","geometry":{"type":"Point","coordinates":[18.3756027,47.651131]},"properties":{"id":"bikerack:58341747-c7da-43b7-a9f2-0cf4ebdd3cd2","kind":"bikerack","longitude":18.3756027,"latitude":47.651131,"name":"Biciklitároló","city":"Baj","address":null,"covered":false,"access":null,"website":null,"phone":null,"source":"OpenStreetMap/node/13452292347","sourceUpdatedAt":null,"verifiedAt":null}},{"type":"Feature","geometry":{"type":"Point","coordinates":[18.37812,47.6539515]},"properties":{"id":"water:1543e3f5-ec3f-4de6-a6df-dd295fddc9c4","kind":"water","longitude":18.37812,"latitude":47.6539515,"name":"Ivókút","city":null,"address":null,"covered":null,"access":null,"website":null,"phone":null,"source":"OpenStreetMap","sourceUpdatedAt":null,"verifiedAt":null}},{"type":"Feature","geometry":{"type":"Point","coordinates":[18.3755109,47.6513361]},"properties":{"id":"water:1577d0e0-b1bc-4b66-af10-f82f55ad6a1f","kind":"water","longitude":18.3755109,"latitude":47.6513361,"name":"Ivókút","city":null,"address":null,"covered":null,"access":null,"website":null,"phone":null,"source":"OpenStreetMap","sourceUpdatedAt":null,"verifiedAt":null}},{"type":"Feature","geometry":{"type":"Point","coordinates":[18.374931,47.647165]},"properties":{"id":"water:d6f638c0-4296-4675-a3c1-61932567fb41","kind":"water","longitude":18.374931,"latitude":47.647165,"name":"Ivókút","city":null,"address":null,"covered":null,"access":null,"website":null,"phone":null,"source":"OpenStreetMap","sourceUpdatedAt":null,"verifiedAt":null}}]}