{"type":"FeatureCollection","features":[{"type":"Feature","geometry":{"type":"Point","coordinates":[18.3991733,47.5825616]},"properties":{"id":"bikerack:038fbbc3-5192-4bc4-a5db-571424998182","kind":"bikerack","longitude":18.3991733,"latitude":47.5825616,"name":"Biciklitároló","city":"Tatabanya","address":null,"covered":false,"access":null,"website":null,"phone":null,"source":"OpenStreetMap/node/8097585791","sourceUpdatedAt":null,"verifiedAt":null}},{"type":"Feature","geometry":{"type":"Point","coordinates":[18.3943433,47.586382]},"properties":{"id":"bikerack:10392b1f-6c95-4c71-a80d-2dc2cc89c379","kind":"bikerack","longitude":18.3943433,"latitude":47.586382,"name":"Biciklitároló","city":"Tatabanya","address":null,"covered":false,"access":null,"website":null,"phone":null,"source":"OpenStreetMap/node/9353563963","sourceUpdatedAt":null,"verifiedAt":null}},{"type":"Feature","geometry":{"type":"Point","coordinates":[18.4090966,47.5877438]},"properties":{"id":"bikerack:152408a8-f100-4639-b171-e890c744ca51","kind":"bikerack","longitude":18.4090966,"latitude":47.5877438,"name":"Biciklitároló","city":"Tatabanya","address":null,"covered":false,"access":null,"website":null,"phone":null,"source":"OpenStreetMap/node/9008533038","sourceUpdatedAt":null,"verifiedAt":null}},{"type":"Feature","geometry":{"type":"Point","coordinates":[18.393451,47.5854345]},"properties":{"id":"bikerack:1c96a7a4-7e24-4785-8bec-e51737b9b8c7","kind":"bikerack","longitude":18.393451,"latitude":47.5854345,"name":"Biciklitároló","city":"Tatabanya","address":null,"covered":true,"access":null,"website":null,"phone":null,"source":"OpenStreetMap/node/5210716228","sourceUpdatedAt":null,"verifiedAt":null}},{"type":"Feature","geometry":{"type":"Point","coordinates":[18.3888757,47.5930816]},"properties":{"id":"bikerack:1f4dc57b-c673-4fbf-9865-d67ab265c919","kind":"bikerack","longitude":18.3888757,"latitude":47.5930816,"name":"Biciklitároló","city":"Tatabanya","address":null,"covered":false,"access":null,"website":null,"phone":null,"source":"OpenStreetMap/node/11120863108","sourceUpdatedAt":null,"verifiedAt":null}},{"type":"Feature","geometry":{"type":"Point","coordinates":[18.4087733,47.5968159]},"properties":{"id":"bikerack:24b22d00-21e8-4bbc-9a4e-54e38bc71d59","kind":"bikerack","longitude":18.4087733,"latitude":47.5968159,"name":"Biciklitároló","city":"Tatabanya","address":null,"covered":false,"access":null,"website":null,"phone":null,"source":"OpenStreetMap/node/9006934940","sourceUpdatedAt":null,"verifiedAt":null}},{"type":"Feature","geometry":{"type":"Point","coordinates":[18.3869264,47.6028762]},"properties":{"id":"bikerack:2c2d6190-8d2b-478c-b66b-31af405d8d7c","kind":"bikerack","longitude":18.3869264,"latitude":47.6028762,"name":"Biciklitároló","city":"Tatabanya","address":null,"covered":false,"access":null,"website":null,"phone":null,"source":"OpenStreetMap/node/11668741117","sourceUpdatedAt":null,"verifiedAt":null}},{"type":"Feature","geometry":{"type":"Point","coordinates":[18.398278,47.5819038]},"properties":{"id":"bikerack:538aa463-22ef-4b80-9cbf-fab740b96349","kind":"bikerack","longitude":18.398278,"latitude":47.5819038,"name":"Biciklitároló","city":"Tatabanya","address":null,"covered":false,"access":null,"website":null,"phone":null,"source":"OpenStreetMap/node/2700687885","sourceUpdatedAt":null,"verifiedAt":null}},{"type":"Feature","geometry":{"type":"Point","coordinates":[18.3921439,47.5943419]},"properties":{"id":"bikerack:67ff5e54-fb41-4376-b32f-64fe0d44c158","kind":"bikerack","longitude":18.3921439,"latitude":47.5943419,"name":"Biciklitároló","city":"Tatabanya","address":null,"covered":false,"access":null,"website":null,"phone":null,"source":"OpenStreetMap/node/2700687906","sourceUpdatedAt":null,"verifiedAt":null}},{"type":"Feature","geometry":{"type":"Point","coordinates":[18.388747,47.5930599]},"properties":{"id":"bikerack:afc70c0b-1834-4196-b218-3e6080179a30","kind":"bikerack","longitude":18.388747,"latitude":47.5930599,"name":"Biciklitároló","city":"Tatabanya","address":null,"covered":false,"access":null,"website":null,"phone":null,"source":"OpenStreetMap/node/11120863107","sourceUpdatedAt":null,"verifiedAt":null}},{"type":"Feature","geometry":{"type":"Point","coordinates":[18.3971986,47.5868681]},"properties":{"id":"bikerack:b1067143-2f2a-4460-a4b7-75213aef8807","kind":"bikerack","longitude":18.3971986,"latitude":47.5868681,"name":"Biciklitároló","city":"Tatabanya","address":null,"covered":false,"access":null,"website":null,"phone":null,"source":"OpenStreetMap/node/2700687895","sourceUpdatedAt":null,"verifiedAt":null}},{"type":"Feature","geometry":{"type":"Point","coordinates":[18.395838,47.5858187]},"properties":{"id":"bikerack:ce209a96-b229-4ef7-a63b-c00d588108c1","kind":"bikerack","longitude":18.395838,"latitude":47.5858187,"name":"Biciklitároló","city":"Tatabanya","address":null,"covered":false,"access":null,"website":null,"phone":null,"source":"OpenStreetMap/node/5460336932","sourceUpdatedAt":null,"verifiedAt":null}},{"type":"Feature","geometry":{"type":"Point","coordinates":[18.3886948,47.5930996]},"properties":{"id":"bikerack:e6a7ee37-73e0-4c84-b660-7519ec4bfef1","kind":"bikerack","longitude":18.3886948,"latitude":47.5930996,"name":"Biciklitároló","city":"Tatabanya","address":null,"covered":false,"access":null,"website":null,"phone":null,"source":"OpenStreetMap/node/11055190921","sourceUpdatedAt":null,"verifiedAt":null}},{"type":"Feature","geometry":{"type":"Point","coordinates":[18.3982185,47.5845246]},"properties":{"id":"bikerack:eb0a2a40-0e17-4f52-8ddc-14c13fdf3602","kind":"bikerack","longitude":18.3982185,"latitude":47.5845246,"name":"Biciklitároló","city":"Tatabanya","address":null,"covered":false,"access":null,"website":null,"phone":null,"source":"OpenStreetMap/node/8097585793","sourceUpdatedAt":null,"verifiedAt":null}},{"type":"Feature","geometry":{"type":"Point","coordinates":[18.3965461,47.5826192]},"properties":{"id":"bikerack:fcf08961-4756-419f-b593-b14025f9f3fd","kind":"bikerack","longitude":18.3965461,"latitude":47.5826192,"name":"Biciklitároló","city":"Tatabanya","address":null,"covered":false,"access":null,"website":null,"phone":null,"source":"OpenStreetMap/node/11816414182","sourceUpdatedAt":null,"verifiedAt":null}},{"type":"Feature","geometry":{"type":"Point","coordinates":[18.3947018,47.5852736]},"properties":{"id":"service:5c834ae3-bb89-42eb-a8cf-320043793017","kind":"service","longitude":18.3947018,"latitude":47.5852736,"name":"Konzum Kerékpárbolt és Szerviz","city":"Tatabánya","address":null,"covered":null,"access":null,"website":null,"phone":null,"source":"OpenStreetMap/node/5723374765","sourceUpdatedAt":null,"verifiedAt":null}},{"type":"Feature","geometry":{"type":"Point","coordinates":[18.3949285,47.5906743]},"properties":{"id":"service:81ba5e1a-39df-4652-8f40-3f10adf31c00","kind":"service","longitude":18.3949285,"latitude":47.5906743,"name":"BrinGalaktika","city":"Tatabánya","address":null,"covered":null,"access":null,"website":null,"phone":null,"source":"OpenStreetMap/node/5723348774","sourceUpdatedAt":null,"verifiedAt":null}},{"type":"Feature","geometry":{"type":"Point","coordinates":[18.4007113,47.5838257]},"properties":{"id":"service:d3701d15-9eb6-4058-8f5e-fb7dc08ff671","kind":"service","longitude":18.4007113,"latitude":47.5838257,"name":"Na-De Bike","city":"Tatabanya","address":null,"covered":null,"access":null,"website":null,"phone":null,"source":"OpenStreetMap/node/7064095628","sourceUpdatedAt":null,"verifiedAt":null}},{"type":"Feature","geometry":{"type":"Point","coordinates":[18.3995448,47.5786814]},"properties":{"id":"water:480775f7-f34e-4362-921b-183ad5018f22","kind":"water","longitude":18.3995448,"latitude":47.5786814,"name":"Ivókút","city":null,"address":null,"covered":null,"access":null,"website":null,"phone":null,"source":"OpenStreetMap","sourceUpdatedAt":null,"verifiedAt":null}},{"type":"Feature","geometry":{"type":"Point","coordinates":[18.4003461,47.5769575]},"properties":{"id":"water:53c2ee58-7461-4e3d-9220-f20f010787f2","kind":"water","longitude":18.4003461,"latitude":47.5769575,"name":"Ivókút","city":null,"address":null,"covered":null,"access":null,"website":null,"phone":null,"source":"OpenStreetMap","sourceUpdatedAt":null,"verifiedAt":null}},{"type":"Feature","geometry":{"type":"Point","coordinates":[18.4088395,47.5881793]},"properties":{"id":"water:5d85c2a6-6704-47d2-91ce-0b4061f250cd","kind":"water","longitude":18.4088395,"latitude":47.5881793,"name":"Ivókút","city":null,"address":null,"covered":null,"access":null,"website":null,"phone":null,"source":"OpenStreetMap","sourceUpdatedAt":null,"verifiedAt":null}},{"type":"Feature","geometry":{"type":"Point","coordinates":[18.3908326,47.5811455]},"properties":{"id":"water:856a6543-ac87-4467-9785-b12578bbe7b2","kind":"water","longitude":18.3908326,"latitude":47.5811455,"name":"Ivókút","city":null,"address":null,"covered":null,"access":null,"website":null,"phone":null,"source":"OpenStreetMap","sourceUpdatedAt":null,"verifiedAt":null}},{"type":"Feature","geometry":{"type":"Point","coordinates":[18.4088584,47.58818]},"properties":{"id":"water:bf2858cd-89e6-43d6-a6d8-987329a22a82","kind":"water","longitude":18.4088584,"latitude":47.58818,"name":"Ivókút","city":null,"address":null,"covered":null,"access":null,"website":null,"phone":null,"source":"OpenStreetMap","sourceUpdatedAt":null,"verifiedAt":null}},{"type":"Feature","geometry":{"type":"Point","coordinates":[18.4043084,47.5884069]},"properties":{"id":"water:f9509325-0033-4c7a-9f2a-d3efd8baf0bb","kind":"water","longitude":18.4043084,"latitude":47.5884069,"name":"Ivókút","city":"Tatabanya","address":null,"covered":null,"access":null,"website":null,"phone":null,"source":"OpenStreetMap/node/13686111992","sourceUpdatedAt":null,"verifiedAt":null}}]}