{"type":"FeatureCollection","features":[{"type":"Feature","geometry":{"type":"Point","coordinates":[20.2102406,49.1348787]},"properties":{"id":"bikerack:07a8bbdd-ce0f-4ce3-94f5-c94ea09232ad","kind":"bikerack","longitude":20.2102406,"latitude":49.1348787,"name":"Biciklitároló","city":"Vysoke Tatry","address":null,"covered":false,"access":null,"website":null,"phone":null,"source":"OpenStreetMap/node/11947749736","sourceUpdatedAt":null,"verifiedAt":null}},{"type":"Feature","geometry":{"type":"Point","coordinates":[20.2102605,49.1349739]},"properties":{"id":"bikerack:d3278c4a-82ac-424c-9709-b36efd572659","kind":"bikerack","longitude":20.2102605,"latitude":49.1349739,"name":"Biciklitároló","city":"Vysoke Tatry","address":null,"covered":false,"access":null,"website":null,"phone":null,"source":"OpenStreetMap/node/11947749738","sourceUpdatedAt":null,"verifiedAt":null}}]}