{"type":"FeatureCollection","features":[{"type":"Feature","geometry":{"type":"Point","coordinates":[20.1858303,46.2262638]},"properties":{"id":"bikerack:15d7872a-c66e-40ed-bc63-8cd5afab69fa","kind":"bikerack","longitude":20.1858303,"latitude":46.2262638,"name":"Biciklitároló","city":"Szeged","address":null,"covered":false,"access":null,"website":null,"phone":null,"source":"OpenStreetMap/node/8464633470","sourceUpdatedAt":null,"verifiedAt":null}},{"type":"Feature","geometry":{"type":"Point","coordinates":[20.1752152,46.2305296]},"properties":{"id":"bikerack:301e07dd-8ff3-4205-b4a1-02b6560b78df","kind":"bikerack","longitude":20.1752152,"latitude":46.2305296,"name":"Biciklitároló","city":"Szeged","address":null,"covered":false,"access":null,"website":null,"phone":null,"source":"OpenStreetMap/node/6806932056","sourceUpdatedAt":null,"verifiedAt":null}},{"type":"Feature","geometry":{"type":"Point","coordinates":[20.1752859,46.2502011]},"properties":{"id":"bikerack:3f426fc1-b8c2-41a9-bee0-8dc57924eed2","kind":"bikerack","longitude":20.1752859,"latitude":46.2502011,"name":"Biciklitároló","city":"Szeged","address":null,"covered":false,"access":null,"website":null,"phone":null,"source":"OpenStreetMap/node/4914345676","sourceUpdatedAt":null,"verifiedAt":null}},{"type":"Feature","geometry":{"type":"Point","coordinates":[20.1718701,46.2358036]},"properties":{"id":"bikerack:409d6683-9eae-4153-8e74-f3ebbe94342f","kind":"bikerack","longitude":20.1718701,"latitude":46.2358036,"name":"Biciklitároló","city":"Szeged","address":null,"covered":true,"access":null,"website":null,"phone":null,"source":"OpenStreetMap/node/4353120886","sourceUpdatedAt":null,"verifiedAt":null}},{"type":"Feature","geometry":{"type":"Point","coordinates":[20.1740018,46.2452468]},"properties":{"id":"bikerack:87600a2c-acb7-453f-a021-72ab0465f3da","kind":"bikerack","longitude":20.1740018,"latitude":46.2452468,"name":"Biciklitároló","city":"Szeged","address":null,"covered":false,"access":null,"website":null,"phone":null,"source":"OpenStreetMap/node/6899835166","sourceUpdatedAt":null,"verifiedAt":null}},{"type":"Feature","geometry":{"type":"Point","coordinates":[20.1751806,46.2355706]},"properties":{"id":"bikerack:99b2c221-2fee-476c-a08c-477ef6ed67c3","kind":"bikerack","longitude":20.1751806,"latitude":46.2355706,"name":"Biciklitároló","city":"Szeged","address":null,"covered":false,"access":null,"website":null,"phone":null,"source":"OpenStreetMap/node/11950671270","sourceUpdatedAt":null,"verifiedAt":null}},{"type":"Feature","geometry":{"type":"Point","coordinates":[20.172137,46.2358453]},"properties":{"id":"bikerack:9ed0a376-83a5-4838-9eff-23b8f42c4a46","kind":"bikerack","longitude":20.172137,"latitude":46.2358453,"name":"Biciklitároló","city":"Szeged","address":null,"covered":false,"access":null,"website":null,"phone":null,"source":"OpenStreetMap/node/4356024451","sourceUpdatedAt":null,"verifiedAt":null}},{"type":"Feature","geometry":{"type":"Point","coordinates":[20.1799749,46.2286397]},"properties":{"id":"bikerack:c5ad3c8b-9596-4862-b77b-039ca4d05345","kind":"bikerack","longitude":20.1799749,"latitude":46.2286397,"name":"Biciklitároló","city":"Szeged","address":null,"covered":false,"access":null,"website":null,"phone":null,"source":"OpenStreetMap/node/8464633469","sourceUpdatedAt":null,"verifiedAt":null}},{"type":"Feature","geometry":{"type":"Point","coordinates":[20.175147,46.2355938]},"properties":{"id":"bikerack:c7541df0-908b-4ad5-a037-afb3e5bbcd2b","kind":"bikerack","longitude":20.175147,"latitude":46.2355938,"name":"Biciklitároló","city":"Szeged","address":null,"covered":false,"access":null,"website":null,"phone":null,"source":"OpenStreetMap/node/6106248777","sourceUpdatedAt":null,"verifiedAt":null}},{"type":"Feature","geometry":{"type":"Point","coordinates":[20.1743585,46.2451615]},"properties":{"id":"bikerack:f8da8597-1de7-4112-b382-60d51fb0302f","kind":"bikerack","longitude":20.1743585,"latitude":46.2451615,"name":"Biciklitároló","city":"Szeged","address":null,"covered":false,"access":null,"website":null,"phone":null,"source":"OpenStreetMap/node/6918637500","sourceUpdatedAt":null,"verifiedAt":null}},{"type":"Feature","geometry":{"type":"Point","coordinates":[20.1757898,46.2372161]},"properties":{"id":"service:a7c3d287-e101-4ed3-816d-7f120c574c8c","kind":"service","longitude":20.1757898,"latitude":46.2372161,"name":"Lendület","city":"Szeged","address":null,"covered":null,"access":null,"website":null,"phone":null,"source":"OpenStreetMap/node/2196512832","sourceUpdatedAt":null,"verifiedAt":null}},{"type":"Feature","geometry":{"type":"Point","coordinates":[20.1843514,46.2255963]},"properties":{"id":"water:16f06283-8667-48a7-83dd-a54280bfa294","kind":"water","longitude":20.1843514,"latitude":46.2255963,"name":"Ivókút","city":null,"address":null,"covered":null,"access":null,"website":null,"phone":null,"source":"OpenStreetMap","sourceUpdatedAt":null,"verifiedAt":null}},{"type":"Feature","geometry":{"type":"Point","coordinates":[20.1788951,46.2368661]},"properties":{"id":"water:20cd0910-afd5-4d7e-8819-2c67c47b1ffa","kind":"water","longitude":20.1788951,"latitude":46.2368661,"name":"Ivókút","city":null,"address":null,"covered":null,"access":null,"website":null,"phone":null,"source":"OpenStreetMap","sourceUpdatedAt":null,"verifiedAt":null}},{"type":"Feature","geometry":{"type":"Point","coordinates":[20.1774206,46.2349849]},"properties":{"id":"water:24017dce-6924-48cf-929a-586fdec69efd","kind":"water","longitude":20.1774206,"latitude":46.2349849,"name":"Ivókút","city":null,"address":null,"covered":null,"access":null,"website":null,"phone":null,"source":"OpenStreetMap","sourceUpdatedAt":null,"verifiedAt":null}},{"type":"Feature","geometry":{"type":"Point","coordinates":[20.1726507,46.2307351]},"properties":{"id":"water:260b12fb-6275-4b72-9c7d-a1774f2cdd2a","kind":"water","longitude":20.1726507,"latitude":46.2307351,"name":"Ivókút","city":null,"address":null,"covered":null,"access":null,"website":null,"phone":null,"source":"OpenStreetMap","sourceUpdatedAt":null,"verifiedAt":null}},{"type":"Feature","geometry":{"type":"Point","coordinates":[20.1920282,46.2313267]},"properties":{"id":"water:3ee4da8e-81a5-4c7a-9308-f49c079bf808","kind":"water","longitude":20.1920282,"latitude":46.2313267,"name":"Ivókút","city":null,"address":null,"covered":null,"access":null,"website":null,"phone":null,"source":"OpenStreetMap","sourceUpdatedAt":null,"verifiedAt":null}},{"type":"Feature","geometry":{"type":"Point","coordinates":[20.1709786,46.2267122]},"properties":{"id":"water:3f0de744-932c-46a8-a064-d2ecc7277a55","kind":"water","longitude":20.1709786,"latitude":46.2267122,"name":"Ivókút","city":null,"address":null,"covered":null,"access":null,"website":null,"phone":null,"source":"OpenStreetMap","sourceUpdatedAt":null,"verifiedAt":null}},{"type":"Feature","geometry":{"type":"Point","coordinates":[20.19038,46.2365752]},"properties":{"id":"water:785abcc0-ce65-4e05-8ecd-fb6bc434f8fa","kind":"water","longitude":20.19038,"latitude":46.2365752,"name":"Ivókút","city":null,"address":null,"covered":null,"access":null,"website":null,"phone":null,"source":"OpenStreetMap","sourceUpdatedAt":null,"verifiedAt":null}},{"type":"Feature","geometry":{"type":"Point","coordinates":[20.1741341,46.2450902]},"properties":{"id":"water:a2368869-a768-4a05-b352-6d5357424866","kind":"water","longitude":20.1741341,"latitude":46.2450902,"name":"Ivókút","city":null,"address":null,"covered":null,"access":null,"website":null,"phone":null,"source":"OpenStreetMap","sourceUpdatedAt":null,"verifiedAt":null}},{"type":"Feature","geometry":{"type":"Point","coordinates":[20.1730961,46.2539436]},"properties":{"id":"water:bbd81d3b-47bd-45e5-93c8-39e9faf0c6a6","kind":"water","longitude":20.1730961,"latitude":46.2539436,"name":"Ivókút","city":null,"address":null,"covered":null,"access":null,"website":null,"phone":null,"source":"OpenStreetMap","sourceUpdatedAt":null,"verifiedAt":null}},{"type":"Feature","geometry":{"type":"Point","coordinates":[20.1903947,46.2545168]},"properties":{"id":"water:dc8d9754-b7af-48f3-92c8-0fb04e716826","kind":"water","longitude":20.1903947,"latitude":46.2545168,"name":"Ivókút","city":null,"address":null,"covered":null,"access":null,"website":null,"phone":null,"source":"OpenStreetMap","sourceUpdatedAt":null,"verifiedAt":null}},{"type":"Feature","geometry":{"type":"Point","coordinates":[20.1800173,46.2383624]},"properties":{"id":"water:df67557a-aa56-436e-8933-59397bcd8825","kind":"water","longitude":20.1800173,"latitude":46.2383624,"name":"Ivókút","city":null,"address":null,"covered":null,"access":null,"website":null,"phone":null,"source":"OpenStreetMap","sourceUpdatedAt":null,"verifiedAt":null}}]}