{"type":"FeatureCollection","features":[{"type":"Feature","geometry":{"type":"Point","coordinates":[13.6254426,45.8137836]},"properties":{"id":"bikerack:fd6aaea8-602c-406e-86c3-61a72ef427bc","kind":"bikerack","longitude":13.6254426,"latitude":45.8137836,"name":"Biciklitároló","city":"Sistiana-Visogliano","address":null,"covered":false,"access":null,"website":null,"phone":null,"source":"OpenStreetMap/node/13691645716","sourceUpdatedAt":null,"verifiedAt":null}},{"type":"Feature","geometry":{"type":"Point","coordinates":[13.6253771,45.8138088]},"properties":{"id":"water:e91c2cc9-4ec0-4bf0-8645-408eac5aa5fc","kind":"water","longitude":13.6253771,"latitude":45.8138088,"name":"Ivókút","city":"Sistiana-Visogliano","address":null,"covered":null,"access":null,"website":null,"phone":null,"source":"OpenStreetMap/node/5870386485","sourceUpdatedAt":null,"verifiedAt":null}}]}