{"type":"FeatureCollection","features":[{"type":"Feature","geometry":{"type":"Point","coordinates":[24.702891,52.4819287]},"properties":{"id":"bikerack:497323ef-a295-43a5-980e-27ece7e210c9","kind":"bikerack","longitude":24.702891,"latitude":52.4819287,"name":"Bicycle Parking","city":"Pruzhany","address":null,"covered":false,"access":null,"website":null,"phone":null,"source":"OpenStreetMap/node/13381880500","sourceUpdatedAt":null,"verifiedAt":null}},{"type":"Feature","geometry":{"type":"Point","coordinates":[24.7020118,52.4819783]},"properties":{"id":"bikerack:fd3fa8f4-91b5-4f98-9637-848bb8c26db4","kind":"bikerack","longitude":24.7020118,"latitude":52.4819783,"name":"Bicycle Parking","city":"Pruzhany","address":null,"covered":false,"access":null,"website":null,"phone":null,"source":"OpenStreetMap/node/13381880471","sourceUpdatedAt":null,"verifiedAt":null}}]}