{"type":"FeatureCollection","features":[{"type":"Feature","geometry":{"type":"Point","coordinates":[8.5335679,51.9558699]},"properties":{"id":"bikerack:061f19ef-97f0-42ee-ab27-46f4d5d93efb","kind":"bikerack","longitude":8.5335679,"latitude":51.9558699,"name":"Fahrradabstellplatz","city":"Verl","address":null,"covered":true,"access":null,"website":null,"phone":null,"source":"OpenStreetMap/way/692650112","sourceUpdatedAt":null,"verifiedAt":null}},{"type":"Feature","geometry":{"type":"Point","coordinates":[8.5514589,51.9697713]},"properties":{"id":"bikerack:08f6da2b-91f1-487d-bcb0-739163357df3","kind":"bikerack","longitude":8.5514589,"latitude":51.9697713,"name":"Fahrradabstellplatz","city":"Bielefeld","address":null,"covered":false,"access":null,"website":null,"phone":null,"source":"OpenStreetMap/node/7014707498","sourceUpdatedAt":null,"verifiedAt":null}},{"type":"Feature","geometry":{"type":"Point","coordinates":[8.5611085,51.9452692]},"properties":{"id":"bikerack:311c28c8-a42c-413a-b62a-62feffe5be70","kind":"bikerack","longitude":8.5611085,"latitude":51.9452692,"name":"Fahrradabstellplatz","city":"Verl","address":null,"covered":true,"access":null,"website":null,"phone":null,"source":"OpenStreetMap/way/859679200","sourceUpdatedAt":null,"verifiedAt":null}},{"type":"Feature","geometry":{"type":"Point","coordinates":[8.553558,51.9682904]},"properties":{"id":"bikerack:5147a8ca-b162-4be0-92c4-11c5564a59bf","kind":"bikerack","longitude":8.553558,"latitude":51.9682904,"name":"Fahrradabstellplatz","city":"Bielefeld","address":null,"covered":false,"access":null,"website":null,"phone":null,"source":"OpenStreetMap/node/7492344958","sourceUpdatedAt":null,"verifiedAt":null}},{"type":"Feature","geometry":{"type":"Point","coordinates":[8.5295991,51.9624738]},"properties":{"id":"bikerack:91ffe877-a526-4bf2-beb1-a0cb6dad627d","kind":"bikerack","longitude":8.5295991,"latitude":51.9624738,"name":"Fahrradabstellplatz","city":"Bielefeld","address":null,"covered":false,"access":null,"website":null,"phone":null,"source":"OpenStreetMap/node/6742566800","sourceUpdatedAt":null,"verifiedAt":null}},{"type":"Feature","geometry":{"type":"Point","coordinates":[8.558033,51.9659791]},"properties":{"id":"bikerack:a28afa79-21a1-44fd-88b8-15eeb44c28fd","kind":"bikerack","longitude":8.558033,"latitude":51.9659791,"name":"Fahrradabstellplatz","city":"Bielefeld","address":null,"covered":false,"access":null,"website":null,"phone":null,"source":"OpenStreetMap/node/7492317945","sourceUpdatedAt":null,"verifiedAt":null}},{"type":"Feature","geometry":{"type":"Point","coordinates":[8.5293941,51.9625728]},"properties":{"id":"bikerack:d5a893ae-5cfa-4750-b9f8-2b6c1a0195df","kind":"bikerack","longitude":8.5293941,"latitude":51.9625728,"name":"Fahrradabstellplatz","city":"Bielefeld","address":null,"covered":false,"access":null,"website":null,"phone":null,"source":"OpenStreetMap/way/926836223","sourceUpdatedAt":null,"verifiedAt":null}},{"type":"Feature","geometry":{"type":"Point","coordinates":[8.5686547,51.951543]},"properties":{"id":"bikerack:e438dcb1-c542-4f0e-b33e-8f8155f3afaa","kind":"bikerack","longitude":8.5686547,"latitude":51.951543,"name":"Fahrradabstellplatz","city":"Verl","address":null,"covered":true,"access":null,"website":null,"phone":null,"source":"OpenStreetMap/node/4205353432","sourceUpdatedAt":null,"verifiedAt":null}},{"type":"Feature","geometry":{"type":"Point","coordinates":[8.5637225,51.9446657]},"properties":{"id":"bikerack:ef390cd8-0948-4e02-80e1-31fc3829d46c","kind":"bikerack","longitude":8.5637225,"latitude":51.9446657,"name":"Fahrradabstellplatz","city":"Verl","address":null,"covered":false,"access":null,"website":null,"phone":null,"source":"OpenStreetMap/way/859679195","sourceUpdatedAt":null,"verifiedAt":null}}]}