{"type":"FeatureCollection","features":[{"type":"Feature","geometry":{"type":"Point","coordinates":[8.5338336,50.3356543]},"properties":{"id":"bikerack:0e9abbc8-dd8b-4d80-bf3c-5b519b5bebbc","kind":"bikerack","longitude":8.5338336,"latitude":50.3356543,"name":"Fahrradabstellplatz","city":"Usingen","address":null,"covered":false,"access":null,"website":null,"phone":null,"source":"OpenStreetMap/node/12956576962","sourceUpdatedAt":null,"verifiedAt":null}},{"type":"Feature","geometry":{"type":"Point","coordinates":[8.5298304,50.3431136]},"properties":{"id":"bikerack:1107f79c-0585-43cc-b2de-1eb4f5e7681f","kind":"bikerack","longitude":8.5298304,"latitude":50.3431136,"name":"Fahrradabstellplatz","city":"Usingen","address":null,"covered":false,"access":null,"website":null,"phone":null,"source":"OpenStreetMap/node/13688443089","sourceUpdatedAt":null,"verifiedAt":null}},{"type":"Feature","geometry":{"type":"Point","coordinates":[8.5334961,50.3376373]},"properties":{"id":"bikerack:266cf84c-359c-4aa2-aec5-c0b800489017","kind":"bikerack","longitude":8.5334961,"latitude":50.3376373,"name":"Fahrradabstellplatz","city":"Usingen","address":null,"covered":false,"access":null,"website":null,"phone":null,"source":"OpenStreetMap/node/13688439432","sourceUpdatedAt":null,"verifiedAt":null}},{"type":"Feature","geometry":{"type":"Point","coordinates":[8.5335317,50.3359216]},"properties":{"id":"bikerack:2eb427da-468b-4837-913b-764b736969c4","kind":"bikerack","longitude":8.5335317,"latitude":50.3359216,"name":"Fahrradabstellplatz","city":"Usingen","address":null,"covered":false,"access":null,"website":null,"phone":null,"source":"OpenStreetMap/node/13140030627","sourceUpdatedAt":null,"verifiedAt":null}},{"type":"Feature","geometry":{"type":"Point","coordinates":[8.5330879,50.3344388]},"properties":{"id":"bikerack:3dc0c5f3-17f2-4db9-a019-d5d0d4f6b7d7","kind":"bikerack","longitude":8.5330879,"latitude":50.3344388,"name":"Fahrradabstellplatz","city":"Usingen","address":null,"covered":false,"access":null,"website":null,"phone":null,"source":"OpenStreetMap/way/1429405681","sourceUpdatedAt":null,"verifiedAt":null}},{"type":"Feature","geometry":{"type":"Point","coordinates":[8.5298411,50.3429299]},"properties":{"id":"bikerack:40f06a4d-7e12-4c9c-8dd2-aadfc3c8d0c0","kind":"bikerack","longitude":8.5298411,"latitude":50.3429299,"name":"Fahrradabstellplatz","city":"Usingen","address":null,"covered":true,"access":null,"website":null,"phone":null,"source":"OpenStreetMap/way/1493982397","sourceUpdatedAt":null,"verifiedAt":null}},{"type":"Feature","geometry":{"type":"Point","coordinates":[8.5381753,50.3345184]},"properties":{"id":"bikerack:4302db0f-24d9-4474-9e47-e6ef1b16a269","kind":"bikerack","longitude":8.5381753,"latitude":50.3345184,"name":"Fahrradabstellplatz","city":"Usingen","address":null,"covered":false,"access":null,"website":null,"phone":null,"source":"OpenStreetMap/node/10646741758","sourceUpdatedAt":null,"verifiedAt":null}},{"type":"Feature","geometry":{"type":"Point","coordinates":[8.5379845,50.3344637]},"properties":{"id":"bikerack:43765feb-17cb-45b3-b74b-4b6e4d75d316","kind":"bikerack","longitude":8.5379845,"latitude":50.3344637,"name":"Fahrradabstellplatz","city":"Usingen","address":null,"covered":false,"access":null,"website":null,"phone":null,"source":"OpenStreetMap/node/10646741757","sourceUpdatedAt":null,"verifiedAt":null}},{"type":"Feature","geometry":{"type":"Point","coordinates":[8.5442541,50.3371184]},"properties":{"id":"bikerack:4b2e0c4e-36eb-42c5-95bc-43b3cf080c6c","kind":"bikerack","longitude":8.5442541,"latitude":50.3371184,"name":"Fahrradabstellplatz","city":"Usingen","address":null,"covered":false,"access":null,"website":null,"phone":null,"source":"OpenStreetMap/node/12663540254","sourceUpdatedAt":null,"verifiedAt":null}},{"type":"Feature","geometry":{"type":"Point","coordinates":[8.528115,50.330651]},"properties":{"id":"bikerack:4ecdf7eb-39e5-493f-a37e-72005c4b9950","kind":"bikerack","longitude":8.528115,"latitude":50.330651,"name":"Fahrradabstellplatz","city":"Usingen","address":null,"covered":true,"access":null,"website":null,"phone":null,"source":"OpenStreetMap/node/1142735598","sourceUpdatedAt":null,"verifiedAt":null}},{"type":"Feature","geometry":{"type":"Point","coordinates":[8.5390779,50.3338807]},"properties":{"id":"bikerack:51b6dbe4-e0b4-4f2e-b09a-8b591563429c","kind":"bikerack","longitude":8.5390779,"latitude":50.3338807,"name":"Fahrradabstellplatz","city":"Usingen","address":null,"covered":true,"access":null,"website":null,"phone":null,"source":"OpenStreetMap/node/13140022154","sourceUpdatedAt":null,"verifiedAt":null}},{"type":"Feature","geometry":{"type":"Point","coordinates":[8.5332974,50.3344076]},"properties":{"id":"bikerack:61b8e863-52c4-4009-8c6a-0645e4b2cd1f","kind":"bikerack","longitude":8.5332974,"latitude":50.3344076,"name":"Fahrradabstellplatz","city":"Usingen","address":null,"covered":false,"access":null,"website":null,"phone":null,"source":"OpenStreetMap/node/13140030639","sourceUpdatedAt":null,"verifiedAt":null}},{"type":"Feature","geometry":{"type":"Point","coordinates":[8.5338364,50.3360413]},"properties":{"id":"bikerack:6c10d215-0211-446a-818d-5d42570e56d4","kind":"bikerack","longitude":8.5338364,"latitude":50.3360413,"name":"Fahrradabstellplatz","city":"Usingen","address":null,"covered":false,"access":null,"website":null,"phone":null,"source":"OpenStreetMap/node/13140030631","sourceUpdatedAt":null,"verifiedAt":null}},{"type":"Feature","geometry":{"type":"Point","coordinates":[8.532705,50.3338693]},"properties":{"id":"bikerack:6c180282-d5db-4ca9-8e9b-eefa726fc465","kind":"bikerack","longitude":8.532705,"latitude":50.3338693,"name":"Fahrradabstellplatz","city":"Usingen","address":null,"covered":true,"access":null,"website":null,"phone":null,"source":"OpenStreetMap/node/6717290409","sourceUpdatedAt":null,"verifiedAt":null}},{"type":"Feature","geometry":{"type":"Point","coordinates":[8.5369946,50.3342185]},"properties":{"id":"bikerack:83270ffd-a04a-44ba-ba8c-efdc45745f5f","kind":"bikerack","longitude":8.5369946,"latitude":50.3342185,"name":"Fahrradabstellplatz","city":"Usingen","address":null,"covered":false,"access":null,"website":null,"phone":null,"source":"OpenStreetMap/node/12671023424","sourceUpdatedAt":null,"verifiedAt":null}},{"type":"Feature","geometry":{"type":"Point","coordinates":[8.5337553,50.3352833]},"properties":{"id":"bikerack:97525e86-afb0-4443-a923-e00ce0ffa1f4","kind":"bikerack","longitude":8.5337553,"latitude":50.3352833,"name":"Fahrradabstellplatz","city":"Usingen","address":null,"covered":false,"access":null,"website":null,"phone":null,"source":"OpenStreetMap/node/13140030637","sourceUpdatedAt":null,"verifiedAt":null}},{"type":"Feature","geometry":{"type":"Point","coordinates":[8.5283637,50.3306882]},"properties":{"id":"bikerack:9c1b1f28-9c51-4d96-ac23-8e0a523346f0","kind":"bikerack","longitude":8.5283637,"latitude":50.3306882,"name":"flux-Fahrradparken","city":"Usingen","address":null,"covered":true,"access":null,"website":null,"phone":null,"source":"OpenStreetMap/way/1355460877","sourceUpdatedAt":null,"verifiedAt":null}},{"type":"Feature","geometry":{"type":"Point","coordinates":[8.5344289,50.3376078]},"properties":{"id":"bikerack:b2b3f4be-4822-4827-a048-12f70e6a8fb1","kind":"bikerack","longitude":8.5344289,"latitude":50.3376078,"name":"Fahrradabstellplatz","city":"Usingen","address":null,"covered":false,"access":null,"website":null,"phone":null,"source":"OpenStreetMap/node/13688438327","sourceUpdatedAt":null,"verifiedAt":null}},{"type":"Feature","geometry":{"type":"Point","coordinates":[8.5332849,50.3353389]},"properties":{"id":"bikerack:ce682de8-cc22-4110-81dc-a486fea3f2f2","kind":"bikerack","longitude":8.5332849,"latitude":50.3353389,"name":"Fahrradabstellplatz","city":"Usingen","address":null,"covered":false,"access":null,"website":null,"phone":null,"source":"OpenStreetMap/node/13140030635","sourceUpdatedAt":null,"verifiedAt":null}},{"type":"Feature","geometry":{"type":"Point","coordinates":[8.5330443,50.3371728]},"properties":{"id":"bikerack:d2f53ea4-b208-4b2c-904b-a2590fcbc267","kind":"bikerack","longitude":8.5330443,"latitude":50.3371728,"name":"Fahrradabstellplatz","city":"Usingen","address":null,"covered":false,"access":null,"website":null,"phone":null,"source":"OpenStreetMap/node/10793994936","sourceUpdatedAt":null,"verifiedAt":null}},{"type":"Feature","geometry":{"type":"Point","coordinates":[8.5311191,50.3334267]},"properties":{"id":"bikerack:d659925f-70f2-4efb-92b5-3e55819a60da","kind":"bikerack","longitude":8.5311191,"latitude":50.3334267,"name":"Fahrradabstellplatz","city":"Usingen","address":null,"covered":false,"access":null,"website":null,"phone":null,"source":"OpenStreetMap/node/12544318678","sourceUpdatedAt":null,"verifiedAt":null}},{"type":"Feature","geometry":{"type":"Point","coordinates":[8.5276613,50.3309365]},"properties":{"id":"bikerack:f8969eb4-0a81-4fc4-a428-799f458559fa","kind":"bikerack","longitude":8.5276613,"latitude":50.3309365,"name":"Fahrradabstellplatz","city":"Usingen","address":null,"covered":false,"access":null,"website":null,"phone":null,"source":"OpenStreetMap/node/12544318652","sourceUpdatedAt":null,"verifiedAt":null}},{"type":"Feature","geometry":{"type":"Point","coordinates":[8.5284162,50.3306729]},"properties":{"id":"repair:c2c2f167-e8d2-439b-9ea8-73382c1eac6e","kind":"repair","longitude":8.5284162,"latitude":50.3306729,"name":"flux-Reparaturstation","city":"Usingen","address":null,"covered":false,"access":null,"website":null,"phone":null,"source":"OpenStreetMap/node/12544318690","sourceUpdatedAt":null,"verifiedAt":null}}]}