{"type":"FeatureCollection","features":[{"type":"Feature","geometry":{"type":"Point","coordinates":[8.5275876,46.9921789]},"properties":{"id":"bikerack:049a18f3-d529-4d39-b000-96fc76724608","kind":"bikerack","longitude":8.5275876,"latitude":46.9921789,"name":"Bicycle Parking","city":"Gersau","address":null,"covered":true,"access":null,"website":null,"phone":null,"source":"OpenStreetMap/node/12296556263","sourceUpdatedAt":null,"verifiedAt":null}},{"type":"Feature","geometry":{"type":"Point","coordinates":[8.5278442,46.9927171]},"properties":{"id":"bikerack:421c5712-2f30-4073-9f75-d344c855d678","kind":"bikerack","longitude":8.5278442,"latitude":46.9927171,"name":"Bicycle Parking","city":"Gersau","address":null,"covered":true,"access":null,"website":null,"phone":null,"source":"OpenStreetMap/node/12296556264","sourceUpdatedAt":null,"verifiedAt":null}}]}