{"type":"FeatureCollection","features":[{"type":"Feature","geometry":{"type":"Point","coordinates":[8.5681604,46.0854768]},"properties":{"id":"water:27809bfa-a216-48b0-ab98-af2001262be1","kind":"water","longitude":8.5681604,"latitude":46.0854768,"name":"Fontanella","city":"Gurro","address":null,"covered":null,"access":null,"website":null,"phone":null,"source":"OpenStreetMap/node/11049633089","sourceUpdatedAt":null,"verifiedAt":null}},{"type":"Feature","geometry":{"type":"Point","coordinates":[8.5538145,46.0845853]},"properties":{"id":"water:2bd9c9eb-c082-4031-b68c-30be2eaa88c2","kind":"water","longitude":8.5538145,"latitude":46.0845853,"name":"Fontanella","city":"Gurro","address":null,"covered":null,"access":null,"website":null,"phone":null,"source":"OpenStreetMap/node/11138478605","sourceUpdatedAt":null,"verifiedAt":null}},{"type":"Feature","geometry":{"type":"Point","coordinates":[8.5690162,46.084358]},"properties":{"id":"water:2e975f53-aad8-4d50-9c61-2ef6e839b535","kind":"water","longitude":8.5690162,"latitude":46.084358,"name":"Fontanella","city":"Gurro","address":null,"covered":null,"access":null,"website":null,"phone":null,"source":"OpenStreetMap/node/11149790899","sourceUpdatedAt":null,"verifiedAt":null}},{"type":"Feature","geometry":{"type":"Point","coordinates":[8.5686495,46.0981864]},"properties":{"id":"water:2faf0973-e600-4c14-a648-6d376e8124a9","kind":"water","longitude":8.5686495,"latitude":46.0981864,"name":"Funtana ad l'Albi","city":"Cursolo","address":null,"covered":null,"access":null,"website":null,"phone":null,"source":"OpenStreetMap/node/1458569313","sourceUpdatedAt":null,"verifiedAt":null}},{"type":"Feature","geometry":{"type":"Point","coordinates":[8.5679191,46.098252]},"properties":{"id":"water:45bb7e95-13ec-4a5d-8b05-152a0d983bd0","kind":"water","longitude":8.5679191,"latitude":46.098252,"name":"Fontanella","city":"Cursolo","address":null,"covered":null,"access":null,"website":null,"phone":null,"source":"OpenStreetMap/node/11020675367","sourceUpdatedAt":null,"verifiedAt":null}},{"type":"Feature","geometry":{"type":"Point","coordinates":[8.5555,46.0846369]},"properties":{"id":"water:73c40bc7-198a-4c9a-881a-fb4438014cd1","kind":"water","longitude":8.5555,"latitude":46.0846369,"name":"Fontanella","city":"Gurro","address":null,"covered":null,"access":null,"website":null,"phone":null,"source":"OpenStreetMap/node/11138471441","sourceUpdatedAt":null,"verifiedAt":null}},{"type":"Feature","geometry":{"type":"Point","coordinates":[8.5688592,46.0851888]},"properties":{"id":"water:873ba774-8c1a-4bf6-a155-8d0614945bae","kind":"water","longitude":8.5688592,"latitude":46.0851888,"name":"Fontanella","city":"Gurro","address":null,"covered":null,"access":null,"website":null,"phone":null,"source":"OpenStreetMap/node/11149764122","sourceUpdatedAt":null,"verifiedAt":null}},{"type":"Feature","geometry":{"type":"Point","coordinates":[8.5530761,46.0985632]},"properties":{"id":"water:b3eee18f-e693-4f94-9ca1-5667fffc25c1","kind":"water","longitude":8.5530761,"latitude":46.0985632,"name":"Fontanella","city":"Cursolo","address":null,"covered":null,"access":null,"website":null,"phone":null,"source":"OpenStreetMap/node/832028858","sourceUpdatedAt":null,"verifiedAt":null}},{"type":"Feature","geometry":{"type":"Point","coordinates":[8.5660879,46.0976087]},"properties":{"id":"water:b6934d69-9945-44af-8b36-a810ca1b05e8","kind":"water","longitude":8.5660879,"latitude":46.0976087,"name":"Fontanella","city":"Cursolo","address":null,"covered":null,"access":null,"website":null,"phone":null,"source":"OpenStreetMap/node/1458569308","sourceUpdatedAt":null,"verifiedAt":null}},{"type":"Feature","geometry":{"type":"Point","coordinates":[8.5683123,46.0834022]},"properties":{"id":"water:bbf2732b-dfd7-4eba-9ba8-ec5283efca17","kind":"water","longitude":8.5683123,"latitude":46.0834022,"name":"Fontanella","city":"Gurro","address":null,"covered":null,"access":null,"website":null,"phone":null,"source":"OpenStreetMap/node/11141468594","sourceUpdatedAt":null,"verifiedAt":null}},{"type":"Feature","geometry":{"type":"Point","coordinates":[8.5687702,46.0856238]},"properties":{"id":"water:c6e6f29d-8ff9-4350-9e28-c8fd828f6d87","kind":"water","longitude":8.5687702,"latitude":46.0856238,"name":"Fontanella","city":"Gurro","address":null,"covered":null,"access":null,"website":null,"phone":null,"source":"OpenStreetMap/node/11149764107","sourceUpdatedAt":null,"verifiedAt":null}},{"type":"Feature","geometry":{"type":"Point","coordinates":[8.5683655,46.0986543]},"properties":{"id":"water:d7eea102-ecbf-4af2-81af-8fd8473853e9","kind":"water","longitude":8.5683655,"latitude":46.0986543,"name":"Fontanella","city":"Cursolo","address":null,"covered":null,"access":null,"website":null,"phone":null,"source":"OpenStreetMap/node/1458569317","sourceUpdatedAt":null,"verifiedAt":null}}]}