{"type":"FeatureCollection","features":[{"type":"Feature","geometry":{"type":"Point","coordinates":[14.4128907,50.1752593]},"properties":{"id":"bikerack:04ab0af5-69be-4a2e-8d34-dc169cef2b33","kind":"bikerack","longitude":14.4128907,"latitude":50.1752593,"name":"Bicycle Parking","city":"Klecany","address":null,"covered":false,"access":null,"website":null,"phone":null,"source":"OpenStreetMap/node/2087455852","sourceUpdatedAt":null,"verifiedAt":null}},{"type":"Feature","geometry":{"type":"Point","coordinates":[14.402443,50.1661638]},"properties":{"id":"bikerack:0523b48b-3e28-4b29-a8ab-a15862f2e0eb","kind":"bikerack","longitude":14.402443,"latitude":50.1661638,"name":"Bicycle Parking","city":"Roztoky","address":null,"covered":false,"access":null,"website":null,"phone":null,"source":"OpenStreetMap/node/12866647507","sourceUpdatedAt":null,"verifiedAt":null}},{"type":"Feature","geometry":{"type":"Point","coordinates":[14.4099369,50.176511]},"properties":{"id":"bikerack:0fb4ba3c-17ed-4fc2-8e78-83d84a917f89","kind":"bikerack","longitude":14.4099369,"latitude":50.176511,"name":"Bicycle Parking","city":"Klecany","address":null,"covered":false,"access":null,"website":null,"phone":null,"source":"OpenStreetMap/node/4428634135","sourceUpdatedAt":null,"verifiedAt":null}},{"type":"Feature","geometry":{"type":"Point","coordinates":[14.4046799,50.168125]},"properties":{"id":"bikerack:111044e3-2e18-476c-835b-2262db120d81","kind":"bikerack","longitude":14.4046799,"latitude":50.168125,"name":"Bicycle Parking","city":"Klecany","address":null,"covered":false,"access":null,"website":null,"phone":null,"source":"OpenStreetMap/node/2933141426","sourceUpdatedAt":null,"verifiedAt":null}},{"type":"Feature","geometry":{"type":"Point","coordinates":[14.4117068,50.1759715]},"properties":{"id":"bikerack:28ffb9ba-115f-4a1f-8f18-ea080c35f297","kind":"bikerack","longitude":14.4117068,"latitude":50.1759715,"name":"Bicycle Parking","city":"Klecany","address":null,"covered":false,"access":null,"website":null,"phone":null,"source":"OpenStreetMap/node/7413456319","sourceUpdatedAt":null,"verifiedAt":null}},{"type":"Feature","geometry":{"type":"Point","coordinates":[14.411627,50.1760973]},"properties":{"id":"bikerack:29ea9a86-a41e-4025-8654-aeebc5c26f51","kind":"bikerack","longitude":14.411627,"latitude":50.1760973,"name":"Bicycle Parking","city":"Klecany","address":null,"covered":false,"access":null,"website":null,"phone":null,"source":"OpenStreetMap/node/3128412362","sourceUpdatedAt":null,"verifiedAt":null}},{"type":"Feature","geometry":{"type":"Point","coordinates":[14.4044368,50.166406]},"properties":{"id":"bikerack:2dc6d902-7d5b-46ac-9c7d-45d57d1d7274","kind":"bikerack","longitude":14.4044368,"latitude":50.166406,"name":"Bicycle Parking","city":"Roztoky","address":null,"covered":false,"access":null,"website":null,"phone":null,"source":"OpenStreetMap/node/12307758733","sourceUpdatedAt":null,"verifiedAt":null}},{"type":"Feature","geometry":{"type":"Point","coordinates":[14.4047097,50.1664968]},"properties":{"id":"bikerack:2e68b991-069c-45c2-97a8-158fc2c42e7c","kind":"bikerack","longitude":14.4047097,"latitude":50.1664968,"name":"Bicycle Parking","city":"Roztoky","address":null,"covered":false,"access":null,"website":null,"phone":null,"source":"OpenStreetMap/node/1494253503","sourceUpdatedAt":null,"verifiedAt":null}},{"type":"Feature","geometry":{"type":"Point","coordinates":[14.4099076,50.1758148]},"properties":{"id":"bikerack:3f716462-6725-46a9-a150-949e12cb38ec","kind":"bikerack","longitude":14.4099076,"latitude":50.1758148,"name":"Bicycle Parking","city":"Klecany","address":null,"covered":false,"access":null,"website":null,"phone":null,"source":"OpenStreetMap/node/4441769437","sourceUpdatedAt":null,"verifiedAt":null}},{"type":"Feature","geometry":{"type":"Point","coordinates":[14.4020319,50.1658055]},"properties":{"id":"bikerack:4ffbd019-dd32-4d50-9413-baf91ef2750c","kind":"bikerack","longitude":14.4020319,"latitude":50.1658055,"name":"Bicycle Parking","city":"Roztoky","address":null,"covered":false,"access":null,"website":null,"phone":null,"source":"OpenStreetMap/node/12307757430","sourceUpdatedAt":null,"verifiedAt":null}},{"type":"Feature","geometry":{"type":"Point","coordinates":[14.3972956,50.1581675]},"properties":{"id":"bikerack:67654d3d-6bbc-4ea6-b984-330f41d0f704","kind":"bikerack","longitude":14.3972956,"latitude":50.1581675,"name":"Bicycle Parking","city":"Roztoky","address":null,"covered":false,"access":null,"website":null,"phone":null,"source":"OpenStreetMap/node/9119995125","sourceUpdatedAt":null,"verifiedAt":null}},{"type":"Feature","geometry":{"type":"Point","coordinates":[14.4024412,50.1661728]},"properties":{"id":"bikerack:68a48bbf-db07-44d5-b98f-2589192bc42b","kind":"bikerack","longitude":14.4024412,"latitude":50.1661728,"name":"Bicycle Parking","city":"Roztoky","address":null,"covered":false,"access":null,"website":null,"phone":null,"source":"OpenStreetMap/node/12879661336","sourceUpdatedAt":null,"verifiedAt":null}},{"type":"Feature","geometry":{"type":"Point","coordinates":[14.4035689,50.1595923]},"properties":{"id":"bikerack:9cce69e8-9636-4ca3-8b39-1bc95ace379f","kind":"bikerack","longitude":14.4035689,"latitude":50.1595923,"name":"Bicycle Parking","city":"Roztoky","address":null,"covered":false,"access":null,"website":null,"phone":null,"source":"OpenStreetMap/node/5330828612","sourceUpdatedAt":null,"verifiedAt":null}},{"type":"Feature","geometry":{"type":"Point","coordinates":[14.4127424,50.1756115]},"properties":{"id":"bikerack:ae5df000-dd8c-47e4-9c12-5f70cd687d15","kind":"bikerack","longitude":14.4127424,"latitude":50.1756115,"name":"Bicycle Parking","city":"Klecany","address":null,"covered":false,"access":null,"website":null,"phone":null,"source":"OpenStreetMap/node/2094646910","sourceUpdatedAt":null,"verifiedAt":null}},{"type":"Feature","geometry":{"type":"Point","coordinates":[14.3944808,50.1618227]},"properties":{"id":"bikerack:bd92118b-231a-44b4-9ab3-9b576a8987e6","kind":"bikerack","longitude":14.3944808,"latitude":50.1618227,"name":"Bicycle Parking","city":"Roztoky","address":null,"covered":false,"access":null,"website":null,"phone":null,"source":"OpenStreetMap/node/6128608584","sourceUpdatedAt":null,"verifiedAt":null}},{"type":"Feature","geometry":{"type":"Point","coordinates":[14.3905585,50.1569642]},"properties":{"id":"bikerack:c3f66f33-cfd0-4497-bb31-b248289666b9","kind":"bikerack","longitude":14.3905585,"latitude":50.1569642,"name":"Bicycle Parking","city":"Roztoky","address":null,"covered":false,"access":null,"website":null,"phone":null,"source":"OpenStreetMap/node/11919515721","sourceUpdatedAt":null,"verifiedAt":null}},{"type":"Feature","geometry":{"type":"Point","coordinates":[14.3973832,50.1580306]},"properties":{"id":"bikerack:cd39becb-537b-4143-b19c-f79c92e1b78d","kind":"bikerack","longitude":14.3973832,"latitude":50.1580306,"name":"Bicycle Parking","city":"Roztoky","address":null,"covered":false,"access":null,"website":null,"phone":null,"source":"OpenStreetMap/node/8738947913","sourceUpdatedAt":null,"verifiedAt":null}},{"type":"Feature","geometry":{"type":"Point","coordinates":[14.3966102,50.1627402]},"properties":{"id":"bikerack:d9020c30-92ed-420a-be18-0a801c852c4d","kind":"bikerack","longitude":14.3966102,"latitude":50.1627402,"name":"Bicycle Parking","city":"Roztoky","address":null,"covered":false,"access":null,"website":null,"phone":null,"source":"OpenStreetMap/node/6128611685","sourceUpdatedAt":null,"verifiedAt":null}},{"type":"Feature","geometry":{"type":"Point","coordinates":[14.396975,50.1627574]},"properties":{"id":"bikerack:dd176abf-211f-4dee-bf5e-1d68b7eaac0a","kind":"bikerack","longitude":14.396975,"latitude":50.1627574,"name":"Bicycle Parking","city":"Roztoky","address":null,"covered":false,"access":null,"website":null,"phone":null,"source":"OpenStreetMap/node/6128611686","sourceUpdatedAt":null,"verifiedAt":null}},{"type":"Feature","geometry":{"type":"Point","coordinates":[14.391377,50.1609984]},"properties":{"id":"bikerack:e0562323-a5af-4f23-8676-d19d09186fe2","kind":"bikerack","longitude":14.391377,"latitude":50.1609984,"name":"Bicycle Parking","city":"Roztoky","address":null,"covered":false,"access":null,"website":null,"phone":null,"source":"OpenStreetMap/node/2661308071","sourceUpdatedAt":null,"verifiedAt":null}},{"type":"Feature","geometry":{"type":"Point","coordinates":[14.4041302,50.1712179]},"properties":{"id":"bikerack:e1205274-7b53-4419-bbd7-e6bc1601b75f","kind":"bikerack","longitude":14.4041302,"latitude":50.1712179,"name":"Bicycle Parking","city":"Klecany","address":null,"covered":false,"access":null,"website":null,"phone":null,"source":"OpenStreetMap/node/6842797462","sourceUpdatedAt":null,"verifiedAt":null}},{"type":"Feature","geometry":{"type":"Point","coordinates":[14.3921167,50.1641412]},"properties":{"id":"bikerack:e50fcebd-418e-49f8-9a96-477a462e497f","kind":"bikerack","longitude":14.3921167,"latitude":50.1641412,"name":"Bicycle Parking","city":"Roztoky","address":null,"covered":false,"access":null,"website":null,"phone":null,"source":"OpenStreetMap/node/9806524769","sourceUpdatedAt":null,"verifiedAt":null}},{"type":"Feature","geometry":{"type":"Point","coordinates":[14.3741466,50.1691954]},"properties":{"id":"bikerack:eac24da2-2e44-4ad7-8f3c-108fdfe13078","kind":"bikerack","longitude":14.3741466,"latitude":50.1691954,"name":"Bicycle Parking","city":"Rez","address":null,"covered":false,"access":null,"website":null,"phone":null,"source":"OpenStreetMap/node/3127534024","sourceUpdatedAt":null,"verifiedAt":null}},{"type":"Feature","geometry":{"type":"Point","coordinates":[14.4034028,50.159445]},"properties":{"id":"repair:72285437-4090-4dbb-bf3b-4c95264f36c7","kind":"repair","longitude":14.4034028,"latitude":50.159445,"name":"Bicycle Repair Station","city":"Roztoky","address":null,"covered":false,"access":null,"website":null,"phone":null,"source":"OpenStreetMap/node/13077678166","sourceUpdatedAt":null,"verifiedAt":null}},{"type":"Feature","geometry":{"type":"Point","coordinates":[14.4025387,50.166176]},"properties":{"id":"repair:937a9349-fc10-4cad-b103-03ad10f15e47","kind":"repair","longitude":14.4025387,"latitude":50.166176,"name":"Bicycle Repair Station","city":"Roztoky","address":null,"covered":false,"access":null,"website":null,"phone":null,"source":"OpenStreetMap/node/13162253546","sourceUpdatedAt":null,"verifiedAt":null}},{"type":"Feature","geometry":{"type":"Point","coordinates":[14.3743962,50.1658123]},"properties":{"id":"service:922af534-02c4-4b05-aa35-31e022cd87c4","kind":"service","longitude":14.3743962,"latitude":50.1658123,"name":"Miksport - prodej a servis jízdních kol","city":"Rez","address":null,"covered":null,"access":null,"website":null,"phone":null,"source":"OpenStreetMap/node/4278540394","sourceUpdatedAt":null,"verifiedAt":null}},{"type":"Feature","geometry":{"type":"Point","coordinates":[14.4090195,50.1760653]},"properties":{"id":"service:cf97d67c-9f0a-4e62-8217-58fdffdc6164","kind":"service","longitude":14.4090195,"latitude":50.1760653,"name":"Bike Service","city":"Klecany","address":null,"covered":null,"access":null,"website":null,"phone":null,"source":"OpenStreetMap/node/2544633541","sourceUpdatedAt":null,"verifiedAt":null}},{"type":"Feature","geometry":{"type":"Point","coordinates":[14.3740296,50.1731228]},"properties":{"id":"water:24512d27-6bfc-4337-bacd-3ec7067000c1","kind":"water","longitude":14.3740296,"latitude":50.1731228,"name":"Drinking Fountain","city":"Rez","address":null,"covered":null,"access":null,"website":null,"phone":null,"source":"OpenStreetMap/node/2255741138","sourceUpdatedAt":null,"verifiedAt":null}},{"type":"Feature","geometry":{"type":"Point","coordinates":[14.3761899,50.1737217]},"properties":{"id":"water:57ca6c26-acb6-4d35-ad9f-45e3451eee1b","kind":"water","longitude":14.3761899,"latitude":50.1737217,"name":"Drinking Fountain","city":"Rez","address":null,"covered":null,"access":null,"website":null,"phone":null,"source":"OpenStreetMap/node/7893474109","sourceUpdatedAt":null,"verifiedAt":null}},{"type":"Feature","geometry":{"type":"Point","coordinates":[14.3866821,50.1656202]},"properties":{"id":"water:8f9ccfd0-c9d0-4c1e-a5ca-9f3af48614da","kind":"water","longitude":14.3866821,"latitude":50.1656202,"name":"Pítko","city":"Roztoky","address":null,"covered":null,"access":null,"website":null,"phone":null,"source":"OpenStreetMap/node/12014917170","sourceUpdatedAt":null,"verifiedAt":null}},{"type":"Feature","geometry":{"type":"Point","coordinates":[14.3741224,50.1691945]},"properties":{"id":"water:921fc415-a4df-43cc-9a02-859f393e58dd","kind":"water","longitude":14.3741224,"latitude":50.1691945,"name":"Drinking Fountain","city":"Rez","address":null,"covered":null,"access":null,"website":null,"phone":null,"source":"OpenStreetMap/node/3127534835","sourceUpdatedAt":null,"verifiedAt":null}}]}