{"type":"FeatureCollection","features":[{"type":"Feature","geometry":{"type":"Point","coordinates":[14.3969661,48.4331751]},"properties":{"id":"service:808497cc-0f4e-4da7-a357-7384e6d4ba42","kind":"service","longitude":14.3969661,"latitude":48.4331751,"name":"Bicikli szervíz","city":"Alberndorf in der Riedmark","address":null,"covered":null,"access":null,"website":null,"phone":null,"source":"OpenStreetMap/node/13673609441","sourceUpdatedAt":null,"verifiedAt":null}},{"type":"Feature","geometry":{"type":"Point","coordinates":[14.3969185,48.4331101]},"properties":{"id":"service:95bb652b-9883-4421-9bda-3d2e35baf631","kind":"service","longitude":14.3969185,"latitude":48.4331101,"name":"Popaflo","city":"Alberndorf in der Riedmark","address":null,"covered":null,"access":null,"website":null,"phone":null,"source":"OpenStreetMap/node/10944159261","sourceUpdatedAt":null,"verifiedAt":null}}]}