{"type":"FeatureCollection","features":[{"type":"Feature","geometry":{"type":"Point","coordinates":[14.3706724,45.3423033]},"properties":{"id":"service:50782f99-9b85-4341-ad15-ce31fd5210aa","kind":"service","longitude":14.3706724,"latitude":45.3423033,"name":"Keindl Sport","city":"Marinici","address":null,"covered":null,"access":null,"website":null,"phone":null,"source":"OpenStreetMap/node/10589885687","sourceUpdatedAt":null,"verifiedAt":null}},{"type":"Feature","geometry":{"type":"Point","coordinates":[14.3858595,45.3438113]},"properties":{"id":"water:950be60e-6104-469c-8b22-8cd82aa2f7d0","kind":"water","longitude":14.3858595,"latitude":45.3438113,"name":"Ivókút","city":"Marinici","address":null,"covered":null,"access":null,"website":null,"phone":null,"source":"OpenStreetMap/node/4213659104","sourceUpdatedAt":null,"verifiedAt":null}},{"type":"Feature","geometry":{"type":"Point","coordinates":[14.3977132,45.3402696]},"properties":{"id":"water:967f822a-01f8-48fb-a408-6ec9d150c585","kind":"water","longitude":14.3977132,"latitude":45.3402696,"name":"Ivókút","city":"Rijeka","address":null,"covered":null,"access":null,"website":null,"phone":null,"source":"OpenStreetMap/node/2642607028","sourceUpdatedAt":null,"verifiedAt":null}},{"type":"Feature","geometry":{"type":"Point","coordinates":[14.3824103,45.3441124]},"properties":{"id":"water:ae7d548d-77c1-4f98-aed4-da36953085f2","kind":"water","longitude":14.3824103,"latitude":45.3441124,"name":"Ivókút","city":"Marinici","address":null,"covered":null,"access":null,"website":null,"phone":null,"source":"OpenStreetMap/node/4145017489","sourceUpdatedAt":null,"verifiedAt":null}}]}