{"type":"FeatureCollection","features":[{"type":"Feature","geometry":{"type":"Point","coordinates":[18.3284455,49.0652634]},"properties":{"id":"bikerack:01e8bfad-d034-44a5-a007-1a64ddbfadd1","kind":"bikerack","longitude":18.3284455,"latitude":49.0652634,"name":"Biciklitároló","city":"Puchov","address":null,"covered":true,"access":null,"website":null,"phone":null,"source":"OpenStreetMap/node/10000456967","sourceUpdatedAt":null,"verifiedAt":null}},{"type":"Feature","geometry":{"type":"Point","coordinates":[18.3462372,49.0642836]},"properties":{"id":"bikerack:1271dfef-bd94-4ac7-ad7a-b222128a9bdf","kind":"bikerack","longitude":18.3462372,"latitude":49.0642836,"name":"Biciklitároló","city":"Puchov","address":null,"covered":false,"access":null,"website":null,"phone":null,"source":"OpenStreetMap/node/6780740046","sourceUpdatedAt":null,"verifiedAt":null}},{"type":"Feature","geometry":{"type":"Point","coordinates":[18.3283399,49.0638801]},"properties":{"id":"bikerack:1c330265-3282-4378-8a17-fbd77a731b26","kind":"bikerack","longitude":18.3283399,"latitude":49.0638801,"name":"Biciklitároló","city":"Puchov","address":null,"covered":false,"access":null,"website":null,"phone":null,"source":"OpenStreetMap/node/2534663095","sourceUpdatedAt":null,"verifiedAt":null}},{"type":"Feature","geometry":{"type":"Point","coordinates":[18.328418,49.0652774]},"properties":{"id":"bikerack:1e48b698-6b5a-4334-aa5b-9a9bf8b66c86","kind":"bikerack","longitude":18.328418,"latitude":49.0652774,"name":"Biciklitároló","city":"Puchov","address":null,"covered":false,"access":null,"website":null,"phone":null,"source":"OpenStreetMap/node/10000456964","sourceUpdatedAt":null,"verifiedAt":null}},{"type":"Feature","geometry":{"type":"Point","coordinates":[18.3483656,49.0640596]},"properties":{"id":"bikerack:535d3266-c7f1-4027-92f6-d07507ac914f","kind":"bikerack","longitude":18.3483656,"latitude":49.0640596,"name":"Biciklitároló","city":"Puchov","address":null,"covered":false,"access":null,"website":null,"phone":null,"source":"OpenStreetMap/node/6780740044","sourceUpdatedAt":null,"verifiedAt":null}},{"type":"Feature","geometry":{"type":"Point","coordinates":[18.3276398,49.0637683]},"properties":{"id":"bikerack:81f549bc-6407-4317-838a-19391fa90b71","kind":"bikerack","longitude":18.3276398,"latitude":49.0637683,"name":"Biciklitároló","city":"Puchov","address":null,"covered":false,"access":null,"website":null,"phone":null,"source":"OpenStreetMap/node/2534663094","sourceUpdatedAt":null,"verifiedAt":null}},{"type":"Feature","geometry":{"type":"Point","coordinates":[18.328452,49.0644001]},"properties":{"id":"bikerack:a27af91a-dda7-4e57-87be-1edebbefb77d","kind":"bikerack","longitude":18.328452,"latitude":49.0644001,"name":"Biciklitároló","city":"Puchov","address":null,"covered":false,"access":null,"website":null,"phone":null,"source":"OpenStreetMap/node/9436701370","sourceUpdatedAt":null,"verifiedAt":null}},{"type":"Feature","geometry":{"type":"Point","coordinates":[18.3278033,49.0651238]},"properties":{"id":"bikerack:b50aba81-fa7d-4b9d-be51-460d8bab053c","kind":"bikerack","longitude":18.3278033,"latitude":49.0651238,"name":"Biciklitároló","city":"Puchov","address":null,"covered":false,"access":null,"website":null,"phone":null,"source":"OpenStreetMap/node/2534663102","sourceUpdatedAt":null,"verifiedAt":null}},{"type":"Feature","geometry":{"type":"Point","coordinates":[18.3290019,49.0644589]},"properties":{"id":"bikerack:b59f420a-0c6c-4cd1-845e-64b1e77e1ed6","kind":"bikerack","longitude":18.3290019,"latitude":49.0644589,"name":"Biciklitároló","city":"Puchov","address":null,"covered":false,"access":null,"website":null,"phone":null,"source":"OpenStreetMap/node/2534663096","sourceUpdatedAt":null,"verifiedAt":null}},{"type":"Feature","geometry":{"type":"Point","coordinates":[18.3284207,49.0652687]},"properties":{"id":"repair:744a3677-f27a-4702-a883-d43ba168aaff","kind":"repair","longitude":18.3284207,"latitude":49.0652687,"name":"Kerékpár szervizállomás","city":"Puchov","address":null,"covered":false,"access":null,"website":null,"phone":null,"source":"OpenStreetMap/node/10000456963","sourceUpdatedAt":null,"verifiedAt":null}},{"type":"Feature","geometry":{"type":"Point","coordinates":[18.3272783,49.0658606]},"properties":{"id":"service:d44ced90-cf39-45f6-9d6f-53b1be2df752","kind":"service","longitude":18.3272783,"latitude":49.0658606,"name":"LK Cyklo","city":"Puchov","address":null,"covered":null,"access":null,"website":null,"phone":null,"source":"OpenStreetMap/node/2534663092","sourceUpdatedAt":null,"verifiedAt":null}},{"type":"Feature","geometry":{"type":"Point","coordinates":[18.3285171,49.0643234]},"properties":{"id":"water:6ad7b098-2571-4150-8d04-6050026523c2","kind":"water","longitude":18.3285171,"latitude":49.0643234,"name":"Ivókút","city":"Puchov","address":null,"covered":null,"access":null,"website":null,"phone":null,"source":"OpenStreetMap/node/1616006152","sourceUpdatedAt":null,"verifiedAt":null}},{"type":"Feature","geometry":{"type":"Point","coordinates":[18.3352062,49.0484318]},"properties":{"id":"water:db36d1fa-2f14-4924-b9d6-2ec6f89d8f82","kind":"water","longitude":18.3352062,"latitude":49.0484318,"name":"Vrt C-10","city":"Puchov","address":null,"covered":null,"access":null,"website":null,"phone":null,"source":"OpenStreetMap/node/1617710982","sourceUpdatedAt":null,"verifiedAt":null}}]}