{"type":"FeatureCollection","features":[{"type":"Feature","geometry":{"type":"Point","coordinates":[18.3329564,47.0859851]},"properties":{"id":"bikerack:4e4580dd-6ef9-43fb-a276-bb7749376b80","kind":"bikerack","longitude":18.3329564,"latitude":47.0859851,"name":"Biciklitároló","city":"Polgardi","address":null,"covered":true,"access":null,"website":null,"phone":null,"source":"OpenStreetMap/way/1184782755","sourceUpdatedAt":null,"verifiedAt":null}},{"type":"Feature","geometry":{"type":"Point","coordinates":[18.3479805,47.0951389]},"properties":{"id":"water:1ae49bc3-a2df-49b9-84ce-de7b65a5d5ae","kind":"water","longitude":18.3479805,"latitude":47.0951389,"name":"Ivókút","city":null,"address":null,"covered":null,"access":null,"website":null,"phone":null,"source":"OpenStreetMap","sourceUpdatedAt":null,"verifiedAt":null}},{"type":"Feature","geometry":{"type":"Point","coordinates":[18.3405209,47.0902054]},"properties":{"id":"water:b47f810c-fdba-495a-bda8-15b0e8b90d19","kind":"water","longitude":18.3405209,"latitude":47.0902054,"name":"Ivókút","city":null,"address":null,"covered":null,"access":null,"website":null,"phone":null,"source":"OpenStreetMap","sourceUpdatedAt":null,"verifiedAt":null}}]}