{"type":"FeatureCollection","features":[{"type":"Feature","geometry":{"type":"Point","coordinates":[18.366212,46.131559]},"properties":{"id":"water:9713558c-b67c-4ef5-a841-d1f597507732","kind":"water","longitude":18.366212,"latitude":46.131559,"name":"Ivókút","city":null,"address":null,"covered":null,"access":null,"website":null,"phone":null,"source":"OpenStreetMap","sourceUpdatedAt":null,"verifiedAt":null}},{"type":"Feature","geometry":{"type":"Point","coordinates":[18.340248,46.118935]},"properties":{"id":"water:bf4e957a-0b64-47dc-a84e-8bfaab59d166","kind":"water","longitude":18.340248,"latitude":46.118935,"name":"Ivókút","city":null,"address":null,"covered":null,"access":null,"website":null,"phone":null,"source":"OpenStreetMap","sourceUpdatedAt":null,"verifiedAt":null}},{"type":"Feature","geometry":{"type":"Point","coordinates":[18.3438416,46.1066939]},"properties":{"id":"water:dabde361-fd60-4dab-9224-f8a6fa5056d9","kind":"water","longitude":18.3438416,"latitude":46.1066939,"name":"Ivókút","city":null,"address":null,"covered":null,"access":null,"website":null,"phone":null,"source":"OpenStreetMap","sourceUpdatedAt":null,"verifiedAt":null}}]}