{"type":"FeatureCollection","features":[{"type":"Feature","geometry":{"type":"Point","coordinates":[9.2960078,47.7577475]},"properties":{"id":"bikerack:17f07177-998b-4176-898d-ab39c4ae9e69","kind":"bikerack","longitude":9.2960078,"latitude":47.7577475,"name":"Fahrradabstellplatz","city":"Salem","address":null,"covered":true,"access":null,"website":null,"phone":null,"source":"OpenStreetMap/way/1385373411","sourceUpdatedAt":null,"verifiedAt":null}},{"type":"Feature","geometry":{"type":"Point","coordinates":[9.2943061,47.7677603]},"properties":{"id":"bikerack:23804104-0880-429b-b813-83a9c03ec95c","kind":"bikerack","longitude":9.2943061,"latitude":47.7677603,"name":"Fahrradabstellplatz","city":"Salem","address":null,"covered":false,"access":null,"website":null,"phone":null,"source":"OpenStreetMap/node/12766500311","sourceUpdatedAt":null,"verifiedAt":null}},{"type":"Feature","geometry":{"type":"Point","coordinates":[9.2767813,47.7774192]},"properties":{"id":"bikerack:274b20ee-576a-46e5-9a60-f6f83464c54f","kind":"bikerack","longitude":9.2767813,"latitude":47.7774192,"name":"Fahrradabstellplatz","city":"Salem","address":null,"covered":false,"access":null,"website":null,"phone":null,"source":"OpenStreetMap/node/9919894525","sourceUpdatedAt":null,"verifiedAt":null}},{"type":"Feature","geometry":{"type":"Point","coordinates":[9.2960099,47.7577115]},"properties":{"id":"bikerack:346cb04e-0499-44ff-ae19-8e8ae7bddaf6","kind":"bikerack","longitude":9.2960099,"latitude":47.7577115,"name":"Fahrradabstellplatz","city":"Salem","address":null,"covered":true,"access":null,"website":null,"phone":null,"source":"OpenStreetMap/way/297480640","sourceUpdatedAt":null,"verifiedAt":null}},{"type":"Feature","geometry":{"type":"Point","coordinates":[9.2907777,47.7667325]},"properties":{"id":"bikerack:4307e290-07d7-48da-82c5-98cddbfc5c6e","kind":"bikerack","longitude":9.2907777,"latitude":47.7667325,"name":"Fahrradabstellplatz","city":"Salem","address":null,"covered":false,"access":null,"website":null,"phone":null,"source":"OpenStreetMap/node/11206331485","sourceUpdatedAt":null,"verifiedAt":null}},{"type":"Feature","geometry":{"type":"Point","coordinates":[9.2936535,47.7804539]},"properties":{"id":"bikerack:44f9c09e-e349-4490-9c28-1813e1e7652c","kind":"bikerack","longitude":9.2936535,"latitude":47.7804539,"name":"Fahrradabstellplatz","city":"Salem","address":null,"covered":false,"access":null,"website":null,"phone":null,"source":"OpenStreetMap/node/13651640871","sourceUpdatedAt":null,"verifiedAt":null}},{"type":"Feature","geometry":{"type":"Point","coordinates":[9.290109,47.768425]},"properties":{"id":"bikerack:549d72a5-8ec2-4dc0-8b4b-92d591f1e20d","kind":"bikerack","longitude":9.290109,"latitude":47.768425,"name":"Fahrradabstellplatz","city":"Salem","address":null,"covered":false,"access":null,"website":null,"phone":null,"source":"OpenStreetMap/way/1301444737","sourceUpdatedAt":null,"verifiedAt":null}},{"type":"Feature","geometry":{"type":"Point","coordinates":[9.2915605,47.7667023]},"properties":{"id":"bikerack:601b85f5-2515-49a1-bead-e2e415aeee2d","kind":"bikerack","longitude":9.2915605,"latitude":47.7667023,"name":"Fahrradabstellplatz","city":"Salem","address":null,"covered":true,"access":null,"website":null,"phone":null,"source":"OpenStreetMap/node/12768137539","sourceUpdatedAt":null,"verifiedAt":null}},{"type":"Feature","geometry":{"type":"Point","coordinates":[9.2920178,47.7676872]},"properties":{"id":"bikerack:61449c71-da21-452c-9248-81f622f76bb1","kind":"bikerack","longitude":9.2920178,"latitude":47.7676872,"name":"Fahrradabstellplatz","city":"Salem","address":null,"covered":false,"access":null,"website":null,"phone":null,"source":"OpenStreetMap/node/12551463459","sourceUpdatedAt":null,"verifiedAt":null}},{"type":"Feature","geometry":{"type":"Point","coordinates":[9.2918754,47.7676878]},"properties":{"id":"bikerack:8bb3b245-d981-45c5-8abb-f62a7be4eb77","kind":"bikerack","longitude":9.2918754,"latitude":47.7676878,"name":"Fahrradabstellplatz","city":"Salem","address":null,"covered":false,"access":null,"website":null,"phone":null,"source":"OpenStreetMap/node/12551452300","sourceUpdatedAt":null,"verifiedAt":null}},{"type":"Feature","geometry":{"type":"Point","coordinates":[9.291697,47.767688]},"properties":{"id":"bikerack:a6f1d567-9e45-448c-bbea-ee713e2ad67c","kind":"bikerack","longitude":9.291697,"latitude":47.767688,"name":"Fahrradabstellplatz","city":"Salem","address":null,"covered":false,"access":null,"website":null,"phone":null,"source":"OpenStreetMap/node/12551474753","sourceUpdatedAt":null,"verifiedAt":null}},{"type":"Feature","geometry":{"type":"Point","coordinates":[9.2921224,47.7786301]},"properties":{"id":"bikerack:c7281b85-a4ef-4455-a473-d4a2498ac08b","kind":"bikerack","longitude":9.2921224,"latitude":47.7786301,"name":"Fahrradabstellplatz","city":"Salem","address":null,"covered":false,"access":null,"website":null,"phone":null,"source":"OpenStreetMap/node/12600686325","sourceUpdatedAt":null,"verifiedAt":null}},{"type":"Feature","geometry":{"type":"Point","coordinates":[9.2923558,47.7682102]},"properties":{"id":"bikerack:c94a0d61-a4fc-4355-8c66-8a31d7134066","kind":"bikerack","longitude":9.2923558,"latitude":47.7682102,"name":"Fahrradabstellplatz","city":"Salem","address":null,"covered":false,"access":null,"website":null,"phone":null,"source":"OpenStreetMap/node/12551435408","sourceUpdatedAt":null,"verifiedAt":null}},{"type":"Feature","geometry":{"type":"Point","coordinates":[9.2888661,47.7694677]},"properties":{"id":"bikerack:d4704202-0035-4c17-89c7-cfbd1ca4c96b","kind":"bikerack","longitude":9.2888661,"latitude":47.7694677,"name":"Fahrradabstellplatz","city":"Salem","address":null,"covered":false,"access":null,"website":null,"phone":null,"source":"OpenStreetMap/way/1301444738","sourceUpdatedAt":null,"verifiedAt":null}},{"type":"Feature","geometry":{"type":"Point","coordinates":[9.2895976,47.7685324]},"properties":{"id":"bikerack:dee9cede-e69a-4a3a-8d99-50f242825723","kind":"bikerack","longitude":9.2895976,"latitude":47.7685324,"name":"Fahrradabstellplatz","city":"Salem","address":null,"covered":false,"access":null,"website":null,"phone":null,"source":"OpenStreetMap/way/1356273223","sourceUpdatedAt":null,"verifiedAt":null}},{"type":"Feature","geometry":{"type":"Point","coordinates":[9.2857815,47.7766472]},"properties":{"id":"bikerack:e52bccef-3a3a-47c7-99fe-cc13f28ed374","kind":"bikerack","longitude":9.2857815,"latitude":47.7766472,"name":"Fahrradabstellplatz","city":"Salem","address":null,"covered":false,"access":null,"website":null,"phone":null,"source":"OpenStreetMap/node/12630556755","sourceUpdatedAt":null,"verifiedAt":null}},{"type":"Feature","geometry":{"type":"Point","coordinates":[9.2955162,47.7703512]},"properties":{"id":"bikerack:ef7b8515-be2d-45e8-8637-bb34e7209676","kind":"bikerack","longitude":9.2955162,"latitude":47.7703512,"name":"Fahrradabstellplatz","city":"Salem","address":null,"covered":false,"access":null,"website":null,"phone":null,"source":"OpenStreetMap/node/12551469852","sourceUpdatedAt":null,"verifiedAt":null}},{"type":"Feature","geometry":{"type":"Point","coordinates":[9.2961335,47.7577678]},"properties":{"id":"bikerack:f06b2a91-5ed7-45d6-acd5-8e84fbd83a07","kind":"bikerack","longitude":9.2961335,"latitude":47.7577678,"name":"Fahrradabstellplatz","city":"Salem","address":null,"covered":true,"access":null,"website":null,"phone":null,"source":"OpenStreetMap/way/1385373412","sourceUpdatedAt":null,"verifiedAt":null}},{"type":"Feature","geometry":{"type":"Point","coordinates":[9.2961176,47.7682456]},"properties":{"id":"bikerack:f3de8ad2-9837-48bb-9f82-9f5b3edfbf9e","kind":"bikerack","longitude":9.2961176,"latitude":47.7682456,"name":"Fahrradabstellplatz","city":"Salem","address":null,"covered":true,"access":null,"website":null,"phone":null,"source":"OpenStreetMap/way/1209555127","sourceUpdatedAt":null,"verifiedAt":null}},{"type":"Feature","geometry":{"type":"Point","coordinates":[9.2800275,47.7779986]},"properties":{"id":"bikerack:ffb18c93-6b31-44d5-b42a-4199cfbf2f80","kind":"bikerack","longitude":9.2800275,"latitude":47.7779986,"name":"Fahrradabstellplatz","city":"Salem","address":null,"covered":false,"access":null,"website":null,"phone":null,"source":"OpenStreetMap/node/12166086676","sourceUpdatedAt":null,"verifiedAt":null}},{"type":"Feature","geometry":{"type":"Point","coordinates":[9.2894762,47.7685493]},"properties":{"id":"repair:93796f33-7de1-4c10-bb14-def2ab98dabe","kind":"repair","longitude":9.2894762,"latitude":47.7685493,"name":"RadService-Punkt","city":"Salem","address":null,"covered":false,"access":null,"website":null,"phone":null,"source":"OpenStreetMap/node/12593542303","sourceUpdatedAt":null,"verifiedAt":null}},{"type":"Feature","geometry":{"type":"Point","coordinates":[9.287646,47.7613967]},"properties":{"id":"service:d47b609b-0cc7-4581-b244-a1a29227157e","kind":"service","longitude":9.287646,"latitude":47.7613967,"name":"bikedudes","city":"Salem","address":null,"covered":null,"access":null,"website":null,"phone":null,"source":"OpenStreetMap/node/13655069896","sourceUpdatedAt":null,"verifiedAt":null}}]}