{"type":"FeatureCollection","features":[{"type":"Feature","geometry":{"type":"Point","coordinates":[9.298659,47.1742007]},"properties":{"id":"water:e3926bfc-4c5c-4127-9815-8b7ebc9e1970","kind":"water","longitude":9.298659,"latitude":47.1742007,"name":"Drinking Fountain","city":"Walenstadt","address":null,"covered":null,"access":null,"website":null,"phone":null,"source":"OpenStreetMap/node/10933960136","sourceUpdatedAt":null,"verifiedAt":null}},{"type":"Feature","geometry":{"type":"Point","coordinates":[9.2874619,47.1650938]},"properties":{"id":"water:e7aed06e-bd08-448b-b7e4-56b185eb1199","kind":"water","longitude":9.2874619,"latitude":47.1650938,"name":"Drinking Fountain","city":"Walenstadt","address":null,"covered":null,"access":null,"website":null,"phone":null,"source":"OpenStreetMap/node/7816586874","sourceUpdatedAt":null,"verifiedAt":null}}]}