{"type":"FeatureCollection","features":[{"type":"Feature","geometry":{"type":"Point","coordinates":[9.272656,45.6514298]},"properties":{"id":"bikerack:171b8318-d65d-472a-82a8-e7d472cc7484","kind":"bikerack","longitude":9.272656,"latitude":45.6514298,"name":"Parcheggio bici","city":"Sovico","address":null,"covered":false,"access":null,"website":null,"phone":null,"source":"OpenStreetMap/node/6473219295","sourceUpdatedAt":null,"verifiedAt":null}},{"type":"Feature","geometry":{"type":"Point","coordinates":[9.3027391,45.6644641]},"properties":{"id":"bikerack:1c77f34f-df5a-40ef-ab6b-ab574515abda","kind":"bikerack","longitude":9.3027391,"latitude":45.6644641,"name":"Parcheggio bici","city":"Correzzana","address":null,"covered":false,"access":null,"website":null,"phone":null,"source":"OpenStreetMap/node/7835374101","sourceUpdatedAt":null,"verifiedAt":null}},{"type":"Feature","geometry":{"type":"Point","coordinates":[9.2791477,45.668675]},"properties":{"id":"bikerack:6e2fa0cf-ca55-4fae-a489-daa2e515bee2","kind":"bikerack","longitude":9.2791477,"latitude":45.668675,"name":"Parcheggio bici","city":"Tregasio","address":null,"covered":false,"access":null,"website":null,"phone":null,"source":"OpenStreetMap/node/4917187419","sourceUpdatedAt":null,"verifiedAt":null}},{"type":"Feature","geometry":{"type":"Point","coordinates":[9.2731382,45.6447916]},"properties":{"id":"bikerack:6ead8fac-07a9-482f-b4c1-3482a1ce7dc2","kind":"bikerack","longitude":9.2731382,"latitude":45.6447916,"name":"Parcheggio bici","city":"Macherio","address":null,"covered":false,"access":null,"website":null,"phone":null,"source":"OpenStreetMap/node/5352450593","sourceUpdatedAt":null,"verifiedAt":null}},{"type":"Feature","geometry":{"type":"Point","coordinates":[9.2869824,45.6455614]},"properties":{"id":"bikerack:ba1043b6-91d2-4530-b798-7f34cd312bbb","kind":"bikerack","longitude":9.2869824,"latitude":45.6455614,"name":"Parcheggio bici","city":"Canonica","address":null,"covered":false,"access":null,"website":null,"phone":null,"source":"OpenStreetMap/node/5425627479","sourceUpdatedAt":null,"verifiedAt":null}},{"type":"Feature","geometry":{"type":"Point","coordinates":[9.2790141,45.6688306]},"properties":{"id":"bikerack:e4ed8c71-688d-45c9-9db0-9a94cd28c4a2","kind":"bikerack","longitude":9.2790141,"latitude":45.6688306,"name":"Parcheggio bici","city":"Tregasio","address":null,"covered":false,"access":null,"website":null,"phone":null,"source":"OpenStreetMap/node/4917187416","sourceUpdatedAt":null,"verifiedAt":null}},{"type":"Feature","geometry":{"type":"Point","coordinates":[9.2807455,45.6487995]},"properties":{"id":"water:215bda2c-2c71-4e29-9e0d-95dc23a64e1f","kind":"water","longitude":9.2807455,"latitude":45.6487995,"name":"Fontanella","city":"Canonica","address":null,"covered":null,"access":null,"website":null,"phone":null,"source":"OpenStreetMap/node/4930895602","sourceUpdatedAt":null,"verifiedAt":null}},{"type":"Feature","geometry":{"type":"Point","coordinates":[9.2772628,45.6720167]},"properties":{"id":"water:af2bedfd-1efe-4966-88e3-155b4ff6f47b","kind":"water","longitude":9.2772628,"latitude":45.6720167,"name":"Fontanella","city":"Tregasio","address":null,"covered":null,"access":null,"website":null,"phone":null,"source":"OpenStreetMap/node/4936753376","sourceUpdatedAt":null,"verifiedAt":null}},{"type":"Feature","geometry":{"type":"Point","coordinates":[9.2796779,45.6509057]},"properties":{"id":"water:b099fed7-cc3c-4db9-93ed-a507887fac35","kind":"water","longitude":9.2796779,"latitude":45.6509057,"name":"Fontanella","city":"Canonica","address":null,"covered":null,"access":null,"website":null,"phone":null,"source":"OpenStreetMap/node/5140000751","sourceUpdatedAt":null,"verifiedAt":null}}]}