{"type":"FeatureCollection","features":[{"type":"Feature","geometry":{"type":"Point","coordinates":[21.7515346,52.5597941]},"properties":{"id":"bikerack:886226bd-306a-44ea-9063-f2f9fc400f33","kind":"bikerack","longitude":21.7515346,"latitude":52.5597941,"name":"Biciklitároló","city":"Ostrowek","address":null,"covered":false,"access":null,"website":null,"phone":null,"source":"OpenStreetMap/node/12847653421","sourceUpdatedAt":null,"verifiedAt":null}},{"type":"Feature","geometry":{"type":"Point","coordinates":[21.751489,52.5598404]},"properties":{"id":"bikerack:b5804997-cac1-44b7-b66b-74806f50f14c","kind":"bikerack","longitude":21.751489,"latitude":52.5598404,"name":"Biciklitároló","city":"Ostrowek","address":null,"covered":false,"access":null,"website":null,"phone":null,"source":"OpenStreetMap/node/12847653422","sourceUpdatedAt":null,"verifiedAt":null}}]}