{"type":"FeatureCollection","features":[{"type":"Feature","geometry":{"type":"Point","coordinates":[21.7365008,52.148582]},"properties":{"id":"bikerack:035f3418-131a-4b95-b818-842abdd2c098","kind":"bikerack","longitude":21.7365008,"latitude":52.148582,"name":"Biciklitároló","city":"Ceglow","address":null,"covered":false,"access":null,"website":null,"phone":null,"source":"OpenStreetMap/way/981592296","sourceUpdatedAt":null,"verifiedAt":null}},{"type":"Feature","geometry":{"type":"Point","coordinates":[21.7369704,52.1530482]},"properties":{"id":"bikerack:12907b04-2942-4de1-9527-4a35fd2e7ecc","kind":"bikerack","longitude":21.7369704,"latitude":52.1530482,"name":"Biciklitároló","city":"Ceglow","address":null,"covered":false,"access":null,"website":null,"phone":null,"source":"OpenStreetMap/way/1389128569","sourceUpdatedAt":null,"verifiedAt":null}},{"type":"Feature","geometry":{"type":"Point","coordinates":[21.7362786,52.1473698]},"properties":{"id":"bikerack:5e201126-7539-43fb-bfa4-ae645f1b4a1b","kind":"bikerack","longitude":21.7362786,"latitude":52.1473698,"name":"Biciklitároló","city":"Ceglow","address":null,"covered":false,"access":null,"website":null,"phone":null,"source":"OpenStreetMap/way/1381390361","sourceUpdatedAt":null,"verifiedAt":null}},{"type":"Feature","geometry":{"type":"Point","coordinates":[21.7377958,52.1474403]},"properties":{"id":"bikerack:7b0dc826-4585-419e-b2ab-b7d819650ff6","kind":"bikerack","longitude":21.7377958,"latitude":52.1474403,"name":"Biciklitároló","city":"Ceglow","address":null,"covered":false,"access":null,"website":null,"phone":null,"source":"OpenStreetMap/way/1435655794","sourceUpdatedAt":null,"verifiedAt":null}},{"type":"Feature","geometry":{"type":"Point","coordinates":[21.7343578,52.1494579]},"properties":{"id":"bikerack:7fc72618-7e58-462a-9f90-e45bd8e6287b","kind":"bikerack","longitude":21.7343578,"latitude":52.1494579,"name":"Biciklitároló","city":"Ceglow","address":null,"covered":false,"access":null,"website":null,"phone":null,"source":"OpenStreetMap/way/1410564094","sourceUpdatedAt":null,"verifiedAt":null}},{"type":"Feature","geometry":{"type":"Point","coordinates":[21.7370344,52.150165]},"properties":{"id":"bikerack:812a6cf4-5d51-4b36-bd4d-c52a223e214a","kind":"bikerack","longitude":21.7370344,"latitude":52.150165,"name":"Biciklitároló","city":"Ceglow","address":null,"covered":false,"access":null,"website":null,"phone":null,"source":"OpenStreetMap/way/1392752882","sourceUpdatedAt":null,"verifiedAt":null}},{"type":"Feature","geometry":{"type":"Point","coordinates":[21.7288881,52.1502594]},"properties":{"id":"bikerack:83ad97a0-3780-42a5-ad40-d30b3bcf6c1b","kind":"bikerack","longitude":21.7288881,"latitude":52.1502594,"name":"Biciklitároló","city":"Ceglow","address":null,"covered":false,"access":null,"website":null,"phone":null,"source":"OpenStreetMap/way/1432319141","sourceUpdatedAt":null,"verifiedAt":null}},{"type":"Feature","geometry":{"type":"Point","coordinates":[21.7373215,52.1480533]},"properties":{"id":"bikerack:86eb785a-ec9d-4813-8abc-2c1338ceef13","kind":"bikerack","longitude":21.7373215,"latitude":52.1480533,"name":"Biciklitároló","city":"Ceglow","address":null,"covered":false,"access":null,"website":null,"phone":null,"source":"OpenStreetMap/way/1383822200","sourceUpdatedAt":null,"verifiedAt":null}},{"type":"Feature","geometry":{"type":"Point","coordinates":[21.7366169,52.1477629]},"properties":{"id":"bikerack:94bdb343-3703-436c-ac4a-843182edd579","kind":"bikerack","longitude":21.7366169,"latitude":52.1477629,"name":"Biciklitároló","city":"Ceglow","address":null,"covered":false,"access":null,"website":null,"phone":null,"source":"OpenStreetMap/way/1381389464","sourceUpdatedAt":null,"verifiedAt":null}},{"type":"Feature","geometry":{"type":"Point","coordinates":[21.7355243,52.1481615]},"properties":{"id":"bikerack:aded7681-8934-4a3f-8b7d-58fbfb5a2a87","kind":"bikerack","longitude":21.7355243,"latitude":52.1481615,"name":"Biciklitároló","city":"Ceglow","address":null,"covered":false,"access":null,"website":null,"phone":null,"source":"OpenStreetMap/way/1339467976","sourceUpdatedAt":null,"verifiedAt":null}},{"type":"Feature","geometry":{"type":"Point","coordinates":[21.7361014,52.1483557]},"properties":{"id":"bikerack:c2c3a897-a999-4018-8d72-61044761a5d4","kind":"bikerack","longitude":21.7361014,"latitude":52.1483557,"name":"Biciklitároló","city":"Ceglow","address":null,"covered":false,"access":null,"website":null,"phone":null,"source":"OpenStreetMap/way/1358628621","sourceUpdatedAt":null,"verifiedAt":null}},{"type":"Feature","geometry":{"type":"Point","coordinates":[21.7366557,52.1481275]},"properties":{"id":"bikerack:c84457b3-4420-4aba-84ea-3175c8e30aa2","kind":"bikerack","longitude":21.7366557,"latitude":52.1481275,"name":"Biciklitároló","city":"Ceglow","address":null,"covered":false,"access":null,"website":null,"phone":null,"source":"OpenStreetMap/way/1372400347","sourceUpdatedAt":null,"verifiedAt":null}},{"type":"Feature","geometry":{"type":"Point","coordinates":[21.7283097,52.1501519]},"properties":{"id":"bikerack:e0ff6666-f35e-485a-a73c-f2dd0a859867","kind":"bikerack","longitude":21.7283097,"latitude":52.1501519,"name":"Biciklitároló","city":"Ceglow","address":null,"covered":false,"access":null,"website":null,"phone":null,"source":"OpenStreetMap/way/1382383361","sourceUpdatedAt":null,"verifiedAt":null}},{"type":"Feature","geometry":{"type":"Point","coordinates":[21.7362564,52.1474276]},"properties":{"id":"bikerack:f1a47c43-c681-4893-b69b-41e91dad15f4","kind":"bikerack","longitude":21.7362564,"latitude":52.1474276,"name":"Biciklitároló","city":"Ceglow","address":null,"covered":false,"access":null,"website":null,"phone":null,"source":"OpenStreetMap/way/1381390360","sourceUpdatedAt":null,"verifiedAt":null}},{"type":"Feature","geometry":{"type":"Point","coordinates":[21.7356283,52.1492781]},"properties":{"id":"bikerack:f90f6d21-ac00-486c-8d64-5732f99a7af2","kind":"bikerack","longitude":21.7356283,"latitude":52.1492781,"name":"Biciklitároló","city":"Ceglow","address":null,"covered":false,"access":null,"website":null,"phone":null,"source":"OpenStreetMap/node/13663224971","sourceUpdatedAt":null,"verifiedAt":null}},{"type":"Feature","geometry":{"type":"Point","coordinates":[21.7370032,52.1531166]},"properties":{"id":"bikerack:ffd80f60-de5d-4a79-a393-cd2c119b96ec","kind":"bikerack","longitude":21.7370032,"latitude":52.1531166,"name":"Biciklitároló","city":"Ceglow","address":null,"covered":false,"access":null,"website":null,"phone":null,"source":"OpenStreetMap/way/1389128568","sourceUpdatedAt":null,"verifiedAt":null}},{"type":"Feature","geometry":{"type":"Point","coordinates":[21.7355258,52.1481472]},"properties":{"id":"repair:bf7ff50d-207e-4aab-a63c-4915df6bd6b0","kind":"repair","longitude":21.7355258,"latitude":52.1481472,"name":"Kerékpár szervizállomás","city":"Ceglow","address":null,"covered":false,"access":null,"website":null,"phone":null,"source":"OpenStreetMap/node/12952319952","sourceUpdatedAt":null,"verifiedAt":null}}]}