{"type":"FeatureCollection","features":[{"type":"Feature","geometry":{"type":"Point","coordinates":[21.7431636,50.2433171]},"properties":{"id":"bikerack:2077cdd6-10a0-4047-ab22-8aa8011f56dc","kind":"bikerack","longitude":21.7431636,"latitude":50.2433171,"name":"Biciklitároló","city":"Kolbuszowa","address":null,"covered":false,"access":null,"website":null,"phone":null,"source":"OpenStreetMap/node/11910241204","sourceUpdatedAt":null,"verifiedAt":null}},{"type":"Feature","geometry":{"type":"Point","coordinates":[21.7503096,50.2411458]},"properties":{"id":"bikerack:3b5cc2ab-b780-42e6-aaed-1086dfd87227","kind":"bikerack","longitude":21.7503096,"latitude":50.2411458,"name":"Biciklitároló","city":"Kolbuszowa","address":null,"covered":false,"access":null,"website":null,"phone":null,"source":"OpenStreetMap/node/10697406770","sourceUpdatedAt":null,"verifiedAt":null}},{"type":"Feature","geometry":{"type":"Point","coordinates":[21.7477229,50.2404564]},"properties":{"id":"bikerack:4aeb5ce3-1e3c-4d9f-9e00-a24bd969a988","kind":"bikerack","longitude":21.7477229,"latitude":50.2404564,"name":"Biciklitároló","city":"Kolbuszowa","address":null,"covered":false,"access":null,"website":null,"phone":null,"source":"OpenStreetMap/node/10128749783","sourceUpdatedAt":null,"verifiedAt":null}},{"type":"Feature","geometry":{"type":"Point","coordinates":[21.7344379,50.2589951]},"properties":{"id":"bikerack:85d8a045-d76b-4bbe-b3c3-d2b3807f626f","kind":"bikerack","longitude":21.7344379,"latitude":50.2589951,"name":"Biciklitároló","city":"Cmolas","address":null,"covered":false,"access":null,"website":null,"phone":null,"source":"OpenStreetMap/node/11940529242","sourceUpdatedAt":null,"verifiedAt":null}},{"type":"Feature","geometry":{"type":"Point","coordinates":[21.7360358,50.2584474]},"properties":{"id":"bikerack:ca0c4849-a3a1-4e11-b755-e8927bdec9d2","kind":"bikerack","longitude":21.7360358,"latitude":50.2584474,"name":"Biciklitároló","city":"Cmolas","address":null,"covered":false,"access":null,"website":null,"phone":null,"source":"OpenStreetMap/node/10315539941","sourceUpdatedAt":null,"verifiedAt":null}},{"type":"Feature","geometry":{"type":"Point","coordinates":[21.7312164,50.2367254]},"properties":{"id":"bikerack:e35fa366-7ac8-4d3c-8a86-2d8fa790e726","kind":"bikerack","longitude":21.7312164,"latitude":50.2367254,"name":"Biciklitároló","city":"Kolbuszowa","address":null,"covered":false,"access":null,"website":null,"phone":null,"source":"OpenStreetMap/node/10929655975","sourceUpdatedAt":null,"verifiedAt":null}}]}