{"type":"FeatureCollection","features":[{"type":"Feature","geometry":{"type":"Point","coordinates":[21.7306612,47.3925858]},"properties":{"id":"bikerack:26aa88df-a7e5-4834-9893-85f2f1911df2","kind":"bikerack","longitude":21.7306612,"latitude":47.3925858,"name":"Biciklitároló","city":"Hosszupalyi","address":null,"covered":false,"access":null,"website":null,"phone":null,"source":"OpenStreetMap/node/9195903838","sourceUpdatedAt":null,"verifiedAt":null}},{"type":"Feature","geometry":{"type":"Point","coordinates":[21.734044,47.3913242]},"properties":{"id":"bikerack:4a89c505-777b-4460-b50a-0f909601b278","kind":"bikerack","longitude":21.734044,"latitude":47.3913242,"name":"Kerékpár tároló","city":"Hosszupalyi","address":null,"covered":true,"access":null,"website":null,"phone":null,"source":"OpenStreetMap/way/1167740801","sourceUpdatedAt":null,"verifiedAt":null}},{"type":"Feature","geometry":{"type":"Point","coordinates":[21.728804,47.396294]},"properties":{"id":"bikerack:5e525e54-876e-44ac-82ed-f38d70a68298","kind":"bikerack","longitude":21.728804,"latitude":47.396294,"name":"Biciklitároló","city":"Hosszupalyi","address":null,"covered":false,"access":null,"website":null,"phone":null,"source":"OpenStreetMap/node/9749312378","sourceUpdatedAt":null,"verifiedAt":null}},{"type":"Feature","geometry":{"type":"Point","coordinates":[21.7337187,47.3930049]},"properties":{"id":"bikerack:5e6a656f-0924-42d5-acf0-157995dc9919","kind":"bikerack","longitude":21.7337187,"latitude":47.3930049,"name":"Biciklitároló","city":"Hosszupalyi","address":null,"covered":false,"access":null,"website":null,"phone":null,"source":"OpenStreetMap/node/9213388951","sourceUpdatedAt":null,"verifiedAt":null}},{"type":"Feature","geometry":{"type":"Point","coordinates":[21.7237929,47.3970419]},"properties":{"id":"bikerack:ed7e5ef9-b154-4999-82b0-b680cff1bdd8","kind":"bikerack","longitude":21.7237929,"latitude":47.3970419,"name":"Biciklitároló","city":"Hosszupalyi","address":null,"covered":false,"access":null,"website":null,"phone":null,"source":"OpenStreetMap/node/9463365011","sourceUpdatedAt":null,"verifiedAt":null}},{"type":"Feature","geometry":{"type":"Point","coordinates":[21.7339168,47.393022]},"properties":{"id":"bikerack:f29ea08b-5d16-42aa-a6b8-6fe2312c2115","kind":"bikerack","longitude":21.7339168,"latitude":47.393022,"name":"Biciklitároló","city":"Hosszupalyi","address":null,"covered":false,"access":null,"website":null,"phone":null,"source":"OpenStreetMap/node/9213388950","sourceUpdatedAt":null,"verifiedAt":null}},{"type":"Feature","geometry":{"type":"Point","coordinates":[21.7128051,47.3948365]},"properties":{"id":"water:118c1c4a-1df9-49aa-9fab-53c659b34079","kind":"water","longitude":21.7128051,"latitude":47.3948365,"name":"Ivókút","city":null,"address":null,"covered":null,"access":null,"website":null,"phone":null,"source":"OpenStreetMap","sourceUpdatedAt":null,"verifiedAt":null}},{"type":"Feature","geometry":{"type":"Point","coordinates":[21.7411265,47.3922811]},"properties":{"id":"water:21cde902-92c8-446a-8958-2339fe5d9162","kind":"water","longitude":21.7411265,"latitude":47.3922811,"name":"Ivókút","city":null,"address":null,"covered":null,"access":null,"website":null,"phone":null,"source":"OpenStreetMap","sourceUpdatedAt":null,"verifiedAt":null}},{"type":"Feature","geometry":{"type":"Point","coordinates":[21.7384809,47.3911257]},"properties":{"id":"water:ca794d01-a0c2-4780-be29-9bb30af559a7","kind":"water","longitude":21.7384809,"latitude":47.3911257,"name":"Ivókút","city":null,"address":null,"covered":null,"access":null,"website":null,"phone":null,"source":"OpenStreetMap","sourceUpdatedAt":null,"verifiedAt":null}}]}