{"type":"FeatureCollection","features":[{"type":"Feature","geometry":{"type":"Point","coordinates":[13.4168265,54.4087095]},"properties":{"id":"bikerack:13671661-d092-4613-b9b8-cfe03d2180ad","kind":"bikerack","longitude":13.4168265,"latitude":54.4087095,"name":"Fahrradabstellplatz","city":"Bergen auf Ruegen","address":null,"covered":false,"access":null,"website":null,"phone":null,"source":"OpenStreetMap/node/9299918477","sourceUpdatedAt":null,"verifiedAt":null}},{"type":"Feature","geometry":{"type":"Point","coordinates":[13.4328326,54.4169949]},"properties":{"id":"bikerack:8e10f3c2-3cec-4181-a31f-7c8dc4bfa33a","kind":"bikerack","longitude":13.4328326,"latitude":54.4169949,"name":"Fahrradabstellplatz","city":"Bergen auf Ruegen","address":null,"covered":false,"access":null,"website":null,"phone":null,"source":"OpenStreetMap/way/1162100315","sourceUpdatedAt":null,"verifiedAt":null}},{"type":"Feature","geometry":{"type":"Point","coordinates":[13.4162446,54.4087917]},"properties":{"id":"bikerack:9ac45de3-25e2-4b1a-abbf-695d1f3eb99f","kind":"bikerack","longitude":13.4162446,"latitude":54.4087917,"name":"Fahrradabstellplatz","city":"Bergen auf Ruegen","address":null,"covered":false,"access":null,"website":null,"phone":null,"source":"OpenStreetMap/node/9299918480","sourceUpdatedAt":null,"verifiedAt":null}},{"type":"Feature","geometry":{"type":"Point","coordinates":[13.4157981,54.4086885]},"properties":{"id":"bikerack:afcc6dbc-6f58-4a03-b546-eac17c6eb553","kind":"bikerack","longitude":13.4157981,"latitude":54.4086885,"name":"Fahrradabstellplatz","city":"Bergen auf Ruegen","address":null,"covered":false,"access":null,"website":null,"phone":null,"source":"OpenStreetMap/node/9299918481","sourceUpdatedAt":null,"verifiedAt":null}},{"type":"Feature","geometry":{"type":"Point","coordinates":[13.4155961,54.4083695]},"properties":{"id":"bikerack:b53ca98a-0494-4cfe-89a7-60a39b7710dc","kind":"bikerack","longitude":13.4155961,"latitude":54.4083695,"name":"Fahrradabstellplatz","city":"Bergen auf Ruegen","address":null,"covered":true,"access":null,"website":null,"phone":null,"source":"OpenStreetMap/node/9299918482","sourceUpdatedAt":null,"verifiedAt":null}},{"type":"Feature","geometry":{"type":"Point","coordinates":[13.4311083,54.4116749]},"properties":{"id":"bikerack:ba02bd20-ba81-4e36-9cb3-1c462b43af27","kind":"bikerack","longitude":13.4311083,"latitude":54.4116749,"name":"Fahrradabstellplatz","city":"Bergen auf Ruegen","address":null,"covered":false,"access":null,"website":null,"phone":null,"source":"OpenStreetMap/node/1561627716","sourceUpdatedAt":null,"verifiedAt":null}},{"type":"Feature","geometry":{"type":"Point","coordinates":[13.4326892,54.418427]},"properties":{"id":"bikerack:cc7db2e8-d28d-4f95-922b-f76dfec99bde","kind":"bikerack","longitude":13.4326892,"latitude":54.418427,"name":"Fahrradabstellplatz","city":"Bergen auf Ruegen","address":null,"covered":false,"access":null,"website":null,"phone":null,"source":"OpenStreetMap/node/12067873677","sourceUpdatedAt":null,"verifiedAt":null}},{"type":"Feature","geometry":{"type":"Point","coordinates":[13.4317061,54.417342]},"properties":{"id":"bikerack:e2ab5553-2adf-41ba-a8ef-24631713993f","kind":"bikerack","longitude":13.4317061,"latitude":54.417342,"name":"Fahrradabstellplatz","city":"Bergen auf Ruegen","address":null,"covered":false,"access":null,"website":null,"phone":null,"source":"OpenStreetMap/node/10807768436","sourceUpdatedAt":null,"verifiedAt":null}},{"type":"Feature","geometry":{"type":"Point","coordinates":[13.4375533,54.4160891]},"properties":{"id":"service:1d482c01-1212-40f5-ac77-9498cff1567b","kind":"service","longitude":13.4375533,"latitude":54.4160891,"name":"Fahrrad Richter","city":"Bergen auf Rügen","address":null,"covered":null,"access":null,"website":null,"phone":null,"source":"OpenStreetMap/way/193097103","sourceUpdatedAt":null,"verifiedAt":null}},{"type":"Feature","geometry":{"type":"Point","coordinates":[13.4374354,54.4161491]},"properties":{"id":"service:7d8b8bc3-acaa-45be-92fb-8d940dc7c43a","kind":"service","longitude":13.4374354,"latitude":54.4161491,"name":"Fahrrad Richter","city":"Bergen auf Rügen","address":null,"covered":null,"access":null,"website":null,"phone":null,"source":"OpenStreetMap/way/149277279","sourceUpdatedAt":null,"verifiedAt":null}}]}