{"type":"FeatureCollection","features":[{"type":"Feature","geometry":{"type":"Point","coordinates":[13.4201063,51.2243765]},"properties":{"id":"bikerack:99a8f4b9-760b-48a4-ad6f-f398a6f28223","kind":"bikerack","longitude":13.4201063,"latitude":51.2243765,"name":"Fahrradabstellplatz","city":"Weissig","address":null,"covered":false,"access":null,"website":null,"phone":null,"source":"OpenStreetMap/node/6952194827","sourceUpdatedAt":null,"verifiedAt":null}},{"type":"Feature","geometry":{"type":"Point","coordinates":[13.4092224,51.2150153]},"properties":{"id":"bikerack:cb49e932-4207-4e82-85bf-ff9aaf91d6e1","kind":"bikerack","longitude":13.4092224,"latitude":51.2150153,"name":"Fahrradabstellplatz","city":"Weissig","address":null,"covered":false,"access":null,"website":null,"phone":null,"source":"OpenStreetMap/node/12985038262","sourceUpdatedAt":null,"verifiedAt":null}},{"type":"Feature","geometry":{"type":"Point","coordinates":[13.425948,51.2272162]},"properties":{"id":"repair:8541688c-d828-4014-97d3-b762297fbcbd","kind":"repair","longitude":13.425948,"latitude":51.2272162,"name":"ADAC Radservice-Station #040 - Diesbar-Seußlitz","city":"Weissig","address":null,"covered":false,"access":null,"website":null,"phone":null,"source":"OpenStreetMap/node/11042144105","sourceUpdatedAt":null,"verifiedAt":null}}]}