{"type":"FeatureCollection","features":[{"type":"Feature","geometry":{"type":"Point","coordinates":[13.4281346,48.4557218]},"properties":{"id":"service:0fa5554e-b3de-43ae-8b70-e3fc201acce9","kind":"service","longitude":13.4281346,"latitude":48.4557218,"name":"Fahrradbox","city":"Scharding","address":null,"covered":null,"access":null,"website":null,"phone":null,"source":"OpenStreetMap/node/763990754","sourceUpdatedAt":null,"verifiedAt":null}},{"type":"Feature","geometry":{"type":"Point","coordinates":[13.4308419,48.4572831]},"properties":{"id":"water:19a84094-4ecb-44b6-a337-5a31be274ea0","kind":"water","longitude":13.4308419,"latitude":48.4572831,"name":"Ivókút","city":"Scharding","address":null,"covered":null,"access":null,"website":null,"phone":null,"source":"OpenStreetMap/node/3688199862","sourceUpdatedAt":null,"verifiedAt":null}},{"type":"Feature","geometry":{"type":"Point","coordinates":[13.4330171,48.4560844]},"properties":{"id":"water:a562d7bf-e3c0-4e4f-b247-f8dbbdc73135","kind":"water","longitude":13.4330171,"latitude":48.4560844,"name":"Ivókút","city":"Scharding","address":null,"covered":null,"access":null,"website":null,"phone":null,"source":"OpenStreetMap/node/4947270905","sourceUpdatedAt":null,"verifiedAt":null}},{"type":"Feature","geometry":{"type":"Point","coordinates":[13.4282045,48.4557268]},"properties":{"id":"water:fad3ddcf-ac5b-404b-b058-0a227f51991c","kind":"water","longitude":13.4282045,"latitude":48.4557268,"name":"Ivókút","city":"Scharding","address":null,"covered":null,"access":null,"website":null,"phone":null,"source":"OpenStreetMap/node/763990757","sourceUpdatedAt":null,"verifiedAt":null}}]}