{"type":"FeatureCollection","features":[{"type":"Feature","geometry":{"type":"Point","coordinates":[13.4389741,45.9894048]},"properties":{"id":"water:1066633d-b140-43b0-a0da-1198015ac7e1","kind":"water","longitude":13.4389741,"latitude":45.9894048,"name":"Fontanella","city":"Corno di Rosazzo","address":null,"covered":null,"access":null,"website":null,"phone":null,"source":"OpenStreetMap/node/4273068116","sourceUpdatedAt":null,"verifiedAt":null}},{"type":"Feature","geometry":{"type":"Point","coordinates":[13.4310922,46.0108977]},"properties":{"id":"water:4032ee10-7744-4dbb-a189-a9c4a35cb85d","kind":"water","longitude":13.4310922,"latitude":46.0108977,"name":"Fontanella","city":"Corno di Rosazzo","address":null,"covered":null,"access":null,"website":null,"phone":null,"source":"OpenStreetMap/node/10003571488","sourceUpdatedAt":null,"verifiedAt":null}},{"type":"Feature","geometry":{"type":"Point","coordinates":[13.4403291,45.9967056]},"properties":{"id":"water:dad17060-5455-403b-8dd3-919a63b3119f","kind":"water","longitude":13.4403291,"latitude":45.9967056,"name":"Fontanella","city":"Corno di Rosazzo","address":null,"covered":null,"access":null,"website":null,"phone":null,"source":"OpenStreetMap/node/4165136076","sourceUpdatedAt":null,"verifiedAt":null}},{"type":"Feature","geometry":{"type":"Point","coordinates":[13.4389444,45.9893611]},"properties":{"id":"water:ecd9d618-6509-4cc5-a56d-697f07faf795","kind":"water","longitude":13.4389444,"latitude":45.9893611,"name":"Fontanella","city":"Corno di Rosazzo","address":null,"covered":null,"access":null,"website":null,"phone":null,"source":"OpenStreetMap/node/12703102458","sourceUpdatedAt":null,"verifiedAt":null}}]}