{"type":"FeatureCollection","features":[{"type":"Feature","geometry":{"type":"Point","coordinates":[8.3557709,49.836249]},"properties":{"id":"bikerack:c12a0564-5402-420f-9ec8-9c8b0a61219a","kind":"bikerack","longitude":8.3557709,"latitude":49.836249,"name":"Fahrradabstellplatz","city":"Dienheim","address":null,"covered":false,"access":null,"website":null,"phone":null,"source":"OpenStreetMap/node/3941923489","sourceUpdatedAt":null,"verifiedAt":null}},{"type":"Feature","geometry":{"type":"Point","coordinates":[8.354913,49.8375632]},"properties":{"id":"bikerack:e1475954-e0bf-454b-8492-5a8968018d30","kind":"bikerack","longitude":8.354913,"latitude":49.8375632,"name":"Fahrradabstellplatz","city":"Dienheim","address":null,"covered":false,"access":null,"website":null,"phone":null,"source":"OpenStreetMap/node/13643845709","sourceUpdatedAt":null,"verifiedAt":null}}]}