{"type":"FeatureCollection","features":[{"type":"Feature","geometry":{"type":"Point","coordinates":[8.3557303,48.7026745]},"properties":{"id":"bikerack:1eb15c5e-9afe-4e75-a470-5b8628c373ef","kind":"bikerack","longitude":8.3557303,"latitude":48.7026745,"name":"Fahrradabstellplatz","city":"Weisenbach","address":null,"covered":true,"access":null,"website":null,"phone":null,"source":"OpenStreetMap/way/261902543","sourceUpdatedAt":null,"verifiedAt":null}},{"type":"Feature","geometry":{"type":"Point","coordinates":[8.3655908,48.7049465]},"properties":{"id":"bikerack:3bd0cf5d-129b-4402-9098-7da06fe4235d","kind":"bikerack","longitude":8.3655908,"latitude":48.7049465,"name":"Fahrradabstellplatz","city":"Weisenbach","address":null,"covered":false,"access":null,"website":null,"phone":null,"source":"OpenStreetMap/node/9130333088","sourceUpdatedAt":null,"verifiedAt":null}},{"type":"Feature","geometry":{"type":"Point","coordinates":[8.3648425,48.7050832]},"properties":{"id":"bikerack:d35cecb9-5608-4f08-a689-86b41d5c31c3","kind":"bikerack","longitude":8.3648425,"latitude":48.7050832,"name":"Fahrradabstellplatz","city":"Weisenbach","address":null,"covered":false,"access":null,"website":null,"phone":null,"source":"OpenStreetMap/node/9490534960","sourceUpdatedAt":null,"verifiedAt":null}},{"type":"Feature","geometry":{"type":"Point","coordinates":[8.3621849,48.7190203]},"properties":{"id":"bikerack:f4328767-2a07-4150-83db-4ca032472bc5","kind":"bikerack","longitude":8.3621849,"latitude":48.7190203,"name":"Fahrradabstellplatz","city":"Weisenbach","address":null,"covered":false,"access":null,"website":null,"phone":null,"source":"OpenStreetMap/node/12122942952","sourceUpdatedAt":null,"verifiedAt":null}},{"type":"Feature","geometry":{"type":"Point","coordinates":[8.3927819,48.7100959]},"properties":{"id":"water:1176fd4f-4456-4303-b7a4-498415e05040","kind":"water","longitude":8.3927819,"latitude":48.7100959,"name":"Trinkwasser","city":"Weisenbach","address":null,"covered":null,"access":null,"website":null,"phone":null,"source":"OpenStreetMap/node/9067751795","sourceUpdatedAt":null,"verifiedAt":null}},{"type":"Feature","geometry":{"type":"Point","coordinates":[8.3806672,48.7015281]},"properties":{"id":"water:854e5e74-766f-49d0-8576-69497535ea22","kind":"water","longitude":8.3806672,"latitude":48.7015281,"name":"Trinkwasser","city":"Weisenbach","address":null,"covered":null,"access":null,"website":null,"phone":null,"source":"OpenStreetMap/node/9060884204","sourceUpdatedAt":null,"verifiedAt":null}},{"type":"Feature","geometry":{"type":"Point","coordinates":[8.3678504,48.7018013]},"properties":{"id":"water:91120dd9-825d-40d6-a4f3-d29c1cf77680","kind":"water","longitude":8.3678504,"latitude":48.7018013,"name":"Trinkwasser","city":"Weisenbach","address":null,"covered":null,"access":null,"website":null,"phone":null,"source":"OpenStreetMap/node/9038379261","sourceUpdatedAt":null,"verifiedAt":null}},{"type":"Feature","geometry":{"type":"Point","coordinates":[8.3903272,48.702563]},"properties":{"id":"water:d64629bc-4a70-48cc-aabc-0a9641308393","kind":"water","longitude":8.3903272,"latitude":48.702563,"name":"Trinkwasser","city":"Weisenbach","address":null,"covered":null,"access":null,"website":null,"phone":null,"source":"OpenStreetMap/node/1842783711","sourceUpdatedAt":null,"verifiedAt":null}}]}