{"type":"FeatureCollection","features":[{"type":"Feature","geometry":{"type":"Point","coordinates":[8.3591824,48.5290561]},"properties":{"id":"water:2cbf8494-e7df-4df4-8bfe-1a02122d5de4","kind":"water","longitude":8.3591824,"latitude":48.5290561,"name":"Trinkwasser","city":"Baiersbronn","address":null,"covered":null,"access":null,"website":null,"phone":null,"source":"OpenStreetMap/node/5829163085","sourceUpdatedAt":null,"verifiedAt":null}},{"type":"Feature","geometry":{"type":"Point","coordinates":[8.3525432,48.5241532]},"properties":{"id":"water:38ed8e97-acfb-4f0b-b357-8c0458847953","kind":"water","longitude":8.3525432,"latitude":48.5241532,"name":"Petermännlebrunnen","city":"Baiersbronn","address":null,"covered":null,"access":null,"website":null,"phone":null,"source":"OpenStreetMap/node/1650843247","sourceUpdatedAt":null,"verifiedAt":null}},{"type":"Feature","geometry":{"type":"Point","coordinates":[8.3522141,48.5205797]},"properties":{"id":"water:f05fd2a8-4515-4a1c-8b27-ddff11b36493","kind":"water","longitude":8.3522141,"latitude":48.5205797,"name":"Satteleibrunnen","city":"Baiersbronn","address":null,"covered":null,"access":null,"website":null,"phone":null,"source":"OpenStreetMap/node/892565193","sourceUpdatedAt":null,"verifiedAt":null}},{"type":"Feature","geometry":{"type":"Point","coordinates":[8.3633014,48.5333585]},"properties":{"id":"water:f30628e9-b8df-4864-b7eb-eac70fccd71f","kind":"water","longitude":8.3633014,"latitude":48.5333585,"name":"Härlisberg Brunnen","city":"Baiersbronn","address":null,"covered":null,"access":null,"website":null,"phone":null,"source":"OpenStreetMap/node/6516865704","sourceUpdatedAt":null,"verifiedAt":null}}]}