{"type":"FeatureCollection","features":[{"type":"Feature","geometry":{"type":"Point","coordinates":[8.3843772,46.7385653]},"properties":{"id":"water:1765b260-6466-4828-a733-1a96c1adcf86","kind":"water","longitude":8.3843772,"latitude":46.7385653,"name":"Drinking Fountain","city":"Engelberg","address":null,"covered":null,"access":null,"website":null,"phone":null,"source":"OpenStreetMap/node/3113625923","sourceUpdatedAt":null,"verifiedAt":null}},{"type":"Feature","geometry":{"type":"Point","coordinates":[8.376843,46.7365599]},"properties":{"id":"water:30127228-2d60-45ac-a553-787526c55cde","kind":"water","longitude":8.376843,"latitude":46.7365599,"name":"Drinking Fountain","city":"Engelberg","address":null,"covered":null,"access":null,"website":null,"phone":null,"source":"OpenStreetMap/node/11898519518","sourceUpdatedAt":null,"verifiedAt":null}},{"type":"Feature","geometry":{"type":"Point","coordinates":[8.3528142,46.7379588]},"properties":{"id":"water:6164e649-6b0c-4c39-b63c-822a88b42e9a","kind":"water","longitude":8.3528142,"latitude":46.7379588,"name":"Drinking Fountain","city":"Engelberg","address":null,"covered":null,"access":null,"website":null,"phone":null,"source":"OpenStreetMap/node/5645461696","sourceUpdatedAt":null,"verifiedAt":null}},{"type":"Feature","geometry":{"type":"Point","coordinates":[8.3538519,46.7264388]},"properties":{"id":"water:c90f7667-346d-4aad-9d76-fb3a4fc3d590","kind":"water","longitude":8.3538519,"latitude":46.7264388,"name":"Drinking Fountain","city":"Engelberg","address":null,"covered":null,"access":null,"website":null,"phone":null,"source":"OpenStreetMap/node/7685870340","sourceUpdatedAt":null,"verifiedAt":null}}]}