{"type":"FeatureCollection","features":[{"type":"Feature","geometry":{"type":"Point","coordinates":[8.3696247,46.4770706]},"properties":{"id":"water:3666cb18-7b96-4018-89ce-3400c46e49ae","kind":"water","longitude":8.3696247,"latitude":46.4770706,"name":"Drinking Fountain","city":"Formazza","address":null,"covered":null,"access":null,"website":null,"phone":null,"source":"OpenStreetMap/node/11121951405","sourceUpdatedAt":null,"verifiedAt":null}},{"type":"Feature","geometry":{"type":"Point","coordinates":[8.359803,46.4716519]},"properties":{"id":"water:b4840466-fe5a-49ff-b9b9-895013bccbde","kind":"water","longitude":8.359803,"latitude":46.4716519,"name":"Drinking Fountain","city":"Formazza","address":null,"covered":null,"access":null,"website":null,"phone":null,"source":"OpenStreetMap/node/3658857091","sourceUpdatedAt":null,"verifiedAt":null}}]}