{"type":"FeatureCollection","features":[{"type":"Feature","geometry":{"type":"Point","coordinates":[8.3914777,45.8654018]},"properties":{"id":"water:3fa40536-6b53-4787-bf3c-feafaba791da","kind":"water","longitude":8.3914777,"latitude":45.8654018,"name":"Fontanella","city":"Quarna Sopra","address":null,"covered":null,"access":null,"website":null,"phone":null,"source":"OpenStreetMap/node/11183371024","sourceUpdatedAt":null,"verifiedAt":null}},{"type":"Feature","geometry":{"type":"Point","coordinates":[8.3932,45.8729275]},"properties":{"id":"water:56b82875-f016-4064-87c2-d6026b3ebdcf","kind":"water","longitude":8.3932,"latitude":45.8729275,"name":"Fontanella","city":"Omegna","address":null,"covered":null,"access":null,"website":null,"phone":null,"source":"OpenStreetMap/node/9836057059","sourceUpdatedAt":null,"verifiedAt":null}},{"type":"Feature","geometry":{"type":"Point","coordinates":[8.3870888,45.8627759]},"properties":{"id":"water:585d0e21-a31b-45cb-af25-914b98e7f620","kind":"water","longitude":8.3870888,"latitude":45.8627759,"name":"Sorgente Baldini","city":"Quarna Sopra","address":null,"covered":null,"access":null,"website":null,"phone":null,"source":"OpenStreetMap/node/6121010063","sourceUpdatedAt":null,"verifiedAt":null}},{"type":"Feature","geometry":{"type":"Point","coordinates":[8.3890663,45.8727597]},"properties":{"id":"water:7c7f9552-44be-4a89-b6e9-05e132becd52","kind":"water","longitude":8.3890663,"latitude":45.8727597,"name":"Fontanella","city":"Quarna Sopra","address":null,"covered":null,"access":null,"website":null,"phone":null,"source":"OpenStreetMap/node/9836057069","sourceUpdatedAt":null,"verifiedAt":null}},{"type":"Feature","geometry":{"type":"Point","coordinates":[8.3609511,45.8685709]},"properties":{"id":"water:7eae45f2-7335-4245-9c41-267c8680459a","kind":"water","longitude":8.3609511,"latitude":45.8685709,"name":"Fontanella","city":"Quarna Sotto","address":null,"covered":null,"access":null,"website":null,"phone":null,"source":"OpenStreetMap/node/6520825614","sourceUpdatedAt":null,"verifiedAt":null}},{"type":"Feature","geometry":{"type":"Point","coordinates":[8.3860361,45.8602317]},"properties":{"id":"water:8f88af4f-1b15-438f-a3fb-1047f2ac7ff0","kind":"water","longitude":8.3860361,"latitude":45.8602317,"name":"Fontanella","city":"Nonio","address":null,"covered":null,"access":null,"website":null,"phone":null,"source":"OpenStreetMap/node/5950702089","sourceUpdatedAt":null,"verifiedAt":null}},{"type":"Feature","geometry":{"type":"Point","coordinates":[8.363654,45.8699388]},"properties":{"id":"water:a5802fb5-eae5-4b3a-b619-852065b82350","kind":"water","longitude":8.363654,"latitude":45.8699388,"name":"Fontanella","city":"Quarna Sotto","address":null,"covered":null,"access":null,"website":null,"phone":null,"source":"OpenStreetMap/node/458883167","sourceUpdatedAt":null,"verifiedAt":null}},{"type":"Feature","geometry":{"type":"Point","coordinates":[8.3875228,45.8890778]},"properties":{"id":"water:a6b57e1b-d055-40bc-9cfd-a05cb85e396b","kind":"water","longitude":8.3875228,"latitude":45.8890778,"name":"Fontanella","city":"Germagno","address":null,"covered":null,"access":null,"website":null,"phone":null,"source":"OpenStreetMap/node/5763685401","sourceUpdatedAt":null,"verifiedAt":null}},{"type":"Feature","geometry":{"type":"Point","coordinates":[8.3638786,45.8680698]},"properties":{"id":"water:b71c80c6-7847-4774-b7ef-036c146fd7aa","kind":"water","longitude":8.3638786,"latitude":45.8680698,"name":"Fontanella","city":"Quarna Sotto","address":null,"covered":null,"access":null,"website":null,"phone":null,"source":"OpenStreetMap/node/11684701114","sourceUpdatedAt":null,"verifiedAt":null}},{"type":"Feature","geometry":{"type":"Point","coordinates":[8.3518729,45.8832096]},"properties":{"id":"water:c10c4b9f-621d-48e8-ac39-0a0f588d751a","kind":"water","longitude":8.3518729,"latitude":45.8832096,"name":"Fontanella","city":"Quarna Sotto","address":null,"covered":null,"access":null,"website":null,"phone":null,"source":"OpenStreetMap/node/6874103926","sourceUpdatedAt":null,"verifiedAt":null}},{"type":"Feature","geometry":{"type":"Point","coordinates":[8.3899211,45.8734819]},"properties":{"id":"water:c1132aba-6215-4561-94a9-49efd8dd39bb","kind":"water","longitude":8.3899211,"latitude":45.8734819,"name":"Fontanella","city":"Quarna Sopra","address":null,"covered":null,"access":null,"website":null,"phone":null,"source":"OpenStreetMap/node/9833687447","sourceUpdatedAt":null,"verifiedAt":null}},{"type":"Feature","geometry":{"type":"Point","coordinates":[8.3634234,45.8691841]},"properties":{"id":"water:c652ff95-0639-4b6d-820a-8f98f5893d92","kind":"water","longitude":8.3634234,"latitude":45.8691841,"name":"Fontanella","city":"Quarna Sotto","address":null,"covered":null,"access":null,"website":null,"phone":null,"source":"OpenStreetMap/node/6522892057","sourceUpdatedAt":null,"verifiedAt":null}},{"type":"Feature","geometry":{"type":"Point","coordinates":[8.3634836,45.8655709]},"properties":{"id":"water:e5829714-fd93-4c68-b43e-d17e5e5c7b91","kind":"water","longitude":8.3634836,"latitude":45.8655709,"name":"Fontanella","city":"Quarna Sotto","address":null,"covered":null,"access":null,"website":null,"phone":null,"source":"OpenStreetMap/node/3083033034","sourceUpdatedAt":null,"verifiedAt":null}},{"type":"Feature","geometry":{"type":"Point","coordinates":[8.3520091,45.8751278]},"properties":{"id":"water:f10a999b-e789-44ce-8f15-e8d3b5acdf3b","kind":"water","longitude":8.3520091,"latitude":45.8751278,"name":"Fontanella","city":"Quarna Sotto","address":null,"covered":null,"access":null,"website":null,"phone":null,"source":"OpenStreetMap/node/3082850540","sourceUpdatedAt":null,"verifiedAt":null}}]}