{"type":"FeatureCollection","features":[{"type":"Feature","geometry":{"type":"Point","coordinates":[19.4305182,53.2538034]},"properties":{"id":"bikerack:1a35d903-9b79-4ba7-9c90-b68b12224ec6","kind":"bikerack","longitude":19.4305182,"latitude":53.2538034,"name":"Biciklitároló","city":"Brodnica","address":null,"covered":false,"access":null,"website":null,"phone":null,"source":"OpenStreetMap/node/9928130139","sourceUpdatedAt":null,"verifiedAt":null}},{"type":"Feature","geometry":{"type":"Point","coordinates":[19.4243813,53.2713611]},"properties":{"id":"bikerack:a4c6d82e-9b8c-426c-a9b9-5bc3f687f3a5","kind":"bikerack","longitude":19.4243813,"latitude":53.2713611,"name":"Biciklitároló","city":"Brodnica","address":null,"covered":false,"access":null,"website":null,"phone":null,"source":"OpenStreetMap/way/1135496052","sourceUpdatedAt":null,"verifiedAt":null}}]}