{"type":"FeatureCollection","features":[{"type":"Feature","geometry":{"type":"Point","coordinates":[19.4354614,47.9260251]},"properties":{"id":"water:6b97152a-7982-48b1-a381-3d8347728a0b","kind":"water","longitude":19.4354614,"latitude":47.9260251,"name":"Ivókút","city":null,"address":null,"covered":null,"access":null,"website":null,"phone":null,"source":"OpenStreetMap","sourceUpdatedAt":null,"verifiedAt":null}},{"type":"Feature","geometry":{"type":"Point","coordinates":[19.4413076,47.9271446]},"properties":{"id":"water:8206327a-67b0-49f0-815d-c3234e8ab23d","kind":"water","longitude":19.4413076,"latitude":47.9271446,"name":"Ivókút","city":null,"address":null,"covered":null,"access":null,"website":null,"phone":null,"source":"OpenStreetMap","sourceUpdatedAt":null,"verifiedAt":null}},{"type":"Feature","geometry":{"type":"Point","coordinates":[19.4314501,47.9256893]},"properties":{"id":"water:b451a3e7-4ca9-41cf-9b1d-b80d4f725a3f","kind":"water","longitude":19.4314501,"latitude":47.9256893,"name":"Ivókút","city":null,"address":null,"covered":null,"access":null,"website":null,"phone":null,"source":"OpenStreetMap","sourceUpdatedAt":null,"verifiedAt":null}},{"type":"Feature","geometry":{"type":"Point","coordinates":[19.443617,47.925333]},"properties":{"id":"water:f3371786-a4d7-4e7c-b4c4-66dbe15107eb","kind":"water","longitude":19.443617,"latitude":47.925333,"name":"Ivókút","city":null,"address":null,"covered":null,"access":null,"website":null,"phone":null,"source":"OpenStreetMap","sourceUpdatedAt":null,"verifiedAt":null}}]}