{"type":"FeatureCollection","features":[{"type":"Feature","geometry":{"type":"Point","coordinates":[19.4582614,47.4298845]},"properties":{"id":"service:bdb3d655-7ec0-4bca-85a3-45008889df0b","kind":"service","longitude":19.4582614,"latitude":47.4298845,"name":"Bicikli szervíz","city":"Mende","address":null,"covered":null,"access":null,"website":null,"phone":null,"source":"OpenStreetMap/node/4806562767","sourceUpdatedAt":null,"verifiedAt":null}},{"type":"Feature","geometry":{"type":"Point","coordinates":[19.4507289,47.4288196]},"properties":{"id":"water:406eb1c1-11f5-45a6-9513-e2281c4503f3","kind":"water","longitude":19.4507289,"latitude":47.4288196,"name":"Ivókút","city":null,"address":null,"covered":null,"access":null,"website":null,"phone":null,"source":"OpenStreetMap","sourceUpdatedAt":null,"verifiedAt":null}},{"type":"Feature","geometry":{"type":"Point","coordinates":[19.461172,47.4309924]},"properties":{"id":"water:a9010dfd-d231-4052-8ba3-6eec36a1770c","kind":"water","longitude":19.461172,"latitude":47.4309924,"name":"Ivókút","city":null,"address":null,"covered":null,"access":null,"website":null,"phone":null,"source":"OpenStreetMap","sourceUpdatedAt":null,"verifiedAt":null}}]}