{"type":"FeatureCollection","features":[{"type":"Feature","geometry":{"type":"Point","coordinates":[19.4353308,47.1338097]},"properties":{"id":"bikerack:1c459562-82bd-4150-9959-18d7cd198972","kind":"bikerack","longitude":19.4353308,"latitude":47.1338097,"name":"Iskolai kerékpártároló","city":"Orkeny","address":null,"covered":true,"access":null,"website":null,"phone":null,"source":"OpenStreetMap/node/1760729132","sourceUpdatedAt":null,"verifiedAt":null}},{"type":"Feature","geometry":{"type":"Point","coordinates":[19.4374191,47.1305759]},"properties":{"id":"bikerack:9f502667-9452-4215-9f35-911342c8f178","kind":"bikerack","longitude":19.4374191,"latitude":47.1305759,"name":"Biciklitároló","city":"Orkeny","address":null,"covered":false,"access":null,"website":null,"phone":null,"source":"OpenStreetMap/node/1269149690","sourceUpdatedAt":null,"verifiedAt":null}},{"type":"Feature","geometry":{"type":"Point","coordinates":[19.428551,47.130464]},"properties":{"id":"water:1706abec-ef68-4404-a976-918b7e9df5e7","kind":"water","longitude":19.428551,"latitude":47.130464,"name":"Ivókút","city":null,"address":null,"covered":null,"access":null,"website":null,"phone":null,"source":"OpenStreetMap","sourceUpdatedAt":null,"verifiedAt":null}},{"type":"Feature","geometry":{"type":"Point","coordinates":[19.4467502,47.1328704]},"properties":{"id":"water:3845f9f1-c653-42f8-bb3a-61c5a3b9d0cc","kind":"water","longitude":19.4467502,"latitude":47.1328704,"name":"Ivókút","city":null,"address":null,"covered":null,"access":null,"website":null,"phone":null,"source":"OpenStreetMap","sourceUpdatedAt":null,"verifiedAt":null}},{"type":"Feature","geometry":{"type":"Point","coordinates":[19.4332673,47.1316369]},"properties":{"id":"water:5adb3e23-c754-4821-a35a-d7e3fdab78e2","kind":"water","longitude":19.4332673,"latitude":47.1316369,"name":"Ivókút","city":null,"address":null,"covered":null,"access":null,"website":null,"phone":null,"source":"OpenStreetMap","sourceUpdatedAt":null,"verifiedAt":null}},{"type":"Feature","geometry":{"type":"Point","coordinates":[19.426866,47.131919]},"properties":{"id":"water:9a28531f-cecc-429d-8871-86f4388f6aea","kind":"water","longitude":19.426866,"latitude":47.131919,"name":"Ivókút","city":null,"address":null,"covered":null,"access":null,"website":null,"phone":null,"source":"OpenStreetMap","sourceUpdatedAt":null,"verifiedAt":null}},{"type":"Feature","geometry":{"type":"Point","coordinates":[19.4468346,47.1327657]},"properties":{"id":"water:c67ede00-9881-48ef-8bb8-a0ccf69880bd","kind":"water","longitude":19.4468346,"latitude":47.1327657,"name":"Ivókút","city":null,"address":null,"covered":null,"access":null,"website":null,"phone":null,"source":"OpenStreetMap","sourceUpdatedAt":null,"verifiedAt":null}}]}