{"type":"FeatureCollection","features":[{"type":"Feature","geometry":{"type":"Point","coordinates":[19.4641426,46.4586124]},"properties":{"id":"water:2cea1471-6ace-4a9b-9bdf-63fe02b640be","kind":"water","longitude":19.4641426,"latitude":46.4586124,"name":"Ivókút","city":null,"address":null,"covered":null,"access":null,"website":null,"phone":null,"source":"OpenStreetMap","sourceUpdatedAt":null,"verifiedAt":null}},{"type":"Feature","geometry":{"type":"Point","coordinates":[19.4645867,46.4623957]},"properties":{"id":"water:d33a815d-c0b4-4e68-b247-8dcec874cf45","kind":"water","longitude":19.4645867,"latitude":46.4623957,"name":"Ivókút","city":null,"address":null,"covered":null,"access":null,"website":null,"phone":null,"source":"OpenStreetMap","sourceUpdatedAt":null,"verifiedAt":null}}]}