{"type":"FeatureCollection","features":[{"type":"Feature","geometry":{"type":"Point","coordinates":[12.5617265,50.626807]},"properties":{"id":"bikerack:4bb21e2b-e745-4720-9d06-f4be9c669d03","kind":"bikerack","longitude":12.5617265,"latitude":50.626807,"name":"Fahrradabstellplatz","city":"Kirchberg","address":null,"covered":false,"access":null,"website":null,"phone":null,"source":"OpenStreetMap/node/9781353417","sourceUpdatedAt":null,"verifiedAt":null}},{"type":"Feature","geometry":{"type":"Point","coordinates":[12.561381,50.6264605]},"properties":{"id":"bikerack:71ca99a6-a663-4ba6-b9ee-ee2b0fb55d57","kind":"bikerack","longitude":12.561381,"latitude":50.6264605,"name":"Fahrradabstellplatz","city":"Kirchberg","address":null,"covered":false,"access":null,"website":null,"phone":null,"source":"OpenStreetMap/node/1191094561","sourceUpdatedAt":null,"verifiedAt":null}},{"type":"Feature","geometry":{"type":"Point","coordinates":[12.5661404,50.652777]},"properties":{"id":"bikerack:fdd84ffd-f953-4f06-9af1-cbeb7d86992e","kind":"bikerack","longitude":12.5661404,"latitude":50.652777,"name":"Fahrradabstellplatz","city":"Wildenfels","address":null,"covered":false,"access":null,"website":null,"phone":null,"source":"OpenStreetMap/node/11581784669","sourceUpdatedAt":null,"verifiedAt":null}}]}