{"type":"FeatureCollection","features":[{"type":"Feature","geometry":{"type":"Point","coordinates":[16.3836528,52.710379]},"properties":{"id":"bikerack:01f70048-062b-4b5c-9e80-1f5588c2853a","kind":"bikerack","longitude":16.3836528,"latitude":52.710379,"name":"Biciklitároló","city":"Wronki","address":null,"covered":false,"access":null,"website":null,"phone":null,"source":"OpenStreetMap/node/12650230052","sourceUpdatedAt":null,"verifiedAt":null}},{"type":"Feature","geometry":{"type":"Point","coordinates":[16.3782696,52.7099556]},"properties":{"id":"bikerack:02e954af-dd94-4c2d-8836-9ea327ea6863","kind":"bikerack","longitude":16.3782696,"latitude":52.7099556,"name":"Biciklitároló","city":"Wronki","address":null,"covered":false,"access":null,"website":null,"phone":null,"source":"OpenStreetMap/node/12626148115","sourceUpdatedAt":null,"verifiedAt":null}},{"type":"Feature","geometry":{"type":"Point","coordinates":[16.3842805,52.7112329]},"properties":{"id":"bikerack:0598d403-22f6-462c-9456-c09d38305a45","kind":"bikerack","longitude":16.3842805,"latitude":52.7112329,"name":"Biciklitároló","city":"Wronki","address":null,"covered":false,"access":null,"website":null,"phone":null,"source":"OpenStreetMap/node/12645724142","sourceUpdatedAt":null,"verifiedAt":null}},{"type":"Feature","geometry":{"type":"Point","coordinates":[16.3696953,52.7106483]},"properties":{"id":"bikerack:0717262f-cb56-46a0-ad33-54b6336181c2","kind":"bikerack","longitude":16.3696953,"latitude":52.7106483,"name":"Biciklitároló","city":"Wronki","address":null,"covered":false,"access":null,"website":null,"phone":null,"source":"OpenStreetMap/node/12739307528","sourceUpdatedAt":null,"verifiedAt":null}},{"type":"Feature","geometry":{"type":"Point","coordinates":[16.3845567,52.7068274]},"properties":{"id":"bikerack:0bccdbce-4676-49e8-8f3c-ee4d953a3769","kind":"bikerack","longitude":16.3845567,"latitude":52.7068274,"name":"Biciklitároló","city":"Wronki","address":null,"covered":false,"access":null,"website":null,"phone":null,"source":"OpenStreetMap/node/12639072133","sourceUpdatedAt":null,"verifiedAt":null}},{"type":"Feature","geometry":{"type":"Point","coordinates":[16.3855652,52.71102]},"properties":{"id":"bikerack:0c4ca1a5-1de3-44bf-bc22-5f1a3e1eda0e","kind":"bikerack","longitude":16.3855652,"latitude":52.71102,"name":"Biciklitároló","city":"Wronki","address":null,"covered":false,"access":null,"website":null,"phone":null,"source":"OpenStreetMap/node/12646596976","sourceUpdatedAt":null,"verifiedAt":null}},{"type":"Feature","geometry":{"type":"Point","coordinates":[16.3821052,52.7067258]},"properties":{"id":"bikerack:0d7d8d99-ee6c-407c-a32b-e21e91cc3a51","kind":"bikerack","longitude":16.3821052,"latitude":52.7067258,"name":"Biciklitároló","city":"Wronki","address":null,"covered":false,"access":null,"website":null,"phone":null,"source":"OpenStreetMap/node/12643740684","sourceUpdatedAt":null,"verifiedAt":null}},{"type":"Feature","geometry":{"type":"Point","coordinates":[16.3792129,52.7106294]},"properties":{"id":"bikerack:0e1a7146-7e79-42cf-8555-d89af8bb7297","kind":"bikerack","longitude":16.3792129,"latitude":52.7106294,"name":"Biciklitároló","city":"Wronki","address":null,"covered":false,"access":null,"website":null,"phone":null,"source":"OpenStreetMap/node/12534834509","sourceUpdatedAt":null,"verifiedAt":null}},{"type":"Feature","geometry":{"type":"Point","coordinates":[16.3765966,52.7066294]},"properties":{"id":"bikerack:0e73222c-e35a-4e6b-80a0-89b0947112e6","kind":"bikerack","longitude":16.3765966,"latitude":52.7066294,"name":"Biciklitároló","city":"Wronki","address":null,"covered":false,"access":null,"website":null,"phone":null,"source":"OpenStreetMap/node/12752265204","sourceUpdatedAt":null,"verifiedAt":null}},{"type":"Feature","geometry":{"type":"Point","coordinates":[16.3787162,52.710214]},"properties":{"id":"bikerack:0f721915-20a1-487f-a6e1-d9f69e0c07cb","kind":"bikerack","longitude":16.3787162,"latitude":52.710214,"name":"Biciklitároló","city":"Wronki","address":null,"covered":false,"access":null,"website":null,"phone":null,"source":"OpenStreetMap/node/12623560947","sourceUpdatedAt":null,"verifiedAt":null}},{"type":"Feature","geometry":{"type":"Point","coordinates":[16.3698214,52.710721]},"properties":{"id":"bikerack:12e371ec-de9f-47b1-a208-547f5af5e01a","kind":"bikerack","longitude":16.3698214,"latitude":52.710721,"name":"Biciklitároló","city":"Wronki","address":null,"covered":false,"access":null,"website":null,"phone":null,"source":"OpenStreetMap/node/12739307526","sourceUpdatedAt":null,"verifiedAt":null}},{"type":"Feature","geometry":{"type":"Point","coordinates":[16.3875058,52.7113548]},"properties":{"id":"bikerack:17606378-9b8d-4d12-a8ef-036b5a85b167","kind":"bikerack","longitude":16.3875058,"latitude":52.7113548,"name":"Biciklitároló","city":"Wronki","address":null,"covered":false,"access":null,"website":null,"phone":null,"source":"OpenStreetMap/node/12650228257","sourceUpdatedAt":null,"verifiedAt":null}},{"type":"Feature","geometry":{"type":"Point","coordinates":[16.3819644,52.7105012]},"properties":{"id":"bikerack:1a9e2392-c27b-43f5-bfe0-7751a0f8543c","kind":"bikerack","longitude":16.3819644,"latitude":52.7105012,"name":"Biciklitároló","city":"Wronki","address":null,"covered":false,"access":null,"website":null,"phone":null,"source":"OpenStreetMap/node/12641207542","sourceUpdatedAt":null,"verifiedAt":null}},{"type":"Feature","geometry":{"type":"Point","coordinates":[16.3790944,52.7098086]},"properties":{"id":"bikerack:28e03d5a-76a8-4c66-8b6c-998861032df3","kind":"bikerack","longitude":16.3790944,"latitude":52.7098086,"name":"Biciklitároló","city":"Wronki","address":null,"covered":false,"access":null,"website":null,"phone":null,"source":"OpenStreetMap/node/12623560932","sourceUpdatedAt":null,"verifiedAt":null}},{"type":"Feature","geometry":{"type":"Point","coordinates":[16.3822031,52.710526]},"properties":{"id":"bikerack:2aa47a32-5c5c-4e40-89c4-c2a78148db73","kind":"bikerack","longitude":16.3822031,"latitude":52.710526,"name":"Biciklitároló","city":"Wronki","address":null,"covered":false,"access":null,"website":null,"phone":null,"source":"OpenStreetMap/node/12643740680","sourceUpdatedAt":null,"verifiedAt":null}},{"type":"Feature","geometry":{"type":"Point","coordinates":[16.3819604,52.7086215]},"properties":{"id":"bikerack:2b081723-7c62-4381-8fe8-9a25c7b7736d","kind":"bikerack","longitude":16.3819604,"latitude":52.7086215,"name":"Biciklitároló","city":"Wronki","address":null,"covered":false,"access":null,"website":null,"phone":null,"source":"OpenStreetMap/node/12641136856","sourceUpdatedAt":null,"verifiedAt":null}},{"type":"Feature","geometry":{"type":"Point","coordinates":[16.383225,52.7069753]},"properties":{"id":"bikerack:2b4fe3e4-32ac-46b3-8835-72881953451d","kind":"bikerack","longitude":16.383225,"latitude":52.7069753,"name":"Biciklitároló","city":"Wronki","address":null,"covered":false,"access":null,"website":null,"phone":null,"source":"OpenStreetMap/node/12639072138","sourceUpdatedAt":null,"verifiedAt":null}},{"type":"Feature","geometry":{"type":"Point","coordinates":[16.382698,52.7105634]},"properties":{"id":"bikerack:2e060e69-2ac3-41fd-9e7f-fb7f0e5b5ae5","kind":"bikerack","longitude":16.382698,"latitude":52.7105634,"name":"Biciklitároló","city":"Wronki","address":null,"covered":false,"access":null,"website":null,"phone":null,"source":"OpenStreetMap/node/12643740682","sourceUpdatedAt":null,"verifiedAt":null}},{"type":"Feature","geometry":{"type":"Point","coordinates":[16.3833779,52.7069948]},"properties":{"id":"bikerack:2e9d4444-11ac-440e-9fb5-a18c25bf50b5","kind":"bikerack","longitude":16.3833779,"latitude":52.7069948,"name":"Biciklitároló","city":"Wronki","address":null,"covered":false,"access":null,"website":null,"phone":null,"source":"OpenStreetMap/node/12639072135","sourceUpdatedAt":null,"verifiedAt":null}},{"type":"Feature","geometry":{"type":"Point","coordinates":[16.3832371,52.706868]},"properties":{"id":"bikerack:2efbce9e-257b-41ea-9c97-bbdef0729ede","kind":"bikerack","longitude":16.3832371,"latitude":52.706868,"name":"Biciklitároló","city":"Wronki","address":null,"covered":false,"access":null,"website":null,"phone":null,"source":"OpenStreetMap/node/12639072139","sourceUpdatedAt":null,"verifiedAt":null}},{"type":"Feature","geometry":{"type":"Point","coordinates":[16.3605,52.7104001]},"properties":{"id":"bikerack:33028af5-aa9f-4503-b60f-ba80814563ee","kind":"bikerack","longitude":16.3605,"latitude":52.7104001,"name":"Biciklitároló","city":"Wronki","address":null,"covered":false,"access":null,"website":null,"phone":null,"source":"OpenStreetMap/node/12772121952","sourceUpdatedAt":null,"verifiedAt":null}},{"type":"Feature","geometry":{"type":"Point","coordinates":[16.3864058,52.7108963]},"properties":{"id":"bikerack:341d519a-aeef-4910-95b8-aeec46159956","kind":"bikerack","longitude":16.3864058,"latitude":52.7108963,"name":"Biciklitároló","city":"Wronki","address":null,"covered":false,"access":null,"website":null,"phone":null,"source":"OpenStreetMap/way/1366015086","sourceUpdatedAt":null,"verifiedAt":null}},{"type":"Feature","geometry":{"type":"Point","coordinates":[16.3841665,52.711514]},"properties":{"id":"bikerack:34ff6602-8a78-406a-a2f1-e84e764b993a","kind":"bikerack","longitude":16.3841665,"latitude":52.711514,"name":"Biciklitároló","city":"Wronki","address":null,"covered":false,"access":null,"website":null,"phone":null,"source":"OpenStreetMap/node/12645724138","sourceUpdatedAt":null,"verifiedAt":null}},{"type":"Feature","geometry":{"type":"Point","coordinates":[16.378566,52.7096022]},"properties":{"id":"bikerack:39798927-1d74-479b-810a-8b53d893bb53","kind":"bikerack","longitude":16.378566,"latitude":52.7096022,"name":"Biciklitároló","city":"Wronki","address":null,"covered":false,"access":null,"website":null,"phone":null,"source":"OpenStreetMap/node/12626148124","sourceUpdatedAt":null,"verifiedAt":null}},{"type":"Feature","geometry":{"type":"Point","coordinates":[16.3845326,52.7070305]},"properties":{"id":"bikerack:3e9758ac-2647-424a-b0ce-7ae053449afd","kind":"bikerack","longitude":16.3845326,"latitude":52.7070305,"name":"Biciklitároló","city":"Wronki","address":null,"covered":false,"access":null,"website":null,"phone":null,"source":"OpenStreetMap/node/12639072132","sourceUpdatedAt":null,"verifiedAt":null}},{"type":"Feature","geometry":{"type":"Point","coordinates":[16.3806045,52.7177193]},"properties":{"id":"bikerack:408baf32-d326-40a0-9b40-6bc273d32228","kind":"bikerack","longitude":16.3806045,"latitude":52.7177193,"name":"Biciklitároló","city":"Wronki","address":null,"covered":false,"access":null,"website":null,"phone":null,"source":"OpenStreetMap/node/10762313319","sourceUpdatedAt":null,"verifiedAt":null}},{"type":"Feature","geometry":{"type":"Point","coordinates":[16.3832693,52.7066478]},"properties":{"id":"bikerack:433988b3-ca33-4b27-9602-f3c37d3ef114","kind":"bikerack","longitude":16.3832693,"latitude":52.7066478,"name":"Biciklitároló","city":"Wronki","address":null,"covered":false,"access":null,"website":null,"phone":null,"source":"OpenStreetMap/node/12639072140","sourceUpdatedAt":null,"verifiedAt":null}},{"type":"Feature","geometry":{"type":"Point","coordinates":[16.3837762,52.7114839]},"properties":{"id":"bikerack:4b2345df-f05e-4f0c-947f-ecacb35f66bd","kind":"bikerack","longitude":16.3837762,"latitude":52.7114839,"name":"Biciklitároló","city":"Wronki","address":null,"covered":false,"access":null,"website":null,"phone":null,"source":"OpenStreetMap/node/12645724147","sourceUpdatedAt":null,"verifiedAt":null}},{"type":"Feature","geometry":{"type":"Point","coordinates":[16.3855867,52.7109753]},"properties":{"id":"bikerack:4c786777-f9bf-4ad1-b1b2-02ce1a14cd17","kind":"bikerack","longitude":16.3855867,"latitude":52.7109753,"name":"Biciklitároló","city":"Wronki","address":null,"covered":false,"access":null,"website":null,"phone":null,"source":"OpenStreetMap/node/12646596977","sourceUpdatedAt":null,"verifiedAt":null}},{"type":"Feature","geometry":{"type":"Point","coordinates":[16.3779867,52.7100239]},"properties":{"id":"bikerack:4f8fa634-036b-4f9d-9193-43ad08f3f7fb","kind":"bikerack","longitude":16.3779867,"latitude":52.7100239,"name":"Biciklitároló","city":"Wronki","address":null,"covered":false,"access":null,"website":null,"phone":null,"source":"OpenStreetMap/node/12626148114","sourceUpdatedAt":null,"verifiedAt":null}},{"type":"Feature","geometry":{"type":"Point","coordinates":[16.3848209,52.7104724]},"properties":{"id":"bikerack:5174d712-d3fd-430f-abbd-6b94a0330e3b","kind":"bikerack","longitude":16.3848209,"latitude":52.7104724,"name":"Biciklitároló","city":"Wronki","address":null,"covered":false,"access":null,"website":null,"phone":null,"source":"OpenStreetMap/node/12650230049","sourceUpdatedAt":null,"verifiedAt":null}},{"type":"Feature","geometry":{"type":"Point","coordinates":[16.3696121,52.7105971]},"properties":{"id":"bikerack:520487ae-9057-4f99-bd77-3e5fe259127a","kind":"bikerack","longitude":16.3696121,"latitude":52.7105971,"name":"Biciklitároló","city":"Wronki","address":null,"covered":false,"access":null,"website":null,"phone":null,"source":"OpenStreetMap/node/12739307529","sourceUpdatedAt":null,"verifiedAt":null}},{"type":"Feature","geometry":{"type":"Point","coordinates":[16.3864231,52.7055543]},"properties":{"id":"bikerack:53a4e8c4-8b96-4e45-b00a-93a6804d43b9","kind":"bikerack","longitude":16.3864231,"latitude":52.7055543,"name":"Biciklitároló","city":"Wronki","address":null,"covered":false,"access":null,"website":null,"phone":null,"source":"OpenStreetMap/way/1169433293","sourceUpdatedAt":null,"verifiedAt":null}},{"type":"Feature","geometry":{"type":"Point","coordinates":[16.3824727,52.7105455]},"properties":{"id":"bikerack:53c14cb0-d5e2-4329-92c0-085670665f75","kind":"bikerack","longitude":16.3824727,"latitude":52.7105455,"name":"Biciklitároló","city":"Wronki","address":null,"covered":false,"access":null,"website":null,"phone":null,"source":"OpenStreetMap/node/12643740681","sourceUpdatedAt":null,"verifiedAt":null}},{"type":"Feature","geometry":{"type":"Point","coordinates":[16.3809122,52.7073908]},"properties":{"id":"bikerack:53ef13c7-97b1-4908-8cf5-7fd4bc42ab2e","kind":"bikerack","longitude":16.3809122,"latitude":52.7073908,"name":"Biciklitároló","city":"Wronki","address":null,"covered":false,"access":null,"website":null,"phone":null,"source":"OpenStreetMap/node/12641207537","sourceUpdatedAt":null,"verifiedAt":null}},{"type":"Feature","geometry":{"type":"Point","coordinates":[16.3799836,52.709265]},"properties":{"id":"bikerack:55caf8b8-e7de-4659-ae23-4a43f2b03221","kind":"bikerack","longitude":16.3799836,"latitude":52.709265,"name":"Biciklitároló","city":"Wronki","address":null,"covered":false,"access":null,"website":null,"phone":null,"source":"OpenStreetMap/node/12623587635","sourceUpdatedAt":null,"verifiedAt":null}},{"type":"Feature","geometry":{"type":"Point","coordinates":[16.3849584,52.7049146]},"properties":{"id":"bikerack:567efecc-0cec-4c4f-865d-ccff3399307a","kind":"bikerack","longitude":16.3849584,"latitude":52.7049146,"name":"Biciklitároló","city":"Wronki","address":null,"covered":false,"access":null,"website":null,"phone":null,"source":"OpenStreetMap/way/1316001842","sourceUpdatedAt":null,"verifiedAt":null}},{"type":"Feature","geometry":{"type":"Point","coordinates":[16.3832532,52.7110972]},"properties":{"id":"bikerack:578aca62-63a2-475c-b9ca-d368f9cea0a8","kind":"bikerack","longitude":16.3832532,"latitude":52.7110972,"name":"Biciklitároló","city":"Wronki","address":null,"covered":false,"access":null,"website":null,"phone":null,"source":"OpenStreetMap/node/12645724145","sourceUpdatedAt":null,"verifiedAt":null}},{"type":"Feature","geometry":{"type":"Point","coordinates":[16.3813736,52.7071856]},"properties":{"id":"bikerack:589ae795-ea6f-4b19-94bd-89e322adef01","kind":"bikerack","longitude":16.3813736,"latitude":52.7071856,"name":"Biciklitároló","city":"Wronki","address":null,"covered":false,"access":null,"website":null,"phone":null,"source":"OpenStreetMap/node/12621059189","sourceUpdatedAt":null,"verifiedAt":null}},{"type":"Feature","geometry":{"type":"Point","coordinates":[16.3838178,52.7083643]},"properties":{"id":"bikerack:5c3664f8-b290-4c56-aa97-c9b2ff9c5ca4","kind":"bikerack","longitude":16.3838178,"latitude":52.7083643,"name":"Biciklitároló","city":"Wronki","address":null,"covered":false,"access":null,"website":null,"phone":null,"source":"OpenStreetMap/node/12641136848","sourceUpdatedAt":null,"verifiedAt":null}},{"type":"Feature","geometry":{"type":"Point","coordinates":[16.3851555,52.7105232]},"properties":{"id":"bikerack:62bc7aea-fb7a-4b31-ab31-31be0c124c54","kind":"bikerack","longitude":16.3851555,"latitude":52.7105232,"name":"Biciklitároló","city":"Wronki","address":null,"covered":false,"access":null,"website":null,"phone":null,"source":"OpenStreetMap/node/12650230051","sourceUpdatedAt":null,"verifiedAt":null}},{"type":"Feature","geometry":{"type":"Point","coordinates":[16.382309,52.708927]},"properties":{"id":"bikerack:6d7314ab-5e3d-4c21-971e-f2444772d1d7","kind":"bikerack","longitude":16.382309,"latitude":52.708927,"name":"Biciklitároló","city":"Wronki","address":null,"covered":false,"access":null,"website":null,"phone":null,"source":"OpenStreetMap/node/12641136854","sourceUpdatedAt":null,"verifiedAt":null}},{"type":"Feature","geometry":{"type":"Point","coordinates":[16.388061,52.7117667]},"properties":{"id":"bikerack:6eaa779a-98ed-46bd-a734-2188f54c4b18","kind":"bikerack","longitude":16.388061,"latitude":52.7117667,"name":"Biciklitároló","city":"Wronki","address":null,"covered":false,"access":null,"website":null,"phone":null,"source":"OpenStreetMap/node/12645825897","sourceUpdatedAt":null,"verifiedAt":null}},{"type":"Feature","geometry":{"type":"Point","coordinates":[16.3832143,52.7070858]},"properties":{"id":"bikerack:6ec87a7e-3a65-41c8-b3ef-3303aa437122","kind":"bikerack","longitude":16.3832143,"latitude":52.7070858,"name":"Biciklitároló","city":"Wronki","address":null,"covered":false,"access":null,"website":null,"phone":null,"source":"OpenStreetMap/node/12639072137","sourceUpdatedAt":null,"verifiedAt":null}},{"type":"Feature","geometry":{"type":"Point","coordinates":[16.3832572,52.7108323]},"properties":{"id":"bikerack:705eff40-a746-407d-bc0e-cc26c42ea459","kind":"bikerack","longitude":16.3832572,"latitude":52.7108323,"name":"Biciklitároló","city":"Wronki","address":null,"covered":false,"access":null,"website":null,"phone":null,"source":"OpenStreetMap/node/12646596971","sourceUpdatedAt":null,"verifiedAt":null}},{"type":"Feature","geometry":{"type":"Point","coordinates":[16.3875313,52.7111996]},"properties":{"id":"bikerack:71828c06-0b0c-4dca-bf4a-0f5d5ce1b47e","kind":"bikerack","longitude":16.3875313,"latitude":52.7111996,"name":"Biciklitároló","city":"Wronki","address":null,"covered":false,"access":null,"website":null,"phone":null,"source":"OpenStreetMap/node/12650228258","sourceUpdatedAt":null,"verifiedAt":null}},{"type":"Feature","geometry":{"type":"Point","coordinates":[16.385057,52.7104927]},"properties":{"id":"bikerack:71bc7d79-c162-4493-bfb1-1914b54573c2","kind":"bikerack","longitude":16.385057,"latitude":52.7104927,"name":"Biciklitároló","city":"Wronki","address":null,"covered":false,"access":null,"website":null,"phone":null,"source":"OpenStreetMap/node/12650230050","sourceUpdatedAt":null,"verifiedAt":null}},{"type":"Feature","geometry":{"type":"Point","coordinates":[16.3831861,52.7113052]},"properties":{"id":"bikerack:75603a35-490a-441b-af55-9bba8a5f880b","kind":"bikerack","longitude":16.3831861,"latitude":52.7113052,"name":"Biciklitároló","city":"Wronki","address":null,"covered":false,"access":null,"website":null,"phone":null,"source":"OpenStreetMap/node/12645724146","sourceUpdatedAt":null,"verifiedAt":null}},{"type":"Feature","geometry":{"type":"Point","coordinates":[16.3816828,52.7088864]},"properties":{"id":"bikerack:76c6fef0-990d-4f85-bc43-0a088790ed0f","kind":"bikerack","longitude":16.3816828,"latitude":52.7088864,"name":"Biciklitároló","city":"Wronki","address":null,"covered":false,"access":null,"website":null,"phone":null,"source":"OpenStreetMap/node/12641136852","sourceUpdatedAt":null,"verifiedAt":null}},{"type":"Feature","geometry":{"type":"Point","coordinates":[16.3835818,52.7063317]},"properties":{"id":"bikerack:78b3329b-7eb6-4b63-ba0f-d0dda7ad8159","kind":"bikerack","longitude":16.3835818,"latitude":52.7063317,"name":"Biciklitároló","city":"Wronki","address":null,"covered":false,"access":null,"website":null,"phone":null,"source":"OpenStreetMap/node/12643740686","sourceUpdatedAt":null,"verifiedAt":null}},{"type":"Feature","geometry":{"type":"Point","coordinates":[16.3874817,52.711462]},"properties":{"id":"bikerack:7cf66ab1-f76b-4fd9-90c7-b5ccd0eae917","kind":"bikerack","longitude":16.3874817,"latitude":52.711462,"name":"Biciklitároló","city":"Wronki","address":null,"covered":false,"access":null,"website":null,"phone":null,"source":"OpenStreetMap/node/12650228255","sourceUpdatedAt":null,"verifiedAt":null}},{"type":"Feature","geometry":{"type":"Point","coordinates":[16.3697355,52.7106731]},"properties":{"id":"bikerack:7d8fe208-9763-40fa-bf6c-434d412a6e95","kind":"bikerack","longitude":16.3697355,"latitude":52.7106731,"name":"Biciklitároló","city":"Wronki","address":null,"covered":false,"access":null,"website":null,"phone":null,"source":"OpenStreetMap/node/12739307527","sourceUpdatedAt":null,"verifiedAt":null}},{"type":"Feature","geometry":{"type":"Point","coordinates":[16.3837655,52.7111508]},"properties":{"id":"bikerack:7e04f08d-e709-43f6-aa74-3f122022b42c","kind":"bikerack","longitude":16.3837655,"latitude":52.7111508,"name":"Biciklitároló","city":"Wronki","address":null,"covered":false,"access":null,"website":null,"phone":null,"source":"OpenStreetMap/node/12645724141","sourceUpdatedAt":null,"verifiedAt":null}},{"type":"Feature","geometry":{"type":"Point","coordinates":[16.3861286,52.7109518]},"properties":{"id":"bikerack:842544e8-e150-4479-a332-d4b55746557c","kind":"bikerack","longitude":16.3861286,"latitude":52.7109518,"name":"Biciklitároló","city":"Wronki","address":null,"covered":false,"access":null,"website":null,"phone":null,"source":"OpenStreetMap/node/12646596970","sourceUpdatedAt":null,"verifiedAt":null}},{"type":"Feature","geometry":{"type":"Point","coordinates":[16.3794015,52.7073783]},"properties":{"id":"bikerack:86c21eab-8714-462a-984f-7410e1316f30","kind":"bikerack","longitude":16.3794015,"latitude":52.7073783,"name":"Biciklitároló","city":"Wronki","address":null,"covered":false,"access":null,"website":null,"phone":null,"source":"OpenStreetMap/node/12641207538","sourceUpdatedAt":null,"verifiedAt":null}},{"type":"Feature","geometry":{"type":"Point","coordinates":[16.3829139,52.7109997]},"properties":{"id":"bikerack:8e1ab409-d47d-48fa-974e-88413d2f9013","kind":"bikerack","longitude":16.3829139,"latitude":52.7109997,"name":"Biciklitároló","city":"Wronki","address":null,"covered":false,"access":null,"website":null,"phone":null,"source":"OpenStreetMap/node/12645724140","sourceUpdatedAt":null,"verifiedAt":null}},{"type":"Feature","geometry":{"type":"Point","coordinates":[16.3800949,52.7071402]},"properties":{"id":"bikerack:9aca59e6-7282-42b8-a82d-a4f2bb20de22","kind":"bikerack","longitude":16.3800949,"latitude":52.7071402,"name":"Biciklitároló","city":"Wronki","address":null,"covered":false,"access":null,"website":null,"phone":null,"source":"OpenStreetMap/node/12641207539","sourceUpdatedAt":null,"verifiedAt":null}},{"type":"Feature","geometry":{"type":"Point","coordinates":[16.3874508,52.711631]},"properties":{"id":"bikerack:9edd581a-3206-4bd1-9ee6-f57a2c6978ea","kind":"bikerack","longitude":16.3874508,"latitude":52.711631,"name":"Biciklitároló","city":"Wronki","address":null,"covered":false,"access":null,"website":null,"phone":null,"source":"OpenStreetMap/node/12650228253","sourceUpdatedAt":null,"verifiedAt":null}},{"type":"Feature","geometry":{"type":"Point","coordinates":[16.3863015,52.7115002]},"properties":{"id":"bikerack:a25c4bcb-a366-4e22-b3da-61bfee22549c","kind":"bikerack","longitude":16.3863015,"latitude":52.7115002,"name":"Biciklitároló","city":"Wronki","address":null,"covered":false,"access":null,"website":null,"phone":null,"source":"OpenStreetMap/node/12645724149","sourceUpdatedAt":null,"verifiedAt":null}},{"type":"Feature","geometry":{"type":"Point","coordinates":[16.378904,52.7098256]},"properties":{"id":"bikerack:a4916ef9-5ed6-45e3-8919-0952cfb7baa2","kind":"bikerack","longitude":16.378904,"latitude":52.7098256,"name":"Biciklitároló","city":"Wronki","address":null,"covered":false,"access":null,"website":null,"phone":null,"source":"OpenStreetMap/node/12623560937","sourceUpdatedAt":null,"verifiedAt":null}},{"type":"Feature","geometry":{"type":"Point","coordinates":[16.3846908,52.7070394]},"properties":{"id":"bikerack:a4aef705-6d8a-4943-832b-18b357a01e95","kind":"bikerack","longitude":16.3846908,"latitude":52.7070394,"name":"Biciklitároló","city":"Wronki","address":null,"covered":false,"access":null,"website":null,"phone":null,"source":"OpenStreetMap/node/12639072130","sourceUpdatedAt":null,"verifiedAt":null}},{"type":"Feature","geometry":{"type":"Point","coordinates":[16.3880892,52.7116261]},"properties":{"id":"bikerack:a4c74341-3834-43e1-8924-b61bba9c8995","kind":"bikerack","longitude":16.3880892,"latitude":52.7116261,"name":"Biciklitároló","city":"Wronki","address":null,"covered":false,"access":null,"website":null,"phone":null,"source":"OpenStreetMap/node/12645825896","sourceUpdatedAt":null,"verifiedAt":null}},{"type":"Feature","geometry":{"type":"Point","coordinates":[16.3821515,52.7112089]},"properties":{"id":"bikerack:a609a1bf-e87a-4485-8a02-c5c89572a23b","kind":"bikerack","longitude":16.3821515,"latitude":52.7112089,"name":"Biciklitároló","city":"Wronki","address":null,"covered":false,"access":null,"website":null,"phone":null,"source":"OpenStreetMap/node/12645724143","sourceUpdatedAt":null,"verifiedAt":null}},{"type":"Feature","geometry":{"type":"Point","coordinates":[16.3850368,52.7107893]},"properties":{"id":"bikerack:aaa8e796-b0c7-4ec6-9ead-0365224a5b6b","kind":"bikerack","longitude":16.3850368,"latitude":52.7107893,"name":"Biciklitároló","city":"Wronki","address":null,"covered":false,"access":null,"website":null,"phone":null,"source":"OpenStreetMap/node/12650230048","sourceUpdatedAt":null,"verifiedAt":null}},{"type":"Feature","geometry":{"type":"Point","coordinates":[16.384719,52.7068347]},"properties":{"id":"bikerack:adfeb121-7d08-4542-be10-f87a5099f060","kind":"bikerack","longitude":16.384719,"latitude":52.7068347,"name":"Biciklitároló","city":"Wronki","address":null,"covered":false,"access":null,"website":null,"phone":null,"source":"OpenStreetMap/node/12639072131","sourceUpdatedAt":null,"verifiedAt":null}},{"type":"Feature","geometry":{"type":"Point","coordinates":[16.376376,52.7079036]},"properties":{"id":"bikerack:b0434b0c-b346-4738-abca-a3bccbe44351","kind":"bikerack","longitude":16.376376,"latitude":52.7079036,"name":"Biciklitároló","city":"Wronki","address":null,"covered":false,"access":null,"website":null,"phone":null,"source":"OpenStreetMap/node/12641207540","sourceUpdatedAt":null,"verifiedAt":null}},{"type":"Feature","geometry":{"type":"Point","coordinates":[16.387471,52.7115229]},"properties":{"id":"bikerack:b0835ad7-1b55-46fd-b0c8-3c7cdfdd0579","kind":"bikerack","longitude":16.387471,"latitude":52.7115229,"name":"Biciklitároló","city":"Wronki","address":null,"covered":false,"access":null,"website":null,"phone":null,"source":"OpenStreetMap/node/12650228254","sourceUpdatedAt":null,"verifiedAt":null}},{"type":"Feature","geometry":{"type":"Point","coordinates":[16.378507,52.7102291]},"properties":{"id":"bikerack:b29c681f-c7c6-4e84-9b17-129d4ca08705","kind":"bikerack","longitude":16.378507,"latitude":52.7102291,"name":"Biciklitároló","city":"Wronki","address":null,"covered":false,"access":null,"website":null,"phone":null,"source":"OpenStreetMap/node/12623560948","sourceUpdatedAt":null,"verifiedAt":null}},{"type":"Feature","geometry":{"type":"Point","coordinates":[16.3827516,52.7113637]},"properties":{"id":"bikerack:b5bf180b-1048-4740-b731-52c07db367fe","kind":"bikerack","longitude":16.3827516,"latitude":52.7113637,"name":"Biciklitároló","city":"Wronki","address":null,"covered":false,"access":null,"website":null,"phone":null,"source":"OpenStreetMap/node/12645724144","sourceUpdatedAt":null,"verifiedAt":null}},{"type":"Feature","geometry":{"type":"Point","coordinates":[16.3794049,52.7080076]},"properties":{"id":"bikerack:b6942f4e-1391-4ddd-8218-e369e3f88e4d","kind":"bikerack","longitude":16.3794049,"latitude":52.7080076,"name":"Biciklitároló","city":"Wronki","address":null,"covered":false,"access":null,"website":null,"phone":null,"source":"OpenStreetMap/node/12626151734","sourceUpdatedAt":null,"verifiedAt":null}},{"type":"Feature","geometry":{"type":"Point","coordinates":[16.3840646,52.7082063]},"properties":{"id":"bikerack:bb2d6e30-24ad-4bd2-9834-d1d41e94c717","kind":"bikerack","longitude":16.3840646,"latitude":52.7082063,"name":"Biciklitároló","city":"Wronki","address":null,"covered":false,"access":null,"website":null,"phone":null,"source":"OpenStreetMap/node/12641136850","sourceUpdatedAt":null,"verifiedAt":null}},{"type":"Feature","geometry":{"type":"Point","coordinates":[16.3874924,52.7114157]},"properties":{"id":"bikerack:c0ba7ba7-45b0-4100-95fb-e3a4f7dbfd10","kind":"bikerack","longitude":16.3874924,"latitude":52.7114157,"name":"Biciklitároló","city":"Wronki","address":null,"covered":false,"access":null,"website":null,"phone":null,"source":"OpenStreetMap/node/12650228256","sourceUpdatedAt":null,"verifiedAt":null}},{"type":"Feature","geometry":{"type":"Point","coordinates":[16.375798,52.7101795]},"properties":{"id":"bikerack:c2ee2d55-2d31-45db-bc4d-64b9f1ced43e","kind":"bikerack","longitude":16.375798,"latitude":52.7101795,"name":"Biciklitároló","city":"Wronki","address":null,"covered":false,"access":null,"website":null,"phone":null,"source":"OpenStreetMap/node/12779006791","sourceUpdatedAt":null,"verifiedAt":null}},{"type":"Feature","geometry":{"type":"Point","coordinates":[16.3847941,52.7113336]},"properties":{"id":"bikerack:c3c00f2d-1234-4c69-88ba-40e18acfcd91","kind":"bikerack","longitude":16.3847941,"latitude":52.7113336,"name":"Biciklitároló","city":"Wronki","address":null,"covered":false,"access":null,"website":null,"phone":null,"source":"OpenStreetMap/node/12645724150","sourceUpdatedAt":null,"verifiedAt":null}},{"type":"Feature","geometry":{"type":"Point","coordinates":[16.3749735,52.7085554]},"properties":{"id":"bikerack:c4d1d266-f7c5-42ca-92f0-49bfa4e65f31","kind":"bikerack","longitude":16.3749735,"latitude":52.7085554,"name":"Biciklitároló","city":"Wronki","address":null,"covered":false,"access":null,"website":null,"phone":null,"source":"OpenStreetMap/way/1363133429","sourceUpdatedAt":null,"verifiedAt":null}},{"type":"Feature","geometry":{"type":"Point","coordinates":[16.3802914,52.7080802]},"properties":{"id":"bikerack:c7786df6-006b-4fe7-aab3-97062b5f1b30","kind":"bikerack","longitude":16.3802914,"latitude":52.7080802,"name":"Biciklitároló","city":"Wronki","address":null,"covered":false,"access":null,"website":null,"phone":null,"source":"OpenStreetMap/node/12621059194","sourceUpdatedAt":null,"verifiedAt":null}},{"type":"Feature","geometry":{"type":"Point","coordinates":[16.3839412,52.7082847]},"properties":{"id":"bikerack:c77c58a4-4ad8-45af-822c-e716ae712361","kind":"bikerack","longitude":16.3839412,"latitude":52.7082847,"name":"Biciklitároló","city":"Wronki","address":null,"covered":false,"access":null,"website":null,"phone":null,"source":"OpenStreetMap/node/12641136849","sourceUpdatedAt":null,"verifiedAt":null}},{"type":"Feature","geometry":{"type":"Point","coordinates":[16.3768823,52.7076724]},"properties":{"id":"bikerack:c79ca9bf-5072-4b45-ab96-330aa0e9e0bb","kind":"bikerack","longitude":16.3768823,"latitude":52.7076724,"name":"Biciklitároló","city":"Wronki","address":null,"covered":false,"access":null,"website":null,"phone":null,"source":"OpenStreetMap/node/12621059190","sourceUpdatedAt":null,"verifiedAt":null}},{"type":"Feature","geometry":{"type":"Point","coordinates":[16.3870083,52.7110501]},"properties":{"id":"bikerack:c900fc4b-183f-4195-b89c-bdca94f742e3","kind":"bikerack","longitude":16.3870083,"latitude":52.7110501,"name":"Biciklitároló","city":"Wronki","address":null,"covered":false,"access":null,"website":null,"phone":null,"source":"OpenStreetMap/node/12650228261","sourceUpdatedAt":null,"verifiedAt":null}},{"type":"Feature","geometry":{"type":"Point","coordinates":[16.3607468,52.7105601]},"properties":{"id":"bikerack:c911119f-19bf-4fa9-a0ec-17d077bd528b","kind":"bikerack","longitude":16.3607468,"latitude":52.7105601,"name":"Biciklitároló","city":"Wronki","address":null,"covered":false,"access":null,"website":null,"phone":null,"source":"OpenStreetMap/node/12772121953","sourceUpdatedAt":null,"verifiedAt":null}},{"type":"Feature","geometry":{"type":"Point","coordinates":[16.3782267,52.7095949]},"properties":{"id":"bikerack:caabf4e8-f540-4b83-9a83-09628d9973d5","kind":"bikerack","longitude":16.3782267,"latitude":52.7095949,"name":"Biciklitároló","city":"Wronki","address":null,"covered":false,"access":null,"website":null,"phone":null,"source":"OpenStreetMap/node/12626148125","sourceUpdatedAt":null,"verifiedAt":null}},{"type":"Feature","geometry":{"type":"Point","coordinates":[16.3788778,52.7102022]},"properties":{"id":"bikerack:cd291c41-003c-4e19-8694-12f97b0686e6","kind":"bikerack","longitude":16.3788778,"latitude":52.7102022,"name":"Biciklitároló","city":"Wronki","address":null,"covered":false,"access":null,"website":null,"phone":null,"source":"OpenStreetMap/node/12623560946","sourceUpdatedAt":null,"verifiedAt":null}},{"type":"Feature","geometry":{"type":"Point","coordinates":[16.3832599,52.7067583]},"properties":{"id":"bikerack:ce9ac512-314a-4bdb-88e3-ff226e8544d3","kind":"bikerack","longitude":16.3832599,"latitude":52.7067583,"name":"Biciklitároló","city":"Wronki","address":null,"covered":false,"access":null,"website":null,"phone":null,"source":"OpenStreetMap/node/12639072136","sourceUpdatedAt":null,"verifiedAt":null}},{"type":"Feature","geometry":{"type":"Point","coordinates":[16.3855317,52.70643]},"properties":{"id":"bikerack:cfc03801-5986-433d-a665-e7d2b04e2940","kind":"bikerack","longitude":16.3855317,"latitude":52.70643,"name":"Biciklitároló","city":"Wronki","address":null,"covered":false,"access":null,"website":null,"phone":null,"source":"OpenStreetMap/node/12643740685","sourceUpdatedAt":null,"verifiedAt":null}},{"type":"Feature","geometry":{"type":"Point","coordinates":[16.3836703,52.7108583]},"properties":{"id":"bikerack:d0aab25b-246e-4cad-ae51-17a9912a533b","kind":"bikerack","longitude":16.3836703,"latitude":52.7108583,"name":"Biciklitároló","city":"Wronki","address":null,"covered":false,"access":null,"website":null,"phone":null,"source":"OpenStreetMap/node/12646596972","sourceUpdatedAt":null,"verifiedAt":null}},{"type":"Feature","geometry":{"type":"Point","coordinates":[16.3880503,52.711826]},"properties":{"id":"bikerack:d607e98f-f1c6-4217-abf4-5471a00d2f14","kind":"bikerack","longitude":16.3880503,"latitude":52.711826,"name":"Biciklitároló","city":"Wronki","address":null,"covered":false,"access":null,"website":null,"phone":null,"source":"OpenStreetMap/node/12645825898","sourceUpdatedAt":null,"verifiedAt":null}},{"type":"Feature","geometry":{"type":"Point","coordinates":[16.3875554,52.7110923]},"properties":{"id":"bikerack:d6c3552a-66ec-4642-9391-23849a9651de","kind":"bikerack","longitude":16.3875554,"latitude":52.7110923,"name":"Biciklitároló","city":"Wronki","address":null,"covered":false,"access":null,"website":null,"phone":null,"source":"OpenStreetMap/node/12650228259","sourceUpdatedAt":null,"verifiedAt":null}},{"type":"Feature","geometry":{"type":"Point","coordinates":[16.3738672,52.7114526]},"properties":{"id":"bikerack:d7f188aa-a012-4169-bd97-0b5d1d6b5584","kind":"bikerack","longitude":16.3738672,"latitude":52.7114526,"name":"Biciklitároló","city":"Wronki","address":null,"covered":false,"access":null,"website":null,"phone":null,"source":"OpenStreetMap/node/12618902448","sourceUpdatedAt":null,"verifiedAt":null}},{"type":"Feature","geometry":{"type":"Point","coordinates":[16.3851964,52.7116245]},"properties":{"id":"bikerack:dbb6494e-4dc0-40be-8238-361bbfb474f4","kind":"bikerack","longitude":16.3851964,"latitude":52.7116245,"name":"Biciklitároló","city":"Wronki","address":null,"covered":false,"access":null,"website":null,"phone":null,"source":"OpenStreetMap/node/12645724148","sourceUpdatedAt":null,"verifiedAt":null}},{"type":"Feature","geometry":{"type":"Point","coordinates":[16.3783944,52.7103806]},"properties":{"id":"bikerack:dc6fa554-1fad-42e5-8bd6-ea2ec0c3ac6d","kind":"bikerack","longitude":16.3783944,"latitude":52.7103806,"name":"Biciklitároló","city":"Wronki","address":null,"covered":false,"access":null,"website":null,"phone":null,"source":"OpenStreetMap/node/12626151737","sourceUpdatedAt":null,"verifiedAt":null}},{"type":"Feature","geometry":{"type":"Point","coordinates":[16.3845205,52.7108965]},"properties":{"id":"bikerack:de943daf-803d-45f0-84b4-baf6607b747b","kind":"bikerack","longitude":16.3845205,"latitude":52.7108965,"name":"Biciklitároló","city":"Wronki","address":null,"covered":false,"access":null,"website":null,"phone":null,"source":"OpenStreetMap/node/12646596973","sourceUpdatedAt":null,"verifiedAt":null}},{"type":"Feature","geometry":{"type":"Point","coordinates":[16.381503,52.7087629]},"properties":{"id":"bikerack:e327ffa2-215f-44b6-8619-412c9b80721c","kind":"bikerack","longitude":16.381503,"latitude":52.7087629,"name":"Biciklitároló","city":"Wronki","address":null,"covered":false,"access":null,"website":null,"phone":null,"source":"OpenStreetMap/node/12643740683","sourceUpdatedAt":null,"verifiedAt":null}},{"type":"Feature","geometry":{"type":"Point","coordinates":[16.378735,52.709534]},"properties":{"id":"bikerack:e404cc96-f33e-4218-a831-af9bce7d949d","kind":"bikerack","longitude":16.378735,"latitude":52.709534,"name":"Biciklitároló","city":"Wronki","address":null,"covered":false,"access":null,"website":null,"phone":null,"source":"OpenStreetMap/node/12623560941","sourceUpdatedAt":null,"verifiedAt":null}},{"type":"Feature","geometry":{"type":"Point","coordinates":[16.3822004,52.7109611]},"properties":{"id":"bikerack:e618e4ec-0504-4a35-9497-014f1592bce6","kind":"bikerack","longitude":16.3822004,"latitude":52.7109611,"name":"Biciklitároló","city":"Wronki","address":null,"covered":false,"access":null,"website":null,"phone":null,"source":"OpenStreetMap/node/12645724139","sourceUpdatedAt":null,"verifiedAt":null}},{"type":"Feature","geometry":{"type":"Point","coordinates":[16.3824914,52.7090286]},"properties":{"id":"bikerack:e8545309-63cd-425c-be47-11e4f9e5d3b9","kind":"bikerack","longitude":16.3824914,"latitude":52.7090286,"name":"Biciklitároló","city":"Wronki","address":null,"covered":false,"access":null,"website":null,"phone":null,"source":"OpenStreetMap/node/12641136853","sourceUpdatedAt":null,"verifiedAt":null}},{"type":"Feature","geometry":{"type":"Point","coordinates":[16.3787779,52.7098395]},"properties":{"id":"bikerack:ee5d0cec-499f-4de7-88da-ec7b768c13cf","kind":"bikerack","longitude":16.3787779,"latitude":52.7098395,"name":"Biciklitároló","city":"Wronki","address":null,"covered":false,"access":null,"website":null,"phone":null,"source":"OpenStreetMap/node/12623560938","sourceUpdatedAt":null,"verifiedAt":null}},{"type":"Feature","geometry":{"type":"Point","coordinates":[16.3841832,52.7081303]},"properties":{"id":"bikerack:f36ea551-6128-44e9-90d0-d8b2f7ea27c2","kind":"bikerack","longitude":16.3841832,"latitude":52.7081303,"name":"Biciklitároló","city":"Wronki","address":null,"covered":false,"access":null,"website":null,"phone":null,"source":"OpenStreetMap/node/12641136851","sourceUpdatedAt":null,"verifiedAt":null}},{"type":"Feature","geometry":{"type":"Point","coordinates":[16.3813086,52.7105959]},"properties":{"id":"bikerack:f7a74a80-294d-4661-8770-5e7f71718d5a","kind":"bikerack","longitude":16.3813086,"latitude":52.7105959,"name":"Biciklitároló","city":"Wronki","address":null,"covered":false,"access":null,"website":null,"phone":null,"source":"OpenStreetMap/node/12641207541","sourceUpdatedAt":null,"verifiedAt":null}},{"type":"Feature","geometry":{"type":"Point","coordinates":[16.3790026,52.7095112]},"properties":{"id":"bikerack:f8c3c783-f6ad-44bb-a59e-9871a49622a2","kind":"bikerack","longitude":16.3790026,"latitude":52.7095112,"name":"Biciklitároló","city":"Wronki","address":null,"covered":false,"access":null,"website":null,"phone":null,"source":"OpenStreetMap/node/12623560940","sourceUpdatedAt":null,"verifiedAt":null}},{"type":"Feature","geometry":{"type":"Point","coordinates":[16.3869687,52.7112723]},"properties":{"id":"bikerack:faf5d85d-d16e-4c14-917c-b642d18b910c","kind":"bikerack","longitude":16.3869687,"latitude":52.7112723,"name":"Biciklitároló","city":"Wronki","address":null,"covered":false,"access":null,"website":null,"phone":null,"source":"OpenStreetMap/node/12650228260","sourceUpdatedAt":null,"verifiedAt":null}},{"type":"Feature","geometry":{"type":"Point","coordinates":[16.3818008,52.7085313]},"properties":{"id":"bikerack:fb6e6f31-c7fb-4bbe-bb00-af0c3ccdf5bd","kind":"bikerack","longitude":16.3818008,"latitude":52.7085313,"name":"Biciklitároló","city":"Wronki","address":null,"covered":false,"access":null,"website":null,"phone":null,"source":"OpenStreetMap/node/12641136855","sourceUpdatedAt":null,"verifiedAt":null}},{"type":"Feature","geometry":{"type":"Point","coordinates":[16.3834168,52.7067746]},"properties":{"id":"bikerack:fb8528b9-b5e9-41ba-a35f-b73ae2bfe1d6","kind":"bikerack","longitude":16.3834168,"latitude":52.7067746,"name":"Biciklitároló","city":"Wronki","address":null,"covered":false,"access":null,"website":null,"phone":null,"source":"OpenStreetMap/node/12639072134","sourceUpdatedAt":null,"verifiedAt":null}}]}