{"type":"FeatureCollection","features":[{"type":"Feature","geometry":{"type":"Point","coordinates":[16.3531066,50.3752739]},"properties":{"id":"bikerack:60db6c83-0f97-4ca2-81ed-7cbcc32459ce","kind":"bikerack","longitude":16.3531066,"latitude":50.3752739,"name":"Bicycle Parking","city":"Duszniki-Zdroj","address":null,"covered":false,"access":null,"website":null,"phone":null,"source":"OpenStreetMap/node/9741802931","sourceUpdatedAt":null,"verifiedAt":null}},{"type":"Feature","geometry":{"type":"Point","coordinates":[16.3853535,50.394952]},"properties":{"id":"repair:77f9c329-d445-43ec-b85f-35a428ab6b36","kind":"repair","longitude":16.3853535,"latitude":50.394952,"name":"Kerékpár szervizállomás","city":"Duszniki-Zdroj","address":null,"covered":false,"access":null,"website":null,"phone":null,"source":"OpenStreetMap/node/5647099022","sourceUpdatedAt":null,"verifiedAt":null}},{"type":"Feature","geometry":{"type":"Point","coordinates":[16.3841142,50.3928211]},"properties":{"id":"water:37ca6148-2a90-4192-aa71-ccd8112d5143","kind":"water","longitude":16.3841142,"latitude":50.3928211,"name":"Pijalnia Wód Mineralnych","city":"Duszniki-Zdroj","address":null,"covered":null,"access":null,"website":null,"phone":null,"source":"OpenStreetMap/node/2415734487","sourceUpdatedAt":null,"verifiedAt":null}},{"type":"Feature","geometry":{"type":"Point","coordinates":[16.3900551,50.400048]},"properties":{"id":"water:54764a9b-747a-4a36-bc36-b15f89e7ad97","kind":"water","longitude":16.3900551,"latitude":50.400048,"name":"Źródło Felix","city":"Duszniki-Zdroj","address":null,"covered":null,"access":null,"website":null,"phone":null,"source":"OpenStreetMap/node/2416704427","sourceUpdatedAt":null,"verifiedAt":null}},{"type":"Feature","geometry":{"type":"Point","coordinates":[16.3886505,50.397862]},"properties":{"id":"water:99d6831f-8d06-4949-ae6c-7398c4c9ca6f","kind":"water","longitude":16.3886505,"latitude":50.397862,"name":"Źródło Agata","city":"Duszniki-Zdroj","address":null,"covered":null,"access":null,"website":null,"phone":null,"source":"OpenStreetMap/node/873825571","sourceUpdatedAt":null,"verifiedAt":null}}]}