{"type":"FeatureCollection","features":[{"type":"Feature","geometry":{"type":"Point","coordinates":[16.3676475,49.6768905]},"properties":{"id":"bikerack:7a669e64-3e27-4e8b-a10d-b6bc01d56d7d","kind":"bikerack","longitude":16.3676475,"latitude":49.6768905,"name":"Bicycle Parking","city":"Bystre","address":null,"covered":false,"access":null,"website":null,"phone":null,"source":"OpenStreetMap/node/11055563414","sourceUpdatedAt":null,"verifiedAt":null}},{"type":"Feature","geometry":{"type":"Point","coordinates":[16.3674265,49.6767852]},"properties":{"id":"bikerack:7d6b59e3-5833-44e5-8e6a-437bb31c5e0a","kind":"bikerack","longitude":16.3674265,"latitude":49.6767852,"name":"Bicycle Parking","city":"Bystre","address":null,"covered":false,"access":null,"website":null,"phone":null,"source":"OpenStreetMap/node/11055563412","sourceUpdatedAt":null,"verifiedAt":null}},{"type":"Feature","geometry":{"type":"Point","coordinates":[16.3679966,49.6765944]},"properties":{"id":"repair:4e384a7d-7ed2-409b-ad9f-dd6095ebdb5b","kind":"repair","longitude":16.3679966,"latitude":49.6765944,"name":"Bicycle Repair Station","city":"Bystre","address":null,"covered":false,"access":null,"website":null,"phone":null,"source":"OpenStreetMap/node/11055563417","sourceUpdatedAt":null,"verifiedAt":null}}]}