{"type":"FeatureCollection","features":[{"type":"Feature","geometry":{"type":"Point","coordinates":[16.3540714,48.0574382]},"properties":{"id":"bikerack:1437cfdb-9b9c-4707-b87e-a6057dbb8b7e","kind":"bikerack","longitude":16.3540714,"latitude":48.0574382,"name":"Biciklitároló","city":"Laxenburg","address":null,"covered":false,"access":null,"website":null,"phone":null,"source":"OpenStreetMap/node/13046216537","sourceUpdatedAt":null,"verifiedAt":null}},{"type":"Feature","geometry":{"type":"Point","coordinates":[16.3558742,48.0690163]},"properties":{"id":"bikerack:1b02e430-6a0a-4f69-a25e-3953ed418c26","kind":"bikerack","longitude":16.3558742,"latitude":48.0690163,"name":"Biciklitároló","city":"Laxenburg","address":null,"covered":false,"access":null,"website":null,"phone":null,"source":"OpenStreetMap/node/8870141765","sourceUpdatedAt":null,"verifiedAt":null}},{"type":"Feature","geometry":{"type":"Point","coordinates":[16.3548025,48.0677935]},"properties":{"id":"bikerack:1c31fc53-8bc0-4f76-8415-ff2ef8205b81","kind":"bikerack","longitude":16.3548025,"latitude":48.0677935,"name":"Biciklitároló","city":"Laxenburg","address":null,"covered":false,"access":null,"website":null,"phone":null,"source":"OpenStreetMap/node/3296776807","sourceUpdatedAt":null,"verifiedAt":null}},{"type":"Feature","geometry":{"type":"Point","coordinates":[16.3521514,48.0648349]},"properties":{"id":"bikerack:25754a84-ca6f-4062-b993-d0f1c39f65f6","kind":"bikerack","longitude":16.3521514,"latitude":48.0648349,"name":"Biciklitároló","city":"Laxenburg","address":null,"covered":false,"access":null,"website":null,"phone":null,"source":"OpenStreetMap/node/9440552158","sourceUpdatedAt":null,"verifiedAt":null}},{"type":"Feature","geometry":{"type":"Point","coordinates":[16.3549762,48.0697133]},"properties":{"id":"bikerack:37ec7fed-9229-4959-801a-8f16e98028fd","kind":"bikerack","longitude":16.3549762,"latitude":48.0697133,"name":"Biciklitároló","city":"Laxenburg","address":null,"covered":false,"access":null,"website":null,"phone":null,"source":"OpenStreetMap/node/10214772364","sourceUpdatedAt":null,"verifiedAt":null}},{"type":"Feature","geometry":{"type":"Point","coordinates":[16.3558172,48.0687986]},"properties":{"id":"bikerack:3adc6608-ec39-428a-8d34-2643e4bb02b9","kind":"bikerack","longitude":16.3558172,"latitude":48.0687986,"name":"Biciklitároló","city":"Laxenburg","address":null,"covered":false,"access":null,"website":null,"phone":null,"source":"OpenStreetMap/node/3451923233","sourceUpdatedAt":null,"verifiedAt":null}},{"type":"Feature","geometry":{"type":"Point","coordinates":[16.3582927,48.0663261]},"properties":{"id":"bikerack:3b85290e-2acf-4ad7-be8c-f26c59f74488","kind":"bikerack","longitude":16.3582927,"latitude":48.0663261,"name":"Biciklitároló","city":"Laxenburg","address":null,"covered":false,"access":null,"website":null,"phone":null,"source":"OpenStreetMap/way/322886557","sourceUpdatedAt":null,"verifiedAt":null}},{"type":"Feature","geometry":{"type":"Point","coordinates":[16.3542053,48.0648093]},"properties":{"id":"bikerack:4684e117-735f-476a-8e00-745068d02f9c","kind":"bikerack","longitude":16.3542053,"latitude":48.0648093,"name":"Biciklitároló","city":"Laxenburg","address":null,"covered":false,"access":null,"website":null,"phone":null,"source":"OpenStreetMap/node/9995770871","sourceUpdatedAt":null,"verifiedAt":null}},{"type":"Feature","geometry":{"type":"Point","coordinates":[16.3570536,48.0679242]},"properties":{"id":"bikerack:4bf48eb4-96e7-4935-ba11-aa611b95356b","kind":"bikerack","longitude":16.3570536,"latitude":48.0679242,"name":"Biciklitároló","city":"Laxenburg","address":null,"covered":false,"access":null,"website":null,"phone":null,"source":"OpenStreetMap/node/3516045439","sourceUpdatedAt":null,"verifiedAt":null}},{"type":"Feature","geometry":{"type":"Point","coordinates":[16.3553673,48.0674136]},"properties":{"id":"bikerack:5c3b55c0-e6ea-4c22-ba39-f6c384a27bde","kind":"bikerack","longitude":16.3553673,"latitude":48.0674136,"name":"Biciklitároló","city":"Laxenburg","address":null,"covered":false,"access":null,"website":null,"phone":null,"source":"OpenStreetMap/node/3451922790","sourceUpdatedAt":null,"verifiedAt":null}},{"type":"Feature","geometry":{"type":"Point","coordinates":[16.3530847,48.0583727]},"properties":{"id":"bikerack:6de55a58-9c4d-48cf-b853-f418d1837295","kind":"bikerack","longitude":16.3530847,"latitude":48.0583727,"name":"Biciklitároló","city":"Laxenburg","address":null,"covered":false,"access":null,"website":null,"phone":null,"source":"OpenStreetMap/node/9440574821","sourceUpdatedAt":null,"verifiedAt":null}},{"type":"Feature","geometry":{"type":"Point","coordinates":[16.3582459,48.068499]},"properties":{"id":"bikerack:70478879-c226-4806-b93a-123bd7bb6e51","kind":"bikerack","longitude":16.3582459,"latitude":48.068499,"name":"Biciklitároló","city":"Laxenburg","address":null,"covered":false,"access":null,"website":null,"phone":null,"source":"OpenStreetMap/node/8412240029","sourceUpdatedAt":null,"verifiedAt":null}},{"type":"Feature","geometry":{"type":"Point","coordinates":[16.3575315,48.0683788]},"properties":{"id":"bikerack:807d210f-06fa-41c0-95eb-f346795b5eb4","kind":"bikerack","longitude":16.3575315,"latitude":48.0683788,"name":"Biciklitároló","city":"Laxenburg","address":null,"covered":false,"access":null,"website":null,"phone":null,"source":"OpenStreetMap/node/8870143112","sourceUpdatedAt":null,"verifiedAt":null}},{"type":"Feature","geometry":{"type":"Point","coordinates":[16.3509918,48.0716921]},"properties":{"id":"bikerack:8288eb7a-4f52-4cd9-9666-8cf98fd33164","kind":"bikerack","longitude":16.3509918,"latitude":48.0716921,"name":"Biciklitároló","city":"Laxenburg","address":null,"covered":false,"access":null,"website":null,"phone":null,"source":"OpenStreetMap/node/5531708157","sourceUpdatedAt":null,"verifiedAt":null}},{"type":"Feature","geometry":{"type":"Point","coordinates":[16.3578832,48.0688989]},"properties":{"id":"bikerack:bebae8e9-af1c-4087-a350-20ddd2a2626b","kind":"bikerack","longitude":16.3578832,"latitude":48.0688989,"name":"Biciklitároló","city":"Laxenburg","address":null,"covered":false,"access":null,"website":null,"phone":null,"source":"OpenStreetMap/node/10214772363","sourceUpdatedAt":null,"verifiedAt":null}},{"type":"Feature","geometry":{"type":"Point","coordinates":[16.3557285,48.0684121]},"properties":{"id":"bikerack:ceb07fcc-3441-4943-93da-9466f767c62d","kind":"bikerack","longitude":16.3557285,"latitude":48.0684121,"name":"Biciklitároló","city":"Laxenburg","address":null,"covered":false,"access":null,"website":null,"phone":null,"source":"OpenStreetMap/node/3451923227","sourceUpdatedAt":null,"verifiedAt":null}},{"type":"Feature","geometry":{"type":"Point","coordinates":[16.3546573,48.0720282]},"properties":{"id":"bikerack:daf004ee-795f-43d2-957c-72e4af7efe4d","kind":"bikerack","longitude":16.3546573,"latitude":48.0720282,"name":"Biciklitároló","city":"Laxenburg","address":null,"covered":false,"access":null,"website":null,"phone":null,"source":"OpenStreetMap/node/9524962297","sourceUpdatedAt":null,"verifiedAt":null}},{"type":"Feature","geometry":{"type":"Point","coordinates":[16.3564083,48.0774605]},"properties":{"id":"bikerack:e39ed0f9-8ffa-4436-9f23-7a529e58b13c","kind":"bikerack","longitude":16.3564083,"latitude":48.0774605,"name":"Biciklitároló","city":"Laxenburg","address":null,"covered":false,"access":null,"website":null,"phone":null,"source":"OpenStreetMap/node/9935798829","sourceUpdatedAt":null,"verifiedAt":null}},{"type":"Feature","geometry":{"type":"Point","coordinates":[16.3561062,48.0685083]},"properties":{"id":"bikerack:ff73c467-1a60-4231-b0f4-2c294b55cf6b","kind":"bikerack","longitude":16.3561062,"latitude":48.0685083,"name":"Biciklitároló","city":"Laxenburg","address":null,"covered":false,"access":null,"website":null,"phone":null,"source":"OpenStreetMap/node/8870096167","sourceUpdatedAt":null,"verifiedAt":null}},{"type":"Feature","geometry":{"type":"Point","coordinates":[16.361448,48.0633544]},"properties":{"id":"water:22a56f2d-a382-4e1c-a5a0-b995ab663011","kind":"water","longitude":16.361448,"latitude":48.0633544,"name":"Ivókút","city":"Laxenburg","address":null,"covered":null,"access":null,"website":null,"phone":null,"source":"OpenStreetMap/node/12997265388","sourceUpdatedAt":null,"verifiedAt":null}},{"type":"Feature","geometry":{"type":"Point","coordinates":[16.3526009,48.0674563]},"properties":{"id":"water:6883f75c-c0fb-4350-8aa4-541eff94dd5c","kind":"water","longitude":16.3526009,"latitude":48.0674563,"name":"Ivókút","city":"Laxenburg","address":null,"covered":null,"access":null,"website":null,"phone":null,"source":"OpenStreetMap/node/4186905372","sourceUpdatedAt":null,"verifiedAt":null}},{"type":"Feature","geometry":{"type":"Point","coordinates":[16.3542296,48.0669197]},"properties":{"id":"water:a564099d-9a87-4593-ae72-8a9aa4bdbfe7","kind":"water","longitude":16.3542296,"latitude":48.0669197,"name":"Ivókút","city":"Laxenburg","address":null,"covered":null,"access":null,"website":null,"phone":null,"source":"OpenStreetMap/node/1676532342","sourceUpdatedAt":null,"verifiedAt":null}}]}