{"type":"FeatureCollection","features":[{"type":"Feature","geometry":{"type":"Point","coordinates":[11.0493729,51.1068512]},"properties":{"id":"bikerack:8a180e5e-d9b5-441c-a53a-a6a5d881c0b7","kind":"bikerack","longitude":11.0493729,"latitude":51.1068512,"name":"Fahrradabstellplatz","city":"Alperstedt","address":null,"covered":false,"access":null,"website":null,"phone":null,"source":"OpenStreetMap/node/11345824171","sourceUpdatedAt":null,"verifiedAt":null}},{"type":"Feature","geometry":{"type":"Point","coordinates":[11.0486509,51.1017009]},"properties":{"id":"bikerack:9632915d-2b0a-4c31-92d4-d54702c90703","kind":"bikerack","longitude":11.0486509,"latitude":51.1017009,"name":"Fahrradabstellplatz","city":"Alperstedt","address":null,"covered":false,"access":null,"website":null,"phone":null,"source":"OpenStreetMap/node/11345824170","sourceUpdatedAt":null,"verifiedAt":null}},{"type":"Feature","geometry":{"type":"Point","coordinates":[11.0487233,51.1032775]},"properties":{"id":"bikerack:e6d9f344-4271-42de-899a-f133623eade0","kind":"bikerack","longitude":11.0487233,"latitude":51.1032775,"name":"Fahrradabstellplatz","city":"Alperstedt","address":null,"covered":false,"access":null,"website":null,"phone":null,"source":"OpenStreetMap/node/8578364171","sourceUpdatedAt":null,"verifiedAt":null}}]}