{"type":"FeatureCollection","features":[{"type":"Feature","geometry":{"type":"Point","coordinates":[11.0651362,46.670728]},"properties":{"id":"service:7159e2e6-01c9-4d0a-920c-38cb02cb94bd","kind":"service","longitude":11.0651362,"latitude":46.670728,"name":"Etzi's Bike Shop","city":"Rabla","address":null,"covered":null,"access":null,"website":null,"phone":null,"source":"OpenStreetMap/node/4066372993","sourceUpdatedAt":null,"verifiedAt":null}},{"type":"Feature","geometry":{"type":"Point","coordinates":[11.063281,46.670323]},"properties":{"id":"water:0eea772b-c3f8-4009-9661-64cd7a401e3f","kind":"water","longitude":11.063281,"latitude":46.670323,"name":"Fontanella","city":"Rabla","address":null,"covered":null,"access":null,"website":null,"phone":null,"source":"OpenStreetMap/node/10963532211","sourceUpdatedAt":null,"verifiedAt":null}},{"type":"Feature","geometry":{"type":"Point","coordinates":[11.060062,46.669601]},"properties":{"id":"water:49597d75-eb90-4f89-902a-e064fcb5abe4","kind":"water","longitude":11.060062,"latitude":46.669601,"name":"Fontanella","city":"Rabla","address":null,"covered":null,"access":null,"website":null,"phone":null,"source":"OpenStreetMap/node/3700119803","sourceUpdatedAt":null,"verifiedAt":null}},{"type":"Feature","geometry":{"type":"Point","coordinates":[11.042046,46.655265]},"properties":{"id":"water:5e65dee0-7fcb-4c2b-a0b1-0b1db75d8244","kind":"water","longitude":11.042046,"latitude":46.655265,"name":"Fontanella","city":"Plaus","address":null,"covered":null,"access":null,"website":null,"phone":null,"source":"OpenStreetMap/node/4881700365","sourceUpdatedAt":null,"verifiedAt":null}},{"type":"Feature","geometry":{"type":"Point","coordinates":[11.0610838,46.669607]},"properties":{"id":"water:7dd3f1c1-112b-472e-a79a-ff58902243bd","kind":"water","longitude":11.0610838,"latitude":46.669607,"name":"Fontanella","city":"Rabla","address":null,"covered":null,"access":null,"website":null,"phone":null,"source":"OpenStreetMap/node/6430467646","sourceUpdatedAt":null,"verifiedAt":null}},{"type":"Feature","geometry":{"type":"Point","coordinates":[11.0596155,46.6556207]},"properties":{"id":"water:a5c46d18-3840-4925-9405-6a08f1b5a1c8","kind":"water","longitude":11.0596155,"latitude":46.6556207,"name":"Fontanella","city":"Rabla","address":null,"covered":null,"access":null,"website":null,"phone":null,"source":"OpenStreetMap/node/6449101936","sourceUpdatedAt":null,"verifiedAt":null}},{"type":"Feature","geometry":{"type":"Point","coordinates":[11.068585,46.666297]},"properties":{"id":"water:ab5bb833-db37-4c4d-a794-e2f47ca2bdbe","kind":"water","longitude":11.068585,"latitude":46.666297,"name":"Fontanella","city":"Rabla","address":null,"covered":null,"access":null,"website":null,"phone":null,"source":"OpenStreetMap/node/3700119815","sourceUpdatedAt":null,"verifiedAt":null}},{"type":"Feature","geometry":{"type":"Point","coordinates":[11.05981,46.670227]},"properties":{"id":"water:c7140a2c-0925-4727-9e9e-f7fe74e62d95","kind":"water","longitude":11.05981,"latitude":46.670227,"name":"Fontanella","city":"Rabla","address":null,"covered":null,"access":null,"website":null,"phone":null,"source":"OpenStreetMap/node/10963532209","sourceUpdatedAt":null,"verifiedAt":null}}]}