{"type":"FeatureCollection","features":[{"type":"Feature","geometry":{"type":"Point","coordinates":[11.03153,45.792799]},"properties":{"id":"water:4e435335-5027-4b47-9348-5a945bdf1930","kind":"water","longitude":11.03153,"latitude":45.792799,"name":"Fontanella","city":"Ala","address":null,"covered":null,"access":null,"website":null,"phone":null,"source":"OpenStreetMap/node/322071130","sourceUpdatedAt":null,"verifiedAt":null}},{"type":"Feature","geometry":{"type":"Point","coordinates":[11.0323226,45.7910191]},"properties":{"id":"water:aa997bea-7e49-4f84-81bd-08d7a2c8ccc6","kind":"water","longitude":11.0323226,"latitude":45.7910191,"name":"Fontanella","city":"Ala","address":null,"covered":null,"access":null,"website":null,"phone":null,"source":"OpenStreetMap/node/9248713538","sourceUpdatedAt":null,"verifiedAt":null}},{"type":"Feature","geometry":{"type":"Point","coordinates":[11.0330783,45.7904316]},"properties":{"id":"water:eceed5d1-8a66-40d9-9723-aa511f872f77","kind":"water","longitude":11.0330783,"latitude":45.7904316,"name":"Fontanella","city":"Ala","address":null,"covered":null,"access":null,"website":null,"phone":null,"source":"OpenStreetMap/node/322071389","sourceUpdatedAt":null,"verifiedAt":null}}]}