{"type":"FeatureCollection","features":[{"type":"Feature","geometry":{"type":"Point","coordinates":[21.1786835,51.5788181]},"properties":{"id":"bikerack:0850acb8-a4e4-43b4-9399-0d9ef191834d","kind":"bikerack","longitude":21.1786835,"latitude":51.5788181,"name":"Biciklitároló","city":"Jedlinsk","address":null,"covered":false,"access":null,"website":null,"phone":null,"source":"OpenStreetMap/node/10782462724","sourceUpdatedAt":null,"verifiedAt":null}},{"type":"Feature","geometry":{"type":"Point","coordinates":[21.1792119,51.5787672]},"properties":{"id":"bikerack:d3ce914e-7925-4b2b-9378-b2ec977742b8","kind":"bikerack","longitude":21.1792119,"latitude":51.5787672,"name":"Biciklitároló","city":"Jedlinsk","address":null,"covered":false,"access":null,"website":null,"phone":null,"source":"OpenStreetMap/node/10782462725","sourceUpdatedAt":null,"verifiedAt":null}}]}