{"type":"FeatureCollection","features":[{"type":"Feature","geometry":{"type":"Point","coordinates":[21.1799602,49.4390614]},"properties":{"id":"water:8450f246-6df8-4f01-8070-57326f303431","kind":"water","longitude":21.1799602,"latitude":49.4390614,"name":"Ujęcie wody mineralnej „Bronisław”","city":"Uscie Gorlickie","address":null,"covered":null,"access":null,"website":null,"phone":null,"source":"OpenStreetMap/node/5863197962","sourceUpdatedAt":null,"verifiedAt":null}},{"type":"Feature","geometry":{"type":"Point","coordinates":[21.1762589,49.4377064]},"properties":{"id":"water:e0a5e5e3-2e84-4189-b09b-7130c3763ca3","kind":"water","longitude":21.1762589,"latitude":49.4377064,"name":"Ujęcie wody mineralnej „Aleksandra”","city":"Uscie Gorlickie","address":null,"covered":null,"access":null,"website":null,"phone":null,"source":"OpenStreetMap/node/12093776248","sourceUpdatedAt":null,"verifiedAt":null}}]}