{"type":"FeatureCollection","features":[{"type":"Feature","geometry":{"type":"Point","coordinates":[21.163892,48.315748]},"properties":{"id":"water:350f4c7e-385f-47a5-b674-82b65b562d78","kind":"water","longitude":21.163892,"latitude":48.315748,"name":"Ivókút","city":null,"address":null,"covered":null,"access":null,"website":null,"phone":null,"source":"OpenStreetMap","sourceUpdatedAt":null,"verifiedAt":null}},{"type":"Feature","geometry":{"type":"Point","coordinates":[21.155813,48.318327]},"properties":{"id":"water:6f8107d5-7c66-4530-aa95-004621a78c51","kind":"water","longitude":21.155813,"latitude":48.318327,"name":"Ivókút","city":null,"address":null,"covered":null,"access":null,"website":null,"phone":null,"source":"OpenStreetMap","sourceUpdatedAt":null,"verifiedAt":null}},{"type":"Feature","geometry":{"type":"Point","coordinates":[21.160492,48.314831]},"properties":{"id":"water:b54aa178-aeae-4c02-bf58-42fbd7ccd92c","kind":"water","longitude":21.160492,"latitude":48.314831,"name":"Ivókút","city":null,"address":null,"covered":null,"access":null,"website":null,"phone":null,"source":"OpenStreetMap","sourceUpdatedAt":null,"verifiedAt":null}},{"type":"Feature","geometry":{"type":"Point","coordinates":[21.15955,48.312948]},"properties":{"id":"water:bdf10b3e-41d8-4cca-9cc1-9b9295480d03","kind":"water","longitude":21.15955,"latitude":48.312948,"name":"Ivókút","city":null,"address":null,"covered":null,"access":null,"website":null,"phone":null,"source":"OpenStreetMap","sourceUpdatedAt":null,"verifiedAt":null}},{"type":"Feature","geometry":{"type":"Point","coordinates":[21.1628,48.314335]},"properties":{"id":"water:dff56a85-a877-49a3-ba86-379ed0602422","kind":"water","longitude":21.1628,"latitude":48.314335,"name":"Ivókút","city":null,"address":null,"covered":null,"access":null,"website":null,"phone":null,"source":"OpenStreetMap","sourceUpdatedAt":null,"verifiedAt":null}},{"type":"Feature","geometry":{"type":"Point","coordinates":[21.162646,48.317861]},"properties":{"id":"water:e0a8e692-f208-4a49-8370-83d4dab26c6c","kind":"water","longitude":21.162646,"latitude":48.317861,"name":"Ivókút","city":null,"address":null,"covered":null,"access":null,"website":null,"phone":null,"source":"OpenStreetMap","sourceUpdatedAt":null,"verifiedAt":null}},{"type":"Feature","geometry":{"type":"Point","coordinates":[21.161602,48.31709]},"properties":{"id":"water:fb3632a2-d2ff-4325-be02-6810e8e34dd5","kind":"water","longitude":21.161602,"latitude":48.31709,"name":"Ivókút","city":null,"address":null,"covered":null,"access":null,"website":null,"phone":null,"source":"OpenStreetMap","sourceUpdatedAt":null,"verifiedAt":null}}]}