{"type":"FeatureCollection","features":[{"type":"Feature","geometry":{"type":"Point","coordinates":[10.0689167,50.9404728]},"properties":{"id":"bikerack:876718bf-cbe0-4d51-80c2-2490ccf25e7f","kind":"bikerack","longitude":10.0689167,"latitude":50.9404728,"name":"Fahrradabstellplatz","city":"Gerstungen","address":null,"covered":false,"access":null,"website":null,"phone":null,"source":"OpenStreetMap/node/9904834904","sourceUpdatedAt":null,"verifiedAt":null}},{"type":"Feature","geometry":{"type":"Point","coordinates":[10.0643359,50.9494482]},"properties":{"id":"bikerack:d0b4bbc1-77c9-4e60-b661-398e21bb92dd","kind":"bikerack","longitude":10.0643359,"latitude":50.9494482,"name":"Fahrradabstellplatz","city":"Gerstungen","address":null,"covered":false,"access":null,"website":null,"phone":null,"source":"OpenStreetMap/node/12599402426","sourceUpdatedAt":null,"verifiedAt":null}}]}