{"type":"FeatureCollection","features":[{"type":"Feature","geometry":{"type":"Point","coordinates":[10.0786775,50.5682857]},"properties":{"id":"bikerack:49cd82ff-1a1e-481b-a7f8-e163a0f41ce7","kind":"bikerack","longitude":10.0786775,"latitude":50.5682857,"name":"Fahrradabstellplatz","city":"Frankenheim","address":null,"covered":false,"access":null,"website":null,"phone":null,"source":"OpenStreetMap/node/9743968581","sourceUpdatedAt":null,"verifiedAt":null}},{"type":"Feature","geometry":{"type":"Point","coordinates":[10.0689166,50.5458635]},"properties":{"id":"bikerack:58a27008-7b11-4540-ab94-66c1c786b8d4","kind":"bikerack","longitude":10.0689166,"latitude":50.5458635,"name":"Fahrradabstellplatz","city":"Frankenheim","address":null,"covered":false,"access":null,"website":null,"phone":null,"source":"OpenStreetMap/node/9749810355","sourceUpdatedAt":null,"verifiedAt":null}}]}