{"type":"FeatureCollection","features":[{"type":"Feature","geometry":{"type":"Point","coordinates":[10.0737518,49.6620433]},"properties":{"id":"bikerack:019222d5-be59-4b24-9e1d-7ab4c67d458f","kind":"bikerack","longitude":10.0737518,"latitude":49.6620433,"name":"Fahrradabstellplatz","city":"Ochsenfurt","address":null,"covered":false,"access":null,"website":null,"phone":null,"source":"OpenStreetMap/node/8712472762","sourceUpdatedAt":null,"verifiedAt":null}},{"type":"Feature","geometry":{"type":"Point","coordinates":[10.0710492,49.6632293]},"properties":{"id":"bikerack:2dcff96f-2ca2-49ff-a8f6-3d4dd193d492","kind":"bikerack","longitude":10.0710492,"latitude":49.6632293,"name":"Fahrradabstellplatz","city":"Ochsenfurt","address":null,"covered":true,"access":null,"website":null,"phone":null,"source":"OpenStreetMap/way/240296353","sourceUpdatedAt":null,"verifiedAt":null}},{"type":"Feature","geometry":{"type":"Point","coordinates":[10.0759622,49.6624465]},"properties":{"id":"bikerack:88700dbb-7605-48dd-8fb7-999f4d8c9277","kind":"bikerack","longitude":10.0759622,"latitude":49.6624465,"name":"Fahrradabstellplatz","city":"Ochsenfurt","address":null,"covered":false,"access":null,"website":null,"phone":null,"source":"OpenStreetMap/node/13505389555","sourceUpdatedAt":null,"verifiedAt":null}},{"type":"Feature","geometry":{"type":"Point","coordinates":[10.0710016,49.6631835]},"properties":{"id":"bikerack:ac19ccc6-e1f6-4cb5-8bae-56f7c4ea78dd","kind":"bikerack","longitude":10.0710016,"latitude":49.6631835,"name":"Fahrradabstellplatz","city":"Ochsenfurt","address":null,"covered":true,"access":null,"website":null,"phone":null,"source":"OpenStreetMap/way/240296352","sourceUpdatedAt":null,"verifiedAt":null}},{"type":"Feature","geometry":{"type":"Point","coordinates":[10.0716053,49.6627323]},"properties":{"id":"bikerack:aee52dcb-242a-48eb-8688-1e944b33f5f6","kind":"bikerack","longitude":10.0716053,"latitude":49.6627323,"name":"Fahrradabstellplatz","city":"Ochsenfurt","address":null,"covered":false,"access":null,"website":null,"phone":null,"source":"OpenStreetMap/way/240296348","sourceUpdatedAt":null,"verifiedAt":null}},{"type":"Feature","geometry":{"type":"Point","coordinates":[10.0710865,49.6631888]},"properties":{"id":"bikerack:fbf4b0cb-1f20-4e86-b75c-ad7ffeb87672","kind":"bikerack","longitude":10.0710865,"latitude":49.6631888,"name":"Fahrradabstellplatz","city":"Ochsenfurt","address":null,"covered":false,"access":null,"website":null,"phone":null,"source":"OpenStreetMap/way/240296349","sourceUpdatedAt":null,"verifiedAt":null}},{"type":"Feature","geometry":{"type":"Point","coordinates":[10.0639517,49.6649368]},"properties":{"id":"service:40187937-3f8b-4b4b-a721-46ade6d53f7a","kind":"service","longitude":10.0639517,"latitude":49.6649368,"name":"Fahrradservice Demant","city":"Ochsenfurt","address":null,"covered":null,"access":null,"website":null,"phone":null,"source":"OpenStreetMap/node/304440174","sourceUpdatedAt":null,"verifiedAt":null}}]}