{"type":"FeatureCollection","features":[{"type":"Feature","geometry":{"type":"Point","coordinates":[10.0774525,45.5594088]},"properties":{"id":"water:4fbdef10-096b-48d8-bb93-485c842c3ac5","kind":"water","longitude":10.0774525,"latitude":45.5594088,"name":"Fontanella","city":"Ospitaletto","address":null,"covered":null,"access":null,"website":null,"phone":null,"source":"OpenStreetMap/node/1864618396","sourceUpdatedAt":null,"verifiedAt":null}},{"type":"Feature","geometry":{"type":"Point","coordinates":[10.0731402,45.555382]},"properties":{"id":"water:62db0f36-40b4-436b-91d7-4c3c97f89896","kind":"water","longitude":10.0731402,"latitude":45.555382,"name":"Fontanella","city":"Ospitaletto","address":null,"covered":null,"access":null,"website":null,"phone":null,"source":"OpenStreetMap/node/13026057950","sourceUpdatedAt":null,"verifiedAt":null}},{"type":"Feature","geometry":{"type":"Point","coordinates":[10.0713348,45.55348]},"properties":{"id":"water:685a9395-d140-4ad5-8e0b-1f6f80a3f566","kind":"water","longitude":10.0713348,"latitude":45.55348,"name":"Punto Acqua","city":"Ospitaletto","address":null,"covered":null,"access":null,"website":null,"phone":null,"source":"OpenStreetMap/node/4352266190","sourceUpdatedAt":null,"verifiedAt":null}},{"type":"Feature","geometry":{"type":"Point","coordinates":[10.0642977,45.5572172]},"properties":{"id":"water:72497b31-d78c-4527-b788-e5151fb64d84","kind":"water","longitude":10.0642977,"latitude":45.5572172,"name":"Fontanella","city":"Ospitaletto","address":null,"covered":null,"access":null,"website":null,"phone":null,"source":"OpenStreetMap/node/13026027659","sourceUpdatedAt":null,"verifiedAt":null}}]}