{"type":"FeatureCollection","features":[{"type":"Feature","geometry":{"type":"Point","coordinates":[21.699822,47.907686]},"properties":{"id":"water:26eb58cf-f59a-4844-a2ab-1089995b51f7","kind":"water","longitude":21.699822,"latitude":47.907686,"name":"Ivókút","city":null,"address":null,"covered":null,"access":null,"website":null,"phone":null,"source":"OpenStreetMap","sourceUpdatedAt":null,"verifiedAt":null}},{"type":"Feature","geometry":{"type":"Point","coordinates":[21.6761129,47.9139804]},"properties":{"id":"water:8899ae4f-565e-4804-afbb-0f395adf96a0","kind":"water","longitude":21.6761129,"latitude":47.9139804,"name":"Ivókút","city":null,"address":null,"covered":null,"access":null,"website":null,"phone":null,"source":"OpenStreetMap","sourceUpdatedAt":null,"verifiedAt":null}},{"type":"Feature","geometry":{"type":"Point","coordinates":[21.6755163,47.9298686]},"properties":{"id":"water:d9747306-7ba8-458e-913c-1bb9dc6e7dae","kind":"water","longitude":21.6755163,"latitude":47.9298686,"name":"Ivókút","city":null,"address":null,"covered":null,"access":null,"website":null,"phone":null,"source":"OpenStreetMap","sourceUpdatedAt":null,"verifiedAt":null}},{"type":"Feature","geometry":{"type":"Point","coordinates":[21.6745475,47.9186218]},"properties":{"id":"water:dc4547ec-92d2-46f2-8e33-56ab74d56c2b","kind":"water","longitude":21.6745475,"latitude":47.9186218,"name":"Ivókút","city":null,"address":null,"covered":null,"access":null,"website":null,"phone":null,"source":"OpenStreetMap","sourceUpdatedAt":null,"verifiedAt":null}},{"type":"Feature","geometry":{"type":"Point","coordinates":[21.675867,47.915333]},"properties":{"id":"water:fcce4a9a-0681-46af-b934-89d6e3597107","kind":"water","longitude":21.675867,"latitude":47.915333,"name":"Ivókút","city":null,"address":null,"covered":null,"access":null,"website":null,"phone":null,"source":"OpenStreetMap","sourceUpdatedAt":null,"verifiedAt":null}}]}