{"type":"FeatureCollection","features":[{"type":"Feature","geometry":{"type":"Point","coordinates":[21.6911894,47.5152494]},"properties":{"id":"bikerack:d3ba8c99-4d79-40dc-be81-d43bdff40f8f","kind":"bikerack","longitude":21.6911894,"latitude":47.5152494,"name":"20","city":"Debrecen","address":null,"covered":false,"access":null,"website":null,"phone":null,"source":"OpenStreetMap/way/1361357319","sourceUpdatedAt":null,"verifiedAt":null}},{"type":"Feature","geometry":{"type":"Point","coordinates":[21.6722773,47.4925176]},"properties":{"id":"water:112f6bc9-c847-4313-94f3-07cc51db29dc","kind":"water","longitude":21.6722773,"latitude":47.4925176,"name":"Ivókút","city":null,"address":null,"covered":null,"access":null,"website":null,"phone":null,"source":"OpenStreetMap","sourceUpdatedAt":null,"verifiedAt":null}}]}