{"type":"FeatureCollection","features":[{"type":"Feature","geometry":{"type":"Point","coordinates":[21.666133,47.232928]},"properties":{"id":"water:1508be1a-8612-4c47-9af7-d90fd124826a","kind":"water","longitude":21.666133,"latitude":47.232928,"name":"Ivókút","city":null,"address":null,"covered":null,"access":null,"website":null,"phone":null,"source":"OpenStreetMap","sourceUpdatedAt":null,"verifiedAt":null}},{"type":"Feature","geometry":{"type":"Point","coordinates":[21.7029666,47.2473538]},"properties":{"id":"water:35be7468-c7a7-48f8-b2fd-a5c7d65dabb6","kind":"water","longitude":21.7029666,"latitude":47.2473538,"name":"Ivókút","city":null,"address":null,"covered":null,"access":null,"website":null,"phone":null,"source":"OpenStreetMap","sourceUpdatedAt":null,"verifiedAt":null}},{"type":"Feature","geometry":{"type":"Point","coordinates":[21.696604,47.245847]},"properties":{"id":"water:590ead5c-7199-4305-918d-de42941c834d","kind":"water","longitude":21.696604,"latitude":47.245847,"name":"Ivókút","city":null,"address":null,"covered":null,"access":null,"website":null,"phone":null,"source":"OpenStreetMap","sourceUpdatedAt":null,"verifiedAt":null}},{"type":"Feature","geometry":{"type":"Point","coordinates":[21.7002445,47.2448451]},"properties":{"id":"water:70d67dba-65fc-4e85-a4fb-35b33d20b4d2","kind":"water","longitude":21.7002445,"latitude":47.2448451,"name":"Ivókút","city":null,"address":null,"covered":null,"access":null,"website":null,"phone":null,"source":"OpenStreetMap","sourceUpdatedAt":null,"verifiedAt":null}},{"type":"Feature","geometry":{"type":"Point","coordinates":[21.674459,47.232091]},"properties":{"id":"water:be8aaea9-61ef-4ac2-ac29-0c1b56c73576","kind":"water","longitude":21.674459,"latitude":47.232091,"name":"Ivókút","city":null,"address":null,"covered":null,"access":null,"website":null,"phone":null,"source":"OpenStreetMap","sourceUpdatedAt":null,"verifiedAt":null}},{"type":"Feature","geometry":{"type":"Point","coordinates":[21.69644,47.24875]},"properties":{"id":"water:c936f945-5393-4034-8ca4-c33c5bab3195","kind":"water","longitude":21.69644,"latitude":47.24875,"name":"Ivókút","city":null,"address":null,"covered":null,"access":null,"website":null,"phone":null,"source":"OpenStreetMap","sourceUpdatedAt":null,"verifiedAt":null}},{"type":"Feature","geometry":{"type":"Point","coordinates":[21.692655,47.247605]},"properties":{"id":"water:f5fee4e3-2fd6-4015-9679-58cf9f991aae","kind":"water","longitude":21.692655,"latitude":47.247605,"name":"Ivókút","city":null,"address":null,"covered":null,"access":null,"website":null,"phone":null,"source":"OpenStreetMap","sourceUpdatedAt":null,"verifiedAt":null}}]}