{"type":"FeatureCollection","features":[{"type":"Feature","geometry":{"type":"Point","coordinates":[17.3662993,52.4207441]},"properties":{"id":"bikerack:35e71120-da91-488b-bc20-80f90aff26b4","kind":"bikerack","longitude":17.3662993,"latitude":52.4207441,"name":"Biciklitároló","city":"Nekla","address":null,"covered":false,"access":null,"website":null,"phone":null,"source":"OpenStreetMap/node/13073874252","sourceUpdatedAt":null,"verifiedAt":null}},{"type":"Feature","geometry":{"type":"Point","coordinates":[17.3662058,52.4207161]},"properties":{"id":"bikerack:d3ea3774-b529-4e62-a741-6e8fff520bb4","kind":"bikerack","longitude":17.3662058,"latitude":52.4207161,"name":"Biciklitároló","city":"Nekla","address":null,"covered":false,"access":null,"website":null,"phone":null,"source":"OpenStreetMap/node/13074108707","sourceUpdatedAt":null,"verifiedAt":null}}]}