{"type":"FeatureCollection","features":[{"type":"Feature","geometry":{"type":"Point","coordinates":[17.3815137,49.2028241]},"properties":{"id":"bikerack:1e690515-9a29-4e0d-ac5c-59c5d9ef3696","kind":"bikerack","longitude":17.3815137,"latitude":49.2028241,"name":"Bicycle Parking","city":"Zdounky","address":null,"covered":false,"access":null,"website":null,"phone":null,"source":"OpenStreetMap/node/8836827601","sourceUpdatedAt":null,"verifiedAt":null}},{"type":"Feature","geometry":{"type":"Point","coordinates":[17.3859468,49.2008007]},"properties":{"id":"bikerack:50a43191-f7ad-4f5f-8766-c37c07fd512b","kind":"bikerack","longitude":17.3859468,"latitude":49.2008007,"name":"Bicycle Parking","city":"Zdounky","address":null,"covered":false,"access":null,"website":null,"phone":null,"source":"OpenStreetMap/node/6611498387","sourceUpdatedAt":null,"verifiedAt":null}},{"type":"Feature","geometry":{"type":"Point","coordinates":[17.3813071,49.2033409]},"properties":{"id":"bikerack:ce55e4ee-ebc0-45bb-8d2f-83427e040621","kind":"bikerack","longitude":17.3813071,"latitude":49.2033409,"name":"Bicycle Parking","city":"Zdounky","address":null,"covered":false,"access":null,"website":null,"phone":null,"source":"OpenStreetMap/node/8836827602","sourceUpdatedAt":null,"verifiedAt":null}}]}