{"type":"FeatureCollection","features":[{"type":"Feature","geometry":{"type":"Point","coordinates":[17.3953458,48.8865544]},"properties":{"id":"bikerack:0dc303c5-7dcf-4deb-bc57-9d8e831e9bc0","kind":"bikerack","longitude":17.3953458,"latitude":48.8865544,"name":"Bicycle Parking","city":"Knezdub","address":null,"covered":false,"access":null,"website":null,"phone":null,"source":"OpenStreetMap/node/13411221139","sourceUpdatedAt":null,"verifiedAt":null}},{"type":"Feature","geometry":{"type":"Point","coordinates":[17.3960648,48.8867486]},"properties":{"id":"bikerack:14659596-8616-4090-9b9b-198e28cc41b1","kind":"bikerack","longitude":17.3960648,"latitude":48.8867486,"name":"Bicycle Parking","city":"Knezdub","address":null,"covered":false,"access":null,"website":null,"phone":null,"source":"OpenStreetMap/node/13411221132","sourceUpdatedAt":null,"verifiedAt":null}},{"type":"Feature","geometry":{"type":"Point","coordinates":[17.3960413,48.8858652]},"properties":{"id":"bikerack:2ecc6722-7578-4e51-bf09-0147627d104e","kind":"bikerack","longitude":17.3960413,"latitude":48.8858652,"name":"Bicycle Parking","city":"Knezdub","address":null,"covered":false,"access":null,"website":null,"phone":null,"source":"OpenStreetMap/node/13411221128","sourceUpdatedAt":null,"verifiedAt":null}},{"type":"Feature","geometry":{"type":"Point","coordinates":[17.3604211,48.8753976]},"properties":{"id":"bikerack:4abee1b1-2430-4798-852a-aeb5a92bb43c","kind":"bikerack","longitude":17.3604211,"latitude":48.8753976,"name":"Bicycle Parking","city":"Knezdub","address":null,"covered":false,"access":null,"website":null,"phone":null,"source":"OpenStreetMap/node/12810395065","sourceUpdatedAt":null,"verifiedAt":null}},{"type":"Feature","geometry":{"type":"Point","coordinates":[17.3883034,48.8858991]},"properties":{"id":"bikerack:8bd09cb5-069d-476f-80a4-38f1ccf7cfff","kind":"bikerack","longitude":17.3883034,"latitude":48.8858991,"name":"Bicycle Parking","city":"Knezdub","address":null,"covered":false,"access":null,"website":null,"phone":null,"source":"OpenStreetMap/node/13411221112","sourceUpdatedAt":null,"verifiedAt":null}},{"type":"Feature","geometry":{"type":"Point","coordinates":[17.3881289,48.8862223]},"properties":{"id":"bikerack:91b6a6dc-bdad-4784-83c0-a27853179c1e","kind":"bikerack","longitude":17.3881289,"latitude":48.8862223,"name":"Bicycle Parking","city":"Knezdub","address":null,"covered":false,"access":null,"website":null,"phone":null,"source":"OpenStreetMap/node/13411221120","sourceUpdatedAt":null,"verifiedAt":null}},{"type":"Feature","geometry":{"type":"Point","coordinates":[17.3896494,48.8869683]},"properties":{"id":"bikerack:b8941b97-b839-4bb3-8bad-e265309302e6","kind":"bikerack","longitude":17.3896494,"latitude":48.8869683,"name":"Bicycle Parking","city":"Knezdub","address":null,"covered":false,"access":null,"website":null,"phone":null,"source":"OpenStreetMap/node/13411221122","sourceUpdatedAt":null,"verifiedAt":null}},{"type":"Feature","geometry":{"type":"Point","coordinates":[17.3608583,48.8746388]},"properties":{"id":"bikerack:bdb28232-3424-4468-9422-598d768a1f5b","kind":"bikerack","longitude":17.3608583,"latitude":48.8746388,"name":"Bicycle Parking","city":"Knezdub","address":null,"covered":false,"access":null,"website":null,"phone":null,"source":"OpenStreetMap/node/12810395067","sourceUpdatedAt":null,"verifiedAt":null}},{"type":"Feature","geometry":{"type":"Point","coordinates":[17.3597997,48.877171]},"properties":{"id":"bikerack:ef847125-bfa4-4f03-a867-7d01652a5f99","kind":"bikerack","longitude":17.3597997,"latitude":48.877171,"name":"Bicycle Parking","city":"Knezdub","address":null,"covered":false,"access":null,"website":null,"phone":null,"source":"OpenStreetMap/node/12810395059","sourceUpdatedAt":null,"verifiedAt":null}}]}