{"type":"FeatureCollection","features":[{"type":"Feature","geometry":{"type":"Point","coordinates":[17.359864,46.007514]},"properties":{"id":"water:5a11a9ca-d735-43df-bf36-e6f915c1e801","kind":"water","longitude":17.359864,"latitude":46.007514,"name":"Ivókút","city":null,"address":null,"covered":null,"access":null,"website":null,"phone":null,"source":"OpenStreetMap","sourceUpdatedAt":null,"verifiedAt":null}},{"type":"Feature","geometry":{"type":"Point","coordinates":[17.359534,46.008517]},"properties":{"id":"water:7e7d2786-fe82-4a65-b227-abec5be35efc","kind":"water","longitude":17.359534,"latitude":46.008517,"name":"Ivókút","city":null,"address":null,"covered":null,"access":null,"website":null,"phone":null,"source":"OpenStreetMap","sourceUpdatedAt":null,"verifiedAt":null}},{"type":"Feature","geometry":{"type":"Point","coordinates":[17.359025,46.010149]},"properties":{"id":"water:c4e7b3e2-e6fe-4310-b4eb-9e551088191c","kind":"water","longitude":17.359025,"latitude":46.010149,"name":"Ivókút","city":null,"address":null,"covered":null,"access":null,"website":null,"phone":null,"source":"OpenStreetMap","sourceUpdatedAt":null,"verifiedAt":null}}]}