{"type":"FeatureCollection","features":[{"type":"Feature","geometry":{"type":"Point","coordinates":[19.8144693,50.3990177]},"properties":{"id":"bikerack:6c1189dc-954a-4a0a-b61b-e4ee0510cfa6","kind":"bikerack","longitude":19.8144693,"latitude":50.3990177,"name":"Biciklitároló","city":"Wolbrom","address":null,"covered":false,"access":null,"website":null,"phone":null,"source":"OpenStreetMap/node/13289017189","sourceUpdatedAt":null,"verifiedAt":null}},{"type":"Feature","geometry":{"type":"Point","coordinates":[19.8143808,50.3991833]},"properties":{"id":"bikerack:72054ba1-f681-4ac1-8463-ad204cfb1683","kind":"bikerack","longitude":19.8143808,"latitude":50.3991833,"name":"Biciklitároló","city":"Wolbrom","address":null,"covered":false,"access":null,"website":null,"phone":null,"source":"OpenStreetMap/node/13289017188","sourceUpdatedAt":null,"verifiedAt":null}}]}