{"type":"FeatureCollection","features":[{"type":"Feature","geometry":{"type":"Point","coordinates":[19.8015784,50.0715324]},"properties":{"id":"bikerack:15d576d5-71f2-46ac-bb5d-85e0aeb054cb","kind":"bikerack","longitude":19.8015784,"latitude":50.0715324,"name":"Biciklitároló","city":"Balice","address":null,"covered":true,"access":null,"website":null,"phone":null,"source":"OpenStreetMap/node/12309596914","sourceUpdatedAt":null,"verifiedAt":null}},{"type":"Feature","geometry":{"type":"Point","coordinates":[19.8001956,50.0710167]},"properties":{"id":"bikerack:359abdd6-d623-49b7-9de3-5010a04bbd2a","kind":"bikerack","longitude":19.8001956,"latitude":50.0710167,"name":"Biciklitároló","city":"Balice","address":null,"covered":true,"access":null,"website":null,"phone":null,"source":"OpenStreetMap/node/4489390421","sourceUpdatedAt":null,"verifiedAt":null}},{"type":"Feature","geometry":{"type":"Point","coordinates":[19.799595,50.0716823]},"properties":{"id":"bikerack:708bca7e-e067-434b-8998-38ae1fe9e8f0","kind":"bikerack","longitude":19.799595,"latitude":50.0716823,"name":"Biciklitároló","city":"Balice","address":null,"covered":true,"access":null,"website":null,"phone":null,"source":"OpenStreetMap/node/4489390422","sourceUpdatedAt":null,"verifiedAt":null}},{"type":"Feature","geometry":{"type":"Point","coordinates":[19.8126723,50.0862345]},"properties":{"id":"repair:3414d2fe-1bc6-4a38-8fed-91a49b8df477","kind":"repair","longitude":19.8126723,"latitude":50.0862345,"name":"Kerékpár szervizállomás","city":"Balice","address":null,"covered":false,"access":null,"website":null,"phone":null,"source":"OpenStreetMap/node/12537027629","sourceUpdatedAt":null,"verifiedAt":null}},{"type":"Feature","geometry":{"type":"Point","coordinates":[19.8025271,50.0725929]},"properties":{"id":"water:6135ed33-0584-4936-b697-a96ad66bbe73","kind":"water","longitude":19.8025271,"latitude":50.0725929,"name":"Ivókút","city":"Balice","address":null,"covered":null,"access":null,"website":null,"phone":null,"source":"OpenStreetMap/node/11335345479","sourceUpdatedAt":null,"verifiedAt":null}},{"type":"Feature","geometry":{"type":"Point","coordinates":[19.8020325,50.0725333]},"properties":{"id":"water:9f723f52-e346-4e20-9168-7dcf8a0cb971","kind":"water","longitude":19.8020325,"latitude":50.0725333,"name":"Ivókút","city":"Balice","address":null,"covered":null,"access":null,"website":null,"phone":null,"source":"OpenStreetMap/node/10900156305","sourceUpdatedAt":null,"verifiedAt":null}}]}