{"type":"FeatureCollection","features":[{"type":"Feature","geometry":{"type":"Point","coordinates":[19.798483,47.04175]},"properties":{"id":"water:31478631-8d21-4266-9c3b-6733a16815e0","kind":"water","longitude":19.798483,"latitude":47.04175,"name":"Ivókút","city":null,"address":null,"covered":null,"access":null,"website":null,"phone":null,"source":"OpenStreetMap","sourceUpdatedAt":null,"verifiedAt":null}},{"type":"Feature","geometry":{"type":"Point","coordinates":[19.7847671,47.0425962]},"properties":{"id":"water:63e22b2d-fa32-498a-b217-40eeba113cfd","kind":"water","longitude":19.7847671,"latitude":47.0425962,"name":"Ivókút","city":null,"address":null,"covered":null,"access":null,"website":null,"phone":null,"source":"OpenStreetMap","sourceUpdatedAt":null,"verifiedAt":null}},{"type":"Feature","geometry":{"type":"Point","coordinates":[19.7867518,47.0451729]},"properties":{"id":"water:b3f38f12-29fb-41d6-8e18-6390ba216e73","kind":"water","longitude":19.7867518,"latitude":47.0451729,"name":"Ivókút","city":null,"address":null,"covered":null,"access":null,"website":null,"phone":null,"source":"OpenStreetMap","sourceUpdatedAt":null,"verifiedAt":null}},{"type":"Feature","geometry":{"type":"Point","coordinates":[19.7853456,47.0437338]},"properties":{"id":"water:cb00b0a8-27ba-4a1f-95fa-6548133e39b1","kind":"water","longitude":19.7853456,"latitude":47.0437338,"name":"Ivókút","city":null,"address":null,"covered":null,"access":null,"website":null,"phone":null,"source":"OpenStreetMap","sourceUpdatedAt":null,"verifiedAt":null}},{"type":"Feature","geometry":{"type":"Point","coordinates":[19.784846,47.040491]},"properties":{"id":"water:dd2f40df-d9d3-4840-afe0-91045fe75455","kind":"water","longitude":19.784846,"latitude":47.040491,"name":"Ivókút","city":null,"address":null,"covered":null,"access":null,"website":null,"phone":null,"source":"OpenStreetMap","sourceUpdatedAt":null,"verifiedAt":null}}]}