{"type":"FeatureCollection","features":[{"type":"Feature","geometry":{"type":"Point","coordinates":[12.4079226,52.4031732]},"properties":{"id":"bikerack:1ae448ab-b4a4-48ef-a28d-b98fad9111e9","kind":"bikerack","longitude":12.4079226,"latitude":52.4031732,"name":"Fahrradabstellplatz","city":"Wusterwitz","address":null,"covered":false,"access":null,"website":null,"phone":null,"source":"OpenStreetMap/node/1419674070","sourceUpdatedAt":null,"verifiedAt":null}},{"type":"Feature","geometry":{"type":"Point","coordinates":[12.4340413,52.4123031]},"properties":{"id":"bikerack:25b5d908-5426-4e59-b1fe-392274ee7ea4","kind":"bikerack","longitude":12.4340413,"latitude":52.4123031,"name":"Fahrradabstellplatz","city":"Wusterwitz","address":null,"covered":false,"access":null,"website":null,"phone":null,"source":"OpenStreetMap/node/1363490055","sourceUpdatedAt":null,"verifiedAt":null}},{"type":"Feature","geometry":{"type":"Point","coordinates":[12.4075195,52.4035749]},"properties":{"id":"bikerack:813df810-eb22-4bf6-aa0a-f1ead736d4e4","kind":"bikerack","longitude":12.4075195,"latitude":52.4035749,"name":"Fahrradabstellplatz","city":"Wusterwitz","address":null,"covered":false,"access":null,"website":null,"phone":null,"source":"OpenStreetMap/node/1419674152","sourceUpdatedAt":null,"verifiedAt":null}},{"type":"Feature","geometry":{"type":"Point","coordinates":[12.4152847,52.4157116]},"properties":{"id":"bikerack:8c17604e-c842-4ca0-a271-403d11978525","kind":"bikerack","longitude":12.4152847,"latitude":52.4157116,"name":"Fahrradabstellplatz","city":"Wusterwitz","address":null,"covered":false,"access":null,"website":null,"phone":null,"source":"OpenStreetMap/node/1374906530","sourceUpdatedAt":null,"verifiedAt":null}},{"type":"Feature","geometry":{"type":"Point","coordinates":[12.4153548,52.4154151]},"properties":{"id":"repair:e41b68ee-6b6b-4d89-a05b-4479fb54a5c2","kind":"repair","longitude":12.4153548,"latitude":52.4154151,"name":"Fahrradreparaturstation","city":"Wusterwitz","address":null,"covered":false,"access":null,"website":null,"phone":null,"source":"OpenStreetMap/node/10091648509","sourceUpdatedAt":null,"verifiedAt":null}},{"type":"Feature","geometry":{"type":"Point","coordinates":[12.4139993,52.4071084]},"properties":{"id":"service:0e6a770e-e5c5-4b3d-82ca-6bc9e1c72dd0","kind":"service","longitude":12.4139993,"latitude":52.4071084,"name":"Fahrrad-Fritze","city":"Brandenburg an der Havel","address":null,"covered":null,"access":null,"website":null,"phone":null,"source":"OpenStreetMap/node/4438089094","sourceUpdatedAt":null,"verifiedAt":null}}]}