{"type":"FeatureCollection","features":[{"type":"Feature","geometry":{"type":"Point","coordinates":[12.3959423,47.6623002]},"properties":{"id":"bikerack:e102c066-151f-4f0a-a9d4-797a0a9dc35c","kind":"bikerack","longitude":12.3959423,"latitude":47.6623002,"name":"Biciklitároló","city":"Kossen","address":null,"covered":false,"access":null,"website":null,"phone":null,"source":"OpenStreetMap/node/7870416889","sourceUpdatedAt":null,"verifiedAt":null}},{"type":"Feature","geometry":{"type":"Point","coordinates":[12.4152902,47.6550213]},"properties":{"id":"water:03c45d3d-89c0-4d84-8295-b97c782675e5","kind":"water","longitude":12.4152902,"latitude":47.6550213,"name":"Ivókút","city":"Kossen","address":null,"covered":null,"access":null,"website":null,"phone":null,"source":"OpenStreetMap/node/3702798202","sourceUpdatedAt":null,"verifiedAt":null}},{"type":"Feature","geometry":{"type":"Point","coordinates":[12.4138264,47.6536315]},"properties":{"id":"water:1674a8a1-00c9-4389-a5c7-f608117abdc9","kind":"water","longitude":12.4138264,"latitude":47.6536315,"name":"Ivókút","city":"Kossen","address":null,"covered":null,"access":null,"website":null,"phone":null,"source":"OpenStreetMap/node/3702763120","sourceUpdatedAt":null,"verifiedAt":null}},{"type":"Feature","geometry":{"type":"Point","coordinates":[12.4156228,47.6543152]},"properties":{"id":"water:19f52769-aac7-4e16-bee5-4b6abe4f11dc","kind":"water","longitude":12.4156228,"latitude":47.6543152,"name":"Ivókút","city":"Kossen","address":null,"covered":null,"access":null,"website":null,"phone":null,"source":"OpenStreetMap/node/3702798179","sourceUpdatedAt":null,"verifiedAt":null}},{"type":"Feature","geometry":{"type":"Point","coordinates":[12.4141302,47.6548641]},"properties":{"id":"water:4d5f4630-ba28-4e3e-9776-9f93ef1de1e2","kind":"water","longitude":12.4141302,"latitude":47.6548641,"name":"Ivókút","city":"Kossen","address":null,"covered":null,"access":null,"website":null,"phone":null,"source":"OpenStreetMap/node/3702798194","sourceUpdatedAt":null,"verifiedAt":null}},{"type":"Feature","geometry":{"type":"Point","coordinates":[12.4145337,47.6537008]},"properties":{"id":"water:782a21a0-7c0c-40cb-a4dd-71f6907003cd","kind":"water","longitude":12.4145337,"latitude":47.6537008,"name":"Ivókút","city":"Kossen","address":null,"covered":null,"access":null,"website":null,"phone":null,"source":"OpenStreetMap/node/3702798136","sourceUpdatedAt":null,"verifiedAt":null}},{"type":"Feature","geometry":{"type":"Point","coordinates":[12.4147179,47.6547029]},"properties":{"id":"water:8e33b49c-7324-4f74-986d-3deef699cad6","kind":"water","longitude":12.4147179,"latitude":47.6547029,"name":"Ivókút","city":"Kossen","address":null,"covered":null,"access":null,"website":null,"phone":null,"source":"OpenStreetMap/node/3702798189","sourceUpdatedAt":null,"verifiedAt":null}},{"type":"Feature","geometry":{"type":"Point","coordinates":[12.41593,47.6538251]},"properties":{"id":"water:ba28cced-3025-4df0-b5a6-c38b801eb294","kind":"water","longitude":12.41593,"latitude":47.6538251,"name":"Ivókút","city":"Kossen","address":null,"covered":null,"access":null,"website":null,"phone":null,"source":"OpenStreetMap/node/3702798142","sourceUpdatedAt":null,"verifiedAt":null}},{"type":"Feature","geometry":{"type":"Point","coordinates":[12.4142906,47.6533267]},"properties":{"id":"water:fa3daf24-997e-4203-ada1-75447d40e039","kind":"water","longitude":12.4142906,"latitude":47.6533267,"name":"Ivókút","city":"Kossen","address":null,"covered":null,"access":null,"website":null,"phone":null,"source":"OpenStreetMap/node/3702763096","sourceUpdatedAt":null,"verifiedAt":null}}]}