{"type":"FeatureCollection","features":[{"type":"Feature","geometry":{"type":"Point","coordinates":[12.393136,46.1653536]},"properties":{"id":"water:3787c158-0804-4450-b49d-2a8f7276935a","kind":"water","longitude":12.393136,"latitude":46.1653536,"name":"Ut bibat populus","city":"Lamosano","address":null,"covered":null,"access":null,"website":null,"phone":null,"source":"OpenStreetMap/node/2459807566","sourceUpdatedAt":null,"verifiedAt":null}},{"type":"Feature","geometry":{"type":"Point","coordinates":[12.4198702,46.1945228]},"properties":{"id":"water:44a9c088-c8a8-4508-9855-ef8820e06238","kind":"water","longitude":12.4198702,"latitude":46.1945228,"name":"Fontanella","city":"Lamosano","address":null,"covered":null,"access":null,"website":null,"phone":null,"source":"OpenStreetMap/node/4095764703","sourceUpdatedAt":null,"verifiedAt":null}},{"type":"Feature","geometry":{"type":"Point","coordinates":[12.4083724,46.1708294]},"properties":{"id":"water:4c88d5c1-8fae-4c08-8a9f-3b65633b95ed","kind":"water","longitude":12.4083724,"latitude":46.1708294,"name":"Fontanella","city":"Lamosano","address":null,"covered":null,"access":null,"website":null,"phone":null,"source":"OpenStreetMap/node/7291319175","sourceUpdatedAt":null,"verifiedAt":null}},{"type":"Feature","geometry":{"type":"Point","coordinates":[12.3939602,46.1664536]},"properties":{"id":"water:59109e64-7bec-4368-8037-a9fd830cf8d2","kind":"water","longitude":12.3939602,"latitude":46.1664536,"name":"Fontanella","city":"Lamosano","address":null,"covered":null,"access":null,"website":null,"phone":null,"source":"OpenStreetMap/node/3641022719","sourceUpdatedAt":null,"verifiedAt":null}},{"type":"Feature","geometry":{"type":"Point","coordinates":[12.4203383,46.1657122]},"properties":{"id":"water:5fb85958-a2cc-4414-b71d-5b72740b2df3","kind":"water","longitude":12.4203383,"latitude":46.1657122,"name":"Fontanella","city":"Lamosano","address":null,"covered":null,"access":null,"website":null,"phone":null,"source":"OpenStreetMap/node/7291319168","sourceUpdatedAt":null,"verifiedAt":null}},{"type":"Feature","geometry":{"type":"Point","coordinates":[12.4004205,46.1780038]},"properties":{"id":"water:6e8c4550-ec81-44e8-a996-e3160bd8cba2","kind":"water","longitude":12.4004205,"latitude":46.1780038,"name":"Fontanella","city":"Lamosano","address":null,"covered":null,"access":null,"website":null,"phone":null,"source":"OpenStreetMap/node/3641022772","sourceUpdatedAt":null,"verifiedAt":null}},{"type":"Feature","geometry":{"type":"Point","coordinates":[12.4046482,46.1744366]},"properties":{"id":"water:715f9915-7761-4090-b5df-c9aac67ef8ef","kind":"water","longitude":12.4046482,"latitude":46.1744366,"name":"Fontanella","city":"Lamosano","address":null,"covered":null,"access":null,"website":null,"phone":null,"source":"OpenStreetMap/node/3641022785","sourceUpdatedAt":null,"verifiedAt":null}},{"type":"Feature","geometry":{"type":"Point","coordinates":[12.4285669,46.1782218]},"properties":{"id":"water:804f6c9e-b948-4e33-9211-46bc963f33d7","kind":"water","longitude":12.4285669,"latitude":46.1782218,"name":"Fontanella","city":"Lamosano","address":null,"covered":null,"access":null,"website":null,"phone":null,"source":"OpenStreetMap/node/12915626410","sourceUpdatedAt":null,"verifiedAt":null}},{"type":"Feature","geometry":{"type":"Point","coordinates":[12.4319321,46.1674685]},"properties":{"id":"water:891ef124-57c1-4454-8f50-d2430d5c2e92","kind":"water","longitude":12.4319321,"latitude":46.1674685,"name":"Fontanella","city":"Tambre","address":null,"covered":null,"access":null,"website":null,"phone":null,"source":"OpenStreetMap/node/7262918112","sourceUpdatedAt":null,"verifiedAt":null}},{"type":"Feature","geometry":{"type":"Point","coordinates":[12.4055174,46.1746925]},"properties":{"id":"water:ac13fbfa-fe4c-46ff-a477-216d2bd32d26","kind":"water","longitude":12.4055174,"latitude":46.1746925,"name":"Fontanella","city":"Lamosano","address":null,"covered":null,"access":null,"website":null,"phone":null,"source":"OpenStreetMap/node/7291353405","sourceUpdatedAt":null,"verifiedAt":null}},{"type":"Feature","geometry":{"type":"Point","coordinates":[12.3952093,46.1800628]},"properties":{"id":"water:da6faa60-1f02-4592-a94a-22a24601e26e","kind":"water","longitude":12.3952093,"latitude":46.1800628,"name":"Fontanella","city":"Lamosano","address":null,"covered":null,"access":null,"website":null,"phone":null,"source":"OpenStreetMap/node/3615254565","sourceUpdatedAt":null,"verifiedAt":null}},{"type":"Feature","geometry":{"type":"Point","coordinates":[12.4293443,46.1676531]},"properties":{"id":"water:dac7665a-4a48-4a7c-a3d4-a3c3f9452007","kind":"water","longitude":12.4293443,"latitude":46.1676531,"name":"Fontanella","city":"Tambre","address":null,"covered":null,"access":null,"website":null,"phone":null,"source":"OpenStreetMap/node/7262876535","sourceUpdatedAt":null,"verifiedAt":null}},{"type":"Feature","geometry":{"type":"Point","coordinates":[12.3966611,46.1715225]},"properties":{"id":"water:dd5bf2c9-ce74-4a63-843b-01a1c4fbbfe6","kind":"water","longitude":12.3966611,"latitude":46.1715225,"name":"Fontanella","city":"Lamosano","address":null,"covered":null,"access":null,"website":null,"phone":null,"source":"OpenStreetMap/node/3641022738","sourceUpdatedAt":null,"verifiedAt":null}},{"type":"Feature","geometry":{"type":"Point","coordinates":[12.3961568,46.169561]},"properties":{"id":"water:f4e2115b-ecd8-4588-a2ef-15fed7082360","kind":"water","longitude":12.3961568,"latitude":46.169561,"name":"Fontanella","city":"Lamosano","address":null,"covered":null,"access":null,"website":null,"phone":null,"source":"OpenStreetMap/node/3641022735","sourceUpdatedAt":null,"verifiedAt":null}},{"type":"Feature","geometry":{"type":"Point","coordinates":[12.3926809,46.1862325]},"properties":{"id":"water:fba68adf-8a27-4892-96f7-de6c7fd49f9e","kind":"water","longitude":12.3926809,"latitude":46.1862325,"name":"Fontanella","city":"Lamosano","address":null,"covered":null,"access":null,"website":null,"phone":null,"source":"OpenStreetMap/node/2698365578","sourceUpdatedAt":null,"verifiedAt":null}}]}