{"type":"FeatureCollection","features":[{"type":"Feature","geometry":{"type":"Point","coordinates":[12.268622,51.5803224]},"properties":{"id":"bikerack:26d4ac96-ad38-4f21-92d8-a25ca1df1485","kind":"bikerack","longitude":12.268622,"latitude":51.5803224,"name":"Fahrradabstellplatz","city":"Roitzsch","address":null,"covered":false,"access":null,"website":null,"phone":null,"source":"OpenStreetMap/node/3754413337","sourceUpdatedAt":null,"verifiedAt":null}},{"type":"Feature","geometry":{"type":"Point","coordinates":[12.2666585,51.5794931]},"properties":{"id":"bikerack:853b60ee-d552-42a1-bd3b-3f1ff30444c9","kind":"bikerack","longitude":12.2666585,"latitude":51.5794931,"name":"Fahrradabstellplatz","city":"Roitzsch","address":null,"covered":false,"access":null,"website":null,"phone":null,"source":"OpenStreetMap/node/10102365275","sourceUpdatedAt":null,"verifiedAt":null}},{"type":"Feature","geometry":{"type":"Point","coordinates":[12.2886744,51.5717512]},"properties":{"id":"bikerack:c4bea206-1d43-47d1-b1eb-b3a6391c756e","kind":"bikerack","longitude":12.2886744,"latitude":51.5717512,"name":"Fahrradabstellplatz","city":"Roitzsch","address":null,"covered":false,"access":null,"website":null,"phone":null,"source":"OpenStreetMap/node/13084360365","sourceUpdatedAt":null,"verifiedAt":null}}]}