{"type":"FeatureCollection","features":[{"type":"Feature","geometry":{"type":"Point","coordinates":[12.2987763,48.147328]},"properties":{"id":"bikerack:09760d48-b45b-4666-8547-81d7ba59241c","kind":"bikerack","longitude":12.2987763,"latitude":48.147328,"name":"Fahrradabstellplatz","city":"Gars","address":null,"covered":true,"access":null,"website":null,"phone":null,"source":"OpenStreetMap/way/474584570","sourceUpdatedAt":null,"verifiedAt":null}},{"type":"Feature","geometry":{"type":"Point","coordinates":[12.2984703,48.1474405]},"properties":{"id":"bikerack:0f347cd8-d675-45de-9b2e-64efc8ff40ab","kind":"bikerack","longitude":12.2984703,"latitude":48.1474405,"name":"Fahrradabstellplatz","city":"Gars","address":null,"covered":true,"access":null,"website":null,"phone":null,"source":"OpenStreetMap/way/421394703","sourceUpdatedAt":null,"verifiedAt":null}},{"type":"Feature","geometry":{"type":"Point","coordinates":[12.2776553,48.151634]},"properties":{"id":"service:8f83d0b9-c733-40f0-9420-5461c9cd33f4","kind":"service","longitude":12.2776553,"latitude":48.151634,"name":"Der Strombiker","city":"Gars am Inn","address":null,"covered":null,"access":null,"website":null,"phone":null,"source":"OpenStreetMap/node/10852720021","sourceUpdatedAt":null,"verifiedAt":null}},{"type":"Feature","geometry":{"type":"Point","coordinates":[12.2774662,48.1526119]},"properties":{"id":"water:41b93808-f3dc-474f-9af9-d135e04161a1","kind":"water","longitude":12.2774662,"latitude":48.1526119,"name":"Trinkwasser","city":"Gars","address":null,"covered":null,"access":null,"website":null,"phone":null,"source":"OpenStreetMap/node/8958112299","sourceUpdatedAt":null,"verifiedAt":null}},{"type":"Feature","geometry":{"type":"Point","coordinates":[12.277236,48.151847]},"properties":{"id":"water:57c1db19-622d-402f-a3bd-d4ed3d84ef69","kind":"water","longitude":12.277236,"latitude":48.151847,"name":"Trinkwasser","city":"Gars","address":null,"covered":null,"access":null,"website":null,"phone":null,"source":"OpenStreetMap/node/11916287992","sourceUpdatedAt":null,"verifiedAt":null}},{"type":"Feature","geometry":{"type":"Point","coordinates":[12.2765095,48.1529086]},"properties":{"id":"water:c978a5d6-1891-495a-8160-6cb021e0b500","kind":"water","longitude":12.2765095,"latitude":48.1529086,"name":"Trinkwasser","city":"Gars","address":null,"covered":null,"access":null,"website":null,"phone":null,"source":"OpenStreetMap/node/8958112298","sourceUpdatedAt":null,"verifiedAt":null}}]}