{"type":"FeatureCollection","features":[{"type":"Feature","geometry":{"type":"Point","coordinates":[12.2861847,46.108776]},"properties":{"id":"water:01fbe77a-a7a1-42b7-a152-fbc9560c2237","kind":"water","longitude":12.2861847,"latitude":46.108776,"name":"Fontanella","city":"Castion","address":null,"covered":null,"access":null,"website":null,"phone":null,"source":"OpenStreetMap/node/5873090852","sourceUpdatedAt":null,"verifiedAt":null}},{"type":"Feature","geometry":{"type":"Point","coordinates":[12.2944209,46.123501]},"properties":{"id":"water:1d990271-08ad-4e6b-b86c-f721d0382fce","kind":"water","longitude":12.2944209,"latitude":46.123501,"name":"Fontanella","city":"Ponte nell'Alpi","address":null,"covered":null,"access":null,"website":null,"phone":null,"source":"OpenStreetMap/node/5873090851","sourceUpdatedAt":null,"verifiedAt":null}},{"type":"Feature","geometry":{"type":"Point","coordinates":[12.2981646,46.1235099]},"properties":{"id":"water:2992e6bd-592e-46df-a5ff-14dcfe1b9ad2","kind":"water","longitude":12.2981646,"latitude":46.1235099,"name":"Fontanella","city":"Soccher-Paiane-Casan-Arsie","address":null,"covered":null,"access":null,"website":null,"phone":null,"source":"OpenStreetMap/node/9057075596","sourceUpdatedAt":null,"verifiedAt":null}},{"type":"Feature","geometry":{"type":"Point","coordinates":[12.2974465,46.123515]},"properties":{"id":"water:7479aedd-14c0-4a00-b843-cbdc013ecc5f","kind":"water","longitude":12.2974465,"latitude":46.123515,"name":"Fontanella","city":"Ponte nell'Alpi","address":null,"covered":null,"access":null,"website":null,"phone":null,"source":"OpenStreetMap/node/5873090850","sourceUpdatedAt":null,"verifiedAt":null}}]}