{"type":"FeatureCollection","features":[{"type":"Feature","geometry":{"type":"Point","coordinates":[10.250631,48.8718705]},"properties":{"id":"bikerack:0ab84caf-502e-46db-b6bd-58281960364c","kind":"bikerack","longitude":10.250631,"latitude":48.8718705,"name":"Fahrradabstellplatz","city":"Lauchheim","address":null,"covered":true,"access":null,"website":null,"phone":null,"source":"OpenStreetMap/node/9105708448","sourceUpdatedAt":null,"verifiedAt":null}},{"type":"Feature","geometry":{"type":"Point","coordinates":[10.2411253,48.8712922]},"properties":{"id":"bikerack:1669810d-a411-4dbd-9dbc-9bc684e68381","kind":"bikerack","longitude":10.2411253,"latitude":48.8712922,"name":"Fahrradabstellplatz","city":"Lauchheim","address":null,"covered":true,"access":null,"website":null,"phone":null,"source":"OpenStreetMap/node/9025446692","sourceUpdatedAt":null,"verifiedAt":null}},{"type":"Feature","geometry":{"type":"Point","coordinates":[10.2414197,48.8726189]},"properties":{"id":"bikerack:17d529bb-0b2e-4f76-a0e9-5fdac59bde89","kind":"bikerack","longitude":10.2414197,"latitude":48.8726189,"name":"Fahrradabstellplatz","city":"Lauchheim","address":null,"covered":false,"access":null,"website":null,"phone":null,"source":"OpenStreetMap/node/12190025066","sourceUpdatedAt":null,"verifiedAt":null}},{"type":"Feature","geometry":{"type":"Point","coordinates":[10.2437646,48.8744041]},"properties":{"id":"bikerack:9906bbac-5f4a-450e-b125-4a9f74dcb276","kind":"bikerack","longitude":10.2437646,"latitude":48.8744041,"name":"Fahrradabstellplatz","city":"Lauchheim","address":null,"covered":false,"access":null,"website":null,"phone":null,"source":"OpenStreetMap/way/1367379557","sourceUpdatedAt":null,"verifiedAt":null}},{"type":"Feature","geometry":{"type":"Point","coordinates":[10.2419561,48.8711723]},"properties":{"id":"bikerack:b325190d-85cf-40e0-995f-8e295d91132e","kind":"bikerack","longitude":10.2419561,"latitude":48.8711723,"name":"Fahrradabstellplatz","city":"Lauchheim","address":null,"covered":false,"access":null,"website":null,"phone":null,"source":"OpenStreetMap/node/12190025065","sourceUpdatedAt":null,"verifiedAt":null}},{"type":"Feature","geometry":{"type":"Point","coordinates":[10.2458758,48.871655]},"properties":{"id":"bikerack:be1bfd0d-b815-451b-8f25-bfc49ec39afe","kind":"bikerack","longitude":10.2458758,"latitude":48.871655,"name":"Fahrradabstellplatz","city":"Lauchheim","address":null,"covered":false,"access":null,"website":null,"phone":null,"source":"OpenStreetMap/node/9025446693","sourceUpdatedAt":null,"verifiedAt":null}},{"type":"Feature","geometry":{"type":"Point","coordinates":[10.2501717,48.8721108]},"properties":{"id":"bikerack:c2b2df22-abd5-4f6d-9823-e9d672c3d368","kind":"bikerack","longitude":10.2501717,"latitude":48.8721108,"name":"Fahrradabstellplatz","city":"Lauchheim","address":null,"covered":false,"access":null,"website":null,"phone":null,"source":"OpenStreetMap/node/9155829434","sourceUpdatedAt":null,"verifiedAt":null}}]}