{"type":"FeatureCollection","features":[{"type":"Feature","geometry":{"type":"Point","coordinates":[10.2576001,47.5437822]},"properties":{"id":"bikerack:04c6f51e-8c35-4da3-bb76-910ac0846144","kind":"bikerack","longitude":10.2576001,"latitude":47.5437822,"name":"Fahrradabstellplatz","city":"Blaichach","address":null,"covered":true,"access":null,"website":null,"phone":null,"source":"OpenStreetMap/node/13074848604","sourceUpdatedAt":null,"verifiedAt":null}},{"type":"Feature","geometry":{"type":"Point","coordinates":[10.2695656,47.5241988]},"properties":{"id":"bikerack:1ff9383d-34db-46ac-b3cf-2eb17080cfc7","kind":"bikerack","longitude":10.2695656,"latitude":47.5241988,"name":"Fahrradabstellplatz","city":"Blaichach","address":null,"covered":true,"access":null,"website":null,"phone":null,"source":"OpenStreetMap/node/3545485089","sourceUpdatedAt":null,"verifiedAt":null}},{"type":"Feature","geometry":{"type":"Point","coordinates":[10.2612432,47.541334]},"properties":{"id":"bikerack:2128d840-d068-486d-8667-93ac67048075","kind":"bikerack","longitude":10.2612432,"latitude":47.541334,"name":"Fahrradabstellplatz","city":"Blaichach","address":null,"covered":false,"access":null,"website":null,"phone":null,"source":"OpenStreetMap/node/13074844328","sourceUpdatedAt":null,"verifiedAt":null}},{"type":"Feature","geometry":{"type":"Point","coordinates":[10.2581189,47.5413427]},"properties":{"id":"bikerack:284e2d6b-f367-4260-b2aa-e1dcc81fdcdf","kind":"bikerack","longitude":10.2581189,"latitude":47.5413427,"name":"Fahrradabstellplatz","city":"Blaichach","address":null,"covered":false,"access":null,"website":null,"phone":null,"source":"OpenStreetMap/node/8763281349","sourceUpdatedAt":null,"verifiedAt":null}},{"type":"Feature","geometry":{"type":"Point","coordinates":[10.2597561,47.5462432]},"properties":{"id":"bikerack:81a51c5e-e6ad-4b9d-a26a-71285dbee12e","kind":"bikerack","longitude":10.2597561,"latitude":47.5462432,"name":"Fahrradabstellplatz","city":"Blaichach","address":null,"covered":false,"access":null,"website":null,"phone":null,"source":"OpenStreetMap/node/12138831141","sourceUpdatedAt":null,"verifiedAt":null}},{"type":"Feature","geometry":{"type":"Point","coordinates":[10.2648453,47.5417006]},"properties":{"id":"bikerack:861629ba-0e8b-470d-93da-799ce37b9cad","kind":"bikerack","longitude":10.2648453,"latitude":47.5417006,"name":"Fahrradabstellplatz","city":"Blaichach","address":null,"covered":false,"access":null,"website":null,"phone":null,"source":"OpenStreetMap/node/13074729978","sourceUpdatedAt":null,"verifiedAt":null}},{"type":"Feature","geometry":{"type":"Point","coordinates":[10.2585979,47.5439073]},"properties":{"id":"bikerack:af96c38c-6b3c-4688-8777-c3e8a165be40","kind":"bikerack","longitude":10.2585979,"latitude":47.5439073,"name":"Fahrradabstellplatz","city":"Blaichach","address":null,"covered":true,"access":null,"website":null,"phone":null,"source":"OpenStreetMap/node/9466863294","sourceUpdatedAt":null,"verifiedAt":null}},{"type":"Feature","geometry":{"type":"Point","coordinates":[10.2501067,47.5439473]},"properties":{"id":"bikerack:c7787dc6-14e4-424a-bc50-8024f15d4be9","kind":"bikerack","longitude":10.2501067,"latitude":47.5439473,"name":"Fahrradabstellplatz","city":"Blaichach","address":null,"covered":false,"access":null,"website":null,"phone":null,"source":"OpenStreetMap/node/13074847883","sourceUpdatedAt":null,"verifiedAt":null}},{"type":"Feature","geometry":{"type":"Point","coordinates":[10.2724894,47.5233744]},"properties":{"id":"bikerack:d0e6ecbe-e574-4033-9fe7-94dcae23799d","kind":"bikerack","longitude":10.2724894,"latitude":47.5233744,"name":"Fahrradabstellplatz","city":"Sonthofen","address":null,"covered":false,"access":null,"website":null,"phone":null,"source":"OpenStreetMap/node/7859606064","sourceUpdatedAt":null,"verifiedAt":null}},{"type":"Feature","geometry":{"type":"Point","coordinates":[10.2812703,47.5186042]},"properties":{"id":"service:06445997-c81f-4255-949c-2242caebdd98","kind":"service","longitude":10.2812703,"latitude":47.5186042,"name":"Radstation Sonthofen","city":"Sonthofen","address":null,"covered":null,"access":null,"website":null,"phone":null,"source":"OpenStreetMap/node/7004520037","sourceUpdatedAt":null,"verifiedAt":null}},{"type":"Feature","geometry":{"type":"Point","coordinates":[10.2729558,47.5214562]},"properties":{"id":"service:8ef0a5e7-ee5f-4716-9343-39ac3a49741f","kind":"service","longitude":10.2729558,"latitude":47.5214562,"name":"Zweirad Riescher","city":"Sonthofen","address":null,"covered":null,"access":null,"website":null,"phone":null,"source":"OpenStreetMap/node/9084928468","sourceUpdatedAt":null,"verifiedAt":null}},{"type":"Feature","geometry":{"type":"Point","coordinates":[10.2722925,47.5239047]},"properties":{"id":"service:d333d148-42e5-45c6-89ab-c96de43b7b5c","kind":"service","longitude":10.2722925,"latitude":47.5239047,"name":"Bikepark Tannachwäldchen","city":"Blaichach","address":null,"covered":null,"access":null,"website":null,"phone":null,"source":"OpenStreetMap/node/6490989889","sourceUpdatedAt":null,"verifiedAt":null}},{"type":"Feature","geometry":{"type":"Point","coordinates":[10.2569492,47.5457921]},"properties":{"id":"service:e31b71cf-f1dd-4aea-9366-36dbfe8e6b43","kind":"service","longitude":10.2569492,"latitude":47.5457921,"name":"Rad und Sport Blaichach","city":"Blaichach","address":null,"covered":null,"access":null,"website":null,"phone":null,"source":"OpenStreetMap/node/4898290514","sourceUpdatedAt":null,"verifiedAt":null}}]}