{"type":"FeatureCollection","features":[{"type":"Feature","geometry":{"type":"Point","coordinates":[10.2460881,46.713923]},"properties":{"id":"water:404899fc-1aa0-4918-bb72-50e00a31653d","kind":"water","longitude":10.2460881,"latitude":46.713923,"name":"Drinking Fountain","city":"Scuol","address":null,"covered":null,"access":null,"website":null,"phone":null,"source":"OpenStreetMap/node/1455023536","sourceUpdatedAt":null,"verifiedAt":null}},{"type":"Feature","geometry":{"type":"Point","coordinates":[10.241582,46.7191162]},"properties":{"id":"water:4a488bc4-da57-4424-bf46-2b76399002ea","kind":"water","longitude":10.241582,"latitude":46.7191162,"name":"Drinking Fountain","city":"Scuol","address":null,"covered":null,"access":null,"website":null,"phone":null,"source":"OpenStreetMap/node/1455023279","sourceUpdatedAt":null,"verifiedAt":null}}]}