{"type":"FeatureCollection","features":[{"type":"Feature","geometry":{"type":"Point","coordinates":[9.4443533,50.3140275]},"properties":{"id":"bikerack:282681cd-8282-4920-a605-76a6a1916c2c","kind":"bikerack","longitude":9.4443533,"latitude":50.3140275,"name":"Fahrradabstellplatz","city":"Steinau an der Strasse","address":null,"covered":false,"access":null,"website":null,"phone":null,"source":"OpenStreetMap/node/11880927720","sourceUpdatedAt":null,"verifiedAt":null}},{"type":"Feature","geometry":{"type":"Point","coordinates":[9.413409,50.3025042]},"properties":{"id":"bikerack:84a842d9-f762-4b5c-a2da-34b5f758e1b7","kind":"bikerack","longitude":9.413409,"latitude":50.3025042,"name":"Fahrradabstellplatz","city":"Steinau an der Strasse","address":null,"covered":false,"access":null,"website":null,"phone":null,"source":"OpenStreetMap/node/10877226969","sourceUpdatedAt":null,"verifiedAt":null}},{"type":"Feature","geometry":{"type":"Point","coordinates":[9.4435166,50.3141555]},"properties":{"id":"bikerack:b990a10a-9d75-4f65-8283-78da368646a4","kind":"bikerack","longitude":9.4435166,"latitude":50.3141555,"name":"Fahrradabstellplatz","city":"Steinau an der Strasse","address":null,"covered":true,"access":null,"website":null,"phone":null,"source":"OpenStreetMap/node/9380286139","sourceUpdatedAt":null,"verifiedAt":null}}]}