{"type":"FeatureCollection","features":[{"type":"Feature","geometry":{"type":"Point","coordinates":[9.4180403,48.6896912]},"properties":{"id":"bikerack:19a6c3eb-b66f-40e9-8d18-8995ce8bd544","kind":"bikerack","longitude":9.4180403,"latitude":48.6896912,"name":"Fahrradabstellplatz","city":"Wernau","address":null,"covered":false,"access":null,"website":null,"phone":null,"source":"OpenStreetMap/node/12876106643","sourceUpdatedAt":null,"verifiedAt":null}},{"type":"Feature","geometry":{"type":"Point","coordinates":[9.4236108,48.688792]},"properties":{"id":"bikerack:8ba547f5-15a0-46a6-bdae-709005297af5","kind":"bikerack","longitude":9.4236108,"latitude":48.688792,"name":"Fahrradabstellplatz","city":"Wernau","address":null,"covered":false,"access":null,"website":null,"phone":null,"source":"OpenStreetMap/node/12966505451","sourceUpdatedAt":null,"verifiedAt":null}},{"type":"Feature","geometry":{"type":"Point","coordinates":[9.4180683,48.689724]},"properties":{"id":"bikerack:9844e0f6-58a6-4f84-92eb-b4865f9494ed","kind":"bikerack","longitude":9.4180683,"latitude":48.689724,"name":"Fahrradabstellplatz","city":"Wernau","address":null,"covered":false,"access":null,"website":null,"phone":null,"source":"OpenStreetMap/node/12876106642","sourceUpdatedAt":null,"verifiedAt":null}},{"type":"Feature","geometry":{"type":"Point","coordinates":[9.4177463,48.6896944]},"properties":{"id":"repair:df8d5243-629f-482b-851e-6daddc499bc7","kind":"repair","longitude":9.4177463,"latitude":48.6896944,"name":"Fahrradreparaturstation","city":"Wernau","address":null,"covered":false,"access":null,"website":null,"phone":null,"source":"OpenStreetMap/node/10951319628","sourceUpdatedAt":null,"verifiedAt":null}},{"type":"Feature","geometry":{"type":"Point","coordinates":[9.421475,48.6889315]},"properties":{"id":"water:f42b83a8-5dc8-47b4-9644-bdcfbd78fba1","kind":"water","longitude":9.421475,"latitude":48.6889315,"name":"Trinkwasser","city":"Wernau","address":null,"covered":null,"access":null,"website":null,"phone":null,"source":"OpenStreetMap/node/12876075871","sourceUpdatedAt":null,"verifiedAt":null}}]}