{"type":"FeatureCollection","features":[{"type":"Feature","geometry":{"type":"Point","coordinates":[9.412795,47.3314556]},"properties":{"id":"bikerack:0c2e4e94-50d2-4ee3-964e-75e874b1d3ea","kind":"bikerack","longitude":9.412795,"latitude":47.3314556,"name":"Bicycle Parking","city":"Appenzell","address":null,"covered":true,"access":null,"website":null,"phone":null,"source":"OpenStreetMap/way/1090421882","sourceUpdatedAt":null,"verifiedAt":null}},{"type":"Feature","geometry":{"type":"Point","coordinates":[9.4300393,47.3186652]},"properties":{"id":"bikerack:1283d589-621e-45b4-982a-44d4c312d5ba","kind":"bikerack","longitude":9.4300393,"latitude":47.3186652,"name":"Bicycle Parking","city":"Appenzell","address":null,"covered":false,"access":null,"website":null,"phone":null,"source":"OpenStreetMap/node/856509539","sourceUpdatedAt":null,"verifiedAt":null}},{"type":"Feature","geometry":{"type":"Point","coordinates":[9.4073293,47.3319493]},"properties":{"id":"bikerack:3f7958c5-b46e-4d46-a557-b4f9cfbed9c4","kind":"bikerack","longitude":9.4073293,"latitude":47.3319493,"name":"Bicycle Parking","city":"Appenzell","address":null,"covered":true,"access":null,"website":null,"phone":null,"source":"OpenStreetMap/way/1095103630","sourceUpdatedAt":null,"verifiedAt":null}},{"type":"Feature","geometry":{"type":"Point","coordinates":[9.4064493,47.3320252]},"properties":{"id":"bikerack:438e970d-b0bf-4b27-9ff2-1b6a77a343db","kind":"bikerack","longitude":9.4064493,"latitude":47.3320252,"name":"Bicycle Parking","city":"Appenzell","address":null,"covered":false,"access":null,"website":null,"phone":null,"source":"OpenStreetMap/node/9822107927","sourceUpdatedAt":null,"verifiedAt":null}},{"type":"Feature","geometry":{"type":"Point","coordinates":[9.4121108,47.3308341]},"properties":{"id":"bikerack:5e70ac0c-f3c9-4c2e-9fac-83c0bdb21237","kind":"bikerack","longitude":9.4121108,"latitude":47.3308341,"name":"Bicycle Parking","city":"Appenzell","address":null,"covered":false,"access":null,"website":null,"phone":null,"source":"OpenStreetMap/node/6761244489","sourceUpdatedAt":null,"verifiedAt":null}},{"type":"Feature","geometry":{"type":"Point","coordinates":[9.406399,47.3305004]},"properties":{"id":"bikerack:879feb4b-e3f8-465a-89aa-dc2d4c35c3a2","kind":"bikerack","longitude":9.406399,"latitude":47.3305004,"name":"Bicycle Parking","city":"Appenzell","address":null,"covered":true,"access":null,"website":null,"phone":null,"source":"OpenStreetMap/way/1373444852","sourceUpdatedAt":null,"verifiedAt":null}},{"type":"Feature","geometry":{"type":"Point","coordinates":[9.4062998,47.3304712]},"properties":{"id":"bikerack:92d03c22-6a53-4e72-bb94-1eb4b8bd5aad","kind":"bikerack","longitude":9.4062998,"latitude":47.3304712,"name":"Bicycle Parking","city":"Appenzell","address":null,"covered":true,"access":null,"website":null,"phone":null,"source":"OpenStreetMap/way/1373444851","sourceUpdatedAt":null,"verifiedAt":null}},{"type":"Feature","geometry":{"type":"Point","coordinates":[9.4085379,47.329386]},"properties":{"id":"bikerack:a692557a-52fd-4ced-95ef-0863ef6b76a0","kind":"bikerack","longitude":9.4085379,"latitude":47.329386,"name":"Bicycle Parking","city":"Appenzell","address":null,"covered":true,"access":null,"website":null,"phone":null,"source":"OpenStreetMap/way/982290997","sourceUpdatedAt":null,"verifiedAt":null}},{"type":"Feature","geometry":{"type":"Point","coordinates":[9.4113921,47.333531]},"properties":{"id":"bikerack:c79e0dca-88ba-4d27-a3e4-c91c236ac5f9","kind":"bikerack","longitude":9.4113921,"latitude":47.333531,"name":"Bicycle Parking","city":"Appenzell","address":null,"covered":false,"access":null,"website":null,"phone":null,"source":"OpenStreetMap/node/13528287135","sourceUpdatedAt":null,"verifiedAt":null}},{"type":"Feature","geometry":{"type":"Point","coordinates":[9.4229177,47.3314231]},"properties":{"id":"bikerack:c7bc610c-3cf2-48fd-8609-33d1b7d5a7ab","kind":"bikerack","longitude":9.4229177,"latitude":47.3314231,"name":"Bicycle Parking","city":"Appenzell","address":null,"covered":true,"access":null,"website":null,"phone":null,"source":"OpenStreetMap/node/10997711070","sourceUpdatedAt":null,"verifiedAt":null}},{"type":"Feature","geometry":{"type":"Point","coordinates":[9.4114036,47.3337691]},"properties":{"id":"bikerack:d756908a-994f-49a0-8595-47e8b8aee964","kind":"bikerack","longitude":9.4114036,"latitude":47.3337691,"name":"Bicycle Parking","city":"Appenzell","address":null,"covered":false,"access":null,"website":null,"phone":null,"source":"OpenStreetMap/node/9990095975","sourceUpdatedAt":null,"verifiedAt":null}},{"type":"Feature","geometry":{"type":"Point","coordinates":[9.4356264,47.3102546]},"properties":{"id":"bikerack:ddacecf5-8094-4fc6-924b-fff03109e066","kind":"bikerack","longitude":9.4356264,"latitude":47.3102546,"name":"Bicycle Parking","city":"Appenzell","address":null,"covered":true,"access":null,"website":null,"phone":null,"source":"OpenStreetMap/way/1282238837","sourceUpdatedAt":null,"verifiedAt":null}},{"type":"Feature","geometry":{"type":"Point","coordinates":[9.4058629,47.333754]},"properties":{"id":"bikerack:f32fc49a-0a12-4a1c-b895-6f244392ae8f","kind":"bikerack","longitude":9.4058629,"latitude":47.333754,"name":"Bicycle Parking","city":"Appenzell","address":null,"covered":false,"access":null,"website":null,"phone":null,"source":"OpenStreetMap/node/12241608724","sourceUpdatedAt":null,"verifiedAt":null}},{"type":"Feature","geometry":{"type":"Point","coordinates":[9.4050679,47.3332642]},"properties":{"id":"bikerack:fbcd7cbb-808c-40aa-80f5-7029503ba693","kind":"bikerack","longitude":9.4050679,"latitude":47.3332642,"name":"Bicycle Parking","city":"Appenzell","address":null,"covered":false,"access":null,"website":null,"phone":null,"source":"OpenStreetMap/way/1474632257","sourceUpdatedAt":null,"verifiedAt":null}},{"type":"Feature","geometry":{"type":"Point","coordinates":[9.413947,47.3280878]},"properties":{"id":"service:ab34c58f-071c-44b6-9d18-3d0e79edd24c","kind":"service","longitude":9.413947,"latitude":47.3280878,"name":"H&G Motos GmbH","city":"Appenzell","address":null,"covered":null,"access":null,"website":null,"phone":null,"source":"OpenStreetMap/node/11132136273","sourceUpdatedAt":null,"verifiedAt":null}},{"type":"Feature","geometry":{"type":"Point","coordinates":[9.4308805,47.3213829]},"properties":{"id":"service:e2d80ee8-c9fd-47f0-9c65-2934a3d51733","kind":"service","longitude":9.4308805,"latitude":47.3213829,"name":"Danis Velolade","city":"Appenzell Steinegg","address":null,"covered":null,"access":null,"website":null,"phone":null,"source":"OpenStreetMap/way/239459927","sourceUpdatedAt":null,"verifiedAt":null}},{"type":"Feature","geometry":{"type":"Point","coordinates":[9.4078921,47.3275834]},"properties":{"id":"water:85ad283e-7c0a-4e5d-84c5-6a0b939399b3","kind":"water","longitude":9.4078921,"latitude":47.3275834,"name":"Drinking Fountain","city":"Appenzell","address":null,"covered":null,"access":null,"website":null,"phone":null,"source":"OpenStreetMap/node/13090545869","sourceUpdatedAt":null,"verifiedAt":null}},{"type":"Feature","geometry":{"type":"Point","coordinates":[9.4297397,47.3206398]},"properties":{"id":"water:a896e4c8-ce74-4834-b2fc-07ac5d87a97f","kind":"water","longitude":9.4297397,"latitude":47.3206398,"name":"Drinking Fountain","city":"Appenzell","address":null,"covered":null,"access":null,"website":null,"phone":null,"source":"OpenStreetMap/node/9963921179","sourceUpdatedAt":null,"verifiedAt":null}},{"type":"Feature","geometry":{"type":"Point","coordinates":[9.413033,47.3123848]},"properties":{"id":"water:dd92e907-47c9-4cc0-a733-b2f3edc397f1","kind":"water","longitude":9.413033,"latitude":47.3123848,"name":"Drinking Fountain","city":"Appenzell","address":null,"covered":null,"access":null,"website":null,"phone":null,"source":"OpenStreetMap/node/5029458823","sourceUpdatedAt":null,"verifiedAt":null}}]}