{"type":"FeatureCollection","features":[{"type":"Feature","geometry":{"type":"Point","coordinates":[9.4124032,46.7893419]},"properties":{"id":"water:082052a1-0418-4ace-9186-12d1b4adfb02","kind":"water","longitude":9.4124032,"latitude":46.7893419,"name":"Drinking Fountain","city":"Rhazuns","address":null,"covered":null,"access":null,"website":null,"phone":null,"source":"OpenStreetMap/node/8018674860","sourceUpdatedAt":null,"verifiedAt":null}},{"type":"Feature","geometry":{"type":"Point","coordinates":[9.4259791,46.7700201]},"properties":{"id":"water:346c7e50-ef94-4a8b-bcab-9b770a4f4d13","kind":"water","longitude":9.4259791,"latitude":46.7700201,"name":"Drinking Fountain","city":"Rhazuns","address":null,"covered":null,"access":null,"website":null,"phone":null,"source":"OpenStreetMap/node/11245233514","sourceUpdatedAt":null,"verifiedAt":null}},{"type":"Feature","geometry":{"type":"Point","coordinates":[9.4472993,46.7760429]},"properties":{"id":"water:c801c07f-ca7a-4026-a083-1525f49e171d","kind":"water","longitude":9.4472993,"latitude":46.7760429,"name":"Drinking Fountain","city":"Rhazuns","address":null,"covered":null,"access":null,"website":null,"phone":null,"source":"OpenStreetMap/node/11973750176","sourceUpdatedAt":null,"verifiedAt":null}},{"type":"Feature","geometry":{"type":"Point","coordinates":[9.4184919,46.7833489]},"properties":{"id":"water:e9809e06-3891-4c75-b8e7-61994cd13da7","kind":"water","longitude":9.4184919,"latitude":46.7833489,"name":"Drinking Fountain","city":"Rhazuns","address":null,"covered":null,"access":null,"website":null,"phone":null,"source":"OpenStreetMap/node/6939522157","sourceUpdatedAt":null,"verifiedAt":null}}]}