{"type":"FeatureCollection","features":[{"type":"Feature","geometry":{"type":"Point","coordinates":[9.4295937,45.9871326]},"properties":{"id":"water:3b6070f4-bfec-44ed-8154-91f15d3e1c8a","kind":"water","longitude":9.4295937,"latitude":45.9871326,"name":"Fontanella","city":"Primaluna","address":null,"covered":null,"access":null,"website":null,"phone":null,"source":"OpenStreetMap/node/6602449714","sourceUpdatedAt":null,"verifiedAt":null}},{"type":"Feature","geometry":{"type":"Point","coordinates":[9.4140349,45.9990931]},"properties":{"id":"water:51c8b1fc-8edc-4b38-bf84-3194e2ae0a27","kind":"water","longitude":9.4140349,"latitude":45.9990931,"name":"Fontanella","city":"Primaluna","address":null,"covered":null,"access":null,"website":null,"phone":null,"source":"OpenStreetMap/node/13261028713","sourceUpdatedAt":null,"verifiedAt":null}},{"type":"Feature","geometry":{"type":"Point","coordinates":[9.4290484,46.006756]},"properties":{"id":"water:8c8afede-f6d1-4e00-8d98-f1346ac8a6ae","kind":"water","longitude":9.4290484,"latitude":46.006756,"name":"Fontanella","city":"Primaluna","address":null,"covered":null,"access":null,"website":null,"phone":null,"source":"OpenStreetMap/node/13257353653","sourceUpdatedAt":null,"verifiedAt":null}},{"type":"Feature","geometry":{"type":"Point","coordinates":[9.4392185,45.9839585]},"properties":{"id":"water:a731b2dd-35f2-453a-90d4-1c09098fbed4","kind":"water","longitude":9.4392185,"latitude":45.9839585,"name":"Fontanella","city":"Primaluna","address":null,"covered":null,"access":null,"website":null,"phone":null,"source":"OpenStreetMap/node/12786457552","sourceUpdatedAt":null,"verifiedAt":null}},{"type":"Feature","geometry":{"type":"Point","coordinates":[9.4463098,46.0107672]},"properties":{"id":"water:ad72dc90-cc1f-4004-897e-6c97f8973f56","kind":"water","longitude":9.4463098,"latitude":46.0107672,"name":"Fontanella","city":"Primaluna","address":null,"covered":null,"access":null,"website":null,"phone":null,"source":"OpenStreetMap/node/8954113882","sourceUpdatedAt":null,"verifiedAt":null}},{"type":"Feature","geometry":{"type":"Point","coordinates":[9.4379442,45.9832507]},"properties":{"id":"water:c8c073af-b98a-4f8a-b10a-fb046aef325f","kind":"water","longitude":9.4379442,"latitude":45.9832507,"name":"Fontanella","city":"Primaluna","address":null,"covered":null,"access":null,"website":null,"phone":null,"source":"OpenStreetMap/node/12786529766","sourceUpdatedAt":null,"verifiedAt":null}},{"type":"Feature","geometry":{"type":"Point","coordinates":[9.4290863,45.9863245]},"properties":{"id":"water:ee2d6daa-a03e-422c-83f5-e8e521bba5bb","kind":"water","longitude":9.4290863,"latitude":45.9863245,"name":"Fontanella","city":"Primaluna","address":null,"covered":null,"access":null,"website":null,"phone":null,"source":"OpenStreetMap/node/6602422816","sourceUpdatedAt":null,"verifiedAt":null}},{"type":"Feature","geometry":{"type":"Point","coordinates":[9.4176769,45.9895489]},"properties":{"id":"water:fa2149de-223c-4652-ae72-48db3522a47b","kind":"water","longitude":9.4176769,"latitude":45.9895489,"name":"Fontanella","city":"Primaluna","address":null,"covered":null,"access":null,"website":null,"phone":null,"source":"OpenStreetMap/node/13159775073","sourceUpdatedAt":null,"verifiedAt":null}}]}