{"type":"FeatureCollection","features":[{"type":"Feature","geometry":{"type":"Point","coordinates":[9.4199012,45.7320954]},"properties":{"id":"water:122aa1bd-74c3-40f5-a4ca-b046d9624590","kind":"water","longitude":9.4199012,"latitude":45.7320954,"name":"Fontanella","city":"Calco","address":null,"covered":null,"access":null,"website":null,"phone":null,"source":"OpenStreetMap/node/7815378851","sourceUpdatedAt":null,"verifiedAt":null}},{"type":"Feature","geometry":{"type":"Point","coordinates":[9.410828,45.7076665]},"properties":{"id":"water:76b8623c-3fb0-4c8c-a07e-9131336b278d","kind":"water","longitude":9.410828,"latitude":45.7076665,"name":"Fontanella","city":"Calco","address":null,"covered":null,"access":null,"website":null,"phone":null,"source":"OpenStreetMap/node/12770930981","sourceUpdatedAt":null,"verifiedAt":null}},{"type":"Feature","geometry":{"type":"Point","coordinates":[9.4213504,45.7143857]},"properties":{"id":"water:b3edc48d-80b4-4cf6-a9ee-67c1e53edf44","kind":"water","longitude":9.4213504,"latitude":45.7143857,"name":"Fontanella","city":"Calco","address":null,"covered":null,"access":null,"website":null,"phone":null,"source":"OpenStreetMap/node/5783696435","sourceUpdatedAt":null,"verifiedAt":null}},{"type":"Feature","geometry":{"type":"Point","coordinates":[9.4423655,45.7142452]},"properties":{"id":"water:ef90884c-fccd-439f-a4cd-a2ffe26512e2","kind":"water","longitude":9.4423655,"latitude":45.7142452,"name":"Fontanella","city":"Imbersago","address":null,"covered":null,"access":null,"website":null,"phone":null,"source":"OpenStreetMap/node/5783697258","sourceUpdatedAt":null,"verifiedAt":null}}]}