{"type":"FeatureCollection","features":[{"type":"Feature","geometry":{"type":"Point","coordinates":[9.4069438,45.4809492]},"properties":{"id":"service:209eba7d-b802-4b26-9247-55832de402b1","kind":"service","longitude":9.4069438,"latitude":45.4809492,"name":"Negozio di biciclette","city":"Liscate","address":null,"covered":null,"access":null,"website":null,"phone":null,"source":"OpenStreetMap/node/1709715405","sourceUpdatedAt":null,"verifiedAt":null}},{"type":"Feature","geometry":{"type":"Point","coordinates":[9.4449299,45.4746926]},"properties":{"id":"water:13ec2af2-1bbc-425e-adab-3721b6a01231","kind":"water","longitude":9.4449299,"latitude":45.4746926,"name":"Fontanella","city":"Truccazzano","address":null,"covered":null,"access":null,"website":null,"phone":null,"source":"OpenStreetMap/node/7812035225","sourceUpdatedAt":null,"verifiedAt":null}},{"type":"Feature","geometry":{"type":"Point","coordinates":[9.4091111,45.480043]},"properties":{"id":"water:48aea186-babb-418e-8c30-de41b9ef1d7b","kind":"water","longitude":9.4091111,"latitude":45.480043,"name":"Fontanella","city":"Liscate","address":null,"covered":null,"access":null,"website":null,"phone":null,"source":"OpenStreetMap/node/1709715457","sourceUpdatedAt":null,"verifiedAt":null}},{"type":"Feature","geometry":{"type":"Point","coordinates":[9.4143033,45.4800502]},"properties":{"id":"water:48e84d8d-5585-42d5-b9ef-30c725e602cf","kind":"water","longitude":9.4143033,"latitude":45.4800502,"name":"Fontanella","city":"Liscate","address":null,"covered":null,"access":null,"website":null,"phone":null,"source":"OpenStreetMap/node/3059512364","sourceUpdatedAt":null,"verifiedAt":null}},{"type":"Feature","geometry":{"type":"Point","coordinates":[9.4092015,45.4802017]},"properties":{"id":"water:5a877e68-722f-480f-b45f-aa0477199f16","kind":"water","longitude":9.4092015,"latitude":45.4802017,"name":"Fontanella","city":"Liscate","address":null,"covered":null,"access":null,"website":null,"phone":null,"source":"OpenStreetMap/node/7413882808","sourceUpdatedAt":null,"verifiedAt":null}},{"type":"Feature","geometry":{"type":"Point","coordinates":[9.4421753,45.4615399]},"properties":{"id":"water:7940ab42-3327-4384-98f3-0a20162d0d91","kind":"water","longitude":9.4421753,"latitude":45.4615399,"name":"Fontanella","city":"Comazzo","address":null,"covered":null,"access":null,"website":null,"phone":null,"source":"OpenStreetMap/node/3892198401","sourceUpdatedAt":null,"verifiedAt":null}},{"type":"Feature","geometry":{"type":"Point","coordinates":[9.4124976,45.4791265]},"properties":{"id":"water:8b0870c5-1e5c-4c57-8e96-b698ad0bb620","kind":"water","longitude":9.4124976,"latitude":45.4791265,"name":"Fontanella","city":"Liscate","address":null,"covered":null,"access":null,"website":null,"phone":null,"source":"OpenStreetMap/node/1709715428","sourceUpdatedAt":null,"verifiedAt":null}},{"type":"Feature","geometry":{"type":"Point","coordinates":[9.4046024,45.4815672]},"properties":{"id":"water:b363e062-ce56-491d-ae84-1d79434696bf","kind":"water","longitude":9.4046024,"latitude":45.4815672,"name":"Fontanella","city":"Liscate","address":null,"covered":null,"access":null,"website":null,"phone":null,"source":"OpenStreetMap/node/8534497871","sourceUpdatedAt":null,"verifiedAt":null}},{"type":"Feature","geometry":{"type":"Point","coordinates":[9.4073749,45.4782842]},"properties":{"id":"water:f2d85856-aca3-4fc4-b4d8-383c7d6f42a7","kind":"water","longitude":9.4073749,"latitude":45.4782842,"name":"Fontanella","city":"Liscate","address":null,"covered":null,"access":null,"website":null,"phone":null,"source":"OpenStreetMap/node/2309462301","sourceUpdatedAt":null,"verifiedAt":null}}]}