{"type":"FeatureCollection","features":[{"type":"Feature","geometry":{"type":"Point","coordinates":[13.9589386,54.0661443]},"properties":{"id":"bikerack:0bb0d8fd-3baa-45ec-8d2d-2fbe8548fb42","kind":"bikerack","longitude":13.9589386,"latitude":54.0661443,"name":"Fahrradabstellplatz","city":"Koserow","address":null,"covered":false,"access":null,"website":null,"phone":null,"source":"OpenStreetMap/node/10881006061","sourceUpdatedAt":null,"verifiedAt":null}},{"type":"Feature","geometry":{"type":"Point","coordinates":[13.9547038,54.0598804]},"properties":{"id":"bikerack:0ce09c31-6b92-4c77-9332-b9f786e9907c","kind":"bikerack","longitude":13.9547038,"latitude":54.0598804,"name":"Fahrradabstellplatz","city":"Ostseebad Zinnowitz","address":null,"covered":false,"access":null,"website":null,"phone":null,"source":"OpenStreetMap/node/2997806118","sourceUpdatedAt":null,"verifiedAt":null}},{"type":"Feature","geometry":{"type":"Point","coordinates":[13.9532817,54.0711576]},"properties":{"id":"bikerack:26113b97-9c3f-4cc0-a8ed-35a933f79d7c","kind":"bikerack","longitude":13.9532817,"latitude":54.0711576,"name":"Fahrradabstellplatz","city":"Ostseebad Zinnowitz","address":null,"covered":false,"access":null,"website":null,"phone":null,"source":"OpenStreetMap/node/9015201246","sourceUpdatedAt":null,"verifiedAt":null}},{"type":"Feature","geometry":{"type":"Point","coordinates":[13.9551332,54.0707963]},"properties":{"id":"bikerack:3085c26c-569e-464d-9632-14f6af1fe640","kind":"bikerack","longitude":13.9551332,"latitude":54.0707963,"name":"Fahrradabstellplatz","city":"Ostseebad Zinnowitz","address":null,"covered":false,"access":null,"website":null,"phone":null,"source":"OpenStreetMap/way/707479070","sourceUpdatedAt":null,"verifiedAt":null}},{"type":"Feature","geometry":{"type":"Point","coordinates":[13.9531899,54.0691428]},"properties":{"id":"bikerack:3abaaa70-5b3f-45a8-8efa-fcc226eb33d5","kind":"bikerack","longitude":13.9531899,"latitude":54.0691428,"name":"Fahrradabstellplatz","city":"Ostseebad Zinnowitz","address":null,"covered":false,"access":null,"website":null,"phone":null,"source":"OpenStreetMap/node/4922990597","sourceUpdatedAt":null,"verifiedAt":null}},{"type":"Feature","geometry":{"type":"Point","coordinates":[13.9550706,54.0707493]},"properties":{"id":"bikerack:4d7c510f-7a3f-4519-8d56-2c3fe14d2d7d","kind":"bikerack","longitude":13.9550706,"latitude":54.0707493,"name":"Fahrradabstellplatz","city":"Ostseebad Zinnowitz","address":null,"covered":false,"access":null,"website":null,"phone":null,"source":"OpenStreetMap/way/707479071","sourceUpdatedAt":null,"verifiedAt":null}},{"type":"Feature","geometry":{"type":"Point","coordinates":[13.9568938,54.0662957]},"properties":{"id":"bikerack:6366781c-37cc-4f2c-be9e-09461b7c1618","kind":"bikerack","longitude":13.9568938,"latitude":54.0662957,"name":"Fahrradabstellplatz","city":"Ostseebad Zinnowitz","address":null,"covered":false,"access":null,"website":null,"phone":null,"source":"OpenStreetMap/node/12997959854","sourceUpdatedAt":null,"verifiedAt":null}},{"type":"Feature","geometry":{"type":"Point","coordinates":[13.958583,54.0661109]},"properties":{"id":"bikerack:71f78115-fb02-4e93-bbe9-ecb2410c86cd","kind":"bikerack","longitude":13.958583,"latitude":54.0661109,"name":"Fahrradabstellplatz","city":"Koserow","address":null,"covered":false,"access":null,"website":null,"phone":null,"source":"OpenStreetMap/node/6903544439","sourceUpdatedAt":null,"verifiedAt":null}},{"type":"Feature","geometry":{"type":"Point","coordinates":[13.9532999,54.0696305]},"properties":{"id":"bikerack:87deb0e5-4675-4363-ba41-ebfbbd718e3c","kind":"bikerack","longitude":13.9532999,"latitude":54.0696305,"name":"Fahrradabstellplatz","city":"Ostseebad Zinnowitz","address":null,"covered":false,"access":null,"website":null,"phone":null,"source":"OpenStreetMap/way/707479080","sourceUpdatedAt":null,"verifiedAt":null}},{"type":"Feature","geometry":{"type":"Point","coordinates":[13.9548516,54.0707618]},"properties":{"id":"bikerack:997f6942-ff1c-428b-939a-d57e92a66d6b","kind":"bikerack","longitude":13.9548516,"latitude":54.0707618,"name":"Fahrradabstellplatz","city":"Ostseebad Zinnowitz","address":null,"covered":false,"access":null,"website":null,"phone":null,"source":"OpenStreetMap/way/707479072","sourceUpdatedAt":null,"verifiedAt":null}},{"type":"Feature","geometry":{"type":"Point","coordinates":[13.9385336,54.0715232]},"properties":{"id":"bikerack:a7c7b8c7-c27a-42ee-8f4e-c0119048c6cc","kind":"bikerack","longitude":13.9385336,"latitude":54.0715232,"name":"Fahrradabstellplatz","city":"Ostseebad Zinnowitz","address":null,"covered":false,"access":null,"website":null,"phone":null,"source":"OpenStreetMap/node/3944447461","sourceUpdatedAt":null,"verifiedAt":null}},{"type":"Feature","geometry":{"type":"Point","coordinates":[13.9576095,54.0668794]},"properties":{"id":"bikerack:b093fea3-2f13-484c-86e9-ed3113faedeb","kind":"bikerack","longitude":13.9576095,"latitude":54.0668794,"name":"Fahrradabstellplatz","city":"Koserow","address":null,"covered":false,"access":null,"website":null,"phone":null,"source":"OpenStreetMap/node/8934254286","sourceUpdatedAt":null,"verifiedAt":null}},{"type":"Feature","geometry":{"type":"Point","coordinates":[13.9626051,54.0694284]},"properties":{"id":"bikerack:c502f89f-b589-4be6-9ecd-c612ba4e8829","kind":"bikerack","longitude":13.9626051,"latitude":54.0694284,"name":"Fahrradabstellplatz","city":"Koserow","address":null,"covered":false,"access":null,"website":null,"phone":null,"source":"OpenStreetMap/node/10840422871","sourceUpdatedAt":null,"verifiedAt":null}},{"type":"Feature","geometry":{"type":"Point","coordinates":[13.9530336,54.0688059]},"properties":{"id":"bikerack:c8b0b9bb-8d9b-4be6-9a65-afe65d06d957","kind":"bikerack","longitude":13.9530336,"latitude":54.0688059,"name":"Fahrradabstellplatz","city":"Ostseebad Zinnowitz","address":null,"covered":false,"access":null,"website":null,"phone":null,"source":"OpenStreetMap/way/391231443","sourceUpdatedAt":null,"verifiedAt":null}},{"type":"Feature","geometry":{"type":"Point","coordinates":[13.9545894,54.0708222]},"properties":{"id":"bikerack:cb823db0-6c77-47e0-b3f3-4b80fa99aeab","kind":"bikerack","longitude":13.9545894,"latitude":54.0708222,"name":"Fahrradabstellplatz","city":"Ostseebad Zinnowitz","address":null,"covered":false,"access":null,"website":null,"phone":null,"source":"OpenStreetMap/way/707479068","sourceUpdatedAt":null,"verifiedAt":null}},{"type":"Feature","geometry":{"type":"Point","coordinates":[13.9547229,54.0706755]},"properties":{"id":"bikerack:d4ec2108-ad4c-43b9-8e33-8215d417eaf6","kind":"bikerack","longitude":13.9547229,"latitude":54.0706755,"name":"Fahrradabstellplatz","city":"Ostseebad Zinnowitz","address":null,"covered":false,"access":null,"website":null,"phone":null,"source":"OpenStreetMap/way/707479073","sourceUpdatedAt":null,"verifiedAt":null}},{"type":"Feature","geometry":{"type":"Point","coordinates":[13.9668001,54.0691554]},"properties":{"id":"bikerack:e2d50b8a-aca2-4921-88a1-ec2726bf1972","kind":"bikerack","longitude":13.9668001,"latitude":54.0691554,"name":"Fahrradabstellplatz","city":"Koserow","address":null,"covered":false,"access":null,"website":null,"phone":null,"source":"OpenStreetMap/node/10803080531","sourceUpdatedAt":null,"verifiedAt":null}},{"type":"Feature","geometry":{"type":"Point","coordinates":[13.9546246,54.059994]},"properties":{"id":"bikerack:ee9738b2-3e51-4d50-8f9c-bb072b61d45c","kind":"bikerack","longitude":13.9546246,"latitude":54.059994,"name":"Fahrradabstellplatz","city":"Ostseebad Zinnowitz","address":null,"covered":false,"access":null,"website":null,"phone":null,"source":"OpenStreetMap/node/12997951488","sourceUpdatedAt":null,"verifiedAt":null}},{"type":"Feature","geometry":{"type":"Point","coordinates":[13.9535012,54.0707333]},"properties":{"id":"bikerack:f37e2754-df36-4c06-b9e6-9e1b7d578017","kind":"bikerack","longitude":13.9535012,"latitude":54.0707333,"name":"Fahrradabstellplatz","city":"Ostseebad Zinnowitz","address":null,"covered":false,"access":null,"website":null,"phone":null,"source":"OpenStreetMap/way/618244918","sourceUpdatedAt":null,"verifiedAt":null}},{"type":"Feature","geometry":{"type":"Point","coordinates":[13.9570325,54.0663472]},"properties":{"id":"bikerack:f92caf4f-5682-41c8-929e-466dab689825","kind":"bikerack","longitude":13.9570325,"latitude":54.0663472,"name":"Fahrradabstellplatz","city":"Ostseebad Zinnowitz","address":null,"covered":false,"access":null,"website":null,"phone":null,"source":"OpenStreetMap/node/12997968248","sourceUpdatedAt":null,"verifiedAt":null}},{"type":"Feature","geometry":{"type":"Point","coordinates":[13.9624997,54.0694352]},"properties":{"id":"repair:40b63e33-2061-4dc2-b513-870ab3b8e34f","kind":"repair","longitude":13.9624997,"latitude":54.0694352,"name":"Fahrradreparaturstation","city":"Koserow","address":null,"covered":false,"access":null,"website":null,"phone":null,"source":"OpenStreetMap/node/11158679931","sourceUpdatedAt":null,"verifiedAt":null}},{"type":"Feature","geometry":{"type":"Point","coordinates":[13.9535588,54.0706382]},"properties":{"id":"repair:a66e3a76-177e-4c9d-9e28-7d0c6c43e7ab","kind":"repair","longitude":13.9535588,"latitude":54.0706382,"name":"Fahrradreparaturstation","city":"Ostseebad Zinnowitz","address":null,"covered":false,"access":null,"website":null,"phone":null,"source":"OpenStreetMap/node/12687146988","sourceUpdatedAt":null,"verifiedAt":null}},{"type":"Feature","geometry":{"type":"Point","coordinates":[13.95713,54.0664198]},"properties":{"id":"repair:f2a915a3-93bc-4788-9e62-ef4eb38d4927","kind":"repair","longitude":13.95713,"latitude":54.0664198,"name":"Fahrradreparaturstation","city":"Ostseebad Zinnowitz","address":null,"covered":false,"access":null,"website":null,"phone":null,"source":"OpenStreetMap/node/10901148075","sourceUpdatedAt":null,"verifiedAt":null}}]}