{"type":"FeatureCollection","features":[{"type":"Feature","geometry":{"type":"Point","coordinates":[13.9334342,53.9353759]},"properties":{"id":"bikerack:ccc3f33f-3089-415f-9675-365be53967a8","kind":"bikerack","longitude":13.9334342,"latitude":53.9353759,"name":"Fahrradabstellplatz","city":"Usedom","address":null,"covered":false,"access":null,"website":null,"phone":null,"source":"OpenStreetMap/way/218448315","sourceUpdatedAt":null,"verifiedAt":null}},{"type":"Feature","geometry":{"type":"Point","coordinates":[13.9332569,53.9353341]},"properties":{"id":"bikerack:ec3ab3db-5c41-494d-8a45-781386084487","kind":"bikerack","longitude":13.9332569,"latitude":53.9353341,"name":"Fahrradabstellplatz","city":"Usedom","address":null,"covered":false,"access":null,"website":null,"phone":null,"source":"OpenStreetMap/node/11222443574","sourceUpdatedAt":null,"verifiedAt":null}}]}