{"type":"FeatureCollection","features":[{"type":"Feature","geometry":{"type":"Point","coordinates":[10.0342298,53.2000512]},"properties":{"id":"water:059c3b09-17b2-40f7-9dd3-6e3333b8cf34","kind":"water","longitude":10.0342298,"latitude":53.2000512,"name":"Trinkwasser","city":"Egestorf","address":null,"covered":null,"access":null,"website":null,"phone":null,"source":"OpenStreetMap/node/11465648383","sourceUpdatedAt":null,"verifiedAt":null}},{"type":"Feature","geometry":{"type":"Point","coordinates":[10.0334036,53.2001508]},"properties":{"id":"water:e63201ab-d880-49f3-b557-bdff1cebaf4b","kind":"water","longitude":10.0334036,"latitude":53.2001508,"name":"Trinkwasser","city":"Egestorf","address":null,"covered":null,"access":null,"website":null,"phone":null,"source":"OpenStreetMap/node/11465648382","sourceUpdatedAt":null,"verifiedAt":null}}]}