{"type":"FeatureCollection","features":[{"type":"Feature","geometry":{"type":"Point","coordinates":[10.0301092,53.1929701]},"properties":{"id":"bikerack:712fde4d-278b-44d7-a338-df91be173ac4","kind":"bikerack","longitude":10.0301092,"latitude":53.1929701,"name":"Fahrradabstellplatz","city":"Egestorf","address":null,"covered":false,"access":null,"website":null,"phone":null,"source":"OpenStreetMap/node/12676593250","sourceUpdatedAt":null,"verifiedAt":null}},{"type":"Feature","geometry":{"type":"Point","coordinates":[10.0517505,53.199047]},"properties":{"id":"bikerack:86432f5e-aec2-4fc9-aafd-7f8e53f5693f","kind":"bikerack","longitude":10.0517505,"latitude":53.199047,"name":"Fahrradabstellplatz","city":"Egestorf","address":null,"covered":false,"access":null,"website":null,"phone":null,"source":"OpenStreetMap/node/13239400560","sourceUpdatedAt":null,"verifiedAt":null}},{"type":"Feature","geometry":{"type":"Point","coordinates":[10.0518214,53.1991113]},"properties":{"id":"repair:20764b70-4a41-4e21-9777-4a1f52defc57","kind":"repair","longitude":10.0518214,"latitude":53.1991113,"name":"Naturpark Rad-Servicestation","city":"Egestorf","address":null,"covered":false,"access":null,"website":null,"phone":null,"source":"OpenStreetMap/node/12681651223","sourceUpdatedAt":null,"verifiedAt":null}},{"type":"Feature","geometry":{"type":"Point","coordinates":[10.0630595,53.193928]},"properties":{"id":"repair:b6bd40ac-1b40-467e-aedf-9071f2ee6938","kind":"repair","longitude":10.0630595,"latitude":53.193928,"name":"Naturpark Rad-Servicestation","city":"Egestorf","address":null,"covered":false,"access":null,"website":null,"phone":null,"source":"OpenStreetMap/node/12344944205","sourceUpdatedAt":null,"verifiedAt":null}},{"type":"Feature","geometry":{"type":"Point","coordinates":[10.0301369,53.1929789]},"properties":{"id":"repair:e9fe3d9d-9b4c-4991-8297-47212cb633ba","kind":"repair","longitude":10.0301369,"latitude":53.1929789,"name":"Naturpark Rad-Servicestation","city":"Egestorf","address":null,"covered":false,"access":null,"website":null,"phone":null,"source":"OpenStreetMap/node/12681651224","sourceUpdatedAt":null,"verifiedAt":null}}]}