{"type":"FeatureCollection","features":[{"type":"Feature","geometry":{"type":"Point","coordinates":[10.0471332,49.186188]},"properties":{"id":"bikerack:140e8ebe-c4d9-47f9-be88-8ca673e5e69a","kind":"bikerack","longitude":10.0471332,"latitude":49.186188,"name":"Fahrradabstellplatz","city":"Wallhausen","address":null,"covered":false,"access":null,"website":null,"phone":null,"source":"OpenStreetMap/way/1088411527","sourceUpdatedAt":null,"verifiedAt":null}},{"type":"Feature","geometry":{"type":"Point","coordinates":[10.0632806,49.2092181]},"properties":{"id":"bikerack:c1d2dab0-5aa3-4645-a70b-06e2d400641b","kind":"bikerack","longitude":10.0632806,"latitude":49.2092181,"name":"Fahrradabstellplatz","city":"Wallhausen","address":null,"covered":true,"access":null,"website":null,"phone":null,"source":"OpenStreetMap/node/12918852382","sourceUpdatedAt":null,"verifiedAt":null}}]}