{"type":"FeatureCollection","features":[{"type":"Feature","geometry":{"type":"Point","coordinates":[10.0504879,48.3598659]},"properties":{"id":"bikerack:633fa55c-782f-4fa3-bca1-77b874f05db7","kind":"bikerack","longitude":10.0504879,"latitude":48.3598659,"name":"Fahrradabstellplatz","city":"Senden","address":null,"covered":false,"access":null,"website":null,"phone":null,"source":"OpenStreetMap/node/7391394575","sourceUpdatedAt":null,"verifiedAt":null}},{"type":"Feature","geometry":{"type":"Point","coordinates":[10.0341756,48.3460362]},"properties":{"id":"bikerack:9be3c7e2-8b79-48de-a3ee-319cc2c8febb","kind":"bikerack","longitude":10.0341756,"latitude":48.3460362,"name":"Fahrradabstellplatz","city":"Senden","address":null,"covered":false,"access":null,"website":null,"phone":null,"source":"OpenStreetMap/node/12804310122","sourceUpdatedAt":null,"verifiedAt":null}},{"type":"Feature","geometry":{"type":"Point","coordinates":[10.0508702,48.3570127]},"properties":{"id":"bikerack:9ded1969-2ea7-44f8-b48b-e8d5de48dbad","kind":"bikerack","longitude":10.0508702,"latitude":48.3570127,"name":"Fahrradabstellplatz","city":"Senden","address":null,"covered":false,"access":null,"website":null,"phone":null,"source":"OpenStreetMap/node/9170631875","sourceUpdatedAt":null,"verifiedAt":null}},{"type":"Feature","geometry":{"type":"Point","coordinates":[10.0528242,48.3578272]},"properties":{"id":"bikerack:f33116f0-aaf3-44a6-9823-f7d3fd7bf3c5","kind":"bikerack","longitude":10.0528242,"latitude":48.3578272,"name":"Fahrradabstellplatz","city":"Senden","address":null,"covered":false,"access":null,"website":null,"phone":null,"source":"OpenStreetMap/node/9170631876","sourceUpdatedAt":null,"verifiedAt":null}}]}