{"type":"FeatureCollection","features":[{"type":"Feature","geometry":{"type":"Point","coordinates":[10.0382671,47.6945353]},"properties":{"id":"bikerack:06f25412-dea2-4cea-a0fa-b6d9f5677bf5","kind":"bikerack","longitude":10.0382671,"latitude":47.6945353,"name":"Fahrradabstellplatz","city":"Isny im Allgau","address":null,"covered":false,"access":null,"website":null,"phone":null,"source":"OpenStreetMap/node/8930085680","sourceUpdatedAt":null,"verifiedAt":null}},{"type":"Feature","geometry":{"type":"Point","coordinates":[10.0345858,47.6927142]},"properties":{"id":"bikerack:10a8a1d7-bf75-45d7-b303-c0e0c5652bbd","kind":"bikerack","longitude":10.0345858,"latitude":47.6927142,"name":"Fahrradabstellplatz","city":"Isny im Allgau","address":null,"covered":false,"access":null,"website":null,"phone":null,"source":"OpenStreetMap/node/7289291983","sourceUpdatedAt":null,"verifiedAt":null}},{"type":"Feature","geometry":{"type":"Point","coordinates":[10.0343957,47.6917606]},"properties":{"id":"bikerack:2c2908b5-0da7-4f1a-a1f1-877c92a7b6a0","kind":"bikerack","longitude":10.0343957,"latitude":47.6917606,"name":"Fahrradabstellplatz","city":"Isny im Allgau","address":null,"covered":true,"access":null,"website":null,"phone":null,"source":"OpenStreetMap/way/1304733309","sourceUpdatedAt":null,"verifiedAt":null}},{"type":"Feature","geometry":{"type":"Point","coordinates":[10.0344215,47.6928524]},"properties":{"id":"bikerack:47f478f0-a167-49ab-8932-aa7212883956","kind":"bikerack","longitude":10.0344215,"latitude":47.6928524,"name":"Fahrradabstellplatz","city":"Isny im Allgau","address":null,"covered":false,"access":null,"website":null,"phone":null,"source":"OpenStreetMap/way/780609190","sourceUpdatedAt":null,"verifiedAt":null}},{"type":"Feature","geometry":{"type":"Point","coordinates":[10.0333163,47.6927442]},"properties":{"id":"bikerack:53e6ea5a-5612-467b-bbf4-64df67ebd887","kind":"bikerack","longitude":10.0333163,"latitude":47.6927442,"name":"Fahrradabstellplatz","city":"Isny im Allgau","address":null,"covered":false,"access":null,"website":null,"phone":null,"source":"OpenStreetMap/node/7289291977","sourceUpdatedAt":null,"verifiedAt":null}},{"type":"Feature","geometry":{"type":"Point","coordinates":[10.037665,47.6939837]},"properties":{"id":"bikerack:5b9fdf09-0e00-44ea-8226-bdc6c1b285ef","kind":"bikerack","longitude":10.037665,"latitude":47.6939837,"name":"Fahrradabstellplatz","city":"Isny im Allgau","address":null,"covered":false,"access":null,"website":null,"phone":null,"source":"OpenStreetMap/node/7279318881","sourceUpdatedAt":null,"verifiedAt":null}},{"type":"Feature","geometry":{"type":"Point","coordinates":[10.0304953,47.6785175]},"properties":{"id":"bikerack:726e3031-c1cb-43a0-80a9-d99dbf0eb7f0","kind":"bikerack","longitude":10.0304953,"latitude":47.6785175,"name":"Fahrradabstellplatz","city":"Isny im Allgau","address":null,"covered":false,"access":null,"website":null,"phone":null,"source":"OpenStreetMap/node/11881118712","sourceUpdatedAt":null,"verifiedAt":null}},{"type":"Feature","geometry":{"type":"Point","coordinates":[10.0411781,47.6940287]},"properties":{"id":"bikerack:89e3a935-79e5-4067-8a2f-aa17d9e69353","kind":"bikerack","longitude":10.0411781,"latitude":47.6940287,"name":"Fahrradabstellplatz","city":"Isny im Allgau","address":null,"covered":false,"access":null,"website":null,"phone":null,"source":"OpenStreetMap/node/12589795837","sourceUpdatedAt":null,"verifiedAt":null}},{"type":"Feature","geometry":{"type":"Point","coordinates":[10.037732,47.6940162]},"properties":{"id":"bikerack:9d8d8305-5ca6-4f68-aec4-b9cae0512db2","kind":"bikerack","longitude":10.037732,"latitude":47.6940162,"name":"Fahrradabstellplatz","city":"Isny im Allgau","address":null,"covered":false,"access":null,"website":null,"phone":null,"source":"OpenStreetMap/node/7279318882","sourceUpdatedAt":null,"verifiedAt":null}},{"type":"Feature","geometry":{"type":"Point","coordinates":[10.0366196,47.6932105]},"properties":{"id":"bikerack:a08c8ece-828d-44d1-9eee-0d3476393cf0","kind":"bikerack","longitude":10.0366196,"latitude":47.6932105,"name":"Fahrradabstellplatz","city":"Isny im Allgau","address":null,"covered":false,"access":null,"website":null,"phone":null,"source":"OpenStreetMap/node/7279328987","sourceUpdatedAt":null,"verifiedAt":null}},{"type":"Feature","geometry":{"type":"Point","coordinates":[10.031735,47.692429]},"properties":{"id":"bikerack:b0a028bc-6e0c-49dd-85e7-89ebfb5c74ba","kind":"bikerack","longitude":10.031735,"latitude":47.692429,"name":"Fahrradabstellplatz","city":"Isny im Allgau","address":null,"covered":false,"access":null,"website":null,"phone":null,"source":"OpenStreetMap/way/389043827","sourceUpdatedAt":null,"verifiedAt":null}},{"type":"Feature","geometry":{"type":"Point","coordinates":[10.03532,47.6850616]},"properties":{"id":"bikerack:c8d50583-1900-4665-890c-de29e3ca8514","kind":"bikerack","longitude":10.03532,"latitude":47.6850616,"name":"Fahrradabstellplatz","city":"Isny im Allgau","address":null,"covered":false,"access":null,"website":null,"phone":null,"source":"OpenStreetMap/way/1044257364","sourceUpdatedAt":null,"verifiedAt":null}},{"type":"Feature","geometry":{"type":"Point","coordinates":[10.034787,47.6927703]},"properties":{"id":"bikerack:d248340d-708a-4ccb-90ee-188c1229886d","kind":"bikerack","longitude":10.034787,"latitude":47.6927703,"name":"Rainstraße 21 – Fahrradabstellplatz","city":"Isny im Allgäu","address":null,"covered":true,"access":null,"website":null,"phone":null,"source":"OpenStreetMap/way/546109025","sourceUpdatedAt":null,"verifiedAt":null}},{"type":"Feature","geometry":{"type":"Point","coordinates":[10.0397166,47.6916768]},"properties":{"id":"bikerack:f9e1bcee-afcc-441c-af3e-982baffc9dbb","kind":"bikerack","longitude":10.0397166,"latitude":47.6916768,"name":"Fahrradabstellplatz","city":"Isny im Allgau","address":null,"covered":true,"access":null,"website":null,"phone":null,"source":"OpenStreetMap/way/1356514411","sourceUpdatedAt":null,"verifiedAt":null}},{"type":"Feature","geometry":{"type":"Point","coordinates":[10.0320089,47.6926003]},"properties":{"id":"bikerack:fd08d595-f5ba-4a10-91ec-114995f3afcd","kind":"bikerack","longitude":10.0320089,"latitude":47.6926003,"name":"Fahrradabstellplatz","city":"Isny im Allgau","address":null,"covered":false,"access":null,"website":null,"phone":null,"source":"OpenStreetMap/node/7289291979","sourceUpdatedAt":null,"verifiedAt":null}},{"type":"Feature","geometry":{"type":"Point","coordinates":[10.0395261,47.6924149]},"properties":{"id":"water:788eb9e7-ea14-4979-8926-d228d36d67ae","kind":"water","longitude":10.0395261,"latitude":47.6924149,"name":"Trinkwasser","city":"Isny im Allgau","address":null,"covered":null,"access":null,"website":null,"phone":null,"source":"OpenStreetMap/node/12108792536","sourceUpdatedAt":null,"verifiedAt":null}},{"type":"Feature","geometry":{"type":"Point","coordinates":[10.0378697,47.6943244]},"properties":{"id":"water:aa9d199a-6516-4b3a-9635-3bcc7dff4b03","kind":"water","longitude":10.0378697,"latitude":47.6943244,"name":"Trinkwasser","city":"Isny im Allgau","address":null,"covered":null,"access":null,"website":null,"phone":null,"source":"OpenStreetMap/node/3412192793","sourceUpdatedAt":null,"verifiedAt":null}}]}