{"type":"FeatureCollection","features":[{"type":"Feature","geometry":{"type":"Point","coordinates":[10.0416956,47.0821494]},"properties":{"id":"water:b349175e-6cb2-4925-9937-27b238c47917","kind":"water","longitude":10.0416956,"latitude":47.0821494,"name":"Ivókút","city":"Silbertal","address":null,"covered":null,"access":null,"website":null,"phone":null,"source":"OpenStreetMap/node/3123702673","sourceUpdatedAt":null,"verifiedAt":null}},{"type":"Feature","geometry":{"type":"Point","coordinates":[10.0594107,47.0974425]},"properties":{"id":"water:ca76d6ce-d958-4b4c-b9c9-d8224a55529c","kind":"water","longitude":10.0594107,"latitude":47.0974425,"name":"Ivókút","city":"Klosterle","address":null,"covered":null,"access":null,"website":null,"phone":null,"source":"OpenStreetMap/node/2987666494","sourceUpdatedAt":null,"verifiedAt":null}}]}