{"type":"FeatureCollection","features":[{"type":"Feature","geometry":{"type":"Point","coordinates":[10.0391221,45.6515905]},"properties":{"id":"bikerack:6db91f4d-353c-4b82-825a-c7014dbf0da8","kind":"bikerack","longitude":10.0391221,"latitude":45.6515905,"name":"Parcheggio bici","city":"Iseo","address":null,"covered":false,"access":null,"website":null,"phone":null,"source":"OpenStreetMap/node/5302619349","sourceUpdatedAt":null,"verifiedAt":null}},{"type":"Feature","geometry":{"type":"Point","coordinates":[10.0498856,45.6619927]},"properties":{"id":"bikerack:fc0af12b-c564-4dd3-b217-2c6105789ca3","kind":"bikerack","longitude":10.0498856,"latitude":45.6619927,"name":"Parcheggio bici","city":"Iseo","address":null,"covered":false,"access":null,"website":null,"phone":null,"source":"OpenStreetMap/node/12228261672","sourceUpdatedAt":null,"verifiedAt":null}},{"type":"Feature","geometry":{"type":"Point","coordinates":[10.0475451,45.6592515]},"properties":{"id":"repair:3316d4a5-cea1-4a6e-b629-5b08bb063750","kind":"repair","longitude":10.0475451,"latitude":45.6592515,"name":"Stazione di riparazione bici","city":"Iseo","address":null,"covered":false,"access":null,"website":null,"phone":null,"source":"OpenStreetMap/node/13706225341","sourceUpdatedAt":null,"verifiedAt":null}},{"type":"Feature","geometry":{"type":"Point","coordinates":[10.0512001,45.6569394]},"properties":{"id":"service:ee794472-3ff5-4c51-abd6-a07791a050d5","kind":"service","longitude":10.0512001,"latitude":45.6569394,"name":"Umbrail","city":"Iseo","address":null,"covered":null,"access":null,"website":null,"phone":null,"source":"OpenStreetMap/node/11071817244","sourceUpdatedAt":null,"verifiedAt":null}},{"type":"Feature","geometry":{"type":"Point","coordinates":[10.0591876,45.6565247]},"properties":{"id":"water:0ff06782-dba0-4463-a58d-cc1f37aa2b26","kind":"water","longitude":10.0591876,"latitude":45.6565247,"name":"Fontanella","city":"Iseo","address":null,"covered":null,"access":null,"website":null,"phone":null,"source":"OpenStreetMap/node/12227953582","sourceUpdatedAt":null,"verifiedAt":null}},{"type":"Feature","geometry":{"type":"Point","coordinates":[10.0584678,45.6616736]},"properties":{"id":"water:124a7983-15f5-4518-b2ce-65515770c32f","kind":"water","longitude":10.0584678,"latitude":45.6616736,"name":"Fontanella","city":"Iseo","address":null,"covered":null,"access":null,"website":null,"phone":null,"source":"OpenStreetMap/node/11805762833","sourceUpdatedAt":null,"verifiedAt":null}},{"type":"Feature","geometry":{"type":"Point","coordinates":[10.0502523,45.6605019]},"properties":{"id":"water:2a55ea40-5257-4ff8-a856-a0eec6d21064","kind":"water","longitude":10.0502523,"latitude":45.6605019,"name":"Fontanella","city":"Iseo","address":null,"covered":null,"access":null,"website":null,"phone":null,"source":"OpenStreetMap/node/10007461079","sourceUpdatedAt":null,"verifiedAt":null}},{"type":"Feature","geometry":{"type":"Point","coordinates":[10.0445213,45.6573743]},"properties":{"id":"water:50742e60-227c-4a2d-8eda-56228d7ffedf","kind":"water","longitude":10.0445213,"latitude":45.6573743,"name":"Fontanella","city":"Iseo","address":null,"covered":null,"access":null,"website":null,"phone":null,"source":"OpenStreetMap/node/8916915013","sourceUpdatedAt":null,"verifiedAt":null}},{"type":"Feature","geometry":{"type":"Point","coordinates":[10.0485065,45.6563218]},"properties":{"id":"water:5af60282-cbeb-48d3-9beb-c23c3c3919cd","kind":"water","longitude":10.0485065,"latitude":45.6563218,"name":"Punto Acqua","city":"Iseo","address":null,"covered":null,"access":null,"website":null,"phone":null,"source":"OpenStreetMap/node/12069881306","sourceUpdatedAt":null,"verifiedAt":null}},{"type":"Feature","geometry":{"type":"Point","coordinates":[10.0499534,45.6563372]},"properties":{"id":"water:5e80ff88-a5d6-4bd1-9de3-a7472ad6d85a","kind":"water","longitude":10.0499534,"latitude":45.6563372,"name":"Fontanella","city":"Iseo","address":null,"covered":null,"access":null,"website":null,"phone":null,"source":"OpenStreetMap/node/6824929085","sourceUpdatedAt":null,"verifiedAt":null}},{"type":"Feature","geometry":{"type":"Point","coordinates":[10.0523565,45.6586662]},"properties":{"id":"water:732652b8-df8e-494f-883e-d15f22f0c5f1","kind":"water","longitude":10.0523565,"latitude":45.6586662,"name":"Fontanella","city":"Iseo","address":null,"covered":null,"access":null,"website":null,"phone":null,"source":"OpenStreetMap/node/12841490041","sourceUpdatedAt":null,"verifiedAt":null}},{"type":"Feature","geometry":{"type":"Point","coordinates":[10.0484704,45.6596349]},"properties":{"id":"water:7a3b15aa-dd4d-4962-b564-d31765b6e9cf","kind":"water","longitude":10.0484704,"latitude":45.6596349,"name":"Fontana de Noal","city":"Iseo","address":null,"covered":null,"access":null,"website":null,"phone":null,"source":"OpenStreetMap/node/5122811217","sourceUpdatedAt":null,"verifiedAt":null}},{"type":"Feature","geometry":{"type":"Point","coordinates":[10.0506206,45.6588514]},"properties":{"id":"water:7f82b83b-023b-4c83-a147-1e51787add13","kind":"water","longitude":10.0506206,"latitude":45.6588514,"name":"Fontanella","city":"Iseo","address":null,"covered":null,"access":null,"website":null,"phone":null,"source":"OpenStreetMap/node/10000676411","sourceUpdatedAt":null,"verifiedAt":null}},{"type":"Feature","geometry":{"type":"Point","coordinates":[10.0511399,45.6633144]},"properties":{"id":"water:96ef601e-db65-4877-84df-78f858189546","kind":"water","longitude":10.0511399,"latitude":45.6633144,"name":"Fontanella","city":"Iseo","address":null,"covered":null,"access":null,"website":null,"phone":null,"source":"OpenStreetMap/node/927790947","sourceUpdatedAt":null,"verifiedAt":null}},{"type":"Feature","geometry":{"type":"Point","coordinates":[10.0503845,45.6613587]},"properties":{"id":"water:cf2dfa2f-3bae-4a51-ad90-535a86741ac3","kind":"water","longitude":10.0503845,"latitude":45.6613587,"name":"Fontanella","city":"Iseo","address":null,"covered":null,"access":null,"website":null,"phone":null,"source":"OpenStreetMap/node/13096163413","sourceUpdatedAt":null,"verifiedAt":null}}]}