{"type":"FeatureCollection","features":[{"type":"Feature","geometry":{"type":"Point","coordinates":[10.0225765,45.3729255]},"properties":{"id":"water:4d616225-3abf-4826-a202-3dc3e33ecda5","kind":"water","longitude":10.0225765,"latitude":45.3729255,"name":"Fontanella","city":"San Paolo","address":null,"covered":null,"access":null,"website":null,"phone":null,"source":"OpenStreetMap/node/2291867127","sourceUpdatedAt":null,"verifiedAt":null}},{"type":"Feature","geometry":{"type":"Point","coordinates":[10.0246904,45.3705146]},"properties":{"id":"water:dc8354c5-525c-4dc0-8709-274f72d7ddac","kind":"water","longitude":10.0246904,"latitude":45.3705146,"name":"Fontanella","city":"San Paolo","address":null,"covered":null,"access":null,"website":null,"phone":null,"source":"OpenStreetMap/node/2291867098","sourceUpdatedAt":null,"verifiedAt":null}}]}