{"type":"FeatureCollection","features":[{"type":"Feature","geometry":{"type":"Point","coordinates":[12.2150935,51.8984828]},"properties":{"id":"bikerack:21bafb88-fb51-492f-b8fb-11d58d5b6cc7","kind":"bikerack","longitude":12.2150935,"latitude":51.8984828,"name":"Fahrradabstellplatz","city":"Rodleben","address":null,"covered":true,"access":null,"website":null,"phone":null,"source":"OpenStreetMap/way/1414236288","sourceUpdatedAt":null,"verifiedAt":null}},{"type":"Feature","geometry":{"type":"Point","coordinates":[12.2154524,51.8979141]},"properties":{"id":"bikerack:75e9ef7d-82a3-4819-997f-1e9e6d688c63","kind":"bikerack","longitude":12.2154524,"latitude":51.8979141,"name":"Fahrradabstellplatz","city":"Rodleben","address":null,"covered":false,"access":null,"website":null,"phone":null,"source":"OpenStreetMap/node/12995902284","sourceUpdatedAt":null,"verifiedAt":null}}]}