{"type":"FeatureCollection","features":[{"type":"Feature","geometry":{"type":"Point","coordinates":[12.2021578,48.694105]},"properties":{"id":"bikerack:2c3fd66e-35ac-4632-aabb-9fc7865ec65d","kind":"bikerack","longitude":12.2021578,"latitude":48.694105,"name":"Fahrradabstellplatz","city":"Ergoldsbach","address":null,"covered":true,"access":null,"website":null,"phone":null,"source":"OpenStreetMap/way/523483416","sourceUpdatedAt":null,"verifiedAt":null}},{"type":"Feature","geometry":{"type":"Point","coordinates":[12.2016019,48.6939293]},"properties":{"id":"bikerack:8c3dfa40-c760-4a70-92e2-067299e4fb75","kind":"bikerack","longitude":12.2016019,"latitude":48.6939293,"name":"Fahrradabstellplatz","city":"Ergoldsbach","address":null,"covered":true,"access":null,"website":null,"phone":null,"source":"OpenStreetMap/way/523483417","sourceUpdatedAt":null,"verifiedAt":null}},{"type":"Feature","geometry":{"type":"Point","coordinates":[12.2026168,48.6918762]},"properties":{"id":"service:7bdc9115-a62f-43aa-bc90-409d6b7ff002","kind":"service","longitude":12.2026168,"latitude":48.6918762,"name":"Fahrrad Strasser","city":"Ergoldsbach","address":null,"covered":null,"access":null,"website":null,"phone":null,"source":"OpenStreetMap/node/5076955083","sourceUpdatedAt":null,"verifiedAt":null}}]}