{"type":"FeatureCollection","features":[{"type":"Feature","geometry":{"type":"Point","coordinates":[12.2022297,47.892778]},"properties":{"id":"bikerack:12090bef-649e-45f4-b7ee-7a478330e459","kind":"bikerack","longitude":12.2022297,"latitude":47.892778,"name":"Fahrradabstellplatz","city":"Prutting","address":null,"covered":true,"access":null,"website":null,"phone":null,"source":"OpenStreetMap/node/8671624812","sourceUpdatedAt":null,"verifiedAt":null}},{"type":"Feature","geometry":{"type":"Point","coordinates":[12.1796161,47.8735241]},"properties":{"id":"water:d102b759-8ebd-4555-999e-426ac81c3ddc","kind":"water","longitude":12.1796161,"latitude":47.8735241,"name":"Trinkwasser","city":"Stephanskirchen","address":null,"covered":null,"access":null,"website":null,"phone":null,"source":"OpenStreetMap/node/12862000548","sourceUpdatedAt":null,"verifiedAt":null}}]}