{"type":"FeatureCollection","features":[{"type":"Feature","geometry":{"type":"Point","coordinates":[12.2144464,47.8622574]},"properties":{"id":"bikerack:127fd8b9-6a4f-48a0-8364-1d46766bc405","kind":"bikerack","longitude":12.2144464,"latitude":47.8622574,"name":"Fahrradabstellplatz","city":"Riedering","address":null,"covered":false,"access":null,"website":null,"phone":null,"source":"OpenStreetMap/node/11108259151","sourceUpdatedAt":null,"verifiedAt":null}},{"type":"Feature","geometry":{"type":"Point","coordinates":[12.2153333,47.8630723]},"properties":{"id":"bikerack:649d799e-92e1-49bc-b22e-91d19b78b178","kind":"bikerack","longitude":12.2153333,"latitude":47.8630723,"name":"Fahrradabstellplatz","city":"Riedering","address":null,"covered":false,"access":null,"website":null,"phone":null,"source":"OpenStreetMap/way/976075679","sourceUpdatedAt":null,"verifiedAt":null}},{"type":"Feature","geometry":{"type":"Point","coordinates":[12.2142712,47.8623625]},"properties":{"id":"bikerack:7db3a879-1dea-4307-856d-49a94cabc5f7","kind":"bikerack","longitude":12.2142712,"latitude":47.8623625,"name":"Fahrradabstellplatz","city":"Riedering","address":null,"covered":false,"access":null,"website":null,"phone":null,"source":"OpenStreetMap/node/11108253412","sourceUpdatedAt":null,"verifiedAt":null}},{"type":"Feature","geometry":{"type":"Point","coordinates":[12.2044612,47.861808]},"properties":{"id":"water:24da0d4c-7afb-4781-9a4e-1082e663d657","kind":"water","longitude":12.2044612,"latitude":47.861808,"name":"Trinkwasser","city":"Stephanskirchen","address":null,"covered":null,"access":null,"website":null,"phone":null,"source":"OpenStreetMap/node/1779445293","sourceUpdatedAt":null,"verifiedAt":null}},{"type":"Feature","geometry":{"type":"Point","coordinates":[12.2148917,47.8623284]},"properties":{"id":"water:78a641af-12ea-444f-b6d2-9468a2a051cb","kind":"water","longitude":12.2148917,"latitude":47.8623284,"name":"Trinkwasser","city":"Riedering","address":null,"covered":null,"access":null,"website":null,"phone":null,"source":"OpenStreetMap/node/5771124002","sourceUpdatedAt":null,"verifiedAt":null}},{"type":"Feature","geometry":{"type":"Point","coordinates":[12.1850248,47.8551837]},"properties":{"id":"water:c3d4e16b-6406-4bd9-ad6b-58f2bafae4ca","kind":"water","longitude":12.1850248,"latitude":47.8551837,"name":"Trinkwasser","city":"Stephanskirchen","address":null,"covered":null,"access":null,"website":null,"phone":null,"source":"OpenStreetMap/node/13119898055","sourceUpdatedAt":null,"verifiedAt":null}}]}