{"type":"FeatureCollection","features":[{"type":"Feature","geometry":{"type":"Point","coordinates":[12.1962047,47.2346432]},"properties":{"id":"bikerack:76343bc5-f60b-4c21-9ba7-843c06867c2a","kind":"bikerack","longitude":12.1962047,"latitude":47.2346432,"name":"Biciklitároló","city":"Krimml","address":null,"covered":false,"access":null,"website":null,"phone":null,"source":"OpenStreetMap/node/2414799361","sourceUpdatedAt":null,"verifiedAt":null}},{"type":"Feature","geometry":{"type":"Point","coordinates":[12.1956513,47.2344722]},"properties":{"id":"bikerack:7735a74a-20df-4560-a279-bf37a8eb3dd0","kind":"bikerack","longitude":12.1956513,"latitude":47.2344722,"name":"Biciklitároló","city":"Krimml","address":null,"covered":false,"access":null,"website":null,"phone":null,"source":"OpenStreetMap/node/7764912011","sourceUpdatedAt":null,"verifiedAt":null}},{"type":"Feature","geometry":{"type":"Point","coordinates":[12.1960809,47.2348279]},"properties":{"id":"bikerack:fa6c5325-4362-4dab-b7d0-cdde64dafd00","kind":"bikerack","longitude":12.1960809,"latitude":47.2348279,"name":"Biciklitároló","city":"Krimml","address":null,"covered":false,"access":null,"website":null,"phone":null,"source":"OpenStreetMap/node/7764902060","sourceUpdatedAt":null,"verifiedAt":null}},{"type":"Feature","geometry":{"type":"Point","coordinates":[12.1749029,47.2216205]},"properties":{"id":"water:ac7d5dfe-3171-4903-a1de-26cdedc7ee6b","kind":"water","longitude":12.1749029,"latitude":47.2216205,"name":"Ivókút","city":"Krimml","address":null,"covered":null,"access":null,"website":null,"phone":null,"source":"OpenStreetMap/node/1843655703","sourceUpdatedAt":null,"verifiedAt":null}}]}