{"type":"FeatureCollection","features":[{"type":"Feature","geometry":{"type":"Point","coordinates":[12.1797342,45.5348295]},"properties":{"id":"bikerack:73f8732d-697c-41dd-90b3-86e054ae91e6","kind":"bikerack","longitude":12.1797342,"latitude":45.5348295,"name":"Parcheggio bici","city":"Trivignano","address":null,"covered":false,"access":null,"website":null,"phone":null,"source":"OpenStreetMap/way/1496310878","sourceUpdatedAt":null,"verifiedAt":null}},{"type":"Feature","geometry":{"type":"Point","coordinates":[12.1754057,45.5383419]},"properties":{"id":"bikerack:c040e751-60bc-439c-8bf6-25bb7f1c6ec2","kind":"bikerack","longitude":12.1754057,"latitude":45.5383419,"name":"Parcheggio bici","city":"Martellago","address":null,"covered":false,"access":null,"website":null,"phone":null,"source":"OpenStreetMap/node/13706873519","sourceUpdatedAt":null,"verifiedAt":null}}]}