{"type":"FeatureCollection","features":[{"type":"Feature","geometry":{"type":"Point","coordinates":[12.6724498,45.575244]},"properties":{"id":"bikerack:23998542-7de5-42a2-8c72-5fd446b99b3c","kind":"bikerack","longitude":12.6724498,"latitude":45.575244,"name":"Parcheggio bici","city":"Eraclea","address":null,"covered":false,"access":null,"website":null,"phone":null,"source":"OpenStreetMap/node/11210317381","sourceUpdatedAt":null,"verifiedAt":null}},{"type":"Feature","geometry":{"type":"Point","coordinates":[12.6724888,45.5752388]},"properties":{"id":"bikerack:27731da1-8222-45e4-8c26-f5c0eb3f95a6","kind":"bikerack","longitude":12.6724888,"latitude":45.5752388,"name":"Parcheggio bici","city":"Eraclea","address":null,"covered":false,"access":null,"website":null,"phone":null,"source":"OpenStreetMap/node/11210317380","sourceUpdatedAt":null,"verifiedAt":null}},{"type":"Feature","geometry":{"type":"Point","coordinates":[12.6725041,45.5752596]},"properties":{"id":"bikerack:30381748-58c3-4516-af41-9dd565db5fc4","kind":"bikerack","longitude":12.6725041,"latitude":45.5752596,"name":"Parcheggio bici","city":"Eraclea","address":null,"covered":false,"access":null,"website":null,"phone":null,"source":"OpenStreetMap/node/11210317377","sourceUpdatedAt":null,"verifiedAt":null}},{"type":"Feature","geometry":{"type":"Point","coordinates":[12.6725284,45.5752196]},"properties":{"id":"bikerack:6f83a933-39c4-413a-a964-f3c7b95c8261","kind":"bikerack","longitude":12.6725284,"latitude":45.5752196,"name":"Parcheggio bici","city":"Eraclea","address":null,"covered":false,"access":null,"website":null,"phone":null,"source":"OpenStreetMap/node/11210317372","sourceUpdatedAt":null,"verifiedAt":null}},{"type":"Feature","geometry":{"type":"Point","coordinates":[12.6773255,45.5533909]},"properties":{"id":"bikerack:957a96f3-b466-486e-ac7c-3c146fcdf110","kind":"bikerack","longitude":12.6773255,"latitude":45.5533909,"name":"Parcheggio bici","city":"Eraclea","address":null,"covered":false,"access":null,"website":null,"phone":null,"source":"OpenStreetMap/node/13059590822","sourceUpdatedAt":null,"verifiedAt":null}},{"type":"Feature","geometry":{"type":"Point","coordinates":[12.6738115,45.5759136]},"properties":{"id":"bikerack:9cf98513-dc1b-47ab-b4b7-b3e9e225f703","kind":"bikerack","longitude":12.6738115,"latitude":45.5759136,"name":"Parcheggio bici","city":"Eraclea","address":null,"covered":false,"access":null,"website":null,"phone":null,"source":"OpenStreetMap/node/11226892261","sourceUpdatedAt":null,"verifiedAt":null}},{"type":"Feature","geometry":{"type":"Point","coordinates":[12.6780537,45.578781]},"properties":{"id":"bikerack:be3c1b6f-6c6e-4011-a664-b6bab6e77228","kind":"bikerack","longitude":12.6780537,"latitude":45.578781,"name":"Parcheggio bici","city":"Eraclea","address":null,"covered":false,"access":null,"website":null,"phone":null,"source":"OpenStreetMap/node/11225516468","sourceUpdatedAt":null,"verifiedAt":null}},{"type":"Feature","geometry":{"type":"Point","coordinates":[12.6772403,45.5528818]},"properties":{"id":"bikerack:e2c0fab5-19a9-48e0-b630-a015e285cf17","kind":"bikerack","longitude":12.6772403,"latitude":45.5528818,"name":"Parcheggio bici","city":"Eraclea","address":null,"covered":false,"access":null,"website":null,"phone":null,"source":"OpenStreetMap/node/13059622634","sourceUpdatedAt":null,"verifiedAt":null}},{"type":"Feature","geometry":{"type":"Point","coordinates":[12.6727243,45.575497]},"properties":{"id":"bikerack:eb0a8e90-db18-4fdf-bbfa-4c984d61f905","kind":"bikerack","longitude":12.6727243,"latitude":45.575497,"name":"Parcheggio bici","city":"Eraclea","address":null,"covered":false,"access":null,"website":null,"phone":null,"source":"OpenStreetMap/node/11210317369","sourceUpdatedAt":null,"verifiedAt":null}},{"type":"Feature","geometry":{"type":"Point","coordinates":[12.6726549,45.5755175]},"properties":{"id":"bikerack:fa1d4fd3-2a19-4a2a-824d-cd1631187f18","kind":"bikerack","longitude":12.6726549,"latitude":45.5755175,"name":"Parcheggio bici","city":"Eraclea","address":null,"covered":false,"access":null,"website":null,"phone":null,"source":"OpenStreetMap/node/11210317362","sourceUpdatedAt":null,"verifiedAt":null}},{"type":"Feature","geometry":{"type":"Point","coordinates":[12.6725532,45.5752126]},"properties":{"id":"bikerack:fee6850d-8989-4b3c-8809-4944e206a4cc","kind":"bikerack","longitude":12.6725532,"latitude":45.5752126,"name":"Parcheggio bici","city":"Eraclea","address":null,"covered":false,"access":null,"website":null,"phone":null,"source":"OpenStreetMap/node/11210317378","sourceUpdatedAt":null,"verifiedAt":null}},{"type":"Feature","geometry":{"type":"Point","coordinates":[12.6729528,45.5758004]},"properties":{"id":"water:5f27b46c-882e-4e6a-a5b9-98ebb5634880","kind":"water","longitude":12.6729528,"latitude":45.5758004,"name":"Fontanella","city":"Eraclea","address":null,"covered":null,"access":null,"website":null,"phone":null,"source":"OpenStreetMap/node/13148017701","sourceUpdatedAt":null,"verifiedAt":null}},{"type":"Feature","geometry":{"type":"Point","coordinates":[12.6614722,45.5746389]},"properties":{"id":"water:83d73c56-3ec5-4c83-b8d3-bd28659de2ed","kind":"water","longitude":12.6614722,"latitude":45.5746389,"name":"Fontanella","city":"Eraclea","address":null,"covered":null,"access":null,"website":null,"phone":null,"source":"OpenStreetMap/node/12703109713","sourceUpdatedAt":null,"verifiedAt":null}}]}