{"type":"FeatureCollection","features":[{"type":"Feature","geometry":{"type":"Point","coordinates":[17.1699881,52.6239098]},"properties":{"id":"bikerack:8bd409fd-fc4b-4a65-bf0e-7ee2cf662799","kind":"bikerack","longitude":17.1699881,"latitude":52.6239098,"name":"Biciklitároló","city":"Skoki","address":null,"covered":false,"access":null,"website":null,"phone":null,"source":"OpenStreetMap/node/9026886761","sourceUpdatedAt":null,"verifiedAt":null}},{"type":"Feature","geometry":{"type":"Point","coordinates":[17.1693735,52.6221562]},"properties":{"id":"bikerack:ded050f9-075b-4929-aaa8-ae4e14ad930a","kind":"bikerack","longitude":17.1693735,"latitude":52.6221562,"name":"Biciklitároló","city":"Skoki","address":null,"covered":false,"access":null,"website":null,"phone":null,"source":"OpenStreetMap/node/9026886764","sourceUpdatedAt":null,"verifiedAt":null}}]}