{"type":"FeatureCollection","features":[{"type":"Feature","geometry":{"type":"Point","coordinates":[17.152966,47.2608134]},"properties":{"id":"bikerack:b920d033-bdd3-4cbf-9045-be348a53db20","kind":"bikerack","longitude":17.152966,"latitude":47.2608134,"name":"Biciklitároló","city":"Celldomolk","address":null,"covered":false,"access":null,"website":null,"phone":null,"source":"OpenStreetMap/node/4985647901","sourceUpdatedAt":null,"verifiedAt":null}},{"type":"Feature","geometry":{"type":"Point","coordinates":[17.1515212,47.2612666]},"properties":{"id":"bikerack:d2144d9a-9a7c-4775-ae1d-82a9c33d2df8","kind":"bikerack","longitude":17.1515212,"latitude":47.2612666,"name":"Biciklitároló","city":"Celldomolk","address":null,"covered":false,"access":null,"website":null,"phone":null,"source":"OpenStreetMap/node/4736936407","sourceUpdatedAt":null,"verifiedAt":null}},{"type":"Feature","geometry":{"type":"Point","coordinates":[17.151929,47.2613444]},"properties":{"id":"water:0cb3fc62-89b9-4b67-aa10-db571d1f71e6","kind":"water","longitude":17.151929,"latitude":47.2613444,"name":"Ivókút","city":null,"address":null,"covered":null,"access":null,"website":null,"phone":null,"source":"OpenStreetMap","sourceUpdatedAt":null,"verifiedAt":null}},{"type":"Feature","geometry":{"type":"Point","coordinates":[17.1571445,47.2552427]},"properties":{"id":"water:0efcffbc-e4d4-4fca-82da-e4e54ce0b17c","kind":"water","longitude":17.1571445,"latitude":47.2552427,"name":"Ivókút","city":null,"address":null,"covered":null,"access":null,"website":null,"phone":null,"source":"OpenStreetMap","sourceUpdatedAt":null,"verifiedAt":null}},{"type":"Feature","geometry":{"type":"Point","coordinates":[17.1536818,47.2538582]},"properties":{"id":"water:313d3e11-4609-4e73-9fc8-e603377c8f42","kind":"water","longitude":17.1536818,"latitude":47.2538582,"name":"Ivókút","city":null,"address":null,"covered":null,"access":null,"website":null,"phone":null,"source":"OpenStreetMap","sourceUpdatedAt":null,"verifiedAt":null}},{"type":"Feature","geometry":{"type":"Point","coordinates":[17.1515116,47.2569481]},"properties":{"id":"water:3bd6d1d4-341b-4722-b09d-6700efba9917","kind":"water","longitude":17.1515116,"latitude":47.2569481,"name":"Ivókút","city":null,"address":null,"covered":null,"access":null,"website":null,"phone":null,"source":"OpenStreetMap","sourceUpdatedAt":null,"verifiedAt":null}},{"type":"Feature","geometry":{"type":"Point","coordinates":[17.157939,47.253314]},"properties":{"id":"water:5cad35a4-3c8e-4624-bdbd-276e92f55a3b","kind":"water","longitude":17.157939,"latitude":47.253314,"name":"Ivókút","city":null,"address":null,"covered":null,"access":null,"website":null,"phone":null,"source":"OpenStreetMap","sourceUpdatedAt":null,"verifiedAt":null}},{"type":"Feature","geometry":{"type":"Point","coordinates":[17.152913,47.263425]},"properties":{"id":"water:6c93992e-560b-4180-b5bc-92df513628e0","kind":"water","longitude":17.152913,"latitude":47.263425,"name":"Ivókút","city":null,"address":null,"covered":null,"access":null,"website":null,"phone":null,"source":"OpenStreetMap","sourceUpdatedAt":null,"verifiedAt":null}},{"type":"Feature","geometry":{"type":"Point","coordinates":[17.151103,47.258005]},"properties":{"id":"water:8c1e1aa6-909b-4c13-b867-af6f67c2a3e4","kind":"water","longitude":17.151103,"latitude":47.258005,"name":"Ivókút","city":null,"address":null,"covered":null,"access":null,"website":null,"phone":null,"source":"OpenStreetMap","sourceUpdatedAt":null,"verifiedAt":null}},{"type":"Feature","geometry":{"type":"Point","coordinates":[17.1435231,47.2609881]},"properties":{"id":"water:cd481595-0ff5-4524-868e-4a000e00a2d7","kind":"water","longitude":17.1435231,"latitude":47.2609881,"name":"Ivókút","city":null,"address":null,"covered":null,"access":null,"website":null,"phone":null,"source":"OpenStreetMap","sourceUpdatedAt":null,"verifiedAt":null}},{"type":"Feature","geometry":{"type":"Point","coordinates":[17.140253,47.25928]},"properties":{"id":"water:e168043b-e6a1-4161-8d98-aa87eca679c1","kind":"water","longitude":17.140253,"latitude":47.25928,"name":"Ivókút","city":null,"address":null,"covered":null,"access":null,"website":null,"phone":null,"source":"OpenStreetMap","sourceUpdatedAt":null,"verifiedAt":null}},{"type":"Feature","geometry":{"type":"Point","coordinates":[17.1560853,47.2565165]},"properties":{"id":"water:f80ec1c5-af67-4cc0-8160-c9f15d7dabf8","kind":"water","longitude":17.1560853,"latitude":47.2565165,"name":"Ivókút","city":null,"address":null,"covered":null,"access":null,"website":null,"phone":null,"source":"OpenStreetMap","sourceUpdatedAt":null,"verifiedAt":null}}]}