{"type":"FeatureCollection","features":[{"type":"Feature","geometry":{"type":"Point","coordinates":[14.2382626,48.2185835]},"properties":{"id":"bikerack:2282e1cf-d3ff-496e-a409-6b23a37cfe67","kind":"bikerack","longitude":14.2382626,"latitude":48.2185835,"name":"Biciklitároló","city":"Traun","address":null,"covered":true,"access":null,"website":null,"phone":null,"source":"OpenStreetMap/way/1224648572","sourceUpdatedAt":null,"verifiedAt":null}},{"type":"Feature","geometry":{"type":"Point","coordinates":[14.2364375,48.221941]},"properties":{"id":"bikerack:5978d182-57bd-4081-9115-89cb8b17249c","kind":"bikerack","longitude":14.2364375,"latitude":48.221941,"name":"Biciklitároló","city":"Traun","address":null,"covered":true,"access":null,"website":null,"phone":null,"source":"OpenStreetMap/node/11356987343","sourceUpdatedAt":null,"verifiedAt":null}},{"type":"Feature","geometry":{"type":"Point","coordinates":[14.2238799,48.2115524]},"properties":{"id":"water:90507f1b-f5dd-44b8-a60c-3e1501ff503d","kind":"water","longitude":14.2238799,"latitude":48.2115524,"name":"Ivókút","city":"Traun","address":null,"covered":null,"access":null,"website":null,"phone":null,"source":"OpenStreetMap/node/3700154674","sourceUpdatedAt":null,"verifiedAt":null}}]}