{"type":"FeatureCollection","features":[{"type":"Feature","geometry":{"type":"Point","coordinates":[12.7071694,49.3755193]},"properties":{"id":"bikerack:c77b2201-25ff-4a46-878b-f9bbd7a1980f","kind":"bikerack","longitude":12.7071694,"latitude":49.3755193,"name":"Fahrradabstellplatz","city":"Waldmunchen","address":null,"covered":false,"access":null,"website":null,"phone":null,"source":"OpenStreetMap/node/11328098952","sourceUpdatedAt":null,"verifiedAt":null}},{"type":"Feature","geometry":{"type":"Point","coordinates":[12.7080851,49.3796034]},"properties":{"id":"bikerack:f57e7efe-cb42-4954-a07f-d4eaed82333b","kind":"bikerack","longitude":12.7080851,"latitude":49.3796034,"name":"Fahrradabstellplatz","city":"Waldmunchen","address":null,"covered":false,"access":null,"website":null,"phone":null,"source":"OpenStreetMap/node/11328098965","sourceUpdatedAt":null,"verifiedAt":null}},{"type":"Feature","geometry":{"type":"Point","coordinates":[12.7172859,49.3759797]},"properties":{"id":"service:9f9a83d1-affb-4b87-86ef-e6a32ab06775","kind":"service","longitude":12.7172859,"latitude":49.3759797,"name":"Broken Spoke","city":"Waldmunchen","address":null,"covered":null,"access":null,"website":null,"phone":null,"source":"OpenStreetMap/node/2406946279","sourceUpdatedAt":null,"verifiedAt":null}},{"type":"Feature","geometry":{"type":"Point","coordinates":[12.7002248,49.3774416]},"properties":{"id":"service:c8ede20e-3d48-43b4-84ba-8de426fcd1e5","kind":"service","longitude":12.7002248,"latitude":49.3774416,"name":"E-Bike Point","city":"Waldmünchen","address":null,"covered":null,"access":null,"website":null,"phone":null,"source":"OpenStreetMap/node/373170932","sourceUpdatedAt":null,"verifiedAt":null}}]}