{"type":"FeatureCollection","features":[{"type":"Feature","geometry":{"type":"Point","coordinates":[24.3062954,45.2777747]},"properties":{"id":"water:8a4d3288-f957-4578-800c-3109be368e25","kind":"water","longitude":24.3062954,"latitude":45.2777747,"name":"Ivókút","city":"Calimanesti","address":null,"covered":null,"access":null,"website":null,"phone":null,"source":"OpenStreetMap/node/10769794490","sourceUpdatedAt":null,"verifiedAt":null}},{"type":"Feature","geometry":{"type":"Point","coordinates":[24.3064597,45.2778365]},"properties":{"id":"water:9299d605-ccfa-4f78-8ef7-b18ae87dbdce","kind":"water","longitude":24.3064597,"latitude":45.2778365,"name":"Ivókút","city":"Calimanesti","address":null,"covered":null,"access":null,"website":null,"phone":null,"source":"OpenStreetMap/node/10769794495","sourceUpdatedAt":null,"verifiedAt":null}}]}