{"type":"FeatureCollection","features":[{"type":"Feature","geometry":{"type":"Point","coordinates":[12.9073675,51.072572]},"properties":{"id":"bikerack:d1f6ba5a-6b28-4258-a035-807a470b5a46","kind":"bikerack","longitude":12.9073675,"latitude":51.072572,"name":"Fahrradabstellplatz","city":"Geringswalde","address":null,"covered":false,"access":null,"website":null,"phone":null,"source":"OpenStreetMap/node/13131277297","sourceUpdatedAt":null,"verifiedAt":null}},{"type":"Feature","geometry":{"type":"Point","coordinates":[12.9073859,51.0726044]},"properties":{"id":"bikerack:d68a2b8e-b01b-4c12-8fb4-9939b7139da2","kind":"bikerack","longitude":12.9073859,"latitude":51.0726044,"name":"Fahrradabstellplatz","city":"Geringswalde","address":null,"covered":false,"access":null,"website":null,"phone":null,"source":"OpenStreetMap/node/13131277298","sourceUpdatedAt":null,"verifiedAt":null}},{"type":"Feature","geometry":{"type":"Point","coordinates":[12.9073678,51.0725469]},"properties":{"id":"bikerack:eaf1b9e6-6b4d-46ee-9613-ec009831893e","kind":"bikerack","longitude":12.9073678,"latitude":51.0725469,"name":"Fahrradabstellplatz","city":"Geringswalde","address":null,"covered":false,"access":null,"website":null,"phone":null,"source":"OpenStreetMap/node/13131277300","sourceUpdatedAt":null,"verifiedAt":null}},{"type":"Feature","geometry":{"type":"Point","coordinates":[12.9073694,51.0726167]},"properties":{"id":"repair:50e40d66-6b11-4946-a48e-76e6e1e86f4b","kind":"repair","longitude":12.9073694,"latitude":51.0726167,"name":"Fahrradreparaturstation","city":"Geringswalde","address":null,"covered":false,"access":null,"website":null,"phone":null,"source":"OpenStreetMap/node/12824168176","sourceUpdatedAt":null,"verifiedAt":null}}]}