{"type":"FeatureCollection","features":[{"type":"Feature","geometry":{"type":"Point","coordinates":[12.9080887,49.4382135]},"properties":{"id":"bikerack:e64b543f-216e-4f63-8b8a-2df363920a85","kind":"bikerack","longitude":12.9080887,"latitude":49.4382135,"name":"Bicycle Parking","city":"Domazlice","address":null,"covered":false,"access":null,"website":null,"phone":null,"source":"OpenStreetMap/node/9899183490","sourceUpdatedAt":null,"verifiedAt":null}},{"type":"Feature","geometry":{"type":"Point","coordinates":[12.9011633,49.4273838]},"properties":{"id":"water:527ba394-2798-47a7-8383-df9a5e3e90dc","kind":"water","longitude":12.9011633,"latitude":49.4273838,"name":"Drinking Fountain","city":"Domazlice","address":null,"covered":null,"access":null,"website":null,"phone":null,"source":"OpenStreetMap/node/13042770680","sourceUpdatedAt":null,"verifiedAt":null}}]}