{"type":"FeatureCollection","features":[{"type":"Feature","geometry":{"type":"Point","coordinates":[21.9177266,47.0785681]},"properties":{"id":"water:03d7eb39-3d25-4a45-aab3-98f860558b3f","kind":"water","longitude":21.9177266,"latitude":47.0785681,"name":"apa potabila","city":"Oradea","address":null,"covered":null,"access":null,"website":null,"phone":null,"source":"OpenStreetMap/node/13100409915","sourceUpdatedAt":null,"verifiedAt":null}},{"type":"Feature","geometry":{"type":"Point","coordinates":[21.9235764,47.0722689]},"properties":{"id":"water:10735f2d-3d9f-4003-893f-9d005d589f6e","kind":"water","longitude":21.9235764,"latitude":47.0722689,"name":"apa potabila","city":"Oradea","address":null,"covered":null,"access":null,"website":null,"phone":null,"source":"OpenStreetMap/node/13100409917","sourceUpdatedAt":null,"verifiedAt":null}},{"type":"Feature","geometry":{"type":"Point","coordinates":[21.9266963,47.0755699]},"properties":{"id":"water:277e8a65-f8a3-4b89-81ab-ebe352a31ba4","kind":"water","longitude":21.9266963,"latitude":47.0755699,"name":"apa potabila","city":"Oradea","address":null,"covered":null,"access":null,"website":null,"phone":null,"source":"OpenStreetMap/node/13100409906","sourceUpdatedAt":null,"verifiedAt":null}},{"type":"Feature","geometry":{"type":"Point","coordinates":[21.9232524,47.0880658]},"properties":{"id":"water:39445735-f229-4272-af15-40211de92e23","kind":"water","longitude":21.9232524,"latitude":47.0880658,"name":"apa potabila","city":"Oradea","address":null,"covered":null,"access":null,"website":null,"phone":null,"source":"OpenStreetMap/node/13033205657","sourceUpdatedAt":null,"verifiedAt":null}},{"type":"Feature","geometry":{"type":"Point","coordinates":[21.9227128,47.0739485]},"properties":{"id":"water:6797fc4d-8f91-4c80-aa27-ad46caad5c28","kind":"water","longitude":21.9227128,"latitude":47.0739485,"name":"apa potabila","city":"Oradea","address":null,"covered":null,"access":null,"website":null,"phone":null,"source":"OpenStreetMap/node/13100409919","sourceUpdatedAt":null,"verifiedAt":null}},{"type":"Feature","geometry":{"type":"Point","coordinates":[21.928221,47.0790519]},"properties":{"id":"water:6a959556-8d92-4ea6-bd06-65a5c3545ddd","kind":"water","longitude":21.928221,"latitude":47.0790519,"name":"Ivókút","city":"Oradea","address":null,"covered":null,"access":null,"website":null,"phone":null,"source":"OpenStreetMap/node/13260852338","sourceUpdatedAt":null,"verifiedAt":null}},{"type":"Feature","geometry":{"type":"Point","coordinates":[21.9243808,47.0717288]},"properties":{"id":"water:81bc745b-7b7a-4532-b6ec-110a1ef6a317","kind":"water","longitude":21.9243808,"latitude":47.0717288,"name":"apa potabila","city":"Oradea","address":null,"covered":null,"access":null,"website":null,"phone":null,"source":"OpenStreetMap/node/13100409918","sourceUpdatedAt":null,"verifiedAt":null}},{"type":"Feature","geometry":{"type":"Point","coordinates":[21.9171648,47.0946456]},"properties":{"id":"water:a0a97719-7326-456b-a118-08ec9decfe68","kind":"water","longitude":21.9171648,"latitude":47.0946456,"name":"Ivókút","city":"Oradea","address":null,"covered":null,"access":null,"website":null,"phone":null,"source":"OpenStreetMap/node/13260858401","sourceUpdatedAt":null,"verifiedAt":null}},{"type":"Feature","geometry":{"type":"Point","coordinates":[21.9230322,47.0719691]},"properties":{"id":"water:d745a6e8-c3f8-4c14-99ea-f3f2215b2f5b","kind":"water","longitude":21.9230322,"latitude":47.0719691,"name":"apa potabila","city":"Oradea","address":null,"covered":null,"access":null,"website":null,"phone":null,"source":"OpenStreetMap/node/13100409916","sourceUpdatedAt":null,"verifiedAt":null}}]}