{"type":"FeatureCollection","features":[{"type":"Feature","geometry":{"type":"Point","coordinates":[18.0314659,54.7155719]},"properties":{"id":"bikerack:3caa4499-52f8-4626-bd66-067f912a301e","kind":"bikerack","longitude":18.0314659,"latitude":54.7155719,"name":"Biciklitároló","city":"Gniewino","address":null,"covered":false,"access":null,"website":null,"phone":null,"source":"OpenStreetMap/node/12655897429","sourceUpdatedAt":null,"verifiedAt":null}},{"type":"Feature","geometry":{"type":"Point","coordinates":[18.0520387,54.7180701]},"properties":{"id":"bikerack:bc2687ee-c247-466d-80dc-b43169bb495b","kind":"bikerack","longitude":18.0520387,"latitude":54.7180701,"name":"Biciklitároló","city":"Gniewino","address":null,"covered":false,"access":null,"website":null,"phone":null,"source":"OpenStreetMap/node/11179454558","sourceUpdatedAt":null,"verifiedAt":null}}]}