{"type":"FeatureCollection","features":[{"type":"Feature","geometry":{"type":"Point","coordinates":[18.0433516,53.1315624]},"properties":{"id":"bikerack:04c813e9-8c20-4285-a4d6-3495e304f276","kind":"bikerack","longitude":18.0433516,"latitude":53.1315624,"name":"Biciklitároló","city":"Bydgoszcz","address":null,"covered":false,"access":null,"website":null,"phone":null,"source":"OpenStreetMap/way/469237117","sourceUpdatedAt":null,"verifiedAt":null}},{"type":"Feature","geometry":{"type":"Point","coordinates":[18.0305865,53.1216525]},"properties":{"id":"bikerack:16b3171f-f501-4742-b4ac-3965457d9766","kind":"bikerack","longitude":18.0305865,"latitude":53.1216525,"name":"Biciklitároló","city":"Bydgoszcz","address":null,"covered":false,"access":null,"website":null,"phone":null,"source":"OpenStreetMap/way/477037227","sourceUpdatedAt":null,"verifiedAt":null}},{"type":"Feature","geometry":{"type":"Point","coordinates":[18.053098,53.130934]},"properties":{"id":"bikerack:1b8bc49a-f7bf-49f9-b7f1-bd5ee4a9f8c0","kind":"bikerack","longitude":18.053098,"latitude":53.130934,"name":"Biciklitároló","city":"Bydgoszcz","address":null,"covered":false,"access":null,"website":null,"phone":null,"source":"OpenStreetMap/node/11903881678","sourceUpdatedAt":null,"verifiedAt":null}},{"type":"Feature","geometry":{"type":"Point","coordinates":[18.048581,53.1295685]},"properties":{"id":"bikerack:1bf30e12-0158-4a75-831a-ad8a0777ffbc","kind":"bikerack","longitude":18.048581,"latitude":53.1295685,"name":"Biciklitároló","city":"Bydgoszcz","address":null,"covered":false,"access":null,"website":null,"phone":null,"source":"OpenStreetMap/node/12397617554","sourceUpdatedAt":null,"verifiedAt":null}},{"type":"Feature","geometry":{"type":"Point","coordinates":[18.0209122,53.1312924]},"properties":{"id":"bikerack:1d30cb8c-b05f-401b-9a8f-113aa1bc1172","kind":"bikerack","longitude":18.0209122,"latitude":53.1312924,"name":"Biciklitároló","city":"Bydgoszcz","address":null,"covered":false,"access":null,"website":null,"phone":null,"source":"OpenStreetMap/way/333533116","sourceUpdatedAt":null,"verifiedAt":null}},{"type":"Feature","geometry":{"type":"Point","coordinates":[18.0189837,53.1360471]},"properties":{"id":"bikerack:23e30544-2079-49d6-b43f-a1c45ccf4365","kind":"bikerack","longitude":18.0189837,"latitude":53.1360471,"name":"Biciklitároló","city":"Bydgoszcz","address":null,"covered":false,"access":null,"website":null,"phone":null,"source":"OpenStreetMap/node/13125531212","sourceUpdatedAt":null,"verifiedAt":null}},{"type":"Feature","geometry":{"type":"Point","coordinates":[18.0226875,53.1275954]},"properties":{"id":"bikerack:297efa46-f5df-4bae-8cea-eee1771de584","kind":"bikerack","longitude":18.0226875,"latitude":53.1275954,"name":"Biciklitároló","city":"Bydgoszcz","address":null,"covered":false,"access":null,"website":null,"phone":null,"source":"OpenStreetMap/node/5949740715","sourceUpdatedAt":null,"verifiedAt":null}},{"type":"Feature","geometry":{"type":"Point","coordinates":[18.0260166,53.1343298]},"properties":{"id":"bikerack:2de93bde-3fd6-4dd9-84ef-1442cc6cebfb","kind":"bikerack","longitude":18.0260166,"latitude":53.1343298,"name":"Biciklitároló","city":"Bydgoszcz","address":null,"covered":false,"access":null,"website":null,"phone":null,"source":"OpenStreetMap/way/594967662","sourceUpdatedAt":null,"verifiedAt":null}},{"type":"Feature","geometry":{"type":"Point","coordinates":[18.0290228,53.1278761]},"properties":{"id":"bikerack:2e5b52f8-5d90-48bd-af5d-987183cb4eae","kind":"bikerack","longitude":18.0290228,"latitude":53.1278761,"name":"Biciklitároló","city":"Bydgoszcz","address":null,"covered":false,"access":null,"website":null,"phone":null,"source":"OpenStreetMap/node/5949740713","sourceUpdatedAt":null,"verifiedAt":null}},{"type":"Feature","geometry":{"type":"Point","coordinates":[18.0483576,53.1259726]},"properties":{"id":"bikerack:316ab8b3-3ae9-4ab7-9c24-4bedc88bea4e","kind":"bikerack","longitude":18.0483576,"latitude":53.1259726,"name":"Biciklitároló","city":"Bydgoszcz","address":null,"covered":false,"access":null,"website":null,"phone":null,"source":"OpenStreetMap/node/5949740710","sourceUpdatedAt":null,"verifiedAt":null}},{"type":"Feature","geometry":{"type":"Point","coordinates":[18.031953,53.1420081]},"properties":{"id":"bikerack:3457fd2f-73ee-48a7-86d0-fda3afd9563a","kind":"bikerack","longitude":18.031953,"latitude":53.1420081,"name":"Biciklitároló","city":"Bydgoszcz","address":null,"covered":false,"access":null,"website":null,"phone":null,"source":"OpenStreetMap/node/5512452353","sourceUpdatedAt":null,"verifiedAt":null}},{"type":"Feature","geometry":{"type":"Point","coordinates":[18.0284927,53.1395821]},"properties":{"id":"bikerack:35bc3b00-25e5-4733-9858-73c2fb1c1197","kind":"bikerack","longitude":18.0284927,"latitude":53.1395821,"name":"Biciklitároló","city":"Bydgoszcz","address":null,"covered":false,"access":null,"website":null,"phone":null,"source":"OpenStreetMap/node/6286650603","sourceUpdatedAt":null,"verifiedAt":null}},{"type":"Feature","geometry":{"type":"Point","coordinates":[18.0231795,53.1424424]},"properties":{"id":"bikerack:39c8875c-c6cd-4a8c-aa4c-7a8a13f868dc","kind":"bikerack","longitude":18.0231795,"latitude":53.1424424,"name":"Biciklitároló","city":"Bydgoszcz","address":null,"covered":false,"access":null,"website":null,"phone":null,"source":"OpenStreetMap/node/5617721319","sourceUpdatedAt":null,"verifiedAt":null}},{"type":"Feature","geometry":{"type":"Point","coordinates":[18.0502966,53.1307299]},"properties":{"id":"bikerack:43f69a4d-642a-4b35-a4f2-0ea13b28f5ca","kind":"bikerack","longitude":18.0502966,"latitude":53.1307299,"name":"Biciklitároló","city":"Bydgoszcz","address":null,"covered":false,"access":null,"website":null,"phone":null,"source":"OpenStreetMap/node/11927855726","sourceUpdatedAt":null,"verifiedAt":null}},{"type":"Feature","geometry":{"type":"Point","coordinates":[18.0270113,53.1381943]},"properties":{"id":"bikerack:4c8a4be4-4acf-4491-be96-ec205c48c047","kind":"bikerack","longitude":18.0270113,"latitude":53.1381943,"name":"Biciklitároló","city":"Bydgoszcz","address":null,"covered":false,"access":null,"website":null,"phone":null,"source":"OpenStreetMap/node/13423491234","sourceUpdatedAt":null,"verifiedAt":null}},{"type":"Feature","geometry":{"type":"Point","coordinates":[18.0476737,53.1328648]},"properties":{"id":"bikerack:591e473a-be24-4711-b8db-b39f63acaa52","kind":"bikerack","longitude":18.0476737,"latitude":53.1328648,"name":"Biciklitároló","city":"Bydgoszcz","address":null,"covered":false,"access":null,"website":null,"phone":null,"source":"OpenStreetMap/node/12200060613","sourceUpdatedAt":null,"verifiedAt":null}},{"type":"Feature","geometry":{"type":"Point","coordinates":[18.0244647,53.1388376]},"properties":{"id":"bikerack:5e9e86fa-8a13-413c-b267-e047e8525e4c","kind":"bikerack","longitude":18.0244647,"latitude":53.1388376,"name":"Biciklitároló","city":"Bydgoszcz","address":null,"covered":false,"access":null,"website":null,"phone":null,"source":"OpenStreetMap/node/11198277668","sourceUpdatedAt":null,"verifiedAt":null}},{"type":"Feature","geometry":{"type":"Point","coordinates":[18.0274639,53.1386277]},"properties":{"id":"bikerack:665e0c3c-c3cb-436a-8753-e430332f685a","kind":"bikerack","longitude":18.0274639,"latitude":53.1386277,"name":"Biciklitároló","city":"Bydgoszcz","address":null,"covered":false,"access":null,"website":null,"phone":null,"source":"OpenStreetMap/node/13423491233","sourceUpdatedAt":null,"verifiedAt":null}},{"type":"Feature","geometry":{"type":"Point","coordinates":[18.050857,53.1269385]},"properties":{"id":"bikerack:6a96f585-9669-4326-b2d5-89c70d84ee0d","kind":"bikerack","longitude":18.050857,"latitude":53.1269385,"name":"Biciklitároló","city":"Bydgoszcz","address":null,"covered":false,"access":null,"website":null,"phone":null,"source":"OpenStreetMap/way/469240629","sourceUpdatedAt":null,"verifiedAt":null}},{"type":"Feature","geometry":{"type":"Point","coordinates":[18.0278895,53.1397396]},"properties":{"id":"bikerack:6e3a5a2a-a436-446e-8e31-a3c1e3bfce93","kind":"bikerack","longitude":18.0278895,"latitude":53.1397396,"name":"Biciklitároló","city":"Bydgoszcz","address":null,"covered":false,"access":null,"website":null,"phone":null,"source":"OpenStreetMap/node/5726228573","sourceUpdatedAt":null,"verifiedAt":null}},{"type":"Feature","geometry":{"type":"Point","coordinates":[18.0461374,53.121423]},"properties":{"id":"bikerack:7559f709-97be-4655-9c33-feaec52ea457","kind":"bikerack","longitude":18.0461374,"latitude":53.121423,"name":"Biciklitároló","city":"Bydgoszcz","address":null,"covered":false,"access":null,"website":null,"phone":null,"source":"OpenStreetMap/node/11809100968","sourceUpdatedAt":null,"verifiedAt":null}},{"type":"Feature","geometry":{"type":"Point","coordinates":[18.0454884,53.1217537]},"properties":{"id":"bikerack:7a414043-a658-449a-bbde-04e3db35c86f","kind":"bikerack","longitude":18.0454884,"latitude":53.1217537,"name":"Biciklitároló","city":"Bydgoszcz","address":null,"covered":false,"access":null,"website":null,"phone":null,"source":"OpenStreetMap/node/12695902247","sourceUpdatedAt":null,"verifiedAt":null}},{"type":"Feature","geometry":{"type":"Point","coordinates":[18.0262003,53.1231376]},"properties":{"id":"bikerack:8121bd09-df0e-4801-8d5a-1c1b73271908","kind":"bikerack","longitude":18.0262003,"latitude":53.1231376,"name":"Biciklitároló","city":"Bydgoszcz","address":null,"covered":false,"access":null,"website":null,"phone":null,"source":"OpenStreetMap/way/300702628","sourceUpdatedAt":null,"verifiedAt":null}},{"type":"Feature","geometry":{"type":"Point","coordinates":[18.0326125,53.1424856]},"properties":{"id":"bikerack:884ef7d3-05ae-4f33-886e-5cca8146b2ac","kind":"bikerack","longitude":18.0326125,"latitude":53.1424856,"name":"Biciklitároló","city":"Bydgoszcz","address":null,"covered":false,"access":null,"website":null,"phone":null,"source":"OpenStreetMap/node/5711565053","sourceUpdatedAt":null,"verifiedAt":null}},{"type":"Feature","geometry":{"type":"Point","coordinates":[18.0530193,53.1262464]},"properties":{"id":"bikerack:944799d4-f645-4008-8476-45768b3c66d1","kind":"bikerack","longitude":18.0530193,"latitude":53.1262464,"name":"Biciklitároló","city":"Bydgoszcz","address":null,"covered":false,"access":null,"website":null,"phone":null,"source":"OpenStreetMap/way/469240630","sourceUpdatedAt":null,"verifiedAt":null}},{"type":"Feature","geometry":{"type":"Point","coordinates":[18.0485935,53.1257479]},"properties":{"id":"bikerack:97d9721d-ce97-4e21-868b-72d499c2d5a4","kind":"bikerack","longitude":18.0485935,"latitude":53.1257479,"name":"Biciklitároló","city":"Bydgoszcz","address":null,"covered":false,"access":null,"website":null,"phone":null,"source":"OpenStreetMap/node/12234510504","sourceUpdatedAt":null,"verifiedAt":null}},{"type":"Feature","geometry":{"type":"Point","coordinates":[18.018454,53.1362989]},"properties":{"id":"bikerack:99c8d1ed-8886-4cea-9a1e-699c3231a9fe","kind":"bikerack","longitude":18.018454,"latitude":53.1362989,"name":"Biciklitároló","city":"Bydgoszcz","address":null,"covered":false,"access":null,"website":null,"phone":null,"source":"OpenStreetMap/node/13163175564","sourceUpdatedAt":null,"verifiedAt":null}},{"type":"Feature","geometry":{"type":"Point","coordinates":[18.0508906,53.1257123]},"properties":{"id":"bikerack:9e800b4b-6e75-4276-9b3e-57001294ec32","kind":"bikerack","longitude":18.0508906,"latitude":53.1257123,"name":"Biciklitároló","city":"Bydgoszcz","address":null,"covered":false,"access":null,"website":null,"phone":null,"source":"OpenStreetMap/node/5949740709","sourceUpdatedAt":null,"verifiedAt":null}},{"type":"Feature","geometry":{"type":"Point","coordinates":[18.0563241,53.127142]},"properties":{"id":"bikerack:9f72f876-8e8f-44b8-8171-50e02bc1fef1","kind":"bikerack","longitude":18.0563241,"latitude":53.127142,"name":"Biciklitároló","city":"Bydgoszcz","address":null,"covered":false,"access":null,"website":null,"phone":null,"source":"OpenStreetMap/node/12839318786","sourceUpdatedAt":null,"verifiedAt":null}},{"type":"Feature","geometry":{"type":"Point","coordinates":[18.0413804,53.1311875]},"properties":{"id":"bikerack:ac8c2060-199e-4304-8850-bea75c8c4c24","kind":"bikerack","longitude":18.0413804,"latitude":53.1311875,"name":"Biciklitároló","city":"Bydgoszcz","address":null,"covered":false,"access":null,"website":null,"phone":null,"source":"OpenStreetMap/way/469237118","sourceUpdatedAt":null,"verifiedAt":null}},{"type":"Feature","geometry":{"type":"Point","coordinates":[18.0277591,53.1389179]},"properties":{"id":"bikerack:b0bc9ce6-5b21-4936-b672-17cc69efa92c","kind":"bikerack","longitude":18.0277591,"latitude":53.1389179,"name":"Biciklitároló","city":"Bydgoszcz","address":null,"covered":false,"access":null,"website":null,"phone":null,"source":"OpenStreetMap/node/13423491232","sourceUpdatedAt":null,"verifiedAt":null}},{"type":"Feature","geometry":{"type":"Point","coordinates":[18.0323942,53.1426284]},"properties":{"id":"bikerack:bd3c52b5-357e-4665-9142-c052f9ac7646","kind":"bikerack","longitude":18.0323942,"latitude":53.1426284,"name":"Biciklitároló","city":"Bydgoszcz","address":null,"covered":false,"access":null,"website":null,"phone":null,"source":"OpenStreetMap/node/5711565054","sourceUpdatedAt":null,"verifiedAt":null}},{"type":"Feature","geometry":{"type":"Point","coordinates":[18.0448303,53.1264408]},"properties":{"id":"bikerack:cfb2bfe6-6c18-4df1-b2f8-9e495e8bc0de","kind":"bikerack","longitude":18.0448303,"latitude":53.1264408,"name":"Biciklitároló","city":"Bydgoszcz","address":null,"covered":false,"access":null,"website":null,"phone":null,"source":"OpenStreetMap/node/13473607369","sourceUpdatedAt":null,"verifiedAt":null}},{"type":"Feature","geometry":{"type":"Point","coordinates":[18.0294534,53.1271697]},"properties":{"id":"bikerack:d0e9a7cf-5199-4a78-8d24-30c558af278e","kind":"bikerack","longitude":18.0294534,"latitude":53.1271697,"name":"Biciklitároló","city":"Bydgoszcz","address":null,"covered":false,"access":null,"website":null,"phone":null,"source":"OpenStreetMap/node/5949740714","sourceUpdatedAt":null,"verifiedAt":null}},{"type":"Feature","geometry":{"type":"Point","coordinates":[18.0181748,53.1363447]},"properties":{"id":"bikerack:d796532b-0370-411f-9736-189e7d7d5bb4","kind":"bikerack","longitude":18.0181748,"latitude":53.1363447,"name":"Biciklitároló","city":"Bydgoszcz","address":null,"covered":false,"access":null,"website":null,"phone":null,"source":"OpenStreetMap/node/13114332130","sourceUpdatedAt":null,"verifiedAt":null}},{"type":"Feature","geometry":{"type":"Point","coordinates":[18.031481,53.1264736]},"properties":{"id":"bikerack:d9c1497f-cf88-4d35-84d4-3b067374a37a","kind":"bikerack","longitude":18.031481,"latitude":53.1264736,"name":"Biciklitároló","city":"Bydgoszcz","address":null,"covered":false,"access":null,"website":null,"phone":null,"source":"OpenStreetMap/node/5949740712","sourceUpdatedAt":null,"verifiedAt":null}},{"type":"Feature","geometry":{"type":"Point","coordinates":[18.0192312,53.1348666]},"properties":{"id":"bikerack:defcf9d6-21de-4d86-b4de-98b1dd7fd2e1","kind":"bikerack","longitude":18.0192312,"latitude":53.1348666,"name":"Biciklitároló","city":"Bydgoszcz","address":null,"covered":false,"access":null,"website":null,"phone":null,"source":"OpenStreetMap/way/1435732230","sourceUpdatedAt":null,"verifiedAt":null}},{"type":"Feature","geometry":{"type":"Point","coordinates":[18.0541473,53.1252607]},"properties":{"id":"bikerack:f056660d-dc2f-40b1-a3e6-b06e68b1b258","kind":"bikerack","longitude":18.0541473,"latitude":53.1252607,"name":"Biciklitároló","city":"Bydgoszcz","address":null,"covered":false,"access":null,"website":null,"phone":null,"source":"OpenStreetMap/node/5949740707","sourceUpdatedAt":null,"verifiedAt":null}},{"type":"Feature","geometry":{"type":"Point","coordinates":[18.0529671,53.1256354]},"properties":{"id":"bikerack:f2877d09-8395-421e-86a9-5b5a99d2d815","kind":"bikerack","longitude":18.0529671,"latitude":53.1256354,"name":"Biciklitároló","city":"Bydgoszcz","address":null,"covered":false,"access":null,"website":null,"phone":null,"source":"OpenStreetMap/node/5949740708","sourceUpdatedAt":null,"verifiedAt":null}},{"type":"Feature","geometry":{"type":"Point","coordinates":[18.0475899,53.1262689]},"properties":{"id":"bikerack:f8ce92e5-4a92-48dd-855c-f8c6129062e8","kind":"bikerack","longitude":18.0475899,"latitude":53.1262689,"name":"Biciklitároló","city":"Bydgoszcz","address":null,"covered":false,"access":null,"website":null,"phone":null,"source":"OpenStreetMap/node/5949740711","sourceUpdatedAt":null,"verifiedAt":null}},{"type":"Feature","geometry":{"type":"Point","coordinates":[18.0485779,53.1294724]},"properties":{"id":"bikerack:fa2a0c20-2ead-43a5-be51-1d686e1c2b44","kind":"bikerack","longitude":18.0485779,"latitude":53.1294724,"name":"Biciklitároló","city":"Bydgoszcz","address":null,"covered":false,"access":null,"website":null,"phone":null,"source":"OpenStreetMap/node/12397617555","sourceUpdatedAt":null,"verifiedAt":null}},{"type":"Feature","geometry":{"type":"Point","coordinates":[18.027586,53.1385394]},"properties":{"id":"service:6fa2ad66-ebd5-4f5c-bf6c-b55ba48d6c05","kind":"service","longitude":18.027586,"latitude":53.1385394,"name":"Józefa Sułkowskiego 48 – Bicikli szervíz","city":"Bydgoszcz","address":null,"covered":null,"access":null,"website":null,"phone":null,"source":"OpenStreetMap/node/5784372563","sourceUpdatedAt":null,"verifiedAt":null}},{"type":"Feature","geometry":{"type":"Point","coordinates":[18.0360082,53.1205236]},"properties":{"id":"service:b0b3fa8a-f89b-4874-8068-9e6402f10363","kind":"service","longitude":18.0360082,"latitude":53.1205236,"name":"Giant","city":"Bydgoszcz","address":null,"covered":null,"access":null,"website":null,"phone":null,"source":"OpenStreetMap/node/9056285276","sourceUpdatedAt":null,"verifiedAt":null}},{"type":"Feature","geometry":{"type":"Point","coordinates":[18.0488704,53.120965]},"properties":{"id":"service:ce147129-58d6-44ba-8eae-d374438b7c70","kind":"service","longitude":18.0488704,"latitude":53.120965,"name":"Velomania","city":"Bydgoszcz","address":null,"covered":null,"access":null,"website":null,"phone":null,"source":"OpenStreetMap/way/167647733","sourceUpdatedAt":null,"verifiedAt":null}}]}