{"type":"FeatureCollection","features":[{"type":"Feature","geometry":{"type":"Point","coordinates":[18.0410626,48.092521]},"properties":{"id":"bikerack:41d56a1d-ed85-4d66-951c-b21a11c3e615","kind":"bikerack","longitude":18.0410626,"latitude":48.092521,"name":"Biciklitároló","city":"Surany","address":null,"covered":false,"access":null,"website":null,"phone":null,"source":"OpenStreetMap/node/4764414578","sourceUpdatedAt":null,"verifiedAt":null}},{"type":"Feature","geometry":{"type":"Point","coordinates":[18.041102,48.0927]},"properties":{"id":"bikerack:b454d6cf-1491-4d85-9f00-ff62f8a52a1f","kind":"bikerack","longitude":18.041102,"latitude":48.0927,"name":"Biciklitároló","city":"Surany","address":null,"covered":false,"access":null,"website":null,"phone":null,"source":"OpenStreetMap/node/4764414579","sourceUpdatedAt":null,"verifiedAt":null}},{"type":"Feature","geometry":{"type":"Point","coordinates":[18.0547469,48.0938373]},"properties":{"id":"water:ace664cb-fca1-4012-829a-1574887e1bca","kind":"water","longitude":18.0547469,"latitude":48.0938373,"name":"Ivókút","city":"Surany","address":null,"covered":null,"access":null,"website":null,"phone":null,"source":"OpenStreetMap/node/4795263049","sourceUpdatedAt":null,"verifiedAt":null}}]}