{"type":"FeatureCollection","features":[{"type":"Feature","geometry":{"type":"Point","coordinates":[11.885039,49.4339053]},"properties":{"id":"bikerack:13030263-1b8b-4dc5-8b38-34683e3ca52f","kind":"bikerack","longitude":11.885039,"latitude":49.4339053,"name":"Fahrradabstellplatz","city":"Kummersbruck","address":null,"covered":false,"access":null,"website":null,"phone":null,"source":"OpenStreetMap/node/13197948963","sourceUpdatedAt":null,"verifiedAt":null}},{"type":"Feature","geometry":{"type":"Point","coordinates":[11.8835389,49.4226746]},"properties":{"id":"bikerack:4a4f1c6f-6f70-4e3d-9298-3e472134a74d","kind":"bikerack","longitude":11.8835389,"latitude":49.4226746,"name":"Fahrradabstellplatz","city":"Kummersbruck","address":null,"covered":false,"access":null,"website":null,"phone":null,"source":"OpenStreetMap/node/4761734131","sourceUpdatedAt":null,"verifiedAt":null}},{"type":"Feature","geometry":{"type":"Point","coordinates":[11.8856131,49.4210041]},"properties":{"id":"bikerack:69fb31e8-f4fc-42a0-bf30-684e39631fc2","kind":"bikerack","longitude":11.8856131,"latitude":49.4210041,"name":"Fahrradabstellplatz","city":"Kummersbruck","address":null,"covered":false,"access":null,"website":null,"phone":null,"source":"OpenStreetMap/node/1109151484","sourceUpdatedAt":null,"verifiedAt":null}},{"type":"Feature","geometry":{"type":"Point","coordinates":[11.8853379,49.4335849]},"properties":{"id":"bikerack:89ac2af7-1c9e-434d-8572-47bfaf06f33a","kind":"bikerack","longitude":11.8853379,"latitude":49.4335849,"name":"Fahrradabstellplatz","city":"Kummersbruck","address":null,"covered":false,"access":null,"website":null,"phone":null,"source":"OpenStreetMap/node/13197948964","sourceUpdatedAt":null,"verifiedAt":null}},{"type":"Feature","geometry":{"type":"Point","coordinates":[11.866999,49.4305625]},"properties":{"id":"bikerack:bd902e5f-31b2-41d6-99d8-1f142d8b62f2","kind":"bikerack","longitude":11.866999,"latitude":49.4305625,"name":"Fahrradabstellplatz","city":"Amberg","address":null,"covered":true,"access":null,"website":null,"phone":null,"source":"OpenStreetMap/node/563292517","sourceUpdatedAt":null,"verifiedAt":null}},{"type":"Feature","geometry":{"type":"Point","coordinates":[11.884058,49.4216888]},"properties":{"id":"bikerack:ca9fa3eb-5fe5-435d-82fa-83a30f6c3c33","kind":"bikerack","longitude":11.884058,"latitude":49.4216888,"name":"Fahrradabstellplatz","city":"Kummersbruck","address":null,"covered":false,"access":null,"website":null,"phone":null,"source":"OpenStreetMap/node/4761754209","sourceUpdatedAt":null,"verifiedAt":null}},{"type":"Feature","geometry":{"type":"Point","coordinates":[11.8683,49.4281126]},"properties":{"id":"bikerack:eb6d50c8-4761-4604-a896-f60d59aa41b2","kind":"bikerack","longitude":11.8683,"latitude":49.4281126,"name":"Fahrradabstellplatz","city":"Amberg","address":null,"covered":false,"access":null,"website":null,"phone":null,"source":"OpenStreetMap/node/4036592054","sourceUpdatedAt":null,"verifiedAt":null}},{"type":"Feature","geometry":{"type":"Point","coordinates":[11.8790047,49.4339439]},"properties":{"id":"bikerack:f7440856-a263-48da-82b6-7b64c22198d4","kind":"bikerack","longitude":11.8790047,"latitude":49.4339439,"name":"Fahrradabstellplatz","city":"Kummersbruck","address":null,"covered":false,"access":null,"website":null,"phone":null,"source":"OpenStreetMap/node/8791043656","sourceUpdatedAt":null,"verifiedAt":null}},{"type":"Feature","geometry":{"type":"Point","coordinates":[11.8878791,49.418877]},"properties":{"id":"bikerack:f779f57d-477d-4536-a438-93ba87abaed0","kind":"bikerack","longitude":11.8878791,"latitude":49.418877,"name":"Fahrradabstellplatz","city":"Kummersbruck","address":null,"covered":false,"access":null,"website":null,"phone":null,"source":"OpenStreetMap/node/3742725602","sourceUpdatedAt":null,"verifiedAt":null}},{"type":"Feature","geometry":{"type":"Point","coordinates":[11.8747352,49.4218695]},"properties":{"id":"bikerack:fb98024a-201f-406d-b3fb-c4644bc139f3","kind":"bikerack","longitude":11.8747352,"latitude":49.4218695,"name":"Fahrradabstellplatz","city":"Kummersbruck","address":null,"covered":false,"access":null,"website":null,"phone":null,"source":"OpenStreetMap/node/9651394982","sourceUpdatedAt":null,"verifiedAt":null}},{"type":"Feature","geometry":{"type":"Point","coordinates":[11.8706194,49.4314253]},"properties":{"id":"service:6233cbe7-cb16-4dd3-80aa-d6273d78a744","kind":"service","longitude":11.8706194,"latitude":49.4314253,"name":"Radsport Schillinger","city":"Amberg","address":null,"covered":null,"access":null,"website":null,"phone":null,"source":"OpenStreetMap/way/448350225","sourceUpdatedAt":null,"verifiedAt":null}}]}