{"type":"FeatureCollection","features":[{"type":"Feature","geometry":{"type":"Point","coordinates":[11.8662388,47.3286799]},"properties":{"id":"bikerack:6550e5ba-11e3-405b-8171-fb9d9fd2cfcf","kind":"bikerack","longitude":11.8662388,"latitude":47.3286799,"name":"Biciklitároló","city":"Uderns","address":null,"covered":false,"access":null,"website":null,"phone":null,"source":"OpenStreetMap/node/12037555932","sourceUpdatedAt":null,"verifiedAt":null}},{"type":"Feature","geometry":{"type":"Point","coordinates":[11.9069636,47.3135175]},"properties":{"id":"water:4400303d-379a-4480-8f7c-cbc466cc2d44","kind":"water","longitude":11.9069636,"latitude":47.3135175,"name":"Ivókút","city":"Stummerberg","address":null,"covered":null,"access":null,"website":null,"phone":null,"source":"OpenStreetMap/node/4439796530","sourceUpdatedAt":null,"verifiedAt":null}}]}