{"type":"FeatureCollection","features":[{"type":"Feature","geometry":{"type":"Point","coordinates":[11.8772112,46.2181044]},"properties":{"id":"water:5566417f-3d30-468d-99d9-7775550496cd","kind":"water","longitude":11.8772112,"latitude":46.2181044,"name":"Fontanella","city":"Tonadico","address":null,"covered":null,"access":null,"website":null,"phone":null,"source":"OpenStreetMap/node/2018603267","sourceUpdatedAt":null,"verifiedAt":null}},{"type":"Feature","geometry":{"type":"Point","coordinates":[11.8660541,46.1993423]},"properties":{"id":"water:daa14daa-76ed-4af4-9399-65913599c162","kind":"water","longitude":11.8660541,"latitude":46.1993423,"name":"Fontana di castrona","city":"Tonadico","address":null,"covered":null,"access":null,"website":null,"phone":null,"source":"OpenStreetMap/node/338894662","sourceUpdatedAt":null,"verifiedAt":null}},{"type":"Feature","geometry":{"type":"Point","coordinates":[11.8884623,46.2231054]},"properties":{"id":"water:eb5d401f-317b-4797-8ae0-d660b19aec3a","kind":"water","longitude":11.8884623,"latitude":46.2231054,"name":"Fontanella","city":"Sagron Mis","address":null,"covered":null,"access":null,"website":null,"phone":null,"source":"OpenStreetMap/node/2535780900","sourceUpdatedAt":null,"verifiedAt":null}}]}