{"type":"FeatureCollection","features":[{"type":"Feature","geometry":{"type":"Point","coordinates":[11.8966101,45.3282017]},"properties":{"id":"bikerack:3402b314-0be7-43ff-b8b2-58a9453261eb","kind":"bikerack","longitude":11.8966101,"latitude":45.3282017,"name":"Parcheggio bici","city":"Bertipaglia","address":null,"covered":false,"access":null,"website":null,"phone":null,"source":"OpenStreetMap/node/12018669809","sourceUpdatedAt":null,"verifiedAt":null}},{"type":"Feature","geometry":{"type":"Point","coordinates":[11.8655936,45.3328894]},"properties":{"id":"bikerack:6b1a30ab-df35-458c-8e1b-900e107dbaab","kind":"bikerack","longitude":11.8655936,"latitude":45.3328894,"name":"Parcheggio bici","city":"Masera di Padova","address":null,"covered":false,"access":null,"website":null,"phone":null,"source":"OpenStreetMap/node/4791398184","sourceUpdatedAt":null,"verifiedAt":null}},{"type":"Feature","geometry":{"type":"Point","coordinates":[11.8849319,45.3143812]},"properties":{"id":"bikerack:854141da-ef00-4d44-90c2-c4927be37051","kind":"bikerack","longitude":11.8849319,"latitude":45.3143812,"name":"Parcheggio bici","city":"Bertipaglia","address":null,"covered":false,"access":null,"website":null,"phone":null,"source":"OpenStreetMap/node/11871591183","sourceUpdatedAt":null,"verifiedAt":null}},{"type":"Feature","geometry":{"type":"Point","coordinates":[11.90808,45.3295769]},"properties":{"id":"bikerack:8f488a08-80dd-4c8f-a2a2-88f61be550c8","kind":"bikerack","longitude":11.90808,"latitude":45.3295769,"name":"Parcheggio bici","city":"Casalserugo","address":null,"covered":false,"access":null,"website":null,"phone":null,"source":"OpenStreetMap/node/12018669811","sourceUpdatedAt":null,"verifiedAt":null}},{"type":"Feature","geometry":{"type":"Point","coordinates":[11.8671158,45.3197073]},"properties":{"id":"water:a7c00e13-fbdd-4064-8301-22e22348e00c","kind":"water","longitude":11.8671158,"latitude":45.3197073,"name":"Fontanella","city":"Masera di Padova","address":null,"covered":null,"access":null,"website":null,"phone":null,"source":"OpenStreetMap/node/1936847386","sourceUpdatedAt":null,"verifiedAt":null}},{"type":"Feature","geometry":{"type":"Point","coordinates":[11.8845997,45.3151565]},"properties":{"id":"water:a8aa4e1e-0456-43f3-b295-576b810ea053","kind":"water","longitude":11.8845997,"latitude":45.3151565,"name":"Fontanella","city":"Bertipaglia","address":null,"covered":null,"access":null,"website":null,"phone":null,"source":"OpenStreetMap/node/11871566616","sourceUpdatedAt":null,"verifiedAt":null}}]}