{"type":"FeatureCollection","features":[{"type":"Feature","geometry":{"type":"Point","coordinates":[11.9072435,45.2457261]},"properties":{"id":"bikerack:05c7ff80-66d8-4ac2-b536-58a404c4a4b7","kind":"bikerack","longitude":11.9072435,"latitude":45.2457261,"name":"Parcheggio bici","city":"Terrassa Padovana","address":null,"covered":false,"access":null,"website":null,"phone":null,"source":"OpenStreetMap/node/11891952166","sourceUpdatedAt":null,"verifiedAt":null}},{"type":"Feature","geometry":{"type":"Point","coordinates":[11.9071699,45.2456395]},"properties":{"id":"bikerack:080acec2-bd52-416b-82c0-9ec8c0c40485","kind":"bikerack","longitude":11.9071699,"latitude":45.2456395,"name":"Parcheggio bici","city":"Terrassa Padovana","address":null,"covered":false,"access":null,"website":null,"phone":null,"source":"OpenStreetMap/node/11891952167","sourceUpdatedAt":null,"verifiedAt":null}},{"type":"Feature","geometry":{"type":"Point","coordinates":[11.9046265,45.2444194]},"properties":{"id":"bikerack:0adbb607-184c-4c89-9885-8bc0df81bb6b","kind":"bikerack","longitude":11.9046265,"latitude":45.2444194,"name":"Parcheggio bici","city":"Terrassa Padovana","address":null,"covered":false,"access":null,"website":null,"phone":null,"source":"OpenStreetMap/node/11891952151","sourceUpdatedAt":null,"verifiedAt":null}},{"type":"Feature","geometry":{"type":"Point","coordinates":[11.8987907,45.2483394]},"properties":{"id":"bikerack:751f0c9f-ee74-4909-9cee-a2e38b178978","kind":"bikerack","longitude":11.8987907,"latitude":45.2483394,"name":"Parcheggio bici","city":"Terrassa Padovana","address":null,"covered":false,"access":null,"website":null,"phone":null,"source":"OpenStreetMap/node/11816775772","sourceUpdatedAt":null,"verifiedAt":null}},{"type":"Feature","geometry":{"type":"Point","coordinates":[11.8987262,45.2483633]},"properties":{"id":"bikerack:ab97ca68-c47c-4e7f-90c2-00039debd50a","kind":"bikerack","longitude":11.8987262,"latitude":45.2483633,"name":"Parcheggio bici","city":"Terrassa Padovana","address":null,"covered":false,"access":null,"website":null,"phone":null,"source":"OpenStreetMap/node/11816774296","sourceUpdatedAt":null,"verifiedAt":null}},{"type":"Feature","geometry":{"type":"Point","coordinates":[11.8986039,45.2484471]},"properties":{"id":"water:eb7eac10-ab85-4f35-b7c3-8026543e8221","kind":"water","longitude":11.8986039,"latitude":45.2484471,"name":"Fontanella","city":"Terrassa Padovana","address":null,"covered":null,"access":null,"website":null,"phone":null,"source":"OpenStreetMap/node/11816775656","sourceUpdatedAt":null,"verifiedAt":null}}]}