{"type":"FeatureCollection","features":[{"type":"Feature","geometry":{"type":"Point","coordinates":[8.0263861,52.2778384]},"properties":{"id":"bikerack:01f5bafe-5024-48be-9b27-a0e050c90c4e","kind":"bikerack","longitude":8.0263861,"latitude":52.2778384,"name":"Fahrradabstellplatz","city":"Osnabrueck","address":null,"covered":false,"access":null,"website":null,"phone":null,"source":"OpenStreetMap/node/12851334146","sourceUpdatedAt":null,"verifiedAt":null}},{"type":"Feature","geometry":{"type":"Point","coordinates":[8.0370832,52.2901674]},"properties":{"id":"bikerack:040d7ff6-6db0-4dbc-bce3-5984fc6d1db1","kind":"bikerack","longitude":8.0370832,"latitude":52.2901674,"name":"Fahrradabstellplatz","city":"Osnabrueck","address":null,"covered":false,"access":null,"website":null,"phone":null,"source":"OpenStreetMap/node/11355783539","sourceUpdatedAt":null,"verifiedAt":null}},{"type":"Feature","geometry":{"type":"Point","coordinates":[8.026441,52.2821265]},"properties":{"id":"bikerack:06aa0dc6-9c97-4052-affc-731c04563a22","kind":"bikerack","longitude":8.026441,"latitude":52.2821265,"name":"Fahrradabstellplatz","city":"Osnabrueck","address":null,"covered":false,"access":null,"website":null,"phone":null,"source":"OpenStreetMap/node/13057994361","sourceUpdatedAt":null,"verifiedAt":null}},{"type":"Feature","geometry":{"type":"Point","coordinates":[8.0407445,52.2776606]},"properties":{"id":"bikerack:0aebef48-718e-4729-9e99-7cad8e06b662","kind":"bikerack","longitude":8.0407445,"latitude":52.2776606,"name":"Fahrradabstellplatz","city":"Osnabrueck","address":null,"covered":false,"access":null,"website":null,"phone":null,"source":"OpenStreetMap/node/11013765945","sourceUpdatedAt":null,"verifiedAt":null}},{"type":"Feature","geometry":{"type":"Point","coordinates":[8.0231327,52.2827317]},"properties":{"id":"bikerack:0d161daa-8365-4256-a287-4ffef5b968d2","kind":"bikerack","longitude":8.0231327,"latitude":52.2827317,"name":"Fahrradabstellplatz","city":"Osnabrueck","address":null,"covered":false,"access":null,"website":null,"phone":null,"source":"OpenStreetMap/way/62214743","sourceUpdatedAt":null,"verifiedAt":null}},{"type":"Feature","geometry":{"type":"Point","coordinates":[8.0238066,52.2861475]},"properties":{"id":"bikerack:0e50acf1-ad35-49c8-b4a9-41b00249ceb8","kind":"bikerack","longitude":8.0238066,"latitude":52.2861475,"name":"Fahrradabstellplatz","city":"Osnabrueck","address":null,"covered":true,"access":null,"website":null,"phone":null,"source":"OpenStreetMap/node/12961220708","sourceUpdatedAt":null,"verifiedAt":null}},{"type":"Feature","geometry":{"type":"Point","coordinates":[8.0232328,52.2849449]},"properties":{"id":"bikerack:13a7e672-5bb7-4e11-9b68-66795581b8cb","kind":"bikerack","longitude":8.0232328,"latitude":52.2849449,"name":"Fahrradabstellplatz","city":"Osnabrueck","address":null,"covered":false,"access":null,"website":null,"phone":null,"source":"OpenStreetMap/way/930326190","sourceUpdatedAt":null,"verifiedAt":null}},{"type":"Feature","geometry":{"type":"Point","coordinates":[8.0204049,52.2732747]},"properties":{"id":"bikerack:13d628c1-49dd-45b9-b2a8-93c2918335c4","kind":"bikerack","longitude":8.0204049,"latitude":52.2732747,"name":"Fahrradabstellplatz","city":"Osnabrueck","address":null,"covered":false,"access":null,"website":null,"phone":null,"source":"OpenStreetMap/node/12868970254","sourceUpdatedAt":null,"verifiedAt":null}},{"type":"Feature","geometry":{"type":"Point","coordinates":[8.037303,52.2728188]},"properties":{"id":"bikerack:15d6abc7-56b9-49d7-a1eb-021c6ab2ad0c","kind":"bikerack","longitude":8.037303,"latitude":52.2728188,"name":"Fahrradabstellplatz","city":"Osnabrueck","address":null,"covered":false,"access":null,"website":null,"phone":null,"source":"OpenStreetMap/node/12472727991","sourceUpdatedAt":null,"verifiedAt":null}},{"type":"Feature","geometry":{"type":"Point","coordinates":[8.0251466,52.2828757]},"properties":{"id":"bikerack:162554eb-b10b-4e0f-8ec1-f122edcac1c0","kind":"bikerack","longitude":8.0251466,"latitude":52.2828757,"name":"Fahrradabstellplatz","city":"Osnabrueck","address":null,"covered":true,"access":null,"website":null,"phone":null,"source":"OpenStreetMap/way/62214742","sourceUpdatedAt":null,"verifiedAt":null}},{"type":"Feature","geometry":{"type":"Point","coordinates":[8.0207128,52.2833249]},"properties":{"id":"bikerack:1643c8f1-697a-417e-8a50-d7d14068005b","kind":"bikerack","longitude":8.0207128,"latitude":52.2833249,"name":"Fahrradabstellplatz","city":"Osnabrueck","address":null,"covered":false,"access":null,"website":null,"phone":null,"source":"OpenStreetMap/node/12852505973","sourceUpdatedAt":null,"verifiedAt":null}},{"type":"Feature","geometry":{"type":"Point","coordinates":[8.0411631,52.2695047]},"properties":{"id":"bikerack:17a29ecb-5a90-4ae3-9525-693f9db91923","kind":"bikerack","longitude":8.0411631,"latitude":52.2695047,"name":"Fahrradabstellplatz","city":"Osnabrueck","address":null,"covered":false,"access":null,"website":null,"phone":null,"source":"OpenStreetMap/node/13011633662","sourceUpdatedAt":null,"verifiedAt":null}},{"type":"Feature","geometry":{"type":"Point","coordinates":[8.0235107,52.2777077]},"properties":{"id":"bikerack:1de67eb6-ae2d-4990-b033-fc82417cd04c","kind":"bikerack","longitude":8.0235107,"latitude":52.2777077,"name":"Fahrradabstellplatz","city":"Osnabrueck","address":null,"covered":false,"access":null,"website":null,"phone":null,"source":"OpenStreetMap/node/12849322919","sourceUpdatedAt":null,"verifiedAt":null}},{"type":"Feature","geometry":{"type":"Point","coordinates":[8.0367485,52.2712169]},"properties":{"id":"bikerack:1e80dfd5-559d-4d56-af86-22a2a2cb884c","kind":"bikerack","longitude":8.0367485,"latitude":52.2712169,"name":"Fahrradabstellplatz","city":"Osnabrueck","address":null,"covered":false,"access":null,"website":null,"phone":null,"source":"OpenStreetMap/node/13193084174","sourceUpdatedAt":null,"verifiedAt":null}},{"type":"Feature","geometry":{"type":"Point","coordinates":[8.0228211,52.2846317]},"properties":{"id":"bikerack:2068a269-e48d-483f-a0c3-27dc71759386","kind":"bikerack","longitude":8.0228211,"latitude":52.2846317,"name":"Fahrradabstellplatz","city":"Osnabrueck","address":null,"covered":false,"access":null,"website":null,"phone":null,"source":"OpenStreetMap/way/930326195","sourceUpdatedAt":null,"verifiedAt":null}},{"type":"Feature","geometry":{"type":"Point","coordinates":[8.0384174,52.2729068]},"properties":{"id":"bikerack:21f4f815-56e1-4403-ba1b-a4f11e75dd6c","kind":"bikerack","longitude":8.0384174,"latitude":52.2729068,"name":"Fahrradabstellplatz","city":"Osnabrueck","address":null,"covered":false,"access":null,"website":null,"phone":null,"source":"OpenStreetMap/node/12472724517","sourceUpdatedAt":null,"verifiedAt":null}},{"type":"Feature","geometry":{"type":"Point","coordinates":[8.0374783,52.270583]},"properties":{"id":"bikerack:28f8654d-7634-4414-b477-fa9ddffe2934","kind":"bikerack","longitude":8.0374783,"latitude":52.270583,"name":"Fahrradabstellplatz","city":"Osnabrueck","address":null,"covered":false,"access":null,"website":null,"phone":null,"source":"OpenStreetMap/node/12809530203","sourceUpdatedAt":null,"verifiedAt":null}},{"type":"Feature","geometry":{"type":"Point","coordinates":[8.0372995,52.2782317]},"properties":{"id":"bikerack:2a94ad88-85b8-458c-9734-b957c36253a2","kind":"bikerack","longitude":8.0372995,"latitude":52.2782317,"name":"Fahrradparkplatz Stadthaus","city":"Osnabrueck","address":null,"covered":false,"access":null,"website":null,"phone":null,"source":"OpenStreetMap/node/1671929050","sourceUpdatedAt":null,"verifiedAt":null}},{"type":"Feature","geometry":{"type":"Point","coordinates":[8.0400444,52.2726875]},"properties":{"id":"bikerack:2cc22584-1e74-4f56-9789-0a61dff57b0f","kind":"bikerack","longitude":8.0400444,"latitude":52.2726875,"name":"Fahrradabstellplatz","city":"Osnabrueck","address":null,"covered":false,"access":null,"website":null,"phone":null,"source":"OpenStreetMap/node/12926370333","sourceUpdatedAt":null,"verifiedAt":null}},{"type":"Feature","geometry":{"type":"Point","coordinates":[8.026294,52.284185]},"properties":{"id":"bikerack:2dac4fc9-50ff-4c6a-a08c-e14c3394cbe0","kind":"bikerack","longitude":8.026294,"latitude":52.284185,"name":"Fahrradabstellplatz","city":"Osnabrueck","address":null,"covered":false,"access":null,"website":null,"phone":null,"source":"OpenStreetMap/node/12961252016","sourceUpdatedAt":null,"verifiedAt":null}},{"type":"Feature","geometry":{"type":"Point","coordinates":[8.0375045,52.2703415]},"properties":{"id":"bikerack:2dfdd3d0-9ddc-468e-b382-1e55c59ad093","kind":"bikerack","longitude":8.0375045,"latitude":52.2703415,"name":"Fahrradabstellplatz","city":"Osnabrueck","address":null,"covered":false,"access":null,"website":null,"phone":null,"source":"OpenStreetMap/node/12809521357","sourceUpdatedAt":null,"verifiedAt":null}},{"type":"Feature","geometry":{"type":"Point","coordinates":[8.0379172,52.2719519]},"properties":{"id":"bikerack:2e926274-1280-42e4-9843-3114fc2d9c61","kind":"bikerack","longitude":8.0379172,"latitude":52.2719519,"name":"Fahrradabstellplatz","city":"Osnabrueck","address":null,"covered":false,"access":null,"website":null,"phone":null,"source":"OpenStreetMap/node/12909179844","sourceUpdatedAt":null,"verifiedAt":null}},{"type":"Feature","geometry":{"type":"Point","coordinates":[8.0213684,52.2759171]},"properties":{"id":"bikerack:2ef973fd-0fd9-4bae-b4ea-303375392e22","kind":"bikerack","longitude":8.0213684,"latitude":52.2759171,"name":"Fahrradabstellplatz","city":"Osnabrueck","address":null,"covered":false,"access":null,"website":null,"phone":null,"source":"OpenStreetMap/node/12863141864","sourceUpdatedAt":null,"verifiedAt":null}},{"type":"Feature","geometry":{"type":"Point","coordinates":[8.0233,52.2834359]},"properties":{"id":"bikerack:2ff697a7-d061-4614-8956-c37f01e5deef","kind":"bikerack","longitude":8.0233,"latitude":52.2834359,"name":"Fahrradabstellplatz","city":"Osnabrueck","address":null,"covered":true,"access":null,"website":null,"phone":null,"source":"OpenStreetMap/way/1008664394","sourceUpdatedAt":null,"verifiedAt":null}},{"type":"Feature","geometry":{"type":"Point","coordinates":[8.0409011,52.2774393]},"properties":{"id":"bikerack:31e71e2a-06ba-4016-b9bc-d7ca7ab1374c","kind":"bikerack","longitude":8.0409011,"latitude":52.2774393,"name":"Fahrradabstellplatz","city":"Osnabrueck","address":null,"covered":false,"access":null,"website":null,"phone":null,"source":"OpenStreetMap/node/1634227091","sourceUpdatedAt":null,"verifiedAt":null}},{"type":"Feature","geometry":{"type":"Point","coordinates":[8.0283057,52.2732092]},"properties":{"id":"bikerack:37dc1eb9-8665-4b5c-8055-771e06f1cd7d","kind":"bikerack","longitude":8.0283057,"latitude":52.2732092,"name":"Fahrradabstellplatz","city":"Osnabrueck","address":null,"covered":false,"access":null,"website":null,"phone":null,"source":"OpenStreetMap/node/12472435911","sourceUpdatedAt":null,"verifiedAt":null}},{"type":"Feature","geometry":{"type":"Point","coordinates":[8.0228684,52.2847525]},"properties":{"id":"bikerack:39ec756f-7e14-4215-8906-3e4a46a1719e","kind":"bikerack","longitude":8.0228684,"latitude":52.2847525,"name":"Fahrradabstellplatz","city":"Osnabrueck","address":null,"covered":false,"access":null,"website":null,"phone":null,"source":"OpenStreetMap/way/930326194","sourceUpdatedAt":null,"verifiedAt":null}},{"type":"Feature","geometry":{"type":"Point","coordinates":[8.037356,52.277798]},"properties":{"id":"bikerack:39f9b7fe-bdae-46f5-b567-007c7e115f23","kind":"bikerack","longitude":8.037356,"latitude":52.277798,"name":"Fahrradparkplatz Stadthaus","city":"Osnabrueck","address":null,"covered":false,"access":null,"website":null,"phone":null,"source":"OpenStreetMap/node/1671929048","sourceUpdatedAt":null,"verifiedAt":null}},{"type":"Feature","geometry":{"type":"Point","coordinates":[8.0417241,52.2759146]},"properties":{"id":"bikerack:3e36e395-44a2-49e0-b617-707505a75aa5","kind":"bikerack","longitude":8.0417241,"latitude":52.2759146,"name":"Fahrradabstellplatz","city":"Osnabrueck","address":null,"covered":false,"access":null,"website":null,"phone":null,"source":"OpenStreetMap/node/13200463851","sourceUpdatedAt":null,"verifiedAt":null}},{"type":"Feature","geometry":{"type":"Point","coordinates":[8.0230138,52.2851685]},"properties":{"id":"bikerack:401d30d5-9058-446d-a873-8da9c1352147","kind":"bikerack","longitude":8.0230138,"latitude":52.2851685,"name":"Fahrradabstellplatz","city":"Osnabrueck","address":null,"covered":false,"access":null,"website":null,"phone":null,"source":"OpenStreetMap/way/930326191","sourceUpdatedAt":null,"verifiedAt":null}},{"type":"Feature","geometry":{"type":"Point","coordinates":[8.0268827,52.2772807]},"properties":{"id":"bikerack:44f74d64-9e27-4ac3-ae41-29e304adfff3","kind":"bikerack","longitude":8.0268827,"latitude":52.2772807,"name":"Fahrradabstellplatz","city":"Osnabrueck","address":null,"covered":false,"access":null,"website":null,"phone":null,"source":"OpenStreetMap/node/12851356331","sourceUpdatedAt":null,"verifiedAt":null}},{"type":"Feature","geometry":{"type":"Point","coordinates":[8.0223319,52.2863616]},"properties":{"id":"bikerack:4ffd035e-1103-458a-b1e0-598b5af13aa7","kind":"bikerack","longitude":8.0223319,"latitude":52.2863616,"name":"Fahrradabstellplatz","city":"Osnabrueck","address":null,"covered":false,"access":null,"website":null,"phone":null,"source":"OpenStreetMap/node/12961219477","sourceUpdatedAt":null,"verifiedAt":null}},{"type":"Feature","geometry":{"type":"Point","coordinates":[8.0284998,52.2748027]},"properties":{"id":"bikerack:546e3ea3-4a9f-49ce-8ac6-2835202afc42","kind":"bikerack","longitude":8.0284998,"latitude":52.2748027,"name":"Fahrradabstellplatz","city":"Osnabrueck","address":null,"covered":false,"access":null,"website":null,"phone":null,"source":"OpenStreetMap/node/12858735765","sourceUpdatedAt":null,"verifiedAt":null}},{"type":"Feature","geometry":{"type":"Point","coordinates":[8.0219181,52.2859219]},"properties":{"id":"bikerack:54d47df9-3eca-4b06-94fb-fc84b09b4c48","kind":"bikerack","longitude":8.0219181,"latitude":52.2859219,"name":"Fahrradabstellplatz","city":"Osnabrueck","address":null,"covered":false,"access":null,"website":null,"phone":null,"source":"OpenStreetMap/node/12961196199","sourceUpdatedAt":null,"verifiedAt":null}},{"type":"Feature","geometry":{"type":"Point","coordinates":[8.0234135,52.2775669]},"properties":{"id":"bikerack:551c32a3-02c8-41da-ad4c-535f04d75352","kind":"bikerack","longitude":8.0234135,"latitude":52.2775669,"name":"Fahrradabstellplatz","city":"Osnabrueck","address":null,"covered":false,"access":null,"website":null,"phone":null,"source":"OpenStreetMap/node/12849324848","sourceUpdatedAt":null,"verifiedAt":null}},{"type":"Feature","geometry":{"type":"Point","coordinates":[8.0378096,52.2727371]},"properties":{"id":"bikerack:5541d7d6-1a5c-4de0-82e4-1f0639e87c81","kind":"bikerack","longitude":8.0378096,"latitude":52.2727371,"name":"Fahrradabstellplatz","city":"Osnabrueck","address":null,"covered":false,"access":null,"website":null,"phone":null,"source":"OpenStreetMap/node/12472728019","sourceUpdatedAt":null,"verifiedAt":null}},{"type":"Feature","geometry":{"type":"Point","coordinates":[8.0112103,52.2712674]},"properties":{"id":"bikerack:5595f3f3-c143-4bcc-8280-5220d5fdd9be","kind":"bikerack","longitude":8.0112103,"latitude":52.2712674,"name":"Fahrradabstellplatz","city":"Osnabrueck","address":null,"covered":false,"access":null,"website":null,"phone":null,"source":"OpenStreetMap/node/13288964990","sourceUpdatedAt":null,"verifiedAt":null}},{"type":"Feature","geometry":{"type":"Point","coordinates":[8.0387016,52.2785105]},"properties":{"id":"bikerack:59d2ebb1-b61f-4717-9c48-72492c8e2c55","kind":"bikerack","longitude":8.0387016,"latitude":52.2785105,"name":"Fahrradabstellplatz","city":"Osnabrueck","address":null,"covered":false,"access":null,"website":null,"phone":null,"source":"OpenStreetMap/node/13719590615","sourceUpdatedAt":null,"verifiedAt":null}},{"type":"Feature","geometry":{"type":"Point","coordinates":[8.0216908,52.2925105]},"properties":{"id":"bikerack:5a905aa6-224f-4414-94d2-9ff1d9cbb2bf","kind":"bikerack","longitude":8.0216908,"latitude":52.2925105,"name":"Fahrradabstellplatz","city":"Osnabrueck","address":null,"covered":false,"access":null,"website":null,"phone":null,"source":"OpenStreetMap/node/12961380575","sourceUpdatedAt":null,"verifiedAt":null}},{"type":"Feature","geometry":{"type":"Point","coordinates":[8.0236828,52.2857219]},"properties":{"id":"bikerack:5c1d04f6-a661-4cca-8dc1-7ea234de1e1d","kind":"bikerack","longitude":8.0236828,"latitude":52.2857219,"name":"Fahrradabstellplatz","city":"Osnabrueck","address":null,"covered":false,"access":null,"website":null,"phone":null,"source":"OpenStreetMap/node/12961220564","sourceUpdatedAt":null,"verifiedAt":null}},{"type":"Feature","geometry":{"type":"Point","coordinates":[8.0232936,52.2840317]},"properties":{"id":"bikerack:5d73d203-663c-4ed8-a330-8ca9c52597e8","kind":"bikerack","longitude":8.0232936,"latitude":52.2840317,"name":"Fahrradabstellplatz","city":"Osnabrueck","address":null,"covered":false,"access":null,"website":null,"phone":null,"source":"OpenStreetMap/way/95069412","sourceUpdatedAt":null,"verifiedAt":null}},{"type":"Feature","geometry":{"type":"Point","coordinates":[8.0112675,52.2712992]},"properties":{"id":"bikerack:5f2d6855-23b4-4172-8019-682b2929de89","kind":"bikerack","longitude":8.0112675,"latitude":52.2712992,"name":"Fahrradabstellplatz","city":"Osnabrueck","address":null,"covered":false,"access":null,"website":null,"phone":null,"source":"OpenStreetMap/node/13288964989","sourceUpdatedAt":null,"verifiedAt":null}},{"type":"Feature","geometry":{"type":"Point","coordinates":[8.0202286,52.2849988]},"properties":{"id":"bikerack:5f9dba01-e1a8-49dc-84e0-713dd8ef36ff","kind":"bikerack","longitude":8.0202286,"latitude":52.2849988,"name":"Fahrradabstellplatz","city":"Osnabrueck","address":null,"covered":false,"access":null,"website":null,"phone":null,"source":"OpenStreetMap/node/3638784894","sourceUpdatedAt":null,"verifiedAt":null}},{"type":"Feature","geometry":{"type":"Point","coordinates":[8.0262827,52.2843]},"properties":{"id":"bikerack:613e17f8-06f3-4d87-8f09-52dede026e6b","kind":"bikerack","longitude":8.0262827,"latitude":52.2843,"name":"Fahrradabstellplatz","city":"Osnabrueck","address":null,"covered":false,"access":null,"website":null,"phone":null,"source":"OpenStreetMap/node/12961245048","sourceUpdatedAt":null,"verifiedAt":null}},{"type":"Feature","geometry":{"type":"Point","coordinates":[8.0395819,52.2924589]},"properties":{"id":"bikerack:64df645e-8511-4155-8a3f-573ba3f8f5f5","kind":"bikerack","longitude":8.0395819,"latitude":52.2924589,"name":"Fahrradabstellplatz","city":"Osnabrueck","address":null,"covered":false,"access":null,"website":null,"phone":null,"source":"OpenStreetMap/way/760744889","sourceUpdatedAt":null,"verifiedAt":null}},{"type":"Feature","geometry":{"type":"Point","coordinates":[8.0373249,52.2763197]},"properties":{"id":"bikerack:65dd909a-2d1a-489e-bff6-725c5257f0f1","kind":"bikerack","longitude":8.0373249,"latitude":52.2763197,"name":"Fahrradabstellplatz","city":"Osnabrueck","address":null,"covered":false,"access":null,"website":null,"phone":null,"source":"OpenStreetMap/node/11581941248","sourceUpdatedAt":null,"verifiedAt":null}},{"type":"Feature","geometry":{"type":"Point","coordinates":[8.0263157,52.2821322]},"properties":{"id":"bikerack:6769d319-3ebe-41aa-aced-ec5dca65b8bf","kind":"bikerack","longitude":8.0263157,"latitude":52.2821322,"name":"Fahrradabstellplatz","city":"Osnabrueck","address":null,"covered":false,"access":null,"website":null,"phone":null,"source":"OpenStreetMap/node/13057991020","sourceUpdatedAt":null,"verifiedAt":null}},{"type":"Feature","geometry":{"type":"Point","coordinates":[8.0399315,52.2748069]},"properties":{"id":"bikerack:69f70e9d-29ce-42c7-af86-5888f107b287","kind":"bikerack","longitude":8.0399315,"latitude":52.2748069,"name":"Fahrradabstellplatz","city":"Osnabrueck","address":null,"covered":false,"access":null,"website":null,"phone":null,"source":"OpenStreetMap/node/12472734086","sourceUpdatedAt":null,"verifiedAt":null}},{"type":"Feature","geometry":{"type":"Point","coordinates":[8.0376919,52.2705452]},"properties":{"id":"bikerack:6b27c76d-8a07-4bd6-958d-360d94d23d99","kind":"bikerack","longitude":8.0376919,"latitude":52.2705452,"name":"Fahrradabstellplatz","city":"Osnabrueck","address":null,"covered":false,"access":null,"website":null,"phone":null,"source":"OpenStreetMap/node/12809531200","sourceUpdatedAt":null,"verifiedAt":null}},{"type":"Feature","geometry":{"type":"Point","coordinates":[8.0273637,52.2708796]},"properties":{"id":"bikerack:6d8feb9a-23ef-40a3-9535-da9ccef452bc","kind":"bikerack","longitude":8.0273637,"latitude":52.2708796,"name":"Fahrradabstellplatz","city":"Osnabrueck","address":null,"covered":false,"access":null,"website":null,"phone":null,"source":"OpenStreetMap/node/9879779648","sourceUpdatedAt":null,"verifiedAt":null}},{"type":"Feature","geometry":{"type":"Point","coordinates":[8.0375508,52.2703378]},"properties":{"id":"bikerack:71f31eff-2872-4e48-b2fa-135f8a30947e","kind":"bikerack","longitude":8.0375508,"latitude":52.2703378,"name":"Fahrradabstellplatz","city":"Osnabrueck","address":null,"covered":false,"access":null,"website":null,"phone":null,"source":"OpenStreetMap/node/12809548231","sourceUpdatedAt":null,"verifiedAt":null}},{"type":"Feature","geometry":{"type":"Point","coordinates":[8.0255319,52.2778303]},"properties":{"id":"bikerack:793098ea-0e9e-4e98-861f-53c49bfb8f27","kind":"bikerack","longitude":8.0255319,"latitude":52.2778303,"name":"Fahrradabstellplatz","city":"Osnabrueck","address":null,"covered":false,"access":null,"website":null,"phone":null,"source":"OpenStreetMap/node/12851344286","sourceUpdatedAt":null,"verifiedAt":null}},{"type":"Feature","geometry":{"type":"Point","coordinates":[8.0265181,52.275237]},"properties":{"id":"bikerack:7a26d55c-b11b-44dc-a95a-5cffe5d9be2f","kind":"bikerack","longitude":8.0265181,"latitude":52.275237,"name":"Fahrradabstellplatz","city":"Osnabrueck","address":null,"covered":false,"access":null,"website":null,"phone":null,"source":"OpenStreetMap/node/12858794337","sourceUpdatedAt":null,"verifiedAt":null}},{"type":"Feature","geometry":{"type":"Point","coordinates":[8.041688,52.2697017]},"properties":{"id":"bikerack:7abc5eae-02e9-4940-be9b-5b80eeaefbd1","kind":"bikerack","longitude":8.041688,"latitude":52.2697017,"name":"Fahrradabstellplatz","city":"Osnabrueck","address":null,"covered":false,"access":null,"website":null,"phone":null,"source":"OpenStreetMap/node/13011642365","sourceUpdatedAt":null,"verifiedAt":null}},{"type":"Feature","geometry":{"type":"Point","coordinates":[8.0251512,52.277797]},"properties":{"id":"bikerack:7b0971e3-ceab-4a9d-a36c-2759a1df6b94","kind":"bikerack","longitude":8.0251512,"latitude":52.277797,"name":"Fahrradabstellplatz","city":"Osnabrueck","address":null,"covered":false,"access":null,"website":null,"phone":null,"source":"OpenStreetMap/node/12849714840","sourceUpdatedAt":null,"verifiedAt":null}},{"type":"Feature","geometry":{"type":"Point","coordinates":[8.0223048,52.2846845]},"properties":{"id":"bikerack:7b0e42a4-6b2f-40d0-b8a1-b077d765d081","kind":"bikerack","longitude":8.0223048,"latitude":52.2846845,"name":"Fahrradabstellplatz","city":"Osnabrueck","address":null,"covered":false,"access":null,"website":null,"phone":null,"source":"OpenStreetMap/way/288915377","sourceUpdatedAt":null,"verifiedAt":null}},{"type":"Feature","geometry":{"type":"Point","coordinates":[8.0315553,52.2684255]},"properties":{"id":"bikerack:80e6aebd-7fe8-4cab-80f6-d787c3278534","kind":"bikerack","longitude":8.0315553,"latitude":52.2684255,"name":"Fahrradabstellplatz","city":"Osnabrueck","address":null,"covered":false,"access":null,"website":null,"phone":null,"source":"OpenStreetMap/node/7391719338","sourceUpdatedAt":null,"verifiedAt":null}},{"type":"Feature","geometry":{"type":"Point","coordinates":[8.0266732,52.2778472]},"properties":{"id":"bikerack:813ccc56-e921-4a43-bcc1-d99d05ddda88","kind":"bikerack","longitude":8.0266732,"latitude":52.2778472,"name":"Fahrradabstellplatz","city":"Osnabrueck","address":null,"covered":false,"access":null,"website":null,"phone":null,"source":"OpenStreetMap/node/12851335589","sourceUpdatedAt":null,"verifiedAt":null}},{"type":"Feature","geometry":{"type":"Point","coordinates":[8.0228681,52.2827436]},"properties":{"id":"bikerack:816990ef-85b4-4495-8957-f60d18fec9df","kind":"bikerack","longitude":8.0228681,"latitude":52.2827436,"name":"Fahrradabstellplatz","city":"Osnabrueck","address":null,"covered":false,"access":null,"website":null,"phone":null,"source":"OpenStreetMap/node/1714837820","sourceUpdatedAt":null,"verifiedAt":null}},{"type":"Feature","geometry":{"type":"Point","coordinates":[8.028645,52.2726356]},"properties":{"id":"bikerack:83c07cbf-d596-4cf0-8afa-b01d6dc378c1","kind":"bikerack","longitude":8.028645,"latitude":52.2726356,"name":"Fahrradabstellplatz","city":"Osnabrueck","address":null,"covered":false,"access":null,"website":null,"phone":null,"source":"OpenStreetMap/node/12865177777","sourceUpdatedAt":null,"verifiedAt":null}},{"type":"Feature","geometry":{"type":"Point","coordinates":[8.0113374,52.2712864]},"properties":{"id":"bikerack:84ca3b7f-fb3f-4ed5-860a-8f5d2db39e16","kind":"bikerack","longitude":8.0113374,"latitude":52.2712864,"name":"Fahrradabstellplatz","city":"Osnabrueck","address":null,"covered":false,"access":null,"website":null,"phone":null,"source":"OpenStreetMap/node/13288964991","sourceUpdatedAt":null,"verifiedAt":null}},{"type":"Feature","geometry":{"type":"Point","coordinates":[8.0246222,52.2743728]},"properties":{"id":"bikerack:851a1a6a-0077-4152-946c-618ede26be45","kind":"bikerack","longitude":8.0246222,"latitude":52.2743728,"name":"Fahrradabstellplatz","city":"Osnabrueck","address":null,"covered":false,"access":null,"website":null,"phone":null,"source":"OpenStreetMap/node/12851375154","sourceUpdatedAt":null,"verifiedAt":null}},{"type":"Feature","geometry":{"type":"Point","coordinates":[8.0400124,52.2793107]},"properties":{"id":"bikerack:868f0eeb-cc12-4489-b583-88a8e0c55264","kind":"bikerack","longitude":8.0400124,"latitude":52.2793107,"name":"Fahrradabstellplatz","city":"Osnabrueck","address":null,"covered":false,"access":null,"website":null,"phone":null,"source":"OpenStreetMap/node/9854097563","sourceUpdatedAt":null,"verifiedAt":null}},{"type":"Feature","geometry":{"type":"Point","coordinates":[8.0171789,52.2884566]},"properties":{"id":"bikerack:86a32652-48f3-4e79-8359-189d1a1f964d","kind":"bikerack","longitude":8.0171789,"latitude":52.2884566,"name":"Fahrradabstellplatz","city":"Osnabrueck","address":null,"covered":true,"access":null,"website":null,"phone":null,"source":"OpenStreetMap/way/1139656583","sourceUpdatedAt":null,"verifiedAt":null}},{"type":"Feature","geometry":{"type":"Point","coordinates":[8.0409696,52.2773553]},"properties":{"id":"bikerack:86b168c2-0c3b-4b6e-a9f6-d6b1bb4ddbb4","kind":"bikerack","longitude":8.0409696,"latitude":52.2773553,"name":"Fahrradabstellplatz","city":"Osnabrueck","address":null,"covered":false,"access":null,"website":null,"phone":null,"source":"OpenStreetMap/node/1634227090","sourceUpdatedAt":null,"verifiedAt":null}},{"type":"Feature","geometry":{"type":"Point","coordinates":[8.0375047,52.2759229]},"properties":{"id":"bikerack:8aac6af3-0098-4bfc-844a-dcf4f59a5950","kind":"bikerack","longitude":8.0375047,"latitude":52.2759229,"name":"Fahrradabstellplatz","city":"Osnabrueck","address":null,"covered":false,"access":null,"website":null,"phone":null,"source":"OpenStreetMap/node/8835664492","sourceUpdatedAt":null,"verifiedAt":null}},{"type":"Feature","geometry":{"type":"Point","coordinates":[8.0234763,52.2691309]},"properties":{"id":"bikerack:8df67bb8-676e-4c23-b0de-a6ea94de2ba1","kind":"bikerack","longitude":8.0234763,"latitude":52.2691309,"name":"Fahrradabstellplatz","city":"Osnabrueck","address":null,"covered":false,"access":null,"website":null,"phone":null,"source":"OpenStreetMap/node/12453246430","sourceUpdatedAt":null,"verifiedAt":null}},{"type":"Feature","geometry":{"type":"Point","coordinates":[8.0372544,52.2693975]},"properties":{"id":"bikerack:8e0c31b6-aef4-4ac3-a50e-151628cc7d1b","kind":"bikerack","longitude":8.0372544,"latitude":52.2693975,"name":"Fahrradabstellplatz","city":"Osnabrueck","address":null,"covered":false,"access":null,"website":null,"phone":null,"source":"OpenStreetMap/node/13673972246","sourceUpdatedAt":null,"verifiedAt":null}},{"type":"Feature","geometry":{"type":"Point","coordinates":[8.0326483,52.2682521]},"properties":{"id":"bikerack:92c5bd0d-1e96-4683-952f-be298746ea76","kind":"bikerack","longitude":8.0326483,"latitude":52.2682521,"name":"Fahrradabstellplatz","city":"Osnabrueck","address":null,"covered":false,"access":null,"website":null,"phone":null,"source":"OpenStreetMap/node/13312288887","sourceUpdatedAt":null,"verifiedAt":null}},{"type":"Feature","geometry":{"type":"Point","coordinates":[8.0387295,52.2786404]},"properties":{"id":"bikerack:92ee32e2-9ec9-4ff2-84b9-a2aa38fb2e67","kind":"bikerack","longitude":8.0387295,"latitude":52.2786404,"name":"Fahrradabstellplatz","city":"Osnabrueck","address":null,"covered":false,"access":null,"website":null,"phone":null,"source":"OpenStreetMap/node/13719590616","sourceUpdatedAt":null,"verifiedAt":null}},{"type":"Feature","geometry":{"type":"Point","coordinates":[8.040649,52.277787]},"properties":{"id":"bikerack:93ce9c2d-c69b-4079-893a-7a3d3b519fe1","kind":"bikerack","longitude":8.040649,"latitude":52.277787,"name":"Fahrradabstellplatz","city":"Osnabrueck","address":null,"covered":false,"access":null,"website":null,"phone":null,"source":"OpenStreetMap/node/1634227093","sourceUpdatedAt":null,"verifiedAt":null}},{"type":"Feature","geometry":{"type":"Point","coordinates":[8.0226481,52.2852056]},"properties":{"id":"bikerack:93d0daa3-21c8-402f-8b1c-dccb737ec68b","kind":"bikerack","longitude":8.0226481,"latitude":52.2852056,"name":"Fahrradabstellplatz","city":"Osnabrueck","address":null,"covered":false,"access":null,"website":null,"phone":null,"source":"OpenStreetMap/way/930326193","sourceUpdatedAt":null,"verifiedAt":null}},{"type":"Feature","geometry":{"type":"Point","coordinates":[8.021478,52.2849144]},"properties":{"id":"bikerack:994b65f3-743f-4809-9c65-1176d89a3e31","kind":"bikerack","longitude":8.021478,"latitude":52.2849144,"name":"Fahrradabstellplatz","city":"Osnabrueck","address":null,"covered":false,"access":null,"website":null,"phone":null,"source":"OpenStreetMap/node/12852541088","sourceUpdatedAt":null,"verifiedAt":null}},{"type":"Feature","geometry":{"type":"Point","coordinates":[8.0265032,52.2821396]},"properties":{"id":"bikerack:99e3f5ac-19f3-4db4-a8db-4043f741c133","kind":"bikerack","longitude":8.0265032,"latitude":52.2821396,"name":"Fahrradabstellplatz","city":"Osnabrueck","address":null,"covered":true,"access":null,"website":null,"phone":null,"source":"OpenStreetMap/node/13009377616","sourceUpdatedAt":null,"verifiedAt":null}},{"type":"Feature","geometry":{"type":"Point","coordinates":[8.0362255,52.2708174]},"properties":{"id":"bikerack:9d1e21ad-d40d-4bdd-be77-4157325d9fcc","kind":"bikerack","longitude":8.0362255,"latitude":52.2708174,"name":"Fahrradabstellplatz","city":"Osnabrueck","address":null,"covered":false,"access":null,"website":null,"phone":null,"source":"OpenStreetMap/node/13193084218","sourceUpdatedAt":null,"verifiedAt":null}},{"type":"Feature","geometry":{"type":"Point","coordinates":[8.0418463,52.2730968]},"properties":{"id":"bikerack:a1ac04f5-ff20-4c53-ac5f-038aa7308cc5","kind":"bikerack","longitude":8.0418463,"latitude":52.2730968,"name":"Fahrradabstellplatz","city":"Osnabrueck","address":null,"covered":false,"access":null,"website":null,"phone":null,"source":"OpenStreetMap/node/13127877801","sourceUpdatedAt":null,"verifiedAt":null}},{"type":"Feature","geometry":{"type":"Point","coordinates":[8.0252935,52.2839917]},"properties":{"id":"bikerack:a24f85d9-fe1e-4c53-acc9-6029de80fcc7","kind":"bikerack","longitude":8.0252935,"latitude":52.2839917,"name":"Fahrradabstellplatz","city":"Osnabrueck","address":null,"covered":true,"access":null,"website":null,"phone":null,"source":"OpenStreetMap/node/12961241845","sourceUpdatedAt":null,"verifiedAt":null}},{"type":"Feature","geometry":{"type":"Point","coordinates":[8.0249535,52.2731947]},"properties":{"id":"bikerack:a2fdfa8f-c314-4be4-8f4c-65bd022045e1","kind":"bikerack","longitude":8.0249535,"latitude":52.2731947,"name":"Fahrradabstellplatz","city":"Osnabrueck","address":null,"covered":false,"access":null,"website":null,"phone":null,"source":"OpenStreetMap/node/12471942190","sourceUpdatedAt":null,"verifiedAt":null}},{"type":"Feature","geometry":{"type":"Point","coordinates":[8.0398756,52.2784729]},"properties":{"id":"bikerack:a31ae822-78f3-4b78-a8e0-1d1690af28e1","kind":"bikerack","longitude":8.0398756,"latitude":52.2784729,"name":"Fahrradabstellplatz","city":"Osnabrueck","address":null,"covered":false,"access":null,"website":null,"phone":null,"source":"OpenStreetMap/node/11013763386","sourceUpdatedAt":null,"verifiedAt":null}},{"type":"Feature","geometry":{"type":"Point","coordinates":[8.0262386,52.2778331]},"properties":{"id":"bikerack:a47d6df5-1f83-4050-ba7d-3db8ddfe36ca","kind":"bikerack","longitude":8.0262386,"latitude":52.2778331,"name":"Fahrradabstellplatz","city":"Osnabrueck","address":null,"covered":false,"access":null,"website":null,"phone":null,"source":"OpenStreetMap/node/12851304928","sourceUpdatedAt":null,"verifiedAt":null}},{"type":"Feature","geometry":{"type":"Point","coordinates":[8.0400196,52.2728366]},"properties":{"id":"bikerack:a4fc5810-3ee5-412d-831f-99cdfd26d08d","kind":"bikerack","longitude":8.0400196,"latitude":52.2728366,"name":"Fahrradabstellplatz","city":"Osnabrueck","address":null,"covered":false,"access":null,"website":null,"phone":null,"source":"OpenStreetMap/node/13011819840","sourceUpdatedAt":null,"verifiedAt":null}},{"type":"Feature","geometry":{"type":"Point","coordinates":[8.0249478,52.2732645]},"properties":{"id":"bikerack:a8eeb9c5-d568-4a23-9e6a-c8a0b1f1423a","kind":"bikerack","longitude":8.0249478,"latitude":52.2732645,"name":"Fahrradabstellplatz","city":"Osnabrueck","address":null,"covered":false,"access":null,"website":null,"phone":null,"source":"OpenStreetMap/node/12471942183","sourceUpdatedAt":null,"verifiedAt":null}},{"type":"Feature","geometry":{"type":"Point","coordinates":[8.0255503,52.2844343]},"properties":{"id":"bikerack:aacb87d8-0d34-4206-b517-47d581a78c02","kind":"bikerack","longitude":8.0255503,"latitude":52.2844343,"name":"Fahrradabstellplatz","city":"Osnabrueck","address":null,"covered":false,"access":null,"website":null,"phone":null,"source":"OpenStreetMap/node/12961247421","sourceUpdatedAt":null,"verifiedAt":null}},{"type":"Feature","geometry":{"type":"Point","coordinates":[8.0417068,52.2768022]},"properties":{"id":"bikerack:ab95b579-43b6-475a-9fc3-d8dc5e0f29c4","kind":"bikerack","longitude":8.0417068,"latitude":52.2768022,"name":"Fahrradabstellplatz","city":"Osnabrueck","address":null,"covered":false,"access":null,"website":null,"phone":null,"source":"OpenStreetMap/node/1586135956","sourceUpdatedAt":null,"verifiedAt":null}},{"type":"Feature","geometry":{"type":"Point","coordinates":[8.0377964,52.2922961]},"properties":{"id":"bikerack:acd76b43-39ff-4e98-bd3d-da7b6019980a","kind":"bikerack","longitude":8.0377964,"latitude":52.2922961,"name":"Fahrradabstellplatz","city":"Osnabrueck","address":null,"covered":false,"access":null,"website":null,"phone":null,"source":"OpenStreetMap/way/699201268","sourceUpdatedAt":null,"verifiedAt":null}},{"type":"Feature","geometry":{"type":"Point","coordinates":[8.0134741,52.2893605]},"properties":{"id":"bikerack:adee8098-09fd-45ad-88d8-e4d65a61e450","kind":"bikerack","longitude":8.0134741,"latitude":52.2893605,"name":"Fahrradabstellplatz","city":"Osnabrueck","address":null,"covered":false,"access":null,"website":null,"phone":null,"source":"OpenStreetMap/node/13036782675","sourceUpdatedAt":null,"verifiedAt":null}},{"type":"Feature","geometry":{"type":"Point","coordinates":[8.0248711,52.2839855]},"properties":{"id":"bikerack:ae58999b-922d-4566-9a96-50c080b198cb","kind":"bikerack","longitude":8.0248711,"latitude":52.2839855,"name":"Fahrradabstellplatz","city":"Osnabrueck","address":null,"covered":false,"access":null,"website":null,"phone":null,"source":"OpenStreetMap/way/1413032322","sourceUpdatedAt":null,"verifiedAt":null}},{"type":"Feature","geometry":{"type":"Point","coordinates":[8.0223156,52.285548]},"properties":{"id":"bikerack:b0f361dc-a3cc-42af-a2ae-7a09c2c908a3","kind":"bikerack","longitude":8.0223156,"latitude":52.285548,"name":"Fahrradabstellplatz","city":"Osnabrueck","address":null,"covered":false,"access":null,"website":null,"phone":null,"source":"OpenStreetMap/way/930326192","sourceUpdatedAt":null,"verifiedAt":null}},{"type":"Feature","geometry":{"type":"Point","coordinates":[8.0252722,52.2820771]},"properties":{"id":"bikerack:b1ad031e-2d5d-429f-81e9-7e064dbde509","kind":"bikerack","longitude":8.0252722,"latitude":52.2820771,"name":"Fahrradabstellplatz","city":"Osnabrueck","address":null,"covered":false,"access":null,"website":null,"phone":null,"source":"OpenStreetMap/node/13057972439","sourceUpdatedAt":null,"verifiedAt":null}},{"type":"Feature","geometry":{"type":"Point","coordinates":[8.0410317,52.2707905]},"properties":{"id":"bikerack:b3c01573-19df-475f-a047-5bec676b3bcd","kind":"bikerack","longitude":8.0410317,"latitude":52.2707905,"name":"Fahrradabstellplatz","city":"Osnabrueck","address":null,"covered":false,"access":null,"website":null,"phone":null,"source":"OpenStreetMap/node/11356366692","sourceUpdatedAt":null,"verifiedAt":null}},{"type":"Feature","geometry":{"type":"Point","coordinates":[8.0221926,52.2743328]},"properties":{"id":"bikerack:b61fcd1b-dc72-42f5-aaf3-de965a002c63","kind":"bikerack","longitude":8.0221926,"latitude":52.2743328,"name":"Fahrradabstellplatz","city":"Osnabrueck","address":null,"covered":false,"access":null,"website":null,"phone":null,"source":"OpenStreetMap/node/12851359568","sourceUpdatedAt":null,"verifiedAt":null}},{"type":"Feature","geometry":{"type":"Point","coordinates":[8.0393269,52.2729763]},"properties":{"id":"bikerack:b6724847-ab29-479c-8f29-f06bc4e579f7","kind":"bikerack","longitude":8.0393269,"latitude":52.2729763,"name":"Fahrradabstellplatz","city":"Osnabrueck","address":null,"covered":false,"access":null,"website":null,"phone":null,"source":"OpenStreetMap/node/13131521941","sourceUpdatedAt":null,"verifiedAt":null}},{"type":"Feature","geometry":{"type":"Point","coordinates":[8.0283012,52.2732791]},"properties":{"id":"bikerack:b9321b90-7487-4b89-bcac-6171ee11185e","kind":"bikerack","longitude":8.0283012,"latitude":52.2732791,"name":"Fahrradabstellplatz","city":"Osnabrueck","address":null,"covered":false,"access":null,"website":null,"phone":null,"source":"OpenStreetMap/node/12472435910","sourceUpdatedAt":null,"verifiedAt":null}},{"type":"Feature","geometry":{"type":"Point","coordinates":[8.0286976,52.2747789]},"properties":{"id":"bikerack:ba31bfb9-ff66-4eef-84fc-2154159fcc62","kind":"bikerack","longitude":8.0286976,"latitude":52.2747789,"name":"Fahrradabstellplatz","city":"Osnabrueck","address":null,"covered":false,"access":null,"website":null,"phone":null,"source":"OpenStreetMap/node/12858732137","sourceUpdatedAt":null,"verifiedAt":null}},{"type":"Feature","geometry":{"type":"Point","coordinates":[8.0291433,52.2731242]},"properties":{"id":"bikerack:c0bfbe87-12d6-4af2-8257-c558f91287e3","kind":"bikerack","longitude":8.0291433,"latitude":52.2731242,"name":"Fahrradabstellplatz","city":"Osnabrueck","address":null,"covered":false,"access":null,"website":null,"phone":null,"source":"OpenStreetMap/node/12924919507","sourceUpdatedAt":null,"verifiedAt":null}},{"type":"Feature","geometry":{"type":"Point","coordinates":[8.0246572,52.2843519]},"properties":{"id":"bikerack:c0c253f0-3485-4ab4-880d-b6b370be1fb7","kind":"bikerack","longitude":8.0246572,"latitude":52.2843519,"name":"Fahrradabstellplatz","city":"Osnabrueck","address":null,"covered":true,"access":null,"website":null,"phone":null,"source":"OpenStreetMap/node/12961232237","sourceUpdatedAt":null,"verifiedAt":null}},{"type":"Feature","geometry":{"type":"Point","coordinates":[8.0281941,52.2745094]},"properties":{"id":"bikerack:c14011f6-62f9-4840-837d-748b4582b177","kind":"bikerack","longitude":8.0281941,"latitude":52.2745094,"name":"Fahrradabstellplatz","city":"Osnabrueck","address":null,"covered":false,"access":null,"website":null,"phone":null,"source":"OpenStreetMap/node/12858732529","sourceUpdatedAt":null,"verifiedAt":null}},{"type":"Feature","geometry":{"type":"Point","coordinates":[8.0374923,52.2716739]},"properties":{"id":"bikerack:c41ff840-fa04-4711-bba4-c3f5ca57237d","kind":"bikerack","longitude":8.0374923,"latitude":52.2716739,"name":"Fahrradabstellplatz","city":"Osnabrueck","address":null,"covered":false,"access":null,"website":null,"phone":null,"source":"OpenStreetMap/node/12909187584","sourceUpdatedAt":null,"verifiedAt":null}},{"type":"Feature","geometry":{"type":"Point","coordinates":[8.0400986,52.2724914]},"properties":{"id":"bikerack:c4b304ab-55d1-4624-b38b-4efb927a14b6","kind":"bikerack","longitude":8.0400986,"latitude":52.2724914,"name":"Fahrradabstellplatz","city":"Osnabrueck","address":null,"covered":false,"access":null,"website":null,"phone":null,"source":"OpenStreetMap/node/12926370335","sourceUpdatedAt":null,"verifiedAt":null}},{"type":"Feature","geometry":{"type":"Point","coordinates":[8.0395805,52.2729927]},"properties":{"id":"bikerack:c7398816-5b0d-4b85-8a87-6d2f5deee45f","kind":"bikerack","longitude":8.0395805,"latitude":52.2729927,"name":"Fahrradabstellplatz","city":"Osnabrueck","address":null,"covered":false,"access":null,"website":null,"phone":null,"source":"OpenStreetMap/way/1428346929","sourceUpdatedAt":null,"verifiedAt":null}},{"type":"Feature","geometry":{"type":"Point","coordinates":[8.0380069,52.2757219]},"properties":{"id":"bikerack:c87c8061-e74f-4a5e-a766-fb0dbeb0caf7","kind":"bikerack","longitude":8.0380069,"latitude":52.2757219,"name":"Fahrradabstellplatz","city":"Osnabrueck","address":null,"covered":false,"access":null,"website":null,"phone":null,"source":"OpenStreetMap/node/12951060195","sourceUpdatedAt":null,"verifiedAt":null}},{"type":"Feature","geometry":{"type":"Point","coordinates":[8.0252052,52.282542]},"properties":{"id":"bikerack:c97d9363-9daa-461d-acd0-474cf0942933","kind":"bikerack","longitude":8.0252052,"latitude":52.282542,"name":"Fahrradabstellplatz","city":"Osnabrueck","address":null,"covered":false,"access":null,"website":null,"phone":null,"source":"OpenStreetMap/node/12852421555","sourceUpdatedAt":null,"verifiedAt":null}},{"type":"Feature","geometry":{"type":"Point","coordinates":[8.0403519,52.2792133]},"properties":{"id":"bikerack:cb25ad6d-2ca5-4318-bc06-4904edb4868a","kind":"bikerack","longitude":8.0403519,"latitude":52.2792133,"name":"Fahrradabstellplatz","city":"Osnabrueck","address":null,"covered":false,"access":null,"website":null,"phone":null,"source":"OpenStreetMap/node/9854097564","sourceUpdatedAt":null,"verifiedAt":null}},{"type":"Feature","geometry":{"type":"Point","coordinates":[8.0217533,52.2761306]},"properties":{"id":"bikerack:cb8e937d-7eab-4bee-be93-480045380773","kind":"bikerack","longitude":8.0217533,"latitude":52.2761306,"name":"Fahrradabstellplatz","city":"Osnabrueck","address":null,"covered":false,"access":null,"website":null,"phone":null,"source":"OpenStreetMap/node/12863125526","sourceUpdatedAt":null,"verifiedAt":null}},{"type":"Feature","geometry":{"type":"Point","coordinates":[8.0414636,52.2770014]},"properties":{"id":"bikerack:cff56c5e-50a9-4ef6-8511-c35c88491b72","kind":"bikerack","longitude":8.0414636,"latitude":52.2770014,"name":"Fahrradabstellplatz","city":"Osnabrueck","address":null,"covered":false,"access":null,"website":null,"phone":null,"source":"OpenStreetMap/node/1586135960","sourceUpdatedAt":null,"verifiedAt":null}},{"type":"Feature","geometry":{"type":"Point","coordinates":[8.0219032,52.2858043]},"properties":{"id":"bikerack:d0821f99-c259-4d9e-aabe-a3eb8e2bc362","kind":"bikerack","longitude":8.0219032,"latitude":52.2858043,"name":"Fahrradabstellplatz","city":"Osnabrueck","address":null,"covered":false,"access":null,"website":null,"phone":null,"source":"OpenStreetMap/node/7146777344","sourceUpdatedAt":null,"verifiedAt":null}},{"type":"Feature","geometry":{"type":"Point","coordinates":[8.0376868,52.2704546]},"properties":{"id":"bikerack:d12e1270-c818-4f4f-beb1-cad2734fecde","kind":"bikerack","longitude":8.0376868,"latitude":52.2704546,"name":"Fahrradabstellplatz","city":"Osnabrueck","address":null,"covered":false,"access":null,"website":null,"phone":null,"source":"OpenStreetMap/node/12809546360","sourceUpdatedAt":null,"verifiedAt":null}},{"type":"Feature","geometry":{"type":"Point","coordinates":[8.0155229,52.2947946]},"properties":{"id":"bikerack:d2067559-59ae-46ce-b865-996fc90edbfa","kind":"bikerack","longitude":8.0155229,"latitude":52.2947946,"name":"Fahrradabstellplatz","city":"Osnabrueck","address":null,"covered":false,"access":null,"website":null,"phone":null,"source":"OpenStreetMap/way/435142489","sourceUpdatedAt":null,"verifiedAt":null}},{"type":"Feature","geometry":{"type":"Point","coordinates":[8.0268731,52.275403]},"properties":{"id":"bikerack:d626e685-5788-4cc3-b521-3931d6046cd6","kind":"bikerack","longitude":8.0268731,"latitude":52.275403,"name":"Fahrradabstellplatz","city":"Osnabrueck","address":null,"covered":false,"access":null,"website":null,"phone":null,"source":"OpenStreetMap/node/12858787801","sourceUpdatedAt":null,"verifiedAt":null}},{"type":"Feature","geometry":{"type":"Point","coordinates":[8.0220112,52.2768083]},"properties":{"id":"bikerack:d719950a-4151-4743-9e9a-2fd2dc1e3419","kind":"bikerack","longitude":8.0220112,"latitude":52.2768083,"name":"Fahrradabstellplatz","city":"Osnabrueck","address":null,"covered":false,"access":null,"website":null,"phone":null,"source":"OpenStreetMap/node/12863182471","sourceUpdatedAt":null,"verifiedAt":null}},{"type":"Feature","geometry":{"type":"Point","coordinates":[8.0262458,52.2842441]},"properties":{"id":"bikerack:d880f6a5-5f03-45ed-849f-9a249f62fa5b","kind":"bikerack","longitude":8.0262458,"latitude":52.2842441,"name":"Fahrradabstellplatz","city":"Osnabrueck","address":null,"covered":false,"access":null,"website":null,"phone":null,"source":"OpenStreetMap/node/12961200226","sourceUpdatedAt":null,"verifiedAt":null}},{"type":"Feature","geometry":{"type":"Point","coordinates":[8.0356734,52.2705066]},"properties":{"id":"bikerack:d9d19b31-34e8-43a9-be49-d03b49f66abe","kind":"bikerack","longitude":8.0356734,"latitude":52.2705066,"name":"Fahrradabstellplatz","city":"Osnabrueck","address":null,"covered":false,"access":null,"website":null,"phone":null,"source":"OpenStreetMap/node/13193084117","sourceUpdatedAt":null,"verifiedAt":null}},{"type":"Feature","geometry":{"type":"Point","coordinates":[8.0245652,52.2776415]},"properties":{"id":"bikerack:dba5e1fb-50d0-4e0e-aca1-e965fc7231ac","kind":"bikerack","longitude":8.0245652,"latitude":52.2776415,"name":"Fahrradabstellplatz","city":"Osnabrueck","address":null,"covered":false,"access":null,"website":null,"phone":null,"source":"OpenStreetMap/node/12849716498","sourceUpdatedAt":null,"verifiedAt":null}},{"type":"Feature","geometry":{"type":"Point","coordinates":[8.0253106,52.282138]},"properties":{"id":"bikerack:dc231520-99c7-4c90-882d-30c378992a49","kind":"bikerack","longitude":8.0253106,"latitude":52.282138,"name":"Fahrradabstellplatz","city":"Osnabrueck","address":null,"covered":false,"access":null,"website":null,"phone":null,"source":"OpenStreetMap/node/13057946231","sourceUpdatedAt":null,"verifiedAt":null}},{"type":"Feature","geometry":{"type":"Point","coordinates":[8.0216266,52.2756452]},"properties":{"id":"bikerack:dddc375b-cb3b-4ffe-89d7-3c050e8d40f5","kind":"bikerack","longitude":8.0216266,"latitude":52.2756452,"name":"Fahrradabstellplatz","city":"Osnabrueck","address":null,"covered":false,"access":null,"website":null,"phone":null,"source":"OpenStreetMap/node/3721806064","sourceUpdatedAt":null,"verifiedAt":null}},{"type":"Feature","geometry":{"type":"Point","coordinates":[8.0406027,52.2783889]},"properties":{"id":"bikerack:de937064-5a19-490f-ac86-ddbcca12f53f","kind":"bikerack","longitude":8.0406027,"latitude":52.2783889,"name":"Fahrradabstellplatz","city":"Osnabrueck","address":null,"covered":false,"access":null,"website":null,"phone":null,"source":"OpenStreetMap/node/8835859918","sourceUpdatedAt":null,"verifiedAt":null}},{"type":"Feature","geometry":{"type":"Point","coordinates":[8.0256939,52.2778147]},"properties":{"id":"bikerack:e225ee35-d40b-4c2c-a379-1f5ca0538ed1","kind":"bikerack","longitude":8.0256939,"latitude":52.2778147,"name":"Fahrradabstellplatz","city":"Osnabrueck","address":null,"covered":false,"access":null,"website":null,"phone":null,"source":"OpenStreetMap/node/12851352453","sourceUpdatedAt":null,"verifiedAt":null}},{"type":"Feature","geometry":{"type":"Point","coordinates":[8.0246937,52.2772574]},"properties":{"id":"bikerack:e51bd8e7-19ad-4873-9897-aee11e7be480","kind":"bikerack","longitude":8.0246937,"latitude":52.2772574,"name":"Fahrradabstellplatz","city":"Osnabrueck","address":null,"covered":false,"access":null,"website":null,"phone":null,"source":"OpenStreetMap/node/12849703518","sourceUpdatedAt":null,"verifiedAt":null}},{"type":"Feature","geometry":{"type":"Point","coordinates":[8.0382883,52.2833667]},"properties":{"id":"bikerack:e982758d-9580-4f2a-ac08-75fb16502899","kind":"bikerack","longitude":8.0382883,"latitude":52.2833667,"name":"Fahrradabstellplatz","city":"Osnabrueck","address":null,"covered":false,"access":null,"website":null,"phone":null,"source":"OpenStreetMap/node/12966841662","sourceUpdatedAt":null,"verifiedAt":null}},{"type":"Feature","geometry":{"type":"Point","coordinates":[8.0248089,52.2844266]},"properties":{"id":"bikerack:ed9d4d4e-7848-451a-b5b4-12fce152c36a","kind":"bikerack","longitude":8.0248089,"latitude":52.2844266,"name":"Fahrradabstellplatz","city":"Osnabrueck","address":null,"covered":true,"access":null,"website":null,"phone":null,"source":"OpenStreetMap/node/12961221633","sourceUpdatedAt":null,"verifiedAt":null}},{"type":"Feature","geometry":{"type":"Point","coordinates":[8.0355864,52.2704611]},"properties":{"id":"bikerack:edbafcaf-9170-4c2b-994d-f81977049441","kind":"bikerack","longitude":8.0355864,"latitude":52.2704611,"name":"Fahrradabstellplatz","city":"Osnabrueck","address":null,"covered":false,"access":null,"website":null,"phone":null,"source":"OpenStreetMap/node/13193084111","sourceUpdatedAt":null,"verifiedAt":null}},{"type":"Feature","geometry":{"type":"Point","coordinates":[8.0049672,52.2773866]},"properties":{"id":"bikerack:edef21df-2960-4729-99a6-b6ce7db1b5e6","kind":"bikerack","longitude":8.0049672,"latitude":52.2773866,"name":"Fahrradabstellplatz","city":"Osnabrueck","address":null,"covered":true,"access":null,"website":null,"phone":null,"source":"OpenStreetMap/way/329346310","sourceUpdatedAt":null,"verifiedAt":null}},{"type":"Feature","geometry":{"type":"Point","coordinates":[8.0418759,52.2754185]},"properties":{"id":"bikerack:ee72956d-6aaf-4c46-a37d-d1cbe3324307","kind":"bikerack","longitude":8.0418759,"latitude":52.2754185,"name":"Fahrradabstellplatz","city":"Osnabrueck","address":null,"covered":false,"access":null,"website":null,"phone":null,"source":"OpenStreetMap/node/5964264476","sourceUpdatedAt":null,"verifiedAt":null}},{"type":"Feature","geometry":{"type":"Point","coordinates":[8.0243682,52.2743857]},"properties":{"id":"bikerack:f1c6d2cc-5e9c-4902-8a40-8a8fbbc0f824","kind":"bikerack","longitude":8.0243682,"latitude":52.2743857,"name":"Fahrradabstellplatz","city":"Osnabrueck","address":null,"covered":false,"access":null,"website":null,"phone":null,"source":"OpenStreetMap/node/12851375153","sourceUpdatedAt":null,"verifiedAt":null}},{"type":"Feature","geometry":{"type":"Point","coordinates":[8.0245652,52.2732886]},"properties":{"id":"bikerack:f1e180a8-219d-4eed-9e28-4501145d69ad","kind":"bikerack","longitude":8.0245652,"latitude":52.2732886,"name":"Fahrradabstellplatz","city":"Osnabrueck","address":null,"covered":false,"access":null,"website":null,"phone":null,"source":"OpenStreetMap/node/12471942189","sourceUpdatedAt":null,"verifiedAt":null}},{"type":"Feature","geometry":{"type":"Point","coordinates":[8.0132695,52.2894179]},"properties":{"id":"bikerack:f333320d-e22c-49fd-b1d6-5f8db9101780","kind":"bikerack","longitude":8.0132695,"latitude":52.2894179,"name":"Fahrradabstellplatz","city":"Osnabrueck","address":null,"covered":false,"access":null,"website":null,"phone":null,"source":"OpenStreetMap/node/13036788134","sourceUpdatedAt":null,"verifiedAt":null}},{"type":"Feature","geometry":{"type":"Point","coordinates":[8.0217928,52.2828699]},"properties":{"id":"bikerack:f48faa04-a3c6-44b6-89b4-0ab0a35e0dd4","kind":"bikerack","longitude":8.0217928,"latitude":52.2828699,"name":"Fahrradabstellplatz","city":"Osnabrueck","address":null,"covered":false,"access":null,"website":null,"phone":null,"source":"OpenStreetMap/node/12852545320","sourceUpdatedAt":null,"verifiedAt":null}},{"type":"Feature","geometry":{"type":"Point","coordinates":[8.0221955,52.2746331]},"properties":{"id":"bikerack:f4f65c35-c6c9-43d3-85a4-540df0e638c1","kind":"bikerack","longitude":8.0221955,"latitude":52.2746331,"name":"Fahrradabstellplatz","city":"Osnabrueck","address":null,"covered":false,"access":null,"website":null,"phone":null,"source":"OpenStreetMap/node/12863244855","sourceUpdatedAt":null,"verifiedAt":null}},{"type":"Feature","geometry":{"type":"Point","coordinates":[8.0374289,52.2704332]},"properties":{"id":"bikerack:f84ff4e6-8f72-47f2-8cb3-597ef39cb60f","kind":"bikerack","longitude":8.0374289,"latitude":52.2704332,"name":"Fahrradabstellplatz","city":"Osnabrueck","address":null,"covered":false,"access":null,"website":null,"phone":null,"source":"OpenStreetMap/node/12909184757","sourceUpdatedAt":null,"verifiedAt":null}},{"type":"Feature","geometry":{"type":"Point","coordinates":[8.0408505,52.2775122]},"properties":{"id":"bikerack:f933f48f-a494-4cec-9bd7-3f004a8b10cb","kind":"bikerack","longitude":8.0408505,"latitude":52.2775122,"name":"Fahrradabstellplatz","city":"Osnabrueck","address":null,"covered":false,"access":null,"website":null,"phone":null,"source":"OpenStreetMap/node/11013765946","sourceUpdatedAt":null,"verifiedAt":null}},{"type":"Feature","geometry":{"type":"Point","coordinates":[8.0235217,52.286226]},"properties":{"id":"bikerack:f99286f0-0155-472d-8318-e97ed9177562","kind":"bikerack","longitude":8.0235217,"latitude":52.286226,"name":"Fahrradabstellplatz","city":"Osnabrueck","address":null,"covered":false,"access":null,"website":null,"phone":null,"source":"OpenStreetMap/way/1371654671","sourceUpdatedAt":null,"verifiedAt":null}},{"type":"Feature","geometry":{"type":"Point","coordinates":[8.0219847,52.2757584]},"properties":{"id":"bikerack:fa84c094-0bd8-40bb-a242-24e43b2a64af","kind":"bikerack","longitude":8.0219847,"latitude":52.2757584,"name":"Fahrradabstellplatz","city":"Osnabrueck","address":null,"covered":false,"access":null,"website":null,"phone":null,"source":"OpenStreetMap/node/3721806065","sourceUpdatedAt":null,"verifiedAt":null}},{"type":"Feature","geometry":{"type":"Point","coordinates":[8.0401205,52.2789302]},"properties":{"id":"bikerack:fb3ced6a-6702-4a57-898a-7b5968bfe1ad","kind":"bikerack","longitude":8.0401205,"latitude":52.2789302,"name":"Fahrradabstellplatz","city":"Osnabrueck","address":null,"covered":false,"access":null,"website":null,"phone":null,"source":"OpenStreetMap/node/9854097565","sourceUpdatedAt":null,"verifiedAt":null}},{"type":"Feature","geometry":{"type":"Point","coordinates":[8.0395994,52.2786852]},"properties":{"id":"bikerack:fb565e83-c11f-4f9e-a1b3-ac4ece8d952c","kind":"bikerack","longitude":8.0395994,"latitude":52.2786852,"name":"Fahrradabstellplatz","city":"Osnabrueck","address":null,"covered":false,"access":null,"website":null,"phone":null,"source":"OpenStreetMap/node/11013763382","sourceUpdatedAt":null,"verifiedAt":null}},{"type":"Feature","geometry":{"type":"Point","coordinates":[8.0283909,52.2722947]},"properties":{"id":"bikerack:ff2664bd-eb90-4c4d-9e1c-e7c7d43f3aac","kind":"bikerack","longitude":8.0283909,"latitude":52.2722947,"name":"Fahrradabstellplatz","city":"Osnabrueck","address":null,"covered":false,"access":null,"website":null,"phone":null,"source":"OpenStreetMap/node/12865239206","sourceUpdatedAt":null,"verifiedAt":null}},{"type":"Feature","geometry":{"type":"Point","coordinates":[8.0276478,52.2729624]},"properties":{"id":"repair:8006739a-34b8-44d9-a88d-d6dd0ad83314","kind":"repair","longitude":8.0276478,"latitude":52.2729624,"name":"Fahrradreparaturstation","city":"Osnabrueck","address":null,"covered":false,"access":null,"website":null,"phone":null,"source":"OpenStreetMap/node/11741674105","sourceUpdatedAt":null,"verifiedAt":null}},{"type":"Feature","geometry":{"type":"Point","coordinates":[8.0283663,52.273122]},"properties":{"id":"service:156244b0-2292-43ee-b718-6e14a091d342","kind":"service","longitude":8.0283663,"latitude":52.273122,"name":"Zweiradhaus Dependahl","city":"Osnabrück","address":null,"covered":null,"access":null,"website":null,"phone":null,"source":"OpenStreetMap/node/1703172821","sourceUpdatedAt":null,"verifiedAt":null}},{"type":"Feature","geometry":{"type":"Point","coordinates":[8.0415214,52.2697869]},"properties":{"id":"service:201216de-4a01-4a9b-885e-c3a04c1d209b","kind":"service","longitude":8.0415214,"latitude":52.2697869,"name":"Radlaube Osnabrück","city":"Osnabrück","address":null,"covered":null,"access":null,"website":null,"phone":null,"source":"OpenStreetMap/node/5153125128","sourceUpdatedAt":null,"verifiedAt":null}},{"type":"Feature","geometry":{"type":"Point","coordinates":[8.0405534,52.2757294]},"properties":{"id":"service:73128b19-f51c-481c-b7dd-8f69b1b6dd2f","kind":"service","longitude":8.0405534,"latitude":52.2757294,"name":"Zweirad Röwer","city":"Osnabrück","address":null,"covered":null,"access":null,"website":null,"phone":null,"source":"OpenStreetMap/node/268643505","sourceUpdatedAt":null,"verifiedAt":null}},{"type":"Feature","geometry":{"type":"Point","coordinates":[8.02573,52.289719]},"properties":{"id":"service:8d1def9d-b3f5-43f1-9773-384f6c05302e","kind":"service","longitude":8.02573,"latitude":52.289719,"name":"B.O.C.","city":"Osnabrück","address":null,"covered":null,"access":null,"website":null,"phone":null,"source":"OpenStreetMap/node/268735535","sourceUpdatedAt":null,"verifiedAt":null}},{"type":"Feature","geometry":{"type":"Point","coordinates":[8.0376485,52.2761496]},"properties":{"id":"water:42980f60-4956-431f-84d2-0562ee5d316e","kind":"water","longitude":8.0376485,"latitude":52.2761496,"name":"Trinkwasser","city":"Osnabrueck","address":null,"covered":null,"access":null,"website":null,"phone":null,"source":"OpenStreetMap/node/12114687728","sourceUpdatedAt":null,"verifiedAt":null}}]}