{"type":"FeatureCollection","features":[{"type":"Feature","geometry":{"type":"Point","coordinates":[8.0329233,51.5811697]},"properties":{"id":"bikerack:147807be-2a68-4fb0-bbd3-b43063f02e9f","kind":"bikerack","longitude":8.0329233,"latitude":51.5811697,"name":"Fahrradabstellplatz","city":"Soest","address":null,"covered":false,"access":null,"website":null,"phone":null,"source":"OpenStreetMap/node/11676915015","sourceUpdatedAt":null,"verifiedAt":null}},{"type":"Feature","geometry":{"type":"Point","coordinates":[8.0084156,51.5853661]},"properties":{"id":"bikerack:16b95f1e-020f-43cd-806c-804ab18d1c9f","kind":"bikerack","longitude":8.0084156,"latitude":51.5853661,"name":"Fahrradabstellplatz","city":"Welver","address":null,"covered":false,"access":null,"website":null,"phone":null,"source":"OpenStreetMap/node/11895154152","sourceUpdatedAt":null,"verifiedAt":null}},{"type":"Feature","geometry":{"type":"Point","coordinates":[8.0329438,51.5811303]},"properties":{"id":"repair:34876783-ea67-422b-b025-a455149ce06d","kind":"repair","longitude":8.0329438,"latitude":51.5811303,"name":"Fahrradreparaturstation","city":"Soest","address":null,"covered":false,"access":null,"website":null,"phone":null,"source":"OpenStreetMap/node/11895154157","sourceUpdatedAt":null,"verifiedAt":null}},{"type":"Feature","geometry":{"type":"Point","coordinates":[8.0354509,51.5767745]},"properties":{"id":"repair:a4465fe3-fd82-464d-8170-c3494a41166d","kind":"repair","longitude":8.0354509,"latitude":51.5767745,"name":"Fahrradreparaturstation","city":"Soest","address":null,"covered":false,"access":null,"website":null,"phone":null,"source":"OpenStreetMap/node/11895154186","sourceUpdatedAt":null,"verifiedAt":null}}]}