{"type":"FeatureCollection","features":[{"type":"Feature","geometry":{"type":"Point","coordinates":[15.6927288,52.1978035]},"properties":{"id":"bikerack:1a58a12e-2bc9-494a-a0b6-bfaf7f077ce3","kind":"bikerack","longitude":15.6927288,"latitude":52.1978035,"name":"Biciklitároló","city":"Szczaniec","address":null,"covered":false,"access":null,"website":null,"phone":null,"source":"OpenStreetMap/node/10582569181","sourceUpdatedAt":null,"verifiedAt":null}},{"type":"Feature","geometry":{"type":"Point","coordinates":[15.6913119,52.1967103]},"properties":{"id":"water:3f4ce9e5-da28-4cc7-8461-22fc32c19428","kind":"water","longitude":15.6913119,"latitude":52.1967103,"name":"Ivókút","city":"Szczaniec","address":null,"covered":null,"access":null,"website":null,"phone":null,"source":"OpenStreetMap/node/10793700870","sourceUpdatedAt":null,"verifiedAt":null}}]}