{"type":"FeatureCollection","features":[{"type":"Feature","geometry":{"type":"Point","coordinates":[15.7110335,51.762281]},"properties":{"id":"bikerack:0476bb22-dc83-417c-a694-186fe4235101","kind":"bikerack","longitude":15.7110335,"latitude":51.762281,"name":"Biciklitároló","city":"Nowa Sol","address":null,"covered":false,"access":null,"website":null,"phone":null,"source":"OpenStreetMap/node/9318732965","sourceUpdatedAt":null,"verifiedAt":null}},{"type":"Feature","geometry":{"type":"Point","coordinates":[15.7109883,51.7622729]},"properties":{"id":"bikerack:fcd02d67-2505-40d5-893b-042fef998ac8","kind":"bikerack","longitude":15.7109883,"latitude":51.7622729,"name":"Biciklitároló","city":"Nowa Sol","address":null,"covered":false,"access":null,"website":null,"phone":null,"source":"OpenStreetMap/node/9318732963","sourceUpdatedAt":null,"verifiedAt":null}}]}