{"type":"FeatureCollection","features":[{"type":"Feature","geometry":{"type":"Point","coordinates":[8.8321111,52.2171021]},"properties":{"id":"bikerack:081cb41e-8429-4658-b985-32132bcf6100","kind":"bikerack","longitude":8.8321111,"latitude":52.2171021,"name":"Fahrradabstellplatz","city":"Bad Oeynhausen","address":null,"covered":false,"access":null,"website":null,"phone":null,"source":"OpenStreetMap/node/3078091164","sourceUpdatedAt":null,"verifiedAt":null}},{"type":"Feature","geometry":{"type":"Point","coordinates":[8.8278258,52.2206025]},"properties":{"id":"bikerack:0880c356-3989-40ac-98b0-c543a41b88c5","kind":"bikerack","longitude":8.8278258,"latitude":52.2206025,"name":"Fahrradabstellplatz","city":"Bad Oeynhausen","address":null,"covered":false,"access":null,"website":null,"phone":null,"source":"OpenStreetMap/way/1178445677","sourceUpdatedAt":null,"verifiedAt":null}},{"type":"Feature","geometry":{"type":"Point","coordinates":[8.8147264,52.214345]},"properties":{"id":"bikerack:128ff6fa-7572-459b-800a-59ed2e36dd37","kind":"bikerack","longitude":8.8147264,"latitude":52.214345,"name":"Fahrradabstellplatz","city":"Bad Oeynhausen","address":null,"covered":false,"access":null,"website":null,"phone":null,"source":"OpenStreetMap/node/13719092771","sourceUpdatedAt":null,"verifiedAt":null}},{"type":"Feature","geometry":{"type":"Point","coordinates":[8.8319262,52.2175866]},"properties":{"id":"bikerack:1badfa86-78ba-47c8-b736-c7dde1eb58df","kind":"bikerack","longitude":8.8319262,"latitude":52.2175866,"name":"Fahrradabstellplatz","city":"Bad Oeynhausen","address":null,"covered":false,"access":null,"website":null,"phone":null,"source":"OpenStreetMap/node/10996118277","sourceUpdatedAt":null,"verifiedAt":null}},{"type":"Feature","geometry":{"type":"Point","coordinates":[8.8195323,52.2225508]},"properties":{"id":"bikerack:1f24bc58-67a8-46c3-9df0-42db22638267","kind":"bikerack","longitude":8.8195323,"latitude":52.2225508,"name":"Fahrradabstellplatz","city":"Bad Oeynhausen","address":null,"covered":false,"access":null,"website":null,"phone":null,"source":"OpenStreetMap/node/1100249622","sourceUpdatedAt":null,"verifiedAt":null}},{"type":"Feature","geometry":{"type":"Point","coordinates":[8.7918182,52.2179491]},"properties":{"id":"bikerack:331756a3-9689-48da-bcad-46f590dd43a3","kind":"bikerack","longitude":8.7918182,"latitude":52.2179491,"name":"Fahrradabstellplatz","city":"Bad Oeynhausen","address":null,"covered":false,"access":null,"website":null,"phone":null,"source":"OpenStreetMap/way/1162805550","sourceUpdatedAt":null,"verifiedAt":null}},{"type":"Feature","geometry":{"type":"Point","coordinates":[8.8316973,52.2177187]},"properties":{"id":"bikerack:33a50753-31d1-41bc-b5b0-814135b2cfe4","kind":"bikerack","longitude":8.8316973,"latitude":52.2177187,"name":"Fahrradabstellplatz","city":"Bad Oeynhausen","address":null,"covered":false,"access":null,"website":null,"phone":null,"source":"OpenStreetMap/node/10996118275","sourceUpdatedAt":null,"verifiedAt":null}},{"type":"Feature","geometry":{"type":"Point","coordinates":[8.8325691,52.2189922]},"properties":{"id":"bikerack:40462f6e-5d5b-43cd-97e3-1e7fd4481a2e","kind":"bikerack","longitude":8.8325691,"latitude":52.2189922,"name":"Fahrradabstellplatz","city":"Bad Oeynhausen","address":null,"covered":false,"access":null,"website":null,"phone":null,"source":"OpenStreetMap/node/13566353054","sourceUpdatedAt":null,"verifiedAt":null}},{"type":"Feature","geometry":{"type":"Point","coordinates":[8.8306828,52.2327197]},"properties":{"id":"bikerack:471dc8ce-490a-4d11-8fc1-c0ef67aefc06","kind":"bikerack","longitude":8.8306828,"latitude":52.2327197,"name":"Fahrradabstellplatz","city":"Bad Oeynhausen","address":null,"covered":true,"access":null,"website":null,"phone":null,"source":"OpenStreetMap/node/467244576","sourceUpdatedAt":null,"verifiedAt":null}},{"type":"Feature","geometry":{"type":"Point","coordinates":[8.8279119,52.2155439]},"properties":{"id":"bikerack:52de241c-5bbd-4990-bdb1-9b6f8d5e1b04","kind":"bikerack","longitude":8.8279119,"latitude":52.2155439,"name":"Fahrradabstellplatz","city":"Bad Oeynhausen","address":null,"covered":false,"access":null,"website":null,"phone":null,"source":"OpenStreetMap/way/199897888","sourceUpdatedAt":null,"verifiedAt":null}},{"type":"Feature","geometry":{"type":"Point","coordinates":[8.808054,52.2410348]},"properties":{"id":"bikerack:5a908988-7995-4bdb-a8ba-5d4ee14c1363","kind":"bikerack","longitude":8.808054,"latitude":52.2410348,"name":"Fahrradabstellplatz","city":"Bad Oeynhausen","address":null,"covered":true,"access":null,"website":null,"phone":null,"source":"OpenStreetMap/node/5678296324","sourceUpdatedAt":null,"verifiedAt":null}},{"type":"Feature","geometry":{"type":"Point","coordinates":[8.7969244,52.2219268]},"properties":{"id":"bikerack:5e5fc569-214c-4ba0-83e3-54e3644df512","kind":"bikerack","longitude":8.7969244,"latitude":52.2219268,"name":"Fahrradabstellplatz","city":"Bad Oeynhausen","address":null,"covered":false,"access":null,"website":null,"phone":null,"source":"OpenStreetMap/way/1301078806","sourceUpdatedAt":null,"verifiedAt":null}},{"type":"Feature","geometry":{"type":"Point","coordinates":[8.8116077,52.2226078]},"properties":{"id":"bikerack:7fb038a4-bdff-4444-a88e-2af331c149a7","kind":"bikerack","longitude":8.8116077,"latitude":52.2226078,"name":"Fahrradabstellplatz","city":"Bad Oeynhausen","address":null,"covered":false,"access":null,"website":null,"phone":null,"source":"OpenStreetMap/node/13049507125","sourceUpdatedAt":null,"verifiedAt":null}},{"type":"Feature","geometry":{"type":"Point","coordinates":[8.8037759,52.2173529]},"properties":{"id":"bikerack:83dbbf3b-5c1c-4286-b71a-1547a674552c","kind":"bikerack","longitude":8.8037759,"latitude":52.2173529,"name":"Fahrradabstellplatz","city":"Bad Oeynhausen","address":null,"covered":false,"access":null,"website":null,"phone":null,"source":"OpenStreetMap/node/3781721429","sourceUpdatedAt":null,"verifiedAt":null}},{"type":"Feature","geometry":{"type":"Point","coordinates":[8.8150959,52.2150893]},"properties":{"id":"bikerack:87174920-445e-4c26-be84-85d7f4e915df","kind":"bikerack","longitude":8.8150959,"latitude":52.2150893,"name":"Fahrradabstellplatz","city":"Bad Oeynhausen","address":null,"covered":false,"access":null,"website":null,"phone":null,"source":"OpenStreetMap/node/13719095606","sourceUpdatedAt":null,"verifiedAt":null}},{"type":"Feature","geometry":{"type":"Point","coordinates":[8.8151545,52.2150455]},"properties":{"id":"bikerack:9c5fc12b-3e64-4b4c-a434-2eb177ecc3fb","kind":"bikerack","longitude":8.8151545,"latitude":52.2150455,"name":"Fahrradabstellplatz","city":"Bad Oeynhausen","address":null,"covered":false,"access":null,"website":null,"phone":null,"source":"OpenStreetMap/node/13719068948","sourceUpdatedAt":null,"verifiedAt":null}},{"type":"Feature","geometry":{"type":"Point","coordinates":[8.799389,52.2205823]},"properties":{"id":"bikerack:ce86af6e-e228-49e6-9786-25e5a163d405","kind":"bikerack","longitude":8.799389,"latitude":52.2205823,"name":"Fahrradabstellplatz","city":"Bad Oeynhausen","address":null,"covered":false,"access":null,"website":null,"phone":null,"source":"OpenStreetMap/node/7213710995","sourceUpdatedAt":null,"verifiedAt":null}},{"type":"Feature","geometry":{"type":"Point","coordinates":[8.8318171,52.2176496]},"properties":{"id":"bikerack:f4ef8b14-fa6c-4c8e-bb66-93cb799c39c3","kind":"bikerack","longitude":8.8318171,"latitude":52.2176496,"name":"Fahrradabstellplatz","city":"Bad Oeynhausen","address":null,"covered":false,"access":null,"website":null,"phone":null,"source":"OpenStreetMap/node/10996118276","sourceUpdatedAt":null,"verifiedAt":null}},{"type":"Feature","geometry":{"type":"Point","coordinates":[8.8319932,52.2170996]},"properties":{"id":"bikerack:fce70bf6-624e-4d07-bf02-8d3e17ab5463","kind":"bikerack","longitude":8.8319932,"latitude":52.2170996,"name":"Fahrradabstellplatz","city":"Bad Oeynhausen","address":null,"covered":false,"access":null,"website":null,"phone":null,"source":"OpenStreetMap/node/3078091163","sourceUpdatedAt":null,"verifiedAt":null}},{"type":"Feature","geometry":{"type":"Point","coordinates":[8.8325254,52.2190181]},"properties":{"id":"repair:35fd2f44-11e6-4640-8dd0-6843ce05e29c","kind":"repair","longitude":8.8325254,"latitude":52.2190181,"name":"Fahrradreparaturstation","city":"Bad Oeynhausen","address":null,"covered":false,"access":null,"website":null,"phone":null,"source":"OpenStreetMap/node/13114175853","sourceUpdatedAt":null,"verifiedAt":null}},{"type":"Feature","geometry":{"type":"Point","coordinates":[8.8317861,52.2176719]},"properties":{"id":"repair:d560e50d-7e4a-49f2-a4b7-b44bdb2c51d3","kind":"repair","longitude":8.8317861,"latitude":52.2176719,"name":"Fahrradreparaturstation","city":"Bad Oeynhausen","address":null,"covered":false,"access":null,"website":null,"phone":null,"source":"OpenStreetMap/node/10996118278","sourceUpdatedAt":null,"verifiedAt":null}},{"type":"Feature","geometry":{"type":"Point","coordinates":[8.8313771,52.2163859]},"properties":{"id":"service:4721b139-eb88-4f83-8494-c4694b8250cc","kind":"service","longitude":8.8313771,"latitude":52.2163859,"name":"Bike Team Blöte","city":"Bad Oeynhausen","address":null,"covered":null,"access":null,"website":null,"phone":null,"source":"OpenStreetMap/node/10176053091","sourceUpdatedAt":null,"verifiedAt":null}}]}