{"type":"FeatureCollection","features":[{"type":"Feature","geometry":{"type":"Point","coordinates":[8.7896489,50.3498267]},"properties":{"id":"bikerack:29fe3963-c4d6-456a-bbb9-432fb6592270","kind":"bikerack","longitude":8.7896489,"latitude":50.3498267,"name":"Fahrradabstellplatz","city":"Friedberg","address":null,"covered":false,"access":null,"website":null,"phone":null,"source":"OpenStreetMap/node/10708037958","sourceUpdatedAt":null,"verifiedAt":null}},{"type":"Feature","geometry":{"type":"Point","coordinates":[8.7913501,50.3473912]},"properties":{"id":"bikerack:362e416a-451f-4f13-8523-1c6b69b8f2be","kind":"bikerack","longitude":8.7913501,"latitude":50.3473912,"name":"Fahrradabstellplatz","city":"Friedberg","address":null,"covered":false,"access":null,"website":null,"phone":null,"source":"OpenStreetMap/node/10708037993","sourceUpdatedAt":null,"verifiedAt":null}},{"type":"Feature","geometry":{"type":"Point","coordinates":[8.82328,50.3635]},"properties":{"id":"bikerack:4cb6cc6d-46f7-438a-b426-90681efc9254","kind":"bikerack","longitude":8.82328,"latitude":50.3635,"name":"Fahrradabstellplatz","city":"Wolfersheim","address":null,"covered":false,"access":null,"website":null,"phone":null,"source":"OpenStreetMap/node/778930088","sourceUpdatedAt":null,"verifiedAt":null}},{"type":"Feature","geometry":{"type":"Point","coordinates":[8.824183,50.3628222]},"properties":{"id":"bikerack:4e8132d1-1527-41b7-b072-a7f9131951c5","kind":"bikerack","longitude":8.824183,"latitude":50.3628222,"name":"Fahrradabstellplatz","city":"Wolfersheim","address":null,"covered":false,"access":null,"website":null,"phone":null,"source":"OpenStreetMap/node/7825388593","sourceUpdatedAt":null,"verifiedAt":null}},{"type":"Feature","geometry":{"type":"Point","coordinates":[8.7892683,50.3525235]},"properties":{"id":"bikerack:69b07c2e-ada6-4d13-833a-e7427419f464","kind":"bikerack","longitude":8.7892683,"latitude":50.3525235,"name":"Fahrradabstellplatz","city":"Friedberg","address":null,"covered":false,"access":null,"website":null,"phone":null,"source":"OpenStreetMap/node/11175973195","sourceUpdatedAt":null,"verifiedAt":null}},{"type":"Feature","geometry":{"type":"Point","coordinates":[8.7902321,50.3525753]},"properties":{"id":"bikerack:87cfb8ab-0f6c-441f-80a0-8b381b0a84b1","kind":"bikerack","longitude":8.7902321,"latitude":50.3525753,"name":"Fahrradabstellplatz","city":"Friedberg","address":null,"covered":true,"access":null,"website":null,"phone":null,"source":"OpenStreetMap/node/2880140933","sourceUpdatedAt":null,"verifiedAt":null}},{"type":"Feature","geometry":{"type":"Point","coordinates":[8.7900708,50.3512356]},"properties":{"id":"bikerack:96ed0c71-e56f-42cd-8233-6a974ee789c1","kind":"bikerack","longitude":8.7900708,"latitude":50.3512356,"name":"Fahrradabstellplatz","city":"Friedberg","address":null,"covered":false,"access":null,"website":null,"phone":null,"source":"OpenStreetMap/node/2880140926","sourceUpdatedAt":null,"verifiedAt":null}},{"type":"Feature","geometry":{"type":"Point","coordinates":[8.820917,50.3591757]},"properties":{"id":"bikerack:c0213850-7420-4dd9-96a1-56dd76444101","kind":"bikerack","longitude":8.820917,"latitude":50.3591757,"name":"Fahrradabstellplatz","city":"Wolfersheim","address":null,"covered":false,"access":null,"website":null,"phone":null,"source":"OpenStreetMap/node/11519919871","sourceUpdatedAt":null,"verifiedAt":null}},{"type":"Feature","geometry":{"type":"Point","coordinates":[8.7902052,50.3505447]},"properties":{"id":"bikerack:e443c6de-3e5e-4f43-9ca2-bc326bd0a316","kind":"bikerack","longitude":8.7902052,"latitude":50.3505447,"name":"Fahrradabstellplatz","city":"Friedberg","address":null,"covered":false,"access":null,"website":null,"phone":null,"source":"OpenStreetMap/node/10708037982","sourceUpdatedAt":null,"verifiedAt":null}},{"type":"Feature","geometry":{"type":"Point","coordinates":[8.820912,50.359116]},"properties":{"id":"bikerack:f0bd6c2d-328b-43f9-a521-683b809ecf77","kind":"bikerack","longitude":8.820912,"latitude":50.359116,"name":"Fahrradabstellplatz","city":"Wolfersheim","address":null,"covered":false,"access":null,"website":null,"phone":null,"source":"OpenStreetMap/node/2880140958","sourceUpdatedAt":null,"verifiedAt":null}}]}