{"type":"FeatureCollection","features":[{"type":"Feature","geometry":{"type":"Point","coordinates":[8.8122519,49.6098089]},"properties":{"id":"bikerack:7d5dfccb-4fb4-4562-b9e6-90c69df7d848","kind":"bikerack","longitude":8.8122519,"latitude":49.6098089,"name":"Fahrradabstellplatz","city":"Wald-Michelbach","address":null,"covered":false,"access":null,"website":null,"phone":null,"source":"OpenStreetMap/node/12630408074","sourceUpdatedAt":null,"verifiedAt":null}},{"type":"Feature","geometry":{"type":"Point","coordinates":[8.8031036,49.604557]},"properties":{"id":"bikerack:8bd61883-4c25-4dbd-b908-c246bd9aefa3","kind":"bikerack","longitude":8.8031036,"latitude":49.604557,"name":"Fahrradabstellplatz","city":"Wald-Michelbach","address":null,"covered":false,"access":null,"website":null,"phone":null,"source":"OpenStreetMap/node/12630437917","sourceUpdatedAt":null,"verifiedAt":null}},{"type":"Feature","geometry":{"type":"Point","coordinates":[8.8030992,49.604303]},"properties":{"id":"bikerack:970cacef-a5d1-4b07-87d4-f94de33b4e1b","kind":"bikerack","longitude":8.8030992,"latitude":49.604303,"name":"Fahrradabstellplatz","city":"Wald-Michelbach","address":null,"covered":false,"access":null,"website":null,"phone":null,"source":"OpenStreetMap/node/12630432534","sourceUpdatedAt":null,"verifiedAt":null}},{"type":"Feature","geometry":{"type":"Point","coordinates":[8.8032395,49.6045343]},"properties":{"id":"repair:e274735a-6fe8-46f6-ab93-34ab7402b55f","kind":"repair","longitude":8.8032395,"latitude":49.6045343,"name":"Fahrradreparaturstation","city":"Wald-Michelbach","address":null,"covered":false,"access":null,"website":null,"phone":null,"source":"OpenStreetMap/node/11381376835","sourceUpdatedAt":null,"verifiedAt":null}}]}