{"type":"FeatureCollection","features":[{"type":"Feature","geometry":{"type":"Point","coordinates":[8.7959701,49.3357524]},"properties":{"id":"bikerack:18dfbd7e-da0d-40c5-87e0-9bd2081362e7","kind":"bikerack","longitude":8.7959701,"latitude":49.3357524,"name":"Fahrradabstellplatz","city":"Mauer","address":null,"covered":false,"access":null,"website":null,"phone":null,"source":"OpenStreetMap/node/12259354143","sourceUpdatedAt":null,"verifiedAt":null}},{"type":"Feature","geometry":{"type":"Point","coordinates":[8.7959079,49.3357822]},"properties":{"id":"bikerack:29209dfb-5bf8-44fb-883d-37726d563ced","kind":"bikerack","longitude":8.7959079,"latitude":49.3357822,"name":"Fahrradabstellplatz","city":"Mauer","address":null,"covered":true,"access":null,"website":null,"phone":null,"source":"OpenStreetMap/way/601321796","sourceUpdatedAt":null,"verifiedAt":null}},{"type":"Feature","geometry":{"type":"Point","coordinates":[8.7959697,49.3355549]},"properties":{"id":"bikerack:5419a7b8-96df-479d-8d92-7ea8f845d470","kind":"bikerack","longitude":8.7959697,"latitude":49.3355549,"name":"Fahrradabstellplatz","city":"Mauer","address":null,"covered":false,"access":null,"website":null,"phone":null,"source":"OpenStreetMap/node/12259354142","sourceUpdatedAt":null,"verifiedAt":null}},{"type":"Feature","geometry":{"type":"Point","coordinates":[8.7944596,49.3363564]},"properties":{"id":"bikerack:5506ce86-f9db-4592-9ed8-0539511e6e1f","kind":"bikerack","longitude":8.7944596,"latitude":49.3363564,"name":"Fahrradabstellplatz","city":"Mauer","address":null,"covered":false,"access":null,"website":null,"phone":null,"source":"OpenStreetMap/node/12259354146","sourceUpdatedAt":null,"verifiedAt":null}},{"type":"Feature","geometry":{"type":"Point","coordinates":[8.7998981,49.3396488]},"properties":{"id":"bikerack:8c822bff-366f-4f85-ba6b-43bb7255e93c","kind":"bikerack","longitude":8.7998981,"latitude":49.3396488,"name":"Fahrradabstellplatz","city":"Mauer","address":null,"covered":false,"access":null,"website":null,"phone":null,"source":"OpenStreetMap/node/2744436695","sourceUpdatedAt":null,"verifiedAt":null}},{"type":"Feature","geometry":{"type":"Point","coordinates":[8.7959246,49.3355177]},"properties":{"id":"bikerack:a1b57158-a0ec-4266-83ca-1875e92cc0b2","kind":"bikerack","longitude":8.7959246,"latitude":49.3355177,"name":"Fahrradabstellplatz","city":"Mauer","address":null,"covered":true,"access":null,"website":null,"phone":null,"source":"OpenStreetMap/way/270532789","sourceUpdatedAt":null,"verifiedAt":null}},{"type":"Feature","geometry":{"type":"Point","coordinates":[8.7945196,49.3363344]},"properties":{"id":"bikerack:a4bf5acd-d524-4b54-b911-1714d00cfc42","kind":"bikerack","longitude":8.7945196,"latitude":49.3363344,"name":"Fahrradabstellplatz","city":"Mauer","address":null,"covered":true,"access":null,"website":null,"phone":null,"source":"OpenStreetMap/way/272629644","sourceUpdatedAt":null,"verifiedAt":null}},{"type":"Feature","geometry":{"type":"Point","coordinates":[8.7960335,49.3464775]},"properties":{"id":"bikerack:caca6a71-cda8-47a7-9443-c2a1c7e9a771","kind":"bikerack","longitude":8.7960335,"latitude":49.3464775,"name":"Fahrradabstellplatz","city":"Mauer","address":null,"covered":false,"access":null,"website":null,"phone":null,"source":"OpenStreetMap/node/12312635491","sourceUpdatedAt":null,"verifiedAt":null}},{"type":"Feature","geometry":{"type":"Point","coordinates":[8.793008,49.3470776]},"properties":{"id":"bikerack:e228d6aa-4852-4350-9556-57c549d98569","kind":"bikerack","longitude":8.793008,"latitude":49.3470776,"name":"Fahrradabstellplatz","city":"Mauer","address":null,"covered":false,"access":null,"website":null,"phone":null,"source":"OpenStreetMap/node/6015181753","sourceUpdatedAt":null,"verifiedAt":null}},{"type":"Feature","geometry":{"type":"Point","coordinates":[8.7958426,49.3358136]},"properties":{"id":"repair:a8c27b49-9e59-4d11-b5ec-63b93b83f199","kind":"repair","longitude":8.7958426,"latitude":49.3358136,"name":"ADAC Radservice-Station","city":"Mauer","address":null,"covered":false,"access":null,"website":null,"phone":null,"source":"OpenStreetMap/node/13681689561","sourceUpdatedAt":null,"verifiedAt":null}}]}