{"type":"FeatureCollection","features":[{"type":"Feature","geometry":{"type":"Point","coordinates":[8.8196387,47.4190738]},"properties":{"id":"water:13ae2ea8-a898-4a85-b8df-570ed21d6811","kind":"water","longitude":8.8196387,"latitude":47.4190738,"name":"Drinking Fountain","city":"Wila","address":null,"covered":null,"access":null,"website":null,"phone":null,"source":"OpenStreetMap/node/3731263536","sourceUpdatedAt":null,"verifiedAt":null}},{"type":"Feature","geometry":{"type":"Point","coordinates":[8.7928802,47.4107941]},"properties":{"id":"water:3c08fe7b-eca3-45f2-bbdb-cc75193c4045","kind":"water","longitude":8.7928802,"latitude":47.4107941,"name":"Drinking Fountain","city":"Russikon","address":null,"covered":null,"access":null,"website":null,"phone":null,"source":"OpenStreetMap/node/310848614","sourceUpdatedAt":null,"verifiedAt":null}},{"type":"Feature","geometry":{"type":"Point","coordinates":[8.8089654,47.4192764]},"properties":{"id":"water:5151eab1-a491-402d-a964-029015f64981","kind":"water","longitude":8.8089654,"latitude":47.4192764,"name":"Drinking Fountain","city":"Effretikon / Rikon","address":null,"covered":null,"access":null,"website":null,"phone":null,"source":"OpenStreetMap/node/3613851944","sourceUpdatedAt":null,"verifiedAt":null}},{"type":"Feature","geometry":{"type":"Point","coordinates":[8.7908427,47.410782]},"properties":{"id":"water:5e5e2734-0abf-4586-b3f1-68d540d54cdb","kind":"water","longitude":8.7908427,"latitude":47.410782,"name":"Drinking Fountain","city":"Russikon","address":null,"covered":null,"access":null,"website":null,"phone":null,"source":"OpenStreetMap/node/8284445949","sourceUpdatedAt":null,"verifiedAt":null}},{"type":"Feature","geometry":{"type":"Point","coordinates":[8.8185648,47.4273945]},"properties":{"id":"water:7fa0776b-7e89-42a7-8565-e6887d57ea48","kind":"water","longitude":8.8185648,"latitude":47.4273945,"name":"Drinking Fountain","city":"Wila","address":null,"covered":null,"access":null,"website":null,"phone":null,"source":"OpenStreetMap/node/3731264279","sourceUpdatedAt":null,"verifiedAt":null}},{"type":"Feature","geometry":{"type":"Point","coordinates":[8.817253,47.4267189]},"properties":{"id":"water:8b1c398f-6c18-4e2c-b0d2-4eabf285bc65","kind":"water","longitude":8.817253,"latitude":47.4267189,"name":"Drinking Fountain","city":"Wila","address":null,"covered":null,"access":null,"website":null,"phone":null,"source":"OpenStreetMap/node/3731264124","sourceUpdatedAt":null,"verifiedAt":null}},{"type":"Feature","geometry":{"type":"Point","coordinates":[8.7933325,47.4265484]},"properties":{"id":"water:a0f60b2f-d92a-4a14-94a8-a5fffc6c2e8f","kind":"water","longitude":8.7933325,"latitude":47.4265484,"name":"Drinking Fountain","city":"Effretikon / Rikon","address":null,"covered":null,"access":null,"website":null,"phone":null,"source":"OpenStreetMap/node/3772182508","sourceUpdatedAt":null,"verifiedAt":null}},{"type":"Feature","geometry":{"type":"Point","coordinates":[8.7927543,47.4108921]},"properties":{"id":"water:bc344e07-02c4-430c-afc6-229593138466","kind":"water","longitude":8.7927543,"latitude":47.4108921,"name":"Drinking Fountain","city":"Russikon","address":null,"covered":null,"access":null,"website":null,"phone":null,"source":"OpenStreetMap/node/12168458522","sourceUpdatedAt":null,"verifiedAt":null}},{"type":"Feature","geometry":{"type":"Point","coordinates":[8.8000853,47.4184057]},"properties":{"id":"water:dc726014-1bf8-4520-9c1c-0b7f70a4df17","kind":"water","longitude":8.8000853,"latitude":47.4184057,"name":"Drinking Fountain","city":"Effretikon / Rikon","address":null,"covered":null,"access":null,"website":null,"phone":null,"source":"OpenStreetMap/node/3772182240","sourceUpdatedAt":null,"verifiedAt":null}},{"type":"Feature","geometry":{"type":"Point","coordinates":[8.816408,47.4273616]},"properties":{"id":"water:ded1f00b-b537-4af9-9bb0-d841ce0e5616","kind":"water","longitude":8.816408,"latitude":47.4273616,"name":"Drinking Fountain","city":"Effretikon / Rikon","address":null,"covered":null,"access":null,"website":null,"phone":null,"source":"OpenStreetMap/node/3760936728","sourceUpdatedAt":null,"verifiedAt":null}}]}