{"type":"FeatureCollection","features":[{"type":"Feature","geometry":{"type":"Point","coordinates":[8.8328538,45.6263624]},"properties":{"id":"bikerack:c0fc72e2-3384-4b88-816b-1ff604674c26","kind":"bikerack","longitude":8.8328538,"latitude":45.6263624,"name":"Parcheggio bici","city":"Busto Arsizio","address":null,"covered":false,"access":null,"website":null,"phone":null,"source":"OpenStreetMap/node/6099754181","sourceUpdatedAt":null,"verifiedAt":null}},{"type":"Feature","geometry":{"type":"Point","coordinates":[8.825235,45.6255798]},"properties":{"id":"bikerack:c68f094d-e849-4405-8092-b9dbbcc7f169","kind":"bikerack","longitude":8.825235,"latitude":45.6255798,"name":"Parcheggio bici","city":"Busto Arsizio","address":null,"covered":true,"access":null,"website":null,"phone":null,"source":"OpenStreetMap/way/223388469","sourceUpdatedAt":null,"verifiedAt":null}},{"type":"Feature","geometry":{"type":"Point","coordinates":[8.7927517,45.6424706]},"properties":{"id":"bikerack:cb85b580-de93-4036-b598-db3e65658767","kind":"bikerack","longitude":8.7927517,"latitude":45.6424706,"name":"Parcheggio bici","city":"Gallarate","address":null,"covered":false,"access":null,"website":null,"phone":null,"source":"OpenStreetMap/way/1478825358","sourceUpdatedAt":null,"verifiedAt":null}},{"type":"Feature","geometry":{"type":"Point","coordinates":[8.8282993,45.6268053]},"properties":{"id":"bikerack:ea822895-636c-4876-ba3e-de0a49fcdca4","kind":"bikerack","longitude":8.8282993,"latitude":45.6268053,"name":"Parcheggio bici","city":"Busto Arsizio","address":null,"covered":false,"access":null,"website":null,"phone":null,"source":"OpenStreetMap/node/5890382310","sourceUpdatedAt":null,"verifiedAt":null}},{"type":"Feature","geometry":{"type":"Point","coordinates":[8.8279934,45.6264008]},"properties":{"id":"bikerack:f562cad1-ad70-416e-9605-55024f959e99","kind":"bikerack","longitude":8.8279934,"latitude":45.6264008,"name":"Parcheggio bici","city":"Busto Arsizio","address":null,"covered":false,"access":null,"website":null,"phone":null,"source":"OpenStreetMap/node/5890382309","sourceUpdatedAt":null,"verifiedAt":null}},{"type":"Feature","geometry":{"type":"Point","coordinates":[8.8306912,45.6247855]},"properties":{"id":"water:f9a225f7-d1bd-46ca-bfd3-a1cb56ca572e","kind":"water","longitude":8.8306912,"latitude":45.6247855,"name":"Fontanella","city":"Busto Arsizio","address":null,"covered":null,"access":null,"website":null,"phone":null,"source":"OpenStreetMap/node/10980970668","sourceUpdatedAt":null,"verifiedAt":null}}]}