{"type":"FeatureCollection","features":[{"type":"Feature","geometry":{"type":"Point","coordinates":[22.2322004,50.2985676]},"properties":{"id":"bikerack:0f981875-e274-4f48-b256-870bfa54c683","kind":"bikerack","longitude":22.2322004,"latitude":50.2985676,"name":"Biciklitároló","city":"Wola Zarczycka","address":null,"covered":false,"access":null,"website":null,"phone":null,"source":"OpenStreetMap/node/10764316432","sourceUpdatedAt":null,"verifiedAt":null}},{"type":"Feature","geometry":{"type":"Point","coordinates":[22.2204455,50.2991144]},"properties":{"id":"bikerack:79c2b978-fb4e-404d-9c15-b405ac60a8ae","kind":"bikerack","longitude":22.2204455,"latitude":50.2991144,"name":"Biciklitároló","city":"Letownia","address":null,"covered":false,"access":null,"website":null,"phone":null,"source":"OpenStreetMap/node/11033250668","sourceUpdatedAt":null,"verifiedAt":null}}]}