{"type":"FeatureCollection","features":[{"type":"Feature","geometry":{"type":"Point","coordinates":[22.2178734,48.9883647]},"properties":{"id":"bikerack:1a0b3358-0b01-439c-b672-3768e582b591","kind":"bikerack","longitude":22.2178734,"latitude":48.9883647,"name":"Biciklitároló","city":"Snina","address":null,"covered":false,"access":null,"website":null,"phone":null,"source":"OpenStreetMap/node/12031413226","sourceUpdatedAt":null,"verifiedAt":null}},{"type":"Feature","geometry":{"type":"Point","coordinates":[22.2300537,48.9991184]},"properties":{"id":"bikerack:1dd359e1-d4af-4cc8-9097-ac6aa6939905","kind":"bikerack","longitude":22.2300537,"latitude":48.9991184,"name":"Biciklitároló","city":"Snina","address":null,"covered":false,"access":null,"website":null,"phone":null,"source":"OpenStreetMap/node/12031413196","sourceUpdatedAt":null,"verifiedAt":null}},{"type":"Feature","geometry":{"type":"Point","coordinates":[22.2178185,48.9883903]},"properties":{"id":"bikerack:ab806eb5-4191-448c-b8fd-7f2dc127b3a4","kind":"bikerack","longitude":22.2178185,"latitude":48.9883903,"name":"Biciklitároló","city":"Snina","address":null,"covered":false,"access":null,"website":null,"phone":null,"source":"OpenStreetMap/node/12031413227","sourceUpdatedAt":null,"verifiedAt":null}},{"type":"Feature","geometry":{"type":"Point","coordinates":[22.2300641,48.9990572]},"properties":{"id":"bikerack:d8951185-ed3c-466c-b86b-1f52146c833e","kind":"bikerack","longitude":22.2300641,"latitude":48.9990572,"name":"Biciklitároló","city":"Snina","address":null,"covered":false,"access":null,"website":null,"phone":null,"source":"OpenStreetMap/node/12031413197","sourceUpdatedAt":null,"verifiedAt":null}},{"type":"Feature","geometry":{"type":"Point","coordinates":[22.2300726,48.9990734]},"properties":{"id":"repair:9d37aef7-4cab-42c2-8b9b-90de63584da2","kind":"repair","longitude":22.2300726,"latitude":48.9990734,"name":"Kerékpár szervizállomás","city":"Snina","address":null,"covered":false,"access":null,"website":null,"phone":null,"source":"OpenStreetMap/node/12031413195","sourceUpdatedAt":null,"verifiedAt":null}},{"type":"Feature","geometry":{"type":"Point","coordinates":[22.2303612,49.001003]},"properties":{"id":"water:4f439793-e0b1-4137-84dd-6bb83226ecda","kind":"water","longitude":22.2303612,"latitude":49.001003,"name":"Ivókút","city":"Snina","address":null,"covered":null,"access":null,"website":null,"phone":null,"source":"OpenStreetMap/node/8261488065","sourceUpdatedAt":null,"verifiedAt":null}}]}