{"type":"FeatureCollection","features":[{"type":"Feature","geometry":{"type":"Point","coordinates":[16.4864586,53.2767659]},"properties":{"id":"bikerack:395e6c3d-b86b-47d2-bca2-399d30d972fa","kind":"bikerack","longitude":16.4864586,"latitude":53.2767659,"name":"Biciklitároló","city":"Walcz","address":null,"covered":false,"access":null,"website":null,"phone":null,"source":"OpenStreetMap/node/12319261600","sourceUpdatedAt":null,"verifiedAt":null}},{"type":"Feature","geometry":{"type":"Point","coordinates":[16.4866111,53.2768316]},"properties":{"id":"bikerack:6dcc4378-fa13-4b07-875c-e441b4fb22e1","kind":"bikerack","longitude":16.4866111,"latitude":53.2768316,"name":"Biciklitároló","city":"Walcz","address":null,"covered":false,"access":null,"website":null,"phone":null,"source":"OpenStreetMap/node/12319238096","sourceUpdatedAt":null,"verifiedAt":null}},{"type":"Feature","geometry":{"type":"Point","coordinates":[16.4881769,53.2768327]},"properties":{"id":"service:4cc9d04f-e815-48ff-883b-175bd3611528","kind":"service","longitude":16.4881769,"latitude":53.2768327,"name":"Rowery Expert","city":"Wałcz","address":null,"covered":null,"access":null,"website":null,"phone":null,"source":"OpenStreetMap/way/356810171","sourceUpdatedAt":null,"verifiedAt":null}},{"type":"Feature","geometry":{"type":"Point","coordinates":[16.4853797,53.2768322]},"properties":{"id":"service:7b4f6ffe-afd1-4988-b36c-3472b52ed57c","kind":"service","longitude":16.4853797,"latitude":53.2768322,"name":"Shumi","city":"Walcz","address":null,"covered":null,"access":null,"website":null,"phone":null,"source":"OpenStreetMap/node/5543708921","sourceUpdatedAt":null,"verifiedAt":null}}]}