{"type":"FeatureCollection","features":[{"type":"Feature","geometry":{"type":"Point","coordinates":[16.7224116,52.4489242]},"properties":{"id":"bikerack:80cdac19-06a0-44f8-8bc2-6dfe67193efb","kind":"bikerack","longitude":16.7224116,"latitude":52.4489242,"name":"Biciklitároló","city":"Tarnowo Podgorne","address":null,"covered":true,"access":null,"website":null,"phone":null,"source":"OpenStreetMap/node/11224055274","sourceUpdatedAt":null,"verifiedAt":null}},{"type":"Feature","geometry":{"type":"Point","coordinates":[16.7079226,52.4496409]},"properties":{"id":"bikerack:80e6427b-9e70-4bae-baed-e7d9865e770d","kind":"bikerack","longitude":16.7079226,"latitude":52.4496409,"name":"Biciklitároló","city":"Tarnowo Podgorne","address":null,"covered":false,"access":null,"website":null,"phone":null,"source":"OpenStreetMap/way/519763377","sourceUpdatedAt":null,"verifiedAt":null}}]}