{"type":"FeatureCollection","features":[{"type":"Feature","geometry":{"type":"Point","coordinates":[16.7109283,49.6289211]},"properties":{"id":"bikerack:19fafe70-9890-485d-90d4-56635daed245","kind":"bikerack","longitude":16.7109283,"latitude":49.6289211,"name":"Bicycle Parking","city":"Jevicko","address":null,"covered":false,"access":null,"website":null,"phone":null,"source":"OpenStreetMap/node/12645921187","sourceUpdatedAt":null,"verifiedAt":null}},{"type":"Feature","geometry":{"type":"Point","coordinates":[16.712161,49.6329938]},"properties":{"id":"bikerack:1a9523bf-f87c-45f6-9e9b-b0f43a81fdc3","kind":"bikerack","longitude":16.712161,"latitude":49.6329938,"name":"Bicycle Parking","city":"Jevicko","address":null,"covered":false,"access":null,"website":null,"phone":null,"source":"OpenStreetMap/node/2954647178","sourceUpdatedAt":null,"verifiedAt":null}},{"type":"Feature","geometry":{"type":"Point","coordinates":[16.7113208,49.6324725]},"properties":{"id":"bikerack:ba70643c-4808-446a-89bc-9ed29857e09b","kind":"bikerack","longitude":16.7113208,"latitude":49.6324725,"name":"Bicycle Parking","city":"Jevicko","address":null,"covered":false,"access":null,"website":null,"phone":null,"source":"OpenStreetMap/node/2954647086","sourceUpdatedAt":null,"verifiedAt":null}},{"type":"Feature","geometry":{"type":"Point","coordinates":[16.711448,49.6330008]},"properties":{"id":"bikerack:e30aceb4-1139-4e75-9cd4-bbc8d51aa44b","kind":"bikerack","longitude":16.711448,"latitude":49.6330008,"name":"Bicycle Parking","city":"Jevicko","address":null,"covered":false,"access":null,"website":null,"phone":null,"source":"OpenStreetMap/node/2954647182","sourceUpdatedAt":null,"verifiedAt":null}},{"type":"Feature","geometry":{"type":"Point","coordinates":[16.711691,49.633055]},"properties":{"id":"bikerack:e92c708f-b292-44cc-a13d-8db1d114a7cc","kind":"bikerack","longitude":16.711691,"latitude":49.633055,"name":"Bicycle Parking","city":"Jevicko","address":null,"covered":false,"access":null,"website":null,"phone":null,"source":"OpenStreetMap/node/2954647193","sourceUpdatedAt":null,"verifiedAt":null}},{"type":"Feature","geometry":{"type":"Point","coordinates":[16.7081074,49.6319361]},"properties":{"id":"water:6380bcdf-9d53-42a2-b810-b59e0eba86e5","kind":"water","longitude":16.7081074,"latitude":49.6319361,"name":"Drinking Fountain","city":"Jevicko","address":null,"covered":null,"access":null,"website":null,"phone":null,"source":"OpenStreetMap/node/11161393869","sourceUpdatedAt":null,"verifiedAt":null}}]}