{"type":"FeatureCollection","features":[{"type":"Feature","geometry":{"type":"Point","coordinates":[16.7362854,48.7367173]},"properties":{"id":"bikerack:c5eeee46-a68e-40e2-96ad-1371b9986639","kind":"bikerack","longitude":16.7362854,"latitude":48.7367173,"name":"Bicycle Parking","city":"Valtice","address":null,"covered":false,"access":null,"website":null,"phone":null,"source":"OpenStreetMap/node/13317262417","sourceUpdatedAt":null,"verifiedAt":null}},{"type":"Feature","geometry":{"type":"Point","coordinates":[16.7217088,48.7246123]},"properties":{"id":"bikerack:f964d021-3b6b-407c-b929-2463926f4bf8","kind":"bikerack","longitude":16.7217088,"latitude":48.7246123,"name":"Biciklitároló","city":"Schrattenberg","address":null,"covered":false,"access":null,"website":null,"phone":null,"source":"OpenStreetMap/node/12116540275","sourceUpdatedAt":null,"verifiedAt":null}},{"type":"Feature","geometry":{"type":"Point","coordinates":[16.7217288,48.7246167]},"properties":{"id":"repair:7c3a77c1-3d04-43c9-ac39-80a144facf2c","kind":"repair","longitude":16.7217288,"latitude":48.7246167,"name":"Kerékpár szervizállomás","city":"Schrattenberg","address":null,"covered":false,"access":null,"website":null,"phone":null,"source":"OpenStreetMap/node/12116540274","sourceUpdatedAt":null,"verifiedAt":null}},{"type":"Feature","geometry":{"type":"Point","coordinates":[16.7217407,48.7244891]},"properties":{"id":"water:b86dd1d5-ebf0-45ad-bffb-cdfdced25319","kind":"water","longitude":16.7217407,"latitude":48.7244891,"name":"Ivókút","city":"Schrattenberg","address":null,"covered":null,"access":null,"website":null,"phone":null,"source":"OpenStreetMap/node/12116540273","sourceUpdatedAt":null,"verifiedAt":null}}]}