{"type":"FeatureCollection","features":[{"type":"Feature","geometry":{"type":"Point","coordinates":[16.7343832,48.5008669]},"properties":{"id":"bikerack:2787e7c3-3c24-4587-a708-4070dacf76ad","kind":"bikerack","longitude":16.7343832,"latitude":48.5008669,"name":"Biciklitároló","city":"Zistersdorf","address":null,"covered":false,"access":null,"website":null,"phone":null,"source":"OpenStreetMap/node/12098479824","sourceUpdatedAt":null,"verifiedAt":null}},{"type":"Feature","geometry":{"type":"Point","coordinates":[16.7420211,48.4986318]},"properties":{"id":"repair:c02e4669-77d6-4121-aaa8-bedd055ea940","kind":"repair","longitude":16.7420211,"latitude":48.4986318,"name":"Kerékpár szervizállomás","city":"Spannberg","address":null,"covered":false,"access":null,"website":null,"phone":null,"source":"OpenStreetMap/node/13049905219","sourceUpdatedAt":null,"verifiedAt":null}}]}