{"type":"FeatureCollection","features":[{"type":"Feature","geometry":{"type":"Point","coordinates":[16.7051094,48.2458608]},"properties":{"id":"bikerack:c1afe763-ade3-45a4-b548-14ff3c4e16f3","kind":"bikerack","longitude":16.7051094,"latitude":48.2458608,"name":"Biciklitároló","city":"Obersiebenbrunn","address":null,"covered":true,"access":null,"website":null,"phone":null,"source":"OpenStreetMap/node/9519170423","sourceUpdatedAt":null,"verifiedAt":null}},{"type":"Feature","geometry":{"type":"Point","coordinates":[16.7011604,48.251704]},"properties":{"id":"water:2dc3f6e5-85e7-4998-bbdd-123ade9d26b3","kind":"water","longitude":16.7011604,"latitude":48.251704,"name":"Ivókút","city":"Obersiebenbrunn","address":null,"covered":null,"access":null,"website":null,"phone":null,"source":"OpenStreetMap/node/3508853806","sourceUpdatedAt":null,"verifiedAt":null}}]}