{"type":"FeatureCollection","features":[{"type":"Feature","geometry":{"type":"Point","coordinates":[16.7036275,47.9079318]},"properties":{"id":"water:42f4d100-fac1-425d-ac3a-9edbff06b2a7","kind":"water","longitude":16.7036275,"latitude":47.9079318,"name":"Ivókút","city":"Breitenbrunn","address":null,"covered":null,"access":null,"website":null,"phone":null,"source":"OpenStreetMap/node/9899637971","sourceUpdatedAt":null,"verifiedAt":null}},{"type":"Feature","geometry":{"type":"Point","coordinates":[16.713094,47.9224187]},"properties":{"id":"water:ad0e7ff3-294d-4e74-940d-db7fced31f25","kind":"water","longitude":16.713094,"latitude":47.9224187,"name":"Ivókút","city":"Breitenbrunn","address":null,"covered":null,"access":null,"website":null,"phone":null,"source":"OpenStreetMap/node/1278047061","sourceUpdatedAt":null,"verifiedAt":null}}]}