{"type":"FeatureCollection","features":[{"type":"Feature","geometry":{"type":"Point","coordinates":[16.7330994,47.3208908]},"properties":{"id":"water:0c67fb1d-22f7-411a-af8b-09e6850eaac8","kind":"water","longitude":16.7330994,"latitude":47.3208908,"name":"Ivókút","city":null,"address":null,"covered":null,"access":null,"website":null,"phone":null,"source":"OpenStreetMap","sourceUpdatedAt":null,"verifiedAt":null}},{"type":"Feature","geometry":{"type":"Point","coordinates":[16.7368528,47.3242384]},"properties":{"id":"water:4dc9fccf-8b82-43e6-84b6-4dda059246bd","kind":"water","longitude":16.7368528,"latitude":47.3242384,"name":"Ivókút","city":null,"address":null,"covered":null,"access":null,"website":null,"phone":null,"source":"OpenStreetMap","sourceUpdatedAt":null,"verifiedAt":null}},{"type":"Feature","geometry":{"type":"Point","coordinates":[16.73422,47.323793]},"properties":{"id":"water:90df3355-3fc2-4e40-98ff-86402262ec70","kind":"water","longitude":16.73422,"latitude":47.323793,"name":"Ivókút","city":null,"address":null,"covered":null,"access":null,"website":null,"phone":null,"source":"OpenStreetMap","sourceUpdatedAt":null,"verifiedAt":null}}]}