{"type":"FeatureCollection","features":[{"type":"Feature","geometry":{"type":"Point","coordinates":[19.5730842,53.582362]},"properties":{"id":"bikerack:088eab16-914b-4fc6-9316-0d70519fa4e4","kind":"bikerack","longitude":19.5730842,"latitude":53.582362,"name":"Biciklitároló","city":"Ilawa","address":null,"covered":true,"access":null,"website":null,"phone":null,"source":"OpenStreetMap/node/10137278940","sourceUpdatedAt":null,"verifiedAt":null}},{"type":"Feature","geometry":{"type":"Point","coordinates":[19.5652407,53.5903312]},"properties":{"id":"bikerack:11472653-c33e-45b8-9d97-ddd05d9d7a38","kind":"bikerack","longitude":19.5652407,"latitude":53.5903312,"name":"Biciklitároló","city":"Ilawa","address":null,"covered":false,"access":null,"website":null,"phone":null,"source":"OpenStreetMap/node/13071268001","sourceUpdatedAt":null,"verifiedAt":null}},{"type":"Feature","geometry":{"type":"Point","coordinates":[19.5657551,53.5893713]},"properties":{"id":"bikerack:406332bf-37ba-44b3-ac0f-74d78cea717f","kind":"bikerack","longitude":19.5657551,"latitude":53.5893713,"name":"Biciklitároló","city":"Ilawa","address":null,"covered":false,"access":null,"website":null,"phone":null,"source":"OpenStreetMap/node/13071266001","sourceUpdatedAt":null,"verifiedAt":null}},{"type":"Feature","geometry":{"type":"Point","coordinates":[19.5621459,53.5834612]},"properties":{"id":"bikerack:79be2eaf-aabc-4d5f-951c-e5dc37de701b","kind":"bikerack","longitude":19.5621459,"latitude":53.5834612,"name":"Biciklitároló","city":"Ilawa","address":null,"covered":false,"access":null,"website":null,"phone":null,"source":"OpenStreetMap/node/13071143101","sourceUpdatedAt":null,"verifiedAt":null}},{"type":"Feature","geometry":{"type":"Point","coordinates":[19.5650659,53.5914008]},"properties":{"id":"bikerack:9999a2cb-0e2a-4fe7-af8e-b291128b1136","kind":"bikerack","longitude":19.5650659,"latitude":53.5914008,"name":"Biciklitároló","city":"Ilawa","address":null,"covered":false,"access":null,"website":null,"phone":null,"source":"OpenStreetMap/node/13071269001","sourceUpdatedAt":null,"verifiedAt":null}},{"type":"Feature","geometry":{"type":"Point","coordinates":[19.5663684,53.5879229]},"properties":{"id":"bikerack:a77d8cdf-a3cd-4a23-b0c5-a7ed0698d356","kind":"bikerack","longitude":19.5663684,"latitude":53.5879229,"name":"Biciklitároló","city":"Ilawa","address":null,"covered":false,"access":null,"website":null,"phone":null,"source":"OpenStreetMap/node/13071263401","sourceUpdatedAt":null,"verifiedAt":null}},{"type":"Feature","geometry":{"type":"Point","coordinates":[19.5726661,53.582892]},"properties":{"id":"bikerack:af8bae4e-bb0b-48d8-959a-873e6c23bbd4","kind":"bikerack","longitude":19.5726661,"latitude":53.582892,"name":"Biciklitároló","city":"Ilawa","address":null,"covered":false,"access":null,"website":null,"phone":null,"source":"OpenStreetMap/way/1195009662","sourceUpdatedAt":null,"verifiedAt":null}},{"type":"Feature","geometry":{"type":"Point","coordinates":[19.566023,53.5888462]},"properties":{"id":"bikerack:e3131259-e9a6-4ecd-881d-643522460bd2","kind":"bikerack","longitude":19.566023,"latitude":53.5888462,"name":"Biciklitároló","city":"Ilawa","address":null,"covered":false,"access":null,"website":null,"phone":null,"source":"OpenStreetMap/node/13071265901","sourceUpdatedAt":null,"verifiedAt":null}},{"type":"Feature","geometry":{"type":"Point","coordinates":[19.572898,53.5833157]},"properties":{"id":"bikerack:f5d1cce6-f292-4642-acd1-a32a40e9e3f4","kind":"bikerack","longitude":19.572898,"latitude":53.5833157,"name":"Biciklitároló","city":"Ilawa","address":null,"covered":false,"access":null,"website":null,"phone":null,"source":"OpenStreetMap/way/1195009657","sourceUpdatedAt":null,"verifiedAt":null}},{"type":"Feature","geometry":{"type":"Point","coordinates":[19.5699202,53.589491]},"properties":{"id":"service:657bf486-8546-4061-a81e-f2013685bf71","kind":"service","longitude":19.5699202,"latitude":53.589491,"name":"Folta","city":"Ilawa","address":null,"covered":null,"access":null,"website":null,"phone":null,"source":"OpenStreetMap/node/11292881913","sourceUpdatedAt":null,"verifiedAt":null}},{"type":"Feature","geometry":{"type":"Point","coordinates":[19.5669165,53.5895906]},"properties":{"id":"service:7f47b578-fbe4-4611-90b6-2eccf42b591e","kind":"service","longitude":19.5669165,"latitude":53.5895906,"name":"Polzbyt","city":"Ilawa","address":null,"covered":null,"access":null,"website":null,"phone":null,"source":"OpenStreetMap/node/11292881916","sourceUpdatedAt":null,"verifiedAt":null}},{"type":"Feature","geometry":{"type":"Point","coordinates":[19.5707778,53.5885043]},"properties":{"id":"service:e4dd267a-3218-44ce-a7a4-7547f2d3915a","kind":"service","longitude":19.5707778,"latitude":53.5885043,"name":"Dwa Koła","city":"Ilawa","address":null,"covered":null,"access":null,"website":null,"phone":null,"source":"OpenStreetMap/node/11292881917","sourceUpdatedAt":null,"verifiedAt":null}}]}