{"type":"FeatureCollection","features":[{"type":"Feature","geometry":{"type":"Point","coordinates":[19.5956,47.247967]},"properties":{"id":"water:c6f0a7d3-d47a-45de-9edf-5913dc21cf49","kind":"water","longitude":19.5956,"latitude":47.247967,"name":"Ivókút","city":null,"address":null,"covered":null,"access":null,"website":null,"phone":null,"source":"OpenStreetMap","sourceUpdatedAt":null,"verifiedAt":null}},{"type":"Feature","geometry":{"type":"Point","coordinates":[19.5992,47.246783]},"properties":{"id":"water:f51b3176-b78c-40d1-9f9d-637f008a6f0b","kind":"water","longitude":19.5992,"latitude":47.246783,"name":"Ivókút","city":null,"address":null,"covered":null,"access":null,"website":null,"phone":null,"source":"OpenStreetMap","sourceUpdatedAt":null,"verifiedAt":null}}]}