{"type":"FeatureCollection","features":[{"type":"Feature","geometry":{"type":"Point","coordinates":[8.2115678,51.9597737]},"properties":{"id":"bikerack:014e4211-5ee7-44b7-af27-abd694698c67","kind":"bikerack","longitude":8.2115678,"latitude":51.9597737,"name":"Fahrradabstellplatz","city":"Harsewinkel","address":null,"covered":true,"access":null,"website":null,"phone":null,"source":"OpenStreetMap/way/534246310","sourceUpdatedAt":null,"verifiedAt":null}},{"type":"Feature","geometry":{"type":"Point","coordinates":[8.2175596,51.9621358]},"properties":{"id":"bikerack:123fd355-4f41-4a60-a09e-30a3741013ac","kind":"bikerack","longitude":8.2175596,"latitude":51.9621358,"name":"Fahrradabstellplatz","city":"Harsewinkel","address":null,"covered":false,"access":null,"website":null,"phone":null,"source":"OpenStreetMap/way/152349714","sourceUpdatedAt":null,"verifiedAt":null}},{"type":"Feature","geometry":{"type":"Point","coordinates":[8.2167995,51.9592675]},"properties":{"id":"bikerack:433324f3-9014-4f71-a418-14c59cda63d8","kind":"bikerack","longitude":8.2167995,"latitude":51.9592675,"name":"Fahrradabstellplatz","city":"Harsewinkel","address":null,"covered":true,"access":null,"website":null,"phone":null,"source":"OpenStreetMap/way/1353610690","sourceUpdatedAt":null,"verifiedAt":null}},{"type":"Feature","geometry":{"type":"Point","coordinates":[8.2167745,51.9593]},"properties":{"id":"bikerack:aba7ebe7-87a0-48ff-ad48-b052cd367d97","kind":"bikerack","longitude":8.2167745,"latitude":51.9593,"name":"Fahrradabstellplatz","city":"Harsewinkel","address":null,"covered":true,"access":null,"website":null,"phone":null,"source":"OpenStreetMap/way/312303809","sourceUpdatedAt":null,"verifiedAt":null}},{"type":"Feature","geometry":{"type":"Point","coordinates":[8.2065866,51.9604424]},"properties":{"id":"bikerack:b7f46c2d-37f1-47d7-8dc0-35b37504a723","kind":"bikerack","longitude":8.2065866,"latitude":51.9604424,"name":"Fahrradabstellplatz","city":"Harsewinkel","address":null,"covered":false,"access":null,"website":null,"phone":null,"source":"OpenStreetMap/way/889539406","sourceUpdatedAt":null,"verifiedAt":null}}]}