{"type":"FeatureCollection","features":[{"type":"Feature","geometry":{"type":"Point","coordinates":[8.2175964,48.2907709]},"properties":{"id":"bikerack:343c59e5-d80b-4e3c-baaa-dc58bc20e9fd","kind":"bikerack","longitude":8.2175964,"latitude":48.2907709,"name":"Fahrradabstellplatz","city":"Wolfach","address":null,"covered":false,"access":null,"website":null,"phone":null,"source":"OpenStreetMap/node/12010066416","sourceUpdatedAt":null,"verifiedAt":null}},{"type":"Feature","geometry":{"type":"Point","coordinates":[8.1800597,48.2852123]},"properties":{"id":"bikerack:3f421cfc-70fa-470e-892d-a2c8b855bd55","kind":"bikerack","longitude":8.1800597,"latitude":48.2852123,"name":"Fahrradabstellplatz","city":"Hausach","address":null,"covered":true,"access":null,"website":null,"phone":null,"source":"OpenStreetMap/way/1284645642","sourceUpdatedAt":null,"verifiedAt":null}},{"type":"Feature","geometry":{"type":"Point","coordinates":[8.1805291,48.2852034]},"properties":{"id":"bikerack:9171bcfc-aa98-4c47-bad2-ccda6d0a8f4c","kind":"bikerack","longitude":8.1805291,"latitude":48.2852034,"name":"Fahrradabstellplatz","city":"Hausach","address":null,"covered":true,"access":null,"website":null,"phone":null,"source":"OpenStreetMap/way/25357242","sourceUpdatedAt":null,"verifiedAt":null}},{"type":"Feature","geometry":{"type":"Point","coordinates":[8.2133545,48.2907771]},"properties":{"id":"bikerack:e2ca4e60-fef1-40f8-af6c-23a6a875e403","kind":"bikerack","longitude":8.2133545,"latitude":48.2907771,"name":"Fahrradabstellplatz","city":"Wolfach","address":null,"covered":false,"access":null,"website":null,"phone":null,"source":"OpenStreetMap/way/515269876","sourceUpdatedAt":null,"verifiedAt":null}},{"type":"Feature","geometry":{"type":"Point","coordinates":[8.180313,48.2851881]},"properties":{"id":"bikerack:f0ede28b-cedd-4fd9-bcbc-f53c5b5f2372","kind":"bikerack","longitude":8.180313,"latitude":48.2851881,"name":"Fahrradabstellplatz","city":"Hausach","address":null,"covered":true,"access":null,"website":null,"phone":null,"source":"OpenStreetMap/way/1472780404","sourceUpdatedAt":null,"verifiedAt":null}},{"type":"Feature","geometry":{"type":"Point","coordinates":[8.176899,48.2859335]},"properties":{"id":"repair:1d9d5b5e-31c7-4be8-95f7-c8a99f0b51eb","kind":"repair","longitude":8.176899,"latitude":48.2859335,"name":"ADAC Radservice-Station","city":"Hausach","address":null,"covered":false,"access":null,"website":null,"phone":null,"source":"OpenStreetMap/node/12794301730","sourceUpdatedAt":null,"verifiedAt":null}},{"type":"Feature","geometry":{"type":"Point","coordinates":[8.1944632,48.3083779]},"properties":{"id":"water:29e44929-f1a3-4b4d-aefa-369f6321e004","kind":"water","longitude":8.1944632,"latitude":48.3083779,"name":"Trinkwasser","city":"Oberwolfach","address":null,"covered":null,"access":null,"website":null,"phone":null,"source":"OpenStreetMap/node/727962548","sourceUpdatedAt":null,"verifiedAt":null}},{"type":"Feature","geometry":{"type":"Point","coordinates":[8.1897599,48.304342]},"properties":{"id":"water:52d5c973-70d2-4205-8221-472c00ce4962","kind":"water","longitude":8.1897599,"latitude":48.304342,"name":"Wendelsbrunnen","city":"Hausach","address":null,"covered":null,"access":null,"website":null,"phone":null,"source":"OpenStreetMap/node/727996209","sourceUpdatedAt":null,"verifiedAt":null}}]}