{"type":"FeatureCollection","features":[{"type":"Feature","geometry":{"type":"Point","coordinates":[13.6209276,52.3760484]},"properties":{"id":"bikerack:55c60719-ae6a-4278-9968-98eb4ae4a70a","kind":"bikerack","longitude":13.6209276,"latitude":52.3760484,"name":"Fahrradabstellplatz","city":"Zeuthen","address":null,"covered":false,"access":null,"website":null,"phone":null,"source":"OpenStreetMap/node/9346497100","sourceUpdatedAt":null,"verifiedAt":null}},{"type":"Feature","geometry":{"type":"Point","coordinates":[13.5810622,52.3984996]},"properties":{"id":"bikerack:a3cd1459-dd10-4629-b158-dd74959d4efc","kind":"bikerack","longitude":13.5810622,"latitude":52.3984996,"name":"Fahrradabstellplatz","city":"Bohnsdorf","address":null,"covered":false,"access":null,"website":null,"phone":null,"source":"OpenStreetMap/node/11838220646","sourceUpdatedAt":null,"verifiedAt":null}},{"type":"Feature","geometry":{"type":"Point","coordinates":[13.6204642,52.3758553]},"properties":{"id":"bikerack:b29986a2-244f-47b8-882c-0a0b5fbdc66a","kind":"bikerack","longitude":13.6204642,"latitude":52.3758553,"name":"Fahrradabstellplatz","city":"Zeuthen","address":null,"covered":false,"access":null,"website":null,"phone":null,"source":"OpenStreetMap/node/9346497078","sourceUpdatedAt":null,"verifiedAt":null}},{"type":"Feature","geometry":{"type":"Point","coordinates":[13.587236,52.3794879]},"properties":{"id":"bikerack:e51160b3-a2e9-44df-b66f-fbeec873da6b","kind":"bikerack","longitude":13.587236,"latitude":52.3794879,"name":"Fahrradabstellplatz","city":"Schulzendorf","address":null,"covered":false,"access":null,"website":null,"phone":null,"source":"OpenStreetMap/node/1234120060","sourceUpdatedAt":null,"verifiedAt":null}},{"type":"Feature","geometry":{"type":"Point","coordinates":[13.5859139,52.39434]},"properties":{"id":"bikerack:e99d1dfa-090c-421d-a7cf-24ee984bd7b0","kind":"bikerack","longitude":13.5859139,"latitude":52.39434,"name":"Fahrradabstellplatz","city":"Bohnsdorf","address":null,"covered":false,"access":null,"website":null,"phone":null,"source":"OpenStreetMap/node/1683679333","sourceUpdatedAt":null,"verifiedAt":null}}]}