{"type":"FeatureCollection","features":[{"type":"Feature","geometry":{"type":"Point","coordinates":[13.6137717,51.2262967]},"properties":{"id":"bikerack:031721e1-6b64-46d1-b135-da02bd72ad3f","kind":"bikerack","longitude":13.6137717,"latitude":51.2262967,"name":"Fahrradabstellplatz","city":"Ebersbach","address":null,"covered":false,"access":null,"website":null,"phone":null,"source":"OpenStreetMap/way/164208870","sourceUpdatedAt":null,"verifiedAt":null}},{"type":"Feature","geometry":{"type":"Point","coordinates":[13.6105607,51.2271157]},"properties":{"id":"bikerack:607ff3b1-e0a6-4f20-b34a-beb156a70937","kind":"bikerack","longitude":13.6105607,"latitude":51.2271157,"name":"Fahrradabstellplatz","city":"Ebersbach","address":null,"covered":false,"access":null,"website":null,"phone":null,"source":"OpenStreetMap/node/7997548901","sourceUpdatedAt":null,"verifiedAt":null}}]}