{"type":"FeatureCollection","features":[{"type":"Feature","geometry":{"type":"Point","coordinates":[13.5988198,46.1095535]},"properties":{"id":"water:14de4e6f-7f46-48fb-868a-5f866d8b1e1f","kind":"water","longitude":13.5988198,"latitude":46.1095535,"name":"Fontanella","city":"Stregna","address":null,"covered":null,"access":null,"website":null,"phone":null,"source":"OpenStreetMap/node/4985354962","sourceUpdatedAt":null,"verifiedAt":null}},{"type":"Feature","geometry":{"type":"Point","coordinates":[13.5944433,46.1066529]},"properties":{"id":"water:6dfc1441-5481-4dce-9ad7-c79452c91487","kind":"water","longitude":13.5944433,"latitude":46.1066529,"name":"Fontanella","city":"Stregna","address":null,"covered":null,"access":null,"website":null,"phone":null,"source":"OpenStreetMap/node/4985362131","sourceUpdatedAt":null,"verifiedAt":null}},{"type":"Feature","geometry":{"type":"Point","coordinates":[13.6138598,46.120239]},"properties":{"id":"water:adf2b97e-ccb0-44c9-acf1-8133c3e01ac2","kind":"water","longitude":13.6138598,"latitude":46.120239,"name":"Fontanella","city":"Stregna","address":null,"covered":null,"access":null,"website":null,"phone":null,"source":"OpenStreetMap/node/9252567523","sourceUpdatedAt":null,"verifiedAt":null}}]}