{"type":"FeatureCollection","features":[{"type":"Feature","geometry":{"type":"Point","coordinates":[13.5854352,46.050912]},"properties":{"id":"water:1e374d25-df09-45d0-be1d-26aef17652db","kind":"water","longitude":13.5854352,"latitude":46.050912,"name":"Ivókút","city":"Deskle","address":null,"covered":null,"access":null,"website":null,"phone":null,"source":"OpenStreetMap/node/7556361578","sourceUpdatedAt":null,"verifiedAt":null}},{"type":"Feature","geometry":{"type":"Point","coordinates":[13.6016228,46.0521822]},"properties":{"id":"water:db54a302-1926-4717-a577-9e4ef68fd5f7","kind":"water","longitude":13.6016228,"latitude":46.0521822,"name":"Ivókút","city":"Deskle","address":null,"covered":null,"access":null,"website":null,"phone":null,"source":"OpenStreetMap/node/9999375851","sourceUpdatedAt":null,"verifiedAt":null}}]}