{"type":"FeatureCollection","features":[{"type":"Feature","geometry":{"type":"Point","coordinates":[17.736204,50.4348234]},"properties":{"id":"bikerack:72822460-ef3d-4270-8373-2cf17cebf023","kind":"bikerack","longitude":17.736204,"latitude":50.4348234,"name":"Biciklitároló","city":"Biala","address":null,"covered":false,"access":null,"website":null,"phone":null,"source":"OpenStreetMap/way/618240273","sourceUpdatedAt":null,"verifiedAt":null}},{"type":"Feature","geometry":{"type":"Point","coordinates":[17.7297183,50.4528945]},"properties":{"id":"bikerack:b9ec0f93-005f-4082-91fb-8b7e2cdffb75","kind":"bikerack","longitude":17.7297183,"latitude":50.4528945,"name":"Biciklitároló","city":"Biala","address":null,"covered":false,"access":null,"website":null,"phone":null,"source":"OpenStreetMap/node/860575592","sourceUpdatedAt":null,"verifiedAt":null}},{"type":"Feature","geometry":{"type":"Point","coordinates":[17.7275799,50.4561361]},"properties":{"id":"bikerack:c3f1db50-58e6-4032-89cd-c7a5a206a625","kind":"bikerack","longitude":17.7275799,"latitude":50.4561361,"name":"Biciklitároló","city":"Biala","address":null,"covered":false,"access":null,"website":null,"phone":null,"source":"OpenStreetMap/node/867274003","sourceUpdatedAt":null,"verifiedAt":null}}]}