{"type":"FeatureCollection","features":[{"type":"Feature","geometry":{"type":"Point","coordinates":[17.751681,49.7767607]},"properties":{"id":"bikerack:0c2550f1-8f58-4c19-ac0b-ca2731c3f40f","kind":"bikerack","longitude":17.751681,"latitude":49.7767607,"name":"Bicycle Parking","city":"Vitkov","address":null,"covered":false,"access":null,"website":null,"phone":null,"source":"OpenStreetMap/node/4502513069","sourceUpdatedAt":null,"verifiedAt":null}},{"type":"Feature","geometry":{"type":"Point","coordinates":[17.7525958,49.775014]},"properties":{"id":"bikerack:546bdfec-7a00-44cc-b534-cffca2046d44","kind":"bikerack","longitude":17.7525958,"latitude":49.775014,"name":"Bicycle Parking","city":"Vitkov","address":null,"covered":false,"access":null,"website":null,"phone":null,"source":"OpenStreetMap/node/4502513082","sourceUpdatedAt":null,"verifiedAt":null}},{"type":"Feature","geometry":{"type":"Point","coordinates":[17.7517297,49.7760692]},"properties":{"id":"bikerack:8e61bd69-c809-4d96-b408-e762ee11e69a","kind":"bikerack","longitude":17.7517297,"latitude":49.7760692,"name":"Bicycle Parking","city":"Vitkov","address":null,"covered":false,"access":null,"website":null,"phone":null,"source":"OpenStreetMap/node/4502512959","sourceUpdatedAt":null,"verifiedAt":null}},{"type":"Feature","geometry":{"type":"Point","coordinates":[17.7519256,49.7760828]},"properties":{"id":"bikerack:a525dd35-c10d-4cbc-8a46-a0c087e3304f","kind":"bikerack","longitude":17.7519256,"latitude":49.7760828,"name":"Bicycle Parking","city":"Vitkov","address":null,"covered":false,"access":null,"website":null,"phone":null,"source":"OpenStreetMap/node/4502512982","sourceUpdatedAt":null,"verifiedAt":null}},{"type":"Feature","geometry":{"type":"Point","coordinates":[17.7516358,49.7760874]},"properties":{"id":"bikerack:ccdf804f-991c-440c-8c33-e7fc3c2e1502","kind":"bikerack","longitude":17.7516358,"latitude":49.7760874,"name":"Bicycle Parking","city":"Vitkov","address":null,"covered":false,"access":null,"website":null,"phone":null,"source":"OpenStreetMap/node/4502512960","sourceUpdatedAt":null,"verifiedAt":null}}]}