{"type":"FeatureCollection","features":[{"type":"Feature","geometry":{"type":"Point","coordinates":[17.7196281,46.7947929]},"properties":{"id":"bikerack:a787c84c-b3af-4450-b84d-68ba15eb29fd","kind":"bikerack","longitude":17.7196281,"latitude":46.7947929,"name":"Biciklitároló","city":"Balatonlelle","address":null,"covered":true,"access":null,"website":null,"phone":null,"source":"OpenStreetMap/node/12960718732","sourceUpdatedAt":null,"verifiedAt":null}},{"type":"Feature","geometry":{"type":"Point","coordinates":[17.7202693,46.7948502]},"properties":{"id":"water:8ccac29b-a80e-4bc6-8d51-7d16c1a6b05b","kind":"water","longitude":17.7202693,"latitude":46.7948502,"name":"Ivókút","city":null,"address":null,"covered":null,"access":null,"website":null,"phone":null,"source":"OpenStreetMap","sourceUpdatedAt":null,"verifiedAt":null}},{"type":"Feature","geometry":{"type":"Point","coordinates":[17.7192226,46.795704]},"properties":{"id":"water:ed3ef94f-f6f5-4b51-81cc-be2980437b00","kind":"water","longitude":17.7192226,"latitude":46.795704,"name":"Ivókút","city":null,"address":null,"covered":null,"access":null,"website":null,"phone":null,"source":"OpenStreetMap","sourceUpdatedAt":null,"verifiedAt":null}}]}