{"type":"FeatureCollection","features":[{"type":"Feature","geometry":{"type":"Point","coordinates":[17.8855736,50.5565356]},"properties":{"id":"bikerack:ac2d6a05-c199-4acb-98cb-2a4d0dc8568c","kind":"bikerack","longitude":17.8855736,"latitude":50.5565356,"name":"Biciklitároló","city":"Proszkow","address":null,"covered":false,"access":null,"website":null,"phone":null,"source":"OpenStreetMap/node/11573671497","sourceUpdatedAt":null,"verifiedAt":null}},{"type":"Feature","geometry":{"type":"Point","coordinates":[17.8853602,50.5565222]},"properties":{"id":"bikerack:c584c4c1-6f22-40c9-b356-0e549d1b37d3","kind":"bikerack","longitude":17.8853602,"latitude":50.5565222,"name":"Biciklitároló","city":"Proszkow","address":null,"covered":false,"access":null,"website":null,"phone":null,"source":"OpenStreetMap/node/11573671493","sourceUpdatedAt":null,"verifiedAt":null}}]}