{"type":"FeatureCollection","features":[{"type":"Feature","geometry":{"type":"Point","coordinates":[17.8534855,46.5522805]},"properties":{"id":"water:5c79f76a-086c-4b4d-9aac-3bd0828d8b4b","kind":"water","longitude":17.8534855,"latitude":46.5522805,"name":"Ivókút","city":null,"address":null,"covered":null,"access":null,"website":null,"phone":null,"source":"OpenStreetMap","sourceUpdatedAt":null,"verifiedAt":null}},{"type":"Feature","geometry":{"type":"Point","coordinates":[17.8556788,46.5527869]},"properties":{"id":"water:da995815-8f99-4fd0-9101-a9003d3d186e","kind":"water","longitude":17.8556788,"latitude":46.5527869,"name":"Ivókút","city":null,"address":null,"covered":null,"access":null,"website":null,"phone":null,"source":"OpenStreetMap","sourceUpdatedAt":null,"verifiedAt":null}}]}