{"type":"FeatureCollection","features":[{"type":"Feature","geometry":{"type":"Point","coordinates":[10.9413713,52.6027105]},"properties":{"id":"bikerack:068427fb-8235-4fc5-97f6-305cea68a698","kind":"bikerack","longitude":10.9413713,"latitude":52.6027105,"name":"Fahrradabstellplatz","city":"Brome","address":null,"covered":true,"access":null,"website":null,"phone":null,"source":"OpenStreetMap/node/3065433090","sourceUpdatedAt":null,"verifiedAt":null}},{"type":"Feature","geometry":{"type":"Point","coordinates":[10.9127278,52.5919474]},"properties":{"id":"bikerack:eda333e3-f878-48f9-a455-ae1c1b743b32","kind":"bikerack","longitude":10.9127278,"latitude":52.5919474,"name":"Fahrradabstellplatz","city":"Brome","address":null,"covered":false,"access":null,"website":null,"phone":null,"source":"OpenStreetMap/node/3093919175","sourceUpdatedAt":null,"verifiedAt":null}}]}