{"type":"FeatureCollection","features":[{"type":"Feature","geometry":{"type":"Point","coordinates":[10.9005886,47.6803744]},"properties":{"id":"bikerack:369e1c14-91aa-4b69-b5b8-3f2a4c29a0da","kind":"bikerack","longitude":10.9005886,"latitude":47.6803744,"name":"Fahrradabstellplatz","city":"Steingaden","address":null,"covered":false,"access":null,"website":null,"phone":null,"source":"OpenStreetMap/node/5106053125","sourceUpdatedAt":null,"verifiedAt":null}},{"type":"Feature","geometry":{"type":"Point","coordinates":[10.8998906,47.6821928]},"properties":{"id":"bikerack:77d0d9f8-c7c4-4635-a1c2-f2edae364b27","kind":"bikerack","longitude":10.8998906,"latitude":47.6821928,"name":"Fahrradabstellplatz","city":"Steingaden","address":null,"covered":false,"access":null,"website":null,"phone":null,"source":"OpenStreetMap/node/6374563842","sourceUpdatedAt":null,"verifiedAt":null}},{"type":"Feature","geometry":{"type":"Point","coordinates":[10.8993388,47.682003]},"properties":{"id":"water:6a8baff5-99b0-40fe-b7b7-01c98b7c2608","kind":"water","longitude":10.8993388,"latitude":47.682003,"name":"Trinkwasser","city":"Steingaden","address":null,"covered":null,"access":null,"website":null,"phone":null,"source":"OpenStreetMap/node/5106053123","sourceUpdatedAt":null,"verifiedAt":null}}]}