{"type":"FeatureCollection","features":[{"type":"Feature","geometry":{"type":"Point","coordinates":[10.8988855,47.2030873]},"properties":{"id":"water:70a731a7-6579-40e5-a321-c861588f8e07","kind":"water","longitude":10.8988855,"latitude":47.2030873,"name":"Judas-Thaddäusbrunnen","city":"Oetz","address":null,"covered":null,"access":null,"website":null,"phone":null,"source":"OpenStreetMap/node/12333424174","sourceUpdatedAt":null,"verifiedAt":null}},{"type":"Feature","geometry":{"type":"Point","coordinates":[10.9082166,47.1940166]},"properties":{"id":"water:8a4e1396-4420-403c-9593-a5664c125e49","kind":"water","longitude":10.9082166,"latitude":47.1940166,"name":"Ivókút","city":"Oetz","address":null,"covered":null,"access":null,"website":null,"phone":null,"source":"OpenStreetMap/node/13227490167","sourceUpdatedAt":null,"verifiedAt":null}},{"type":"Feature","geometry":{"type":"Point","coordinates":[10.9390382,47.1972766]},"properties":{"id":"water:acabf020-f8d5-4516-9767-50980736db1b","kind":"water","longitude":10.9390382,"latitude":47.1972766,"name":"Ivókút","city":"Oetz","address":null,"covered":null,"access":null,"website":null,"phone":null,"source":"OpenStreetMap/node/9907764782","sourceUpdatedAt":null,"verifiedAt":null}},{"type":"Feature","geometry":{"type":"Point","coordinates":[10.9074092,47.1909738]},"properties":{"id":"water:c7bf07f7-ab98-4513-92f6-ce68bf360abe","kind":"water","longitude":10.9074092,"latitude":47.1909738,"name":"Ivókút","city":"Oetz","address":null,"covered":null,"access":null,"website":null,"phone":null,"source":"OpenStreetMap/node/13227537646","sourceUpdatedAt":null,"verifiedAt":null}},{"type":"Feature","geometry":{"type":"Point","coordinates":[10.8985417,47.2039905]},"properties":{"id":"water:eabb5338-ecdc-4746-b9f5-31c080117cd4","kind":"water","longitude":10.8985417,"latitude":47.2039905,"name":"Marienbrunnen","city":"Oetz","address":null,"covered":null,"access":null,"website":null,"phone":null,"source":"OpenStreetMap/node/12333424187","sourceUpdatedAt":null,"verifiedAt":null}},{"type":"Feature","geometry":{"type":"Point","coordinates":[10.8986811,47.2051151]},"properties":{"id":"water:f4c940d9-d0fe-461a-9188-3e4d59df7f1c","kind":"water","longitude":10.8986811,"latitude":47.2051151,"name":"Ivókút","city":"Oetz","address":null,"covered":null,"access":null,"website":null,"phone":null,"source":"OpenStreetMap/node/12333424184","sourceUpdatedAt":null,"verifiedAt":null}}]}