{"type":"FeatureCollection","features":[{"type":"Feature","geometry":{"type":"Point","coordinates":[10.9323312,46.2713045]},"properties":{"id":"water:8837be57-8975-435f-9c8c-ad055f80785e","kind":"water","longitude":10.9323312,"latitude":46.2713045,"name":"Fontanella","city":"Monclassico","address":null,"covered":null,"access":null,"website":null,"phone":null,"source":"OpenStreetMap/node/9179849920","sourceUpdatedAt":null,"verifiedAt":null}},{"type":"Feature","geometry":{"type":"Point","coordinates":[10.932009,46.2716616]},"properties":{"id":"water:b9808b80-ce19-4a62-8891-96e6df0ba540","kind":"water","longitude":10.932009,"latitude":46.2716616,"name":"Fontanella","city":"Monclassico","address":null,"covered":null,"access":null,"website":null,"phone":null,"source":"OpenStreetMap/node/7805647405","sourceUpdatedAt":null,"verifiedAt":null}}]}