{"type":"FeatureCollection","features":[{"type":"Feature","geometry":{"type":"Point","coordinates":[20.8269856,48.0199287]},"properties":{"id":"water:7deb072c-34f7-437c-b1d6-0426ccdec674","kind":"water","longitude":20.8269856,"latitude":48.0199287,"name":"Ivókút","city":null,"address":null,"covered":null,"access":null,"website":null,"phone":null,"source":"OpenStreetMap","sourceUpdatedAt":null,"verifiedAt":null}},{"type":"Feature","geometry":{"type":"Point","coordinates":[20.8283167,48.019603]},"properties":{"id":"water:f37bf3e7-443e-48c3-8c07-df1234e65928","kind":"water","longitude":20.8283167,"latitude":48.019603,"name":"Ivókút","city":null,"address":null,"covered":null,"access":null,"website":null,"phone":null,"source":"OpenStreetMap","sourceUpdatedAt":null,"verifiedAt":null}}]}