{"type":"FeatureCollection","features":[{"type":"Feature","geometry":{"type":"Point","coordinates":[10.7592704,54.0593406]},"properties":{"id":"bikerack:00c672bf-7ac2-484b-b310-2575f80ed102","kind":"bikerack","longitude":10.7592704,"latitude":54.0593406,"name":"Fahrradabstellplatz","city":"Sierksdorf","address":null,"covered":false,"access":null,"website":null,"phone":null,"source":"OpenStreetMap/node/702004191","sourceUpdatedAt":null,"verifiedAt":null}},{"type":"Feature","geometry":{"type":"Point","coordinates":[10.7496401,54.0449963]},"properties":{"id":"bikerack:03f8acb3-ffb3-4c97-a7f5-5d0eda2f6b23","kind":"bikerack","longitude":10.7496401,"latitude":54.0449963,"name":"Fahrradabstellplatz","city":"Scharbeutz","address":null,"covered":false,"access":null,"website":null,"phone":null,"source":"OpenStreetMap/node/500422955","sourceUpdatedAt":null,"verifiedAt":null}},{"type":"Feature","geometry":{"type":"Point","coordinates":[10.7509717,54.0490485]},"properties":{"id":"bikerack:13f4c533-0a5b-41ea-b8d6-fc84d29c7f0b","kind":"bikerack","longitude":10.7509717,"latitude":54.0490485,"name":"Fahrradabstellplatz","city":"Scharbeutz","address":null,"covered":false,"access":null,"website":null,"phone":null,"source":"OpenStreetMap/way/1484481206","sourceUpdatedAt":null,"verifiedAt":null}},{"type":"Feature","geometry":{"type":"Point","coordinates":[10.7523403,54.0514099]},"properties":{"id":"bikerack:1a13b985-1974-43cc-94d8-121f8cdfea9e","kind":"bikerack","longitude":10.7523403,"latitude":54.0514099,"name":"Fahrradabstellplatz","city":"Scharbeutz","address":null,"covered":false,"access":null,"website":null,"phone":null,"source":"OpenStreetMap/node/10176895583","sourceUpdatedAt":null,"verifiedAt":null}},{"type":"Feature","geometry":{"type":"Point","coordinates":[10.7511428,54.0358842]},"properties":{"id":"bikerack:1efd5fcd-0c27-4705-a26c-d1970934d9a4","kind":"bikerack","longitude":10.7511428,"latitude":54.0358842,"name":"Fahrradabstellplatz","city":"Scharbeutz","address":null,"covered":false,"access":null,"website":null,"phone":null,"source":"OpenStreetMap/node/676787120","sourceUpdatedAt":null,"verifiedAt":null}},{"type":"Feature","geometry":{"type":"Point","coordinates":[10.7510003,54.0366044]},"properties":{"id":"bikerack:2b567d9c-6818-4f31-aea7-77d975c4cfff","kind":"bikerack","longitude":10.7510003,"latitude":54.0366044,"name":"Fahrradabstellplatz","city":"Scharbeutz","address":null,"covered":false,"access":null,"website":null,"phone":null,"source":"OpenStreetMap/node/500422815","sourceUpdatedAt":null,"verifiedAt":null}},{"type":"Feature","geometry":{"type":"Point","coordinates":[10.7509224,54.0489752]},"properties":{"id":"bikerack:32502ef3-e65c-47e9-9d14-415c5cf03823","kind":"bikerack","longitude":10.7509224,"latitude":54.0489752,"name":"Fahrradabstellplatz","city":"Scharbeutz","address":null,"covered":false,"access":null,"website":null,"phone":null,"source":"OpenStreetMap/node/500836255","sourceUpdatedAt":null,"verifiedAt":null}},{"type":"Feature","geometry":{"type":"Point","coordinates":[10.7510247,54.0491331]},"properties":{"id":"bikerack:3b78bd54-79a0-4f43-b60a-86c6dd647fde","kind":"bikerack","longitude":10.7510247,"latitude":54.0491331,"name":"Fahrradabstellplatz","city":"Scharbeutz","address":null,"covered":false,"access":null,"website":null,"phone":null,"source":"OpenStreetMap/way/1484481163","sourceUpdatedAt":null,"verifiedAt":null}},{"type":"Feature","geometry":{"type":"Point","coordinates":[10.7503897,54.0382451]},"properties":{"id":"bikerack:3e69d58d-c960-411c-8d7d-d02d2ca683f3","kind":"bikerack","longitude":10.7503897,"latitude":54.0382451,"name":"Fahrradabstellplatz","city":"Scharbeutz","address":null,"covered":false,"access":null,"website":null,"phone":null,"source":"OpenStreetMap/node/500422874","sourceUpdatedAt":null,"verifiedAt":null}},{"type":"Feature","geometry":{"type":"Point","coordinates":[10.750673,54.0377409]},"properties":{"id":"bikerack:4305645f-1ce3-49a5-a62a-b5002567475e","kind":"bikerack","longitude":10.750673,"latitude":54.0377409,"name":"Fahrradabstellplatz","city":"Scharbeutz","address":null,"covered":false,"access":null,"website":null,"phone":null,"source":"OpenStreetMap/node/500422870","sourceUpdatedAt":null,"verifiedAt":null}},{"type":"Feature","geometry":{"type":"Point","coordinates":[10.7522267,54.0340563]},"properties":{"id":"bikerack:4850c8ef-a2a1-4f50-8a66-81ea92c81a86","kind":"bikerack","longitude":10.7522267,"latitude":54.0340563,"name":"Fahrradabstellplatz","city":"Scharbeutz","address":null,"covered":false,"access":null,"website":null,"phone":null,"source":"OpenStreetMap/node/913922964","sourceUpdatedAt":null,"verifiedAt":null}},{"type":"Feature","geometry":{"type":"Point","coordinates":[10.7522207,54.0511784]},"properties":{"id":"bikerack:62c11cf6-56b6-48d8-aaae-f89fb5395008","kind":"bikerack","longitude":10.7522207,"latitude":54.0511784,"name":"Fahrradabstellplatz","city":"Scharbeutz","address":null,"covered":false,"access":null,"website":null,"phone":null,"source":"OpenStreetMap/way/1484480674","sourceUpdatedAt":null,"verifiedAt":null}},{"type":"Feature","geometry":{"type":"Point","coordinates":[10.7500497,54.0393618]},"properties":{"id":"bikerack:7a9ac505-bf59-4dac-835d-368727d49f4f","kind":"bikerack","longitude":10.7500497,"latitude":54.0393618,"name":"Fahrradabstellplatz","city":"Scharbeutz","address":null,"covered":false,"access":null,"website":null,"phone":null,"source":"OpenStreetMap/node/500422891","sourceUpdatedAt":null,"verifiedAt":null}},{"type":"Feature","geometry":{"type":"Point","coordinates":[10.7503175,54.0474001]},"properties":{"id":"bikerack:850c2297-e290-4858-8226-f484f17f69a6","kind":"bikerack","longitude":10.7503175,"latitude":54.0474001,"name":"Fahrradabstellplatz","city":"Scharbeutz","address":null,"covered":false,"access":null,"website":null,"phone":null,"source":"OpenStreetMap/node/500422997","sourceUpdatedAt":null,"verifiedAt":null}},{"type":"Feature","geometry":{"type":"Point","coordinates":[10.7512491,54.0495524]},"properties":{"id":"bikerack:addc11bb-7646-41c9-bdbb-6e004bb5b24a","kind":"bikerack","longitude":10.7512491,"latitude":54.0495524,"name":"Fahrradabstellplatz","city":"Scharbeutz","address":null,"covered":false,"access":null,"website":null,"phone":null,"source":"OpenStreetMap/node/500836257","sourceUpdatedAt":null,"verifiedAt":null}},{"type":"Feature","geometry":{"type":"Point","coordinates":[10.7506201,54.0483758]},"properties":{"id":"bikerack:becf5105-4218-46dc-8a16-65c49568d5c4","kind":"bikerack","longitude":10.7506201,"latitude":54.0483758,"name":"Fahrradabstellplatz","city":"Scharbeutz","address":null,"covered":false,"access":null,"website":null,"phone":null,"source":"OpenStreetMap/way/1484481583","sourceUpdatedAt":null,"verifiedAt":null}},{"type":"Feature","geometry":{"type":"Point","coordinates":[10.7422385,54.0537368]},"properties":{"id":"bikerack:cdcfadff-3802-41db-bdff-2730fbe9096e","kind":"bikerack","longitude":10.7422385,"latitude":54.0537368,"name":"Fahrradabstellplatz","city":"Scharbeutz","address":null,"covered":true,"access":null,"website":null,"phone":null,"source":"OpenStreetMap/node/6385494718","sourceUpdatedAt":null,"verifiedAt":null}},{"type":"Feature","geometry":{"type":"Point","coordinates":[10.7461506,54.047951]},"properties":{"id":"bikerack:cf4bdf2c-9075-4e60-ac21-472a72ab6786","kind":"bikerack","longitude":10.7461506,"latitude":54.047951,"name":"Fahrradabstellplatz","city":"Scharbeutz","address":null,"covered":false,"access":null,"website":null,"phone":null,"source":"OpenStreetMap/node/9350866820","sourceUpdatedAt":null,"verifiedAt":null}},{"type":"Feature","geometry":{"type":"Point","coordinates":[10.7521736,54.0341339]},"properties":{"id":"bikerack:dd904c59-51c7-4278-ae9f-96eb7b18c0be","kind":"bikerack","longitude":10.7521736,"latitude":54.0341339,"name":"Fahrradabstellplatz","city":"Scharbeutz","address":null,"covered":false,"access":null,"website":null,"phone":null,"source":"OpenStreetMap/node/500422500","sourceUpdatedAt":null,"verifiedAt":null}},{"type":"Feature","geometry":{"type":"Point","coordinates":[10.7507265,54.0485857]},"properties":{"id":"bikerack:e9903b38-3070-43da-bbec-406097b87496","kind":"bikerack","longitude":10.7507265,"latitude":54.0485857,"name":"Fahrradabstellplatz","city":"Scharbeutz","address":null,"covered":false,"access":null,"website":null,"phone":null,"source":"OpenStreetMap/node/500836250","sourceUpdatedAt":null,"verifiedAt":null}},{"type":"Feature","geometry":{"type":"Point","coordinates":[10.7501153,54.0466391]},"properties":{"id":"bikerack:f91a0ce8-74bb-4115-a541-16780017b45f","kind":"bikerack","longitude":10.7501153,"latitude":54.0466391,"name":"Fahrradabstellplatz","city":"Scharbeutz","address":null,"covered":false,"access":null,"website":null,"phone":null,"source":"OpenStreetMap/way/1484481986","sourceUpdatedAt":null,"verifiedAt":null}},{"type":"Feature","geometry":{"type":"Point","coordinates":[10.7508833,54.0369835]},"properties":{"id":"bikerack:fe63845b-d606-4751-a186-91b424f1cf4b","kind":"bikerack","longitude":10.7508833,"latitude":54.0369835,"name":"Fahrradabstellplatz","city":"Scharbeutz","address":null,"covered":false,"access":null,"website":null,"phone":null,"source":"OpenStreetMap/node/500422804","sourceUpdatedAt":null,"verifiedAt":null}},{"type":"Feature","geometry":{"type":"Point","coordinates":[10.7509363,54.0368626]},"properties":{"id":"repair:9dc1a6fa-3f54-4c97-8594-4f093bbe9b7b","kind":"repair","longitude":10.7509363,"latitude":54.0368626,"name":"Fahrradreparaturstation","city":"Scharbeutz","address":null,"covered":false,"access":null,"website":null,"phone":null,"source":"OpenStreetMap/node/10213081246","sourceUpdatedAt":null,"verifiedAt":null}}]}