{"type":"FeatureCollection","features":[{"type":"Feature","geometry":{"type":"Point","coordinates":[10.7326932,50.9452185]},"properties":{"id":"bikerack:4a597c3b-66ac-4daf-a28b-8023fcbf3bce","kind":"bikerack","longitude":10.7326932,"latitude":50.9452185,"name":"Fahrradabstellplatz","city":"Gotha","address":null,"covered":false,"access":null,"website":null,"phone":null,"source":"OpenStreetMap/node/9490458144","sourceUpdatedAt":null,"verifiedAt":null}},{"type":"Feature","geometry":{"type":"Point","coordinates":[10.7315329,50.9445605]},"properties":{"id":"bikerack:58ec5f4b-8682-4e5d-825f-681f435af9c1","kind":"bikerack","longitude":10.7315329,"latitude":50.9445605,"name":"Fahrradabstellplatz","city":"Gotha","address":null,"covered":false,"access":null,"website":null,"phone":null,"source":"OpenStreetMap/node/8284880233","sourceUpdatedAt":null,"verifiedAt":null}},{"type":"Feature","geometry":{"type":"Point","coordinates":[10.7309418,50.9439164]},"properties":{"id":"bikerack:6010b70e-0311-4f27-9630-13fb6a72527a","kind":"bikerack","longitude":10.7309418,"latitude":50.9439164,"name":"Fahrradabstellplatz","city":"Gotha","address":null,"covered":false,"access":null,"website":null,"phone":null,"source":"OpenStreetMap/node/932187932","sourceUpdatedAt":null,"verifiedAt":null}},{"type":"Feature","geometry":{"type":"Point","coordinates":[10.7423188,50.9430388]},"properties":{"id":"bikerack:6d02b874-6562-4b93-ba1e-238024e08194","kind":"bikerack","longitude":10.7423188,"latitude":50.9430388,"name":"Fahrradabstellplatz","city":"Gotha","address":null,"covered":true,"access":null,"website":null,"phone":null,"source":"OpenStreetMap/node/8778784295","sourceUpdatedAt":null,"verifiedAt":null}},{"type":"Feature","geometry":{"type":"Point","coordinates":[10.7290014,50.9460978]},"properties":{"id":"bikerack:f98a46e8-472b-4c00-b68c-f32be1eaf0f9","kind":"bikerack","longitude":10.7290014,"latitude":50.9460978,"name":"Fahrradabstellplatz","city":"Gotha","address":null,"covered":false,"access":null,"website":null,"phone":null,"source":"OpenStreetMap/node/9793497455","sourceUpdatedAt":null,"verifiedAt":null}}]}