{"type":"FeatureCollection","features":[{"type":"Feature","geometry":{"type":"Point","coordinates":[10.7642656,48.2040149]},"properties":{"id":"bikerack:30f50e93-b110-4863-9b97-e1e51ee9ce66","kind":"bikerack","longitude":10.7642656,"latitude":48.2040149,"name":"Fahrradabstellplatz","city":"Schwabmunchen","address":null,"covered":false,"access":null,"website":null,"phone":null,"source":"OpenStreetMap/node/13333115558","sourceUpdatedAt":null,"verifiedAt":null}},{"type":"Feature","geometry":{"type":"Point","coordinates":[10.7653439,48.1972972]},"properties":{"id":"bikerack:3742a7f2-adc6-4b94-aaf9-c6286e23face","kind":"bikerack","longitude":10.7653439,"latitude":48.1972972,"name":"Fahrradabstellplatz","city":"Schwabmunchen","address":null,"covered":false,"access":null,"website":null,"phone":null,"source":"OpenStreetMap/way/1329116340","sourceUpdatedAt":null,"verifiedAt":null}}]}