{"type":"FeatureCollection","features":[{"type":"Feature","geometry":{"type":"Point","coordinates":[10.7616576,47.2193031]},"properties":{"id":"bikerack:2e9b10a7-2e82-4c86-b5f4-696f6404f2ad","kind":"bikerack","longitude":10.7616576,"latitude":47.2193031,"name":"Biciklitároló","city":"Karrosten","address":null,"covered":true,"access":null,"website":null,"phone":null,"source":"OpenStreetMap/node/12725082327","sourceUpdatedAt":null,"verifiedAt":null}},{"type":"Feature","geometry":{"type":"Point","coordinates":[10.7614226,47.2075915]},"properties":{"id":"water:0a8e33c1-0719-4fcb-acd2-c89fba4997b8","kind":"water","longitude":10.7614226,"latitude":47.2075915,"name":"Ivókút","city":"Arzl im Pitztal","address":null,"covered":null,"access":null,"website":null,"phone":null,"source":"OpenStreetMap/node/3695904738","sourceUpdatedAt":null,"verifiedAt":null}}]}