{"type":"FeatureCollection","features":[{"type":"Feature","geometry":{"type":"Point","coordinates":[10.76552,46.1582039]},"properties":{"id":"bikerack:33d47346-1907-4b6c-9e09-d3b41967237c","kind":"bikerack","longitude":10.76552,"latitude":46.1582039,"name":"Parcheggio bici","city":"Pinzolo","address":null,"covered":false,"access":null,"website":null,"phone":null,"source":"OpenStreetMap/node/12115242573","sourceUpdatedAt":null,"verifiedAt":null}},{"type":"Feature","geometry":{"type":"Point","coordinates":[10.7652873,46.1580505]},"properties":{"id":"bikerack:d414b0de-bd6d-4b36-8dee-246174ea79a8","kind":"bikerack","longitude":10.7652873,"latitude":46.1580505,"name":"Parcheggio bici","city":"Pinzolo","address":null,"covered":false,"access":null,"website":null,"phone":null,"source":"OpenStreetMap/node/12115233166","sourceUpdatedAt":null,"verifiedAt":null}},{"type":"Feature","geometry":{"type":"Point","coordinates":[10.7560448,46.1559811]},"properties":{"id":"repair:6fd1f88d-ddd5-4d69-b6a9-7546dd73816c","kind":"repair","longitude":10.7560448,"latitude":46.1559811,"name":"Stazione di riparazione bici","city":"Pinzolo","address":null,"covered":false,"access":null,"website":null,"phone":null,"source":"OpenStreetMap/node/7756557974","sourceUpdatedAt":null,"verifiedAt":null}},{"type":"Feature","geometry":{"type":"Point","coordinates":[10.7664899,46.1541754]},"properties":{"id":"service:11593c20-95bd-4581-9404-6d7647f2066e","kind":"service","longitude":10.7664899,"latitude":46.1541754,"name":"360° Sport","city":"Giustino","address":null,"covered":null,"access":null,"website":null,"phone":null,"source":"OpenStreetMap/node/1249869530","sourceUpdatedAt":null,"verifiedAt":null}},{"type":"Feature","geometry":{"type":"Point","coordinates":[10.7361987,46.1526958]},"properties":{"id":"water:0b3322fa-69d3-4dae-8554-f08480cd4da7","kind":"water","longitude":10.7361987,"latitude":46.1526958,"name":"Fontanella","city":"Carisolo","address":null,"covered":null,"access":null,"website":null,"phone":null,"source":"OpenStreetMap/node/2211286533","sourceUpdatedAt":null,"verifiedAt":null}},{"type":"Feature","geometry":{"type":"Point","coordinates":[10.7617176,46.1589535]},"properties":{"id":"water:0c766f23-e2b8-4ed5-9a93-023d209a0a83","kind":"water","longitude":10.7617176,"latitude":46.1589535,"name":"Fontanella","city":"Pinzolo","address":null,"covered":null,"access":null,"website":null,"phone":null,"source":"OpenStreetMap/node/5968621280","sourceUpdatedAt":null,"verifiedAt":null}},{"type":"Feature","geometry":{"type":"Point","coordinates":[10.7614658,46.1601451]},"properties":{"id":"water:20f86f8a-c144-4f09-9f39-9afd1b2ba106","kind":"water","longitude":10.7614658,"latitude":46.1601451,"name":"Fontanella","city":"Pinzolo","address":null,"covered":null,"access":null,"website":null,"phone":null,"source":"OpenStreetMap/node/4311376355","sourceUpdatedAt":null,"verifiedAt":null}},{"type":"Feature","geometry":{"type":"Point","coordinates":[10.7563276,46.1556851]},"properties":{"id":"water:21b14deb-dd0a-450c-8d6b-7bbdfbe15f7c","kind":"water","longitude":10.7563276,"latitude":46.1556851,"name":"Fontanella","city":"Pinzolo","address":null,"covered":null,"access":null,"website":null,"phone":null,"source":"OpenStreetMap/node/5968621278","sourceUpdatedAt":null,"verifiedAt":null}},{"type":"Feature","geometry":{"type":"Point","coordinates":[10.7281973,46.1583121]},"properties":{"id":"water:2a847bc4-7d03-4b15-81f0-34caf6e50fa3","kind":"water","longitude":10.7281973,"latitude":46.1583121,"name":"Fontanella","city":"Carisolo","address":null,"covered":null,"access":null,"website":null,"phone":null,"source":"OpenStreetMap/node/9007686802","sourceUpdatedAt":null,"verifiedAt":null}},{"type":"Feature","geometry":{"type":"Point","coordinates":[10.7640604,46.1569414]},"properties":{"id":"water:2f308037-fcea-497e-b886-9ed129e6d314","kind":"water","longitude":10.7640604,"latitude":46.1569414,"name":"Fontanella","city":"Pinzolo","address":null,"covered":null,"access":null,"website":null,"phone":null,"source":"OpenStreetMap/node/5968579610","sourceUpdatedAt":null,"verifiedAt":null}},{"type":"Feature","geometry":{"type":"Point","coordinates":[10.7270957,46.1369888]},"properties":{"id":"water:46ee140c-cd63-43b6-af18-e4925e88a912","kind":"water","longitude":10.7270957,"latitude":46.1369888,"name":"Fontanella","city":"Strembo","address":null,"covered":null,"access":null,"website":null,"phone":null,"source":"OpenStreetMap/node/770511738","sourceUpdatedAt":null,"verifiedAt":null}},{"type":"Feature","geometry":{"type":"Point","coordinates":[10.749413,46.146648]},"properties":{"id":"water:5d5bd4ce-dc1a-432a-9c7e-c60904e1fcdf","kind":"water","longitude":10.749413,"latitude":46.146648,"name":"Fontanella","city":"Caderzone Terme","address":null,"covered":null,"access":null,"website":null,"phone":null,"source":"OpenStreetMap/node/4682896893","sourceUpdatedAt":null,"verifiedAt":null}},{"type":"Feature","geometry":{"type":"Point","coordinates":[10.746555,46.1427171]},"properties":{"id":"water:5dea3384-b8f6-4252-bd91-5277678d80ea","kind":"water","longitude":10.746555,"latitude":46.1427171,"name":"Fontanella","city":"Caderzone Terme","address":null,"covered":null,"access":null,"website":null,"phone":null,"source":"OpenStreetMap/node/8906719633","sourceUpdatedAt":null,"verifiedAt":null}},{"type":"Feature","geometry":{"type":"Point","coordinates":[10.739592,46.1410468]},"properties":{"id":"water:841815b8-3bcc-4abd-93e8-639bca5b40e7","kind":"water","longitude":10.739592,"latitude":46.1410468,"name":"Fontanella","city":"Caderzone Terme","address":null,"covered":null,"access":null,"website":null,"phone":null,"source":"OpenStreetMap/node/2211286529","sourceUpdatedAt":null,"verifiedAt":null}},{"type":"Feature","geometry":{"type":"Point","coordinates":[10.7378697,46.1612409]},"properties":{"id":"water:87d137a5-df27-433c-9723-2d059eea21ae","kind":"water","longitude":10.7378697,"latitude":46.1612409,"name":"Fontanella","city":"Carisolo","address":null,"covered":null,"access":null,"website":null,"phone":null,"source":"OpenStreetMap/node/2212900836","sourceUpdatedAt":null,"verifiedAt":null}},{"type":"Feature","geometry":{"type":"Point","coordinates":[10.7479746,46.1463814]},"properties":{"id":"water:902178df-6330-42b2-8351-7e59b3ba0484","kind":"water","longitude":10.7479746,"latitude":46.1463814,"name":"Fontanella","city":"Caderzone Terme","address":null,"covered":null,"access":null,"website":null,"phone":null,"source":"OpenStreetMap/node/1394735523","sourceUpdatedAt":null,"verifiedAt":null}},{"type":"Feature","geometry":{"type":"Point","coordinates":[10.764468,46.157995]},"properties":{"id":"water:93faeea6-9a1a-4968-bdb9-63a9c26c84a8","kind":"water","longitude":10.764468,"latitude":46.157995,"name":"Fontanella","city":"Pinzolo","address":null,"covered":null,"access":null,"website":null,"phone":null,"source":"OpenStreetMap/node/13015788521","sourceUpdatedAt":null,"verifiedAt":null}},{"type":"Feature","geometry":{"type":"Point","coordinates":[10.7621364,46.1578832]},"properties":{"id":"water:98fa3d30-5b87-4893-88a3-5c02b4fd824e","kind":"water","longitude":10.7621364,"latitude":46.1578832,"name":"Fontanella","city":"Pinzolo","address":null,"covered":null,"access":null,"website":null,"phone":null,"source":"OpenStreetMap/node/4370204863","sourceUpdatedAt":null,"verifiedAt":null}},{"type":"Feature","geometry":{"type":"Point","coordinates":[10.7665672,46.1521513]},"properties":{"id":"water:a5afa3ba-bf74-47b2-b305-b6dcf7fb8a04","kind":"water","longitude":10.7665672,"latitude":46.1521513,"name":"Fontanella","city":"Giustino","address":null,"covered":null,"access":null,"website":null,"phone":null,"source":"OpenStreetMap/node/4327444207","sourceUpdatedAt":null,"verifiedAt":null}},{"type":"Feature","geometry":{"type":"Point","coordinates":[10.7592532,46.1537714]},"properties":{"id":"water:a83aa2ad-0fed-43ae-9bb8-d1195c051680","kind":"water","longitude":10.7592532,"latitude":46.1537714,"name":"Fontanella","city":"Pinzolo","address":null,"covered":null,"access":null,"website":null,"phone":null,"source":"OpenStreetMap/node/5968621279","sourceUpdatedAt":null,"verifiedAt":null}},{"type":"Feature","geometry":{"type":"Point","coordinates":[10.7591233,46.1549601]},"properties":{"id":"water:e14957ad-90f6-4f5c-bcf1-d5f6f6309796","kind":"water","longitude":10.7591233,"latitude":46.1549601,"name":"Fontanella","city":"Pinzolo","address":null,"covered":null,"access":null,"website":null,"phone":null,"source":"OpenStreetMap/node/4374705570","sourceUpdatedAt":null,"verifiedAt":null}},{"type":"Feature","geometry":{"type":"Point","coordinates":[10.7651321,46.1395581]},"properties":{"id":"water:fc376135-91bd-427f-a65c-2d55f7a8aabb","kind":"water","longitude":10.7651321,"latitude":46.1395581,"name":"Fontanella","city":"Massimeno","address":null,"covered":null,"access":null,"website":null,"phone":null,"source":"OpenStreetMap/node/4375616994","sourceUpdatedAt":null,"verifiedAt":null}}]}