{"type":"FeatureCollection","features":[{"type":"Feature","geometry":{"type":"Point","coordinates":[10.7386087,45.6471777]},"properties":{"id":"water:06c52c0a-7a34-4db8-a41d-91cfd9f7e1e6","kind":"water","longitude":10.7386087,"latitude":45.6471777,"name":"Fontanella","city":"San Zeno di Montagna","address":null,"covered":null,"access":null,"website":null,"phone":null,"source":"OpenStreetMap/node/6968351937","sourceUpdatedAt":null,"verifiedAt":null}},{"type":"Feature","geometry":{"type":"Point","coordinates":[10.7251353,45.6530322]},"properties":{"id":"water:0cc363e3-20d0-4e0f-a4e6-21265f6a073b","kind":"water","longitude":10.7251353,"latitude":45.6530322,"name":"Fontanella","city":"San Zeno di Montagna","address":null,"covered":null,"access":null,"website":null,"phone":null,"source":"OpenStreetMap/node/12043626400","sourceUpdatedAt":null,"verifiedAt":null}},{"type":"Feature","geometry":{"type":"Point","coordinates":[10.7575355,45.675074]},"properties":{"id":"water:43b1a6db-0796-4148-8512-7a65d304fda3","kind":"water","longitude":10.7575355,"latitude":45.675074,"name":"Fontana Coperta","city":"Brenzone","address":null,"covered":null,"access":null,"website":null,"phone":null,"source":"OpenStreetMap/node/7875173785","sourceUpdatedAt":null,"verifiedAt":null}},{"type":"Feature","geometry":{"type":"Point","coordinates":[10.7285392,45.6592337]},"properties":{"id":"water:c31f50f8-6ef0-44bd-84f0-fd97e81d7538","kind":"water","longitude":10.7285392,"latitude":45.6592337,"name":"Fontanella","city":"San Zeno di Montagna","address":null,"covered":null,"access":null,"website":null,"phone":null,"source":"OpenStreetMap/node/529586320","sourceUpdatedAt":null,"verifiedAt":null}}]}