{"type":"FeatureCollection","features":[{"type":"Feature","geometry":{"type":"Point","coordinates":[15.1691768,47.2777923]},"properties":{"id":"water:dd15a5a9-55d2-4fda-baf2-1113fc36e50b","kind":"water","longitude":15.1691768,"latitude":47.2777923,"name":"Ivókút","city":"Ubelbach","address":null,"covered":null,"access":null,"website":null,"phone":null,"source":"OpenStreetMap/node/8151660405","sourceUpdatedAt":null,"verifiedAt":null}},{"type":"Feature","geometry":{"type":"Point","coordinates":[15.1978587,47.2669793]},"properties":{"id":"water:e686847a-4fc3-41b7-8f83-528bdc333872","kind":"water","longitude":15.1978587,"latitude":47.2669793,"name":"Ivókút","city":"Ubelbach","address":null,"covered":null,"access":null,"website":null,"phone":null,"source":"OpenStreetMap/node/465192475","sourceUpdatedAt":null,"verifiedAt":null}},{"type":"Feature","geometry":{"type":"Point","coordinates":[15.2012623,47.2621785]},"properties":{"id":"water:fbc55d4d-ece9-4413-a31f-abc9ad1f06c3","kind":"water","longitude":15.2012623,"latitude":47.2621785,"name":"Ivókút","city":"Ubelbach","address":null,"covered":null,"access":null,"website":null,"phone":null,"source":"OpenStreetMap/node/2700553584","sourceUpdatedAt":null,"verifiedAt":null}}]}