{"type":"FeatureCollection","features":[{"type":"Feature","geometry":{"type":"Point","coordinates":[15.2014058,46.1207939]},"properties":{"id":"repair:b93e229e-4f20-42f3-81cc-4c29766b40a4","kind":"repair","longitude":15.2014058,"latitude":46.1207939,"name":"Kerékpár szervizállomás","city":"Lasko","address":null,"covered":false,"access":null,"website":null,"phone":null,"source":"OpenStreetMap/node/11698096857","sourceUpdatedAt":null,"verifiedAt":null}},{"type":"Feature","geometry":{"type":"Point","coordinates":[15.1888898,46.1272944]},"properties":{"id":"water:822c43f5-dfbb-48bf-b542-513b8759327b","kind":"water","longitude":15.1888898,"latitude":46.1272944,"name":"Ivókút","city":"Lasko","address":null,"covered":null,"access":null,"website":null,"phone":null,"source":"OpenStreetMap/node/9010377312","sourceUpdatedAt":null,"verifiedAt":null}}]}