{"type":"FeatureCollection","features":[{"type":"Feature","geometry":{"type":"Point","coordinates":[8.4822698,52.6152066]},"properties":{"id":"bikerack:121c11b3-a7e7-419c-ab88-d93bfece271d","kind":"bikerack","longitude":8.4822698,"latitude":52.6152066,"name":"Fahrradabstellplatz","city":"Rehden","address":null,"covered":false,"access":null,"website":null,"phone":null,"source":"OpenStreetMap/node/1821939507","sourceUpdatedAt":null,"verifiedAt":null}},{"type":"Feature","geometry":{"type":"Point","coordinates":[8.4827046,52.6153291]},"properties":{"id":"bikerack:541a97b2-a9d8-4c28-9849-a9d384a6f52f","kind":"bikerack","longitude":8.4827046,"latitude":52.6153291,"name":"Fahrradabstellplatz","city":"Rehden","address":null,"covered":true,"access":null,"website":null,"phone":null,"source":"OpenStreetMap/node/1821939502","sourceUpdatedAt":null,"verifiedAt":null}},{"type":"Feature","geometry":{"type":"Point","coordinates":[8.4824352,52.6152496]},"properties":{"id":"bikerack:627a668d-89e0-4de5-8b4a-f48cd93a660d","kind":"bikerack","longitude":8.4824352,"latitude":52.6152496,"name":"Fahrradabstellplatz","city":"Rehden","address":null,"covered":false,"access":null,"website":null,"phone":null,"source":"OpenStreetMap/node/1821939472","sourceUpdatedAt":null,"verifiedAt":null}},{"type":"Feature","geometry":{"type":"Point","coordinates":[8.4823862,52.6147737]},"properties":{"id":"bikerack:64cd5e96-e938-49ad-b7cc-dd9db72d49d6","kind":"bikerack","longitude":8.4823862,"latitude":52.6147737,"name":"Fahrradabstellplatz","city":"Rehden","address":null,"covered":false,"access":null,"website":null,"phone":null,"source":"OpenStreetMap/node/4954939192","sourceUpdatedAt":null,"verifiedAt":null}},{"type":"Feature","geometry":{"type":"Point","coordinates":[8.4827431,52.6154508]},"properties":{"id":"bikerack:776bd17d-0db3-466f-a881-1f8a5ef9a2b8","kind":"bikerack","longitude":8.4827431,"latitude":52.6154508,"name":"Fahrradabstellplatz","city":"Rehden","address":null,"covered":false,"access":null,"website":null,"phone":null,"source":"OpenStreetMap/node/1821939567","sourceUpdatedAt":null,"verifiedAt":null}},{"type":"Feature","geometry":{"type":"Point","coordinates":[8.5005111,52.5978744]},"properties":{"id":"bikerack:f6ff597b-5e51-4a68-8266-d800f5095984","kind":"bikerack","longitude":8.5005111,"latitude":52.5978744,"name":"Fahrradabstellplatz","city":"Hemsloh","address":null,"covered":false,"access":null,"website":null,"phone":null,"source":"OpenStreetMap/node/13115507758","sourceUpdatedAt":null,"verifiedAt":null}}]}