{"type":"FeatureCollection","features":[{"type":"Feature","geometry":{"type":"Point","coordinates":[8.5190034,50.9143781]},"properties":{"id":"bikerack:0f60acf8-f194-4212-ad01-71989fc4fc3b","kind":"bikerack","longitude":8.5190034,"latitude":50.9143781,"name":"Fahrradabstellplatz","city":"Biedenkopf","address":null,"covered":false,"access":null,"website":null,"phone":null,"source":"OpenStreetMap/node/11246686342","sourceUpdatedAt":null,"verifiedAt":null}},{"type":"Feature","geometry":{"type":"Point","coordinates":[8.5245908,50.9130727]},"properties":{"id":"bikerack:1e64960c-5263-4b8c-a84e-b00c5965bb43","kind":"bikerack","longitude":8.5245908,"latitude":50.9130727,"name":"Fahrradabstellplatz","city":"Biedenkopf","address":null,"covered":false,"access":null,"website":null,"phone":null,"source":"OpenStreetMap/node/12628960463","sourceUpdatedAt":null,"verifiedAt":null}},{"type":"Feature","geometry":{"type":"Point","coordinates":[8.5153484,50.9154163]},"properties":{"id":"bikerack:4a365b87-8312-49f6-9173-3a61bbe0a94d","kind":"bikerack","longitude":8.5153484,"latitude":50.9154163,"name":"Fahrradabstellplatz","city":"Biedenkopf","address":null,"covered":false,"access":null,"website":null,"phone":null,"source":"OpenStreetMap/node/11246715990","sourceUpdatedAt":null,"verifiedAt":null}},{"type":"Feature","geometry":{"type":"Point","coordinates":[8.5195127,50.9167055]},"properties":{"id":"bikerack:8b113175-ffd5-4e9e-a2b3-7dbcaaa9ccde","kind":"bikerack","longitude":8.5195127,"latitude":50.9167055,"name":"Fahrradabstellplatz","city":"Biedenkopf","address":null,"covered":false,"access":null,"website":null,"phone":null,"source":"OpenStreetMap/node/11246686341","sourceUpdatedAt":null,"verifiedAt":null}},{"type":"Feature","geometry":{"type":"Point","coordinates":[8.5212892,50.9134688]},"properties":{"id":"bikerack:9e1ccd02-0904-49f1-8475-36f680cfb7d1","kind":"bikerack","longitude":8.5212892,"latitude":50.9134688,"name":"Fahrradabstellplatz","city":"Biedenkopf","address":null,"covered":false,"access":null,"website":null,"phone":null,"source":"OpenStreetMap/node/11246686343","sourceUpdatedAt":null,"verifiedAt":null}},{"type":"Feature","geometry":{"type":"Point","coordinates":[8.514525,50.9157393]},"properties":{"id":"bikerack:b31c4fb5-b56f-47f9-bb53-b5ebf80cc686","kind":"bikerack","longitude":8.514525,"latitude":50.9157393,"name":"Fahrradabstellplatz","city":"Biedenkopf","address":null,"covered":false,"access":null,"website":null,"phone":null,"source":"OpenStreetMap/node/11246715991","sourceUpdatedAt":null,"verifiedAt":null}},{"type":"Feature","geometry":{"type":"Point","coordinates":[8.5192565,50.9167757]},"properties":{"id":"bikerack:b5b798f8-1167-4b89-a094-012edbdfb852","kind":"bikerack","longitude":8.5192565,"latitude":50.9167757,"name":"Fahrradabstellplatz","city":"Biedenkopf","address":null,"covered":false,"access":null,"website":null,"phone":null,"source":"OpenStreetMap/node/11246686340","sourceUpdatedAt":null,"verifiedAt":null}},{"type":"Feature","geometry":{"type":"Point","coordinates":[8.5169821,50.9167719]},"properties":{"id":"bikerack:b5d9e704-b129-43d9-bdfc-cc2e83f097e5","kind":"bikerack","longitude":8.5169821,"latitude":50.9167719,"name":"Fahrradabstellplatz","city":"Biedenkopf","address":null,"covered":false,"access":null,"website":null,"phone":null,"source":"OpenStreetMap/node/12629100160","sourceUpdatedAt":null,"verifiedAt":null}},{"type":"Feature","geometry":{"type":"Point","coordinates":[8.5180082,50.9150809]},"properties":{"id":"bikerack:c04c9090-4997-4971-ac7d-637833157fb2","kind":"bikerack","longitude":8.5180082,"latitude":50.9150809,"name":"Fahrradabstellplatz","city":"Biedenkopf","address":null,"covered":true,"access":null,"website":null,"phone":null,"source":"OpenStreetMap/way/530022547","sourceUpdatedAt":null,"verifiedAt":null}},{"type":"Feature","geometry":{"type":"Point","coordinates":[8.5169648,50.9166473]},"properties":{"id":"bikerack:c09bdacb-83c9-4c47-b099-7d816f9f0705","kind":"bikerack","longitude":8.5169648,"latitude":50.9166473,"name":"Fahrradabstellplatz","city":"Biedenkopf","address":null,"covered":false,"access":null,"website":null,"phone":null,"source":"OpenStreetMap/node/12629100159","sourceUpdatedAt":null,"verifiedAt":null}},{"type":"Feature","geometry":{"type":"Point","coordinates":[8.5228211,50.9163083]},"properties":{"id":"bikerack:d5694dc2-d7b1-47dd-ae0d-353a38d7d7a7","kind":"bikerack","longitude":8.5228211,"latitude":50.9163083,"name":"Fahrradabstellplatz","city":"Biedenkopf","address":null,"covered":false,"access":null,"website":null,"phone":null,"source":"OpenStreetMap/node/11246715992","sourceUpdatedAt":null,"verifiedAt":null}},{"type":"Feature","geometry":{"type":"Point","coordinates":[8.5161425,50.9153911]},"properties":{"id":"bikerack:dc371634-8f78-44f8-9cfc-30702ffc607e","kind":"bikerack","longitude":8.5161425,"latitude":50.9153911,"name":"Fahrradabstellplatz","city":"Biedenkopf","address":null,"covered":false,"access":null,"website":null,"phone":null,"source":"OpenStreetMap/node/9139426582","sourceUpdatedAt":null,"verifiedAt":null}},{"type":"Feature","geometry":{"type":"Point","coordinates":[8.5054715,50.919879]},"properties":{"id":"bikerack:e683356e-92fa-494f-b516-e0014e70c2f7","kind":"bikerack","longitude":8.5054715,"latitude":50.919879,"name":"Fahrradabstellplatz","city":"Biedenkopf","address":null,"covered":false,"access":null,"website":null,"phone":null,"source":"OpenStreetMap/node/5086164459","sourceUpdatedAt":null,"verifiedAt":null}},{"type":"Feature","geometry":{"type":"Point","coordinates":[8.5169377,50.9165024]},"properties":{"id":"bikerack:ea1373da-ea48-4c12-8eac-f275b722b752","kind":"bikerack","longitude":8.5169377,"latitude":50.9165024,"name":"Fahrradabstellplatz","city":"Biedenkopf","address":null,"covered":false,"access":null,"website":null,"phone":null,"source":"OpenStreetMap/node/12629100161","sourceUpdatedAt":null,"verifiedAt":null}}]}