{"type":"FeatureCollection","features":[{"type":"Feature","geometry":{"type":"Point","coordinates":[8.4915622,49.4275886]},"properties":{"id":"bikerack:8ca47b58-8091-42fe-b0e4-423fb7786cf6","kind":"bikerack","longitude":8.4915622,"latitude":49.4275886,"name":"Fahrradabstellplatz","city":"Altrip","address":null,"covered":false,"access":null,"website":null,"phone":null,"source":"OpenStreetMap/node/410143435","sourceUpdatedAt":null,"verifiedAt":null}},{"type":"Feature","geometry":{"type":"Point","coordinates":[8.5037837,49.4321022]},"properties":{"id":"bikerack:9cf0132f-d32d-4eff-9d3b-6276b68c374e","kind":"bikerack","longitude":8.5037837,"latitude":49.4321022,"name":"Fahrradabstellplatz","city":"Altrip","address":null,"covered":false,"access":null,"website":null,"phone":null,"source":"OpenStreetMap/node/410143323","sourceUpdatedAt":null,"verifiedAt":null}},{"type":"Feature","geometry":{"type":"Point","coordinates":[8.5019205,49.4324151]},"properties":{"id":"bikerack:ac1c04dd-ef8a-450b-a74a-11b5b9ab294c","kind":"bikerack","longitude":8.5019205,"latitude":49.4324151,"name":"Fahrradabstellplatz","city":"Altrip","address":null,"covered":false,"access":null,"website":null,"phone":null,"source":"OpenStreetMap/node/410143319","sourceUpdatedAt":null,"verifiedAt":null}},{"type":"Feature","geometry":{"type":"Point","coordinates":[8.4843079,49.4351832]},"properties":{"id":"bikerack:c6fc5275-0a64-4dfb-a0a4-14c012a66cb2","kind":"bikerack","longitude":8.4843079,"latitude":49.4351832,"name":"Fahrradabstellplatz","city":"Altrip","address":null,"covered":false,"access":null,"website":null,"phone":null,"source":"OpenStreetMap/node/403188301","sourceUpdatedAt":null,"verifiedAt":null}},{"type":"Feature","geometry":{"type":"Point","coordinates":[8.5026276,49.4315033]},"properties":{"id":"bikerack:cea4bf6f-1ac5-49a6-b81c-23a25b6b7254","kind":"bikerack","longitude":8.5026276,"latitude":49.4315033,"name":"Fahrradabstellplatz","city":"Altrip","address":null,"covered":false,"access":null,"website":null,"phone":null,"source":"OpenStreetMap/node/410143327","sourceUpdatedAt":null,"verifiedAt":null}},{"type":"Feature","geometry":{"type":"Point","coordinates":[8.4911144,49.427355]},"properties":{"id":"water:1a27aa25-c01c-4110-adbe-a96c62446861","kind":"water","longitude":8.4911144,"latitude":49.427355,"name":"Trinkwasser","city":"Altrip","address":null,"covered":null,"access":null,"website":null,"phone":null,"source":"OpenStreetMap/node/410143492","sourceUpdatedAt":null,"verifiedAt":null}},{"type":"Feature","geometry":{"type":"Point","coordinates":[8.4914038,49.4279084]},"properties":{"id":"water:cbc5c178-c53d-4a24-a8e3-d13a7440b872","kind":"water","longitude":8.4914038,"latitude":49.4279084,"name":"Trinkwasser","city":"Altrip","address":null,"covered":null,"access":null,"website":null,"phone":null,"source":"OpenStreetMap/node/410143458","sourceUpdatedAt":null,"verifiedAt":null}}]}