{"type":"FeatureCollection","features":[{"type":"Feature","geometry":{"type":"Point","coordinates":[8.496041,48.8454738]},"properties":{"id":"bikerack:09c29c2b-bfd4-4b47-97e8-ecc5a1a34f2d","kind":"bikerack","longitude":8.496041,"latitude":48.8454738,"name":"Fahrradabstellplatz","city":"Dobel","address":null,"covered":false,"access":null,"website":null,"phone":null,"source":"OpenStreetMap/node/12154144308","sourceUpdatedAt":null,"verifiedAt":null}},{"type":"Feature","geometry":{"type":"Point","coordinates":[8.4959996,48.8455484]},"properties":{"id":"bikerack:0b3cb422-3480-4d11-9eb4-6443b7a8538b","kind":"bikerack","longitude":8.4959996,"latitude":48.8455484,"name":"Fahrradabstellplatz","city":"Dobel","address":null,"covered":false,"access":null,"website":null,"phone":null,"source":"OpenStreetMap/node/12154144309","sourceUpdatedAt":null,"verifiedAt":null}},{"type":"Feature","geometry":{"type":"Point","coordinates":[8.4961285,48.8455765]},"properties":{"id":"bikerack:128845ca-9285-4dab-8384-815b3c4aa8d0","kind":"bikerack","longitude":8.4961285,"latitude":48.8455765,"name":"Fahrradabstellplatz","city":"Dobel","address":null,"covered":false,"access":null,"website":null,"phone":null,"source":"OpenStreetMap/node/12154144311","sourceUpdatedAt":null,"verifiedAt":null}},{"type":"Feature","geometry":{"type":"Point","coordinates":[8.5143051,48.8465733]},"properties":{"id":"bikerack:13984e46-ffb3-446f-836d-610006dbcdbf","kind":"bikerack","longitude":8.5143051,"latitude":48.8465733,"name":"Fahrradabstellplatz","city":"Dobel","address":null,"covered":false,"access":null,"website":null,"phone":null,"source":"OpenStreetMap/way/27521683","sourceUpdatedAt":null,"verifiedAt":null}},{"type":"Feature","geometry":{"type":"Point","coordinates":[8.5249511,48.8462968]},"properties":{"id":"bikerack:498b7f1b-39fd-4def-abe2-d98ac47ca733","kind":"bikerack","longitude":8.5249511,"latitude":48.8462968,"name":"Fahrradabstellplatz","city":"Dobel","address":null,"covered":true,"access":null,"website":null,"phone":null,"source":"OpenStreetMap/node/9562490362","sourceUpdatedAt":null,"verifiedAt":null}},{"type":"Feature","geometry":{"type":"Point","coordinates":[8.5196189,48.8452007]},"properties":{"id":"bikerack:4ad6c48f-1a92-4de7-b55b-467d3fc73332","kind":"bikerack","longitude":8.5196189,"latitude":48.8452007,"name":"Fahrradabstellplatz","city":"Dobel","address":null,"covered":true,"access":null,"website":null,"phone":null,"source":"OpenStreetMap/node/13570810023","sourceUpdatedAt":null,"verifiedAt":null}},{"type":"Feature","geometry":{"type":"Point","coordinates":[8.4962582,48.8455314]},"properties":{"id":"bikerack:bb812df7-2a64-41a6-873a-c7fdd9a0a761","kind":"bikerack","longitude":8.4962582,"latitude":48.8455314,"name":"Fahrradabstellplatz","city":"Dobel","address":null,"covered":false,"access":null,"website":null,"phone":null,"source":"OpenStreetMap/node/12154144310","sourceUpdatedAt":null,"verifiedAt":null}},{"type":"Feature","geometry":{"type":"Point","coordinates":[8.515659,48.8450606]},"properties":{"id":"water:1de9a296-ff9a-4a32-9701-23961ec00cd0","kind":"water","longitude":8.515659,"latitude":48.8450606,"name":"Blumenstielquelle","city":"Dobel","address":null,"covered":null,"access":null,"website":null,"phone":null,"source":"OpenStreetMap/node/369891411","sourceUpdatedAt":null,"verifiedAt":null}},{"type":"Feature","geometry":{"type":"Point","coordinates":[8.5067761,48.8441316]},"properties":{"id":"water:c176b25e-4234-43f1-a5ae-f61d18cf9ab7","kind":"water","longitude":8.5067761,"latitude":48.8441316,"name":"Blumenstielquelle","city":"Dobel","address":null,"covered":null,"access":null,"website":null,"phone":null,"source":"OpenStreetMap/node/6937404843","sourceUpdatedAt":null,"verifiedAt":null}}]}