{"type":"FeatureCollection","features":[{"type":"Feature","geometry":{"type":"Point","coordinates":[8.4822166,46.2815662]},"properties":{"id":"water:09ec778f-b552-4206-9fd3-9a15a4aea491","kind":"water","longitude":8.4822166,"latitude":46.2815662,"name":"Drinking Fountain","city":"Formazza","address":null,"covered":null,"access":null,"website":null,"phone":null,"source":"OpenStreetMap/node/11163516506","sourceUpdatedAt":null,"verifiedAt":null}},{"type":"Feature","geometry":{"type":"Point","coordinates":[8.4893463,46.2834598]},"properties":{"id":"water:6dda0d8e-82b6-4d5b-832d-9c5a5dedee1d","kind":"water","longitude":8.4893463,"latitude":46.2834598,"name":"Drinking Fountain","city":"Formazza","address":null,"covered":null,"access":null,"website":null,"phone":null,"source":"OpenStreetMap/node/4958858073","sourceUpdatedAt":null,"verifiedAt":null}},{"type":"Feature","geometry":{"type":"Point","coordinates":[8.4828242,46.2813271]},"properties":{"id":"water:8d434d1f-aeaa-4001-abc0-b160bf380269","kind":"water","longitude":8.4828242,"latitude":46.2813271,"name":"Drinking Fountain","city":"Formazza","address":null,"covered":null,"access":null,"website":null,"phone":null,"source":"OpenStreetMap/node/11163516605","sourceUpdatedAt":null,"verifiedAt":null}},{"type":"Feature","geometry":{"type":"Point","coordinates":[8.4903744,46.284401]},"properties":{"id":"water:a42f20ce-0cb8-44a3-a173-5a9b116bc8e6","kind":"water","longitude":8.4903744,"latitude":46.284401,"name":"Drinking Fountain","city":"Formazza","address":null,"covered":null,"access":null,"website":null,"phone":null,"source":"OpenStreetMap/node/9968207189","sourceUpdatedAt":null,"verifiedAt":null}},{"type":"Feature","geometry":{"type":"Point","coordinates":[8.488309,46.2825744]},"properties":{"id":"water:ca4752f8-e772-481c-a4de-d82793e59ad8","kind":"water","longitude":8.488309,"latitude":46.2825744,"name":"Drinking Fountain","city":"Formazza","address":null,"covered":null,"access":null,"website":null,"phone":null,"source":"OpenStreetMap/node/13045894118","sourceUpdatedAt":null,"verifiedAt":null}}]}