{"type":"FeatureCollection","features":[{"type":"Feature","geometry":{"type":"Point","coordinates":[20.2167697,50.0379636]},"properties":{"id":"bikerack:0fa18748-018e-4584-b256-7c98a17c90c6","kind":"bikerack","longitude":20.2167697,"latitude":50.0379636,"name":"Biciklitároló","city":"Niepolomice","address":null,"covered":true,"access":null,"website":null,"phone":null,"source":"OpenStreetMap/way/1346151843","sourceUpdatedAt":null,"verifiedAt":null}},{"type":"Feature","geometry":{"type":"Point","coordinates":[20.2166117,50.0378457]},"properties":{"id":"bikerack:6105e920-9656-458a-81b2-4b93891c2fb4","kind":"bikerack","longitude":20.2166117,"latitude":50.0378457,"name":"Biciklitároló","city":"Niepolomice","address":null,"covered":true,"access":null,"website":null,"phone":null,"source":"OpenStreetMap/way/1346151842","sourceUpdatedAt":null,"verifiedAt":null}},{"type":"Feature","geometry":{"type":"Point","coordinates":[20.2568887,50.0530623]},"properties":{"id":"bikerack:62c3a208-f101-41a8-9603-ec68c6a86c4c","kind":"bikerack","longitude":20.2568887,"latitude":50.0530623,"name":"Biciklitároló","city":"Wola Batorska","address":null,"covered":true,"access":null,"website":null,"phone":null,"source":"OpenStreetMap/way/1154510224","sourceUpdatedAt":null,"verifiedAt":null}},{"type":"Feature","geometry":{"type":"Point","coordinates":[20.2167201,50.0379179]},"properties":{"id":"bikerack:83ddfe06-c459-4673-8abe-07b04e6fa94a","kind":"bikerack","longitude":20.2167201,"latitude":50.0379179,"name":"Biciklitároló","city":"Niepolomice","address":null,"covered":true,"access":null,"website":null,"phone":null,"source":"OpenStreetMap/way/1346151844","sourceUpdatedAt":null,"verifiedAt":null}},{"type":"Feature","geometry":{"type":"Point","coordinates":[20.2569972,50.0530981]},"properties":{"id":"bikerack:88004908-4a61-4bf6-b651-c6f33b77cf36","kind":"bikerack","longitude":20.2569972,"latitude":50.0530981,"name":"Biciklitároló","city":"Wola Batorska","address":null,"covered":true,"access":null,"website":null,"phone":null,"source":"OpenStreetMap/way/1154510885","sourceUpdatedAt":null,"verifiedAt":null}},{"type":"Feature","geometry":{"type":"Point","coordinates":[20.217908,50.0371753]},"properties":{"id":"bikerack:8a890c3c-66ab-433d-bf6b-93d8150a27c2","kind":"bikerack","longitude":20.217908,"latitude":50.0371753,"name":"Biciklitároló","city":"Niepolomice","address":null,"covered":false,"access":null,"website":null,"phone":null,"source":"OpenStreetMap/way/1346154337","sourceUpdatedAt":null,"verifiedAt":null}},{"type":"Feature","geometry":{"type":"Point","coordinates":[20.2169018,50.0379857]},"properties":{"id":"repair:b1316d58-4580-4c89-844f-ecbb30cfaed7","kind":"repair","longitude":20.2169018,"latitude":50.0379857,"name":"Kerékpár szervizállomás","city":"Niepolomice","address":null,"covered":false,"access":null,"website":null,"phone":null,"source":"OpenStreetMap/node/13081391397","sourceUpdatedAt":null,"verifiedAt":null}},{"type":"Feature","geometry":{"type":"Point","coordinates":[20.2186875,50.0367545]},"properties":{"id":"service:02f729a2-d40b-43d4-860c-a9bc5bd0736f","kind":"service","longitude":20.2186875,"latitude":50.0367545,"name":"Osika Rowery Elektryczne","city":"Niepołomice","address":null,"covered":null,"access":null,"website":null,"phone":null,"source":"OpenStreetMap/node/2812387983","sourceUpdatedAt":null,"verifiedAt":null}}]}