{"type":"FeatureCollection","features":[{"type":"Feature","geometry":{"type":"Point","coordinates":[20.226783,47.088233]},"properties":{"id":"water:01f1136c-330c-417b-87a1-34a1a7221f34","kind":"water","longitude":20.226783,"latitude":47.088233,"name":"Ivókút","city":null,"address":null,"covered":null,"access":null,"website":null,"phone":null,"source":"OpenStreetMap","sourceUpdatedAt":null,"verifiedAt":null}},{"type":"Feature","geometry":{"type":"Point","coordinates":[20.2283157,47.0989657]},"properties":{"id":"water:25fbe39c-77dd-4a30-b86b-ab1dad43a318","kind":"water","longitude":20.2283157,"latitude":47.0989657,"name":"Ivókút","city":null,"address":null,"covered":null,"access":null,"website":null,"phone":null,"source":"OpenStreetMap","sourceUpdatedAt":null,"verifiedAt":null}},{"type":"Feature","geometry":{"type":"Point","coordinates":[20.2198688,47.0875191]},"properties":{"id":"water:4b3eb52f-2ece-4529-ba89-196d35fdaee5","kind":"water","longitude":20.2198688,"latitude":47.0875191,"name":"Ivókút","city":null,"address":null,"covered":null,"access":null,"website":null,"phone":null,"source":"OpenStreetMap","sourceUpdatedAt":null,"verifiedAt":null}},{"type":"Feature","geometry":{"type":"Point","coordinates":[20.234733,47.089167]},"properties":{"id":"water:6633bc60-7a16-48a0-9637-d9b2474a6381","kind":"water","longitude":20.234733,"latitude":47.089167,"name":"Ivókút","city":null,"address":null,"covered":null,"access":null,"website":null,"phone":null,"source":"OpenStreetMap","sourceUpdatedAt":null,"verifiedAt":null}}]}