{"type":"FeatureCollection","features":[{"type":"Feature","geometry":{"type":"Point","coordinates":[20.2471576,46.944523]},"properties":{"id":"water:9631a15c-2d5c-4d6f-89c1-abf2fa51fa9e","kind":"water","longitude":20.2471576,"latitude":46.944523,"name":"Ivókút","city":null,"address":null,"covered":null,"access":null,"website":null,"phone":null,"source":"OpenStreetMap","sourceUpdatedAt":null,"verifiedAt":null}},{"type":"Feature","geometry":{"type":"Point","coordinates":[20.2517304,46.946916]},"properties":{"id":"water:b35ede43-ac2e-45c3-84e5-95896215c255","kind":"water","longitude":20.2517304,"latitude":46.946916,"name":"Ivókút","city":null,"address":null,"covered":null,"access":null,"website":null,"phone":null,"source":"OpenStreetMap","sourceUpdatedAt":null,"verifiedAt":null}},{"type":"Feature","geometry":{"type":"Point","coordinates":[20.2555969,46.9482365]},"properties":{"id":"water:c05f5d8b-63dc-469c-8a80-d1fade739139","kind":"water","longitude":20.2555969,"latitude":46.9482365,"name":"Ivókút","city":null,"address":null,"covered":null,"access":null,"website":null,"phone":null,"source":"OpenStreetMap","sourceUpdatedAt":null,"verifiedAt":null}}]}