{"type":"FeatureCollection","features":[{"type":"Feature","geometry":{"type":"Point","coordinates":[20.4097007,49.6261853]},"properties":{"id":"bikerack:60e44cfd-07fa-4ed7-b03b-0af56a9694b3","kind":"bikerack","longitude":20.4097007,"latitude":49.6261853,"name":"Biciklitároló","city":"Lacko","address":null,"covered":false,"access":null,"website":null,"phone":null,"source":"OpenStreetMap/node/9218560821","sourceUpdatedAt":null,"verifiedAt":null}},{"type":"Feature","geometry":{"type":"Point","coordinates":[20.4095053,49.6260688]},"properties":{"id":"bikerack:9a5c1fda-efca-436c-ae68-431dcdb7b260","kind":"bikerack","longitude":20.4095053,"latitude":49.6260688,"name":"Biciklitároló","city":"Lacko","address":null,"covered":false,"access":null,"website":null,"phone":null,"source":"OpenStreetMap/node/10241143480","sourceUpdatedAt":null,"verifiedAt":null}}]}