{"type":"FeatureCollection","features":[{"type":"Feature","geometry":{"type":"Point","coordinates":[20.403168,47.8718182]},"properties":{"id":"bikerack:1816cc99-0cc8-4dba-9760-0d1893842e9c","kind":"bikerack","longitude":20.403168,"latitude":47.8718182,"name":"Biciklitároló","city":"Andornaktalya","address":null,"covered":false,"access":null,"website":null,"phone":null,"source":"OpenStreetMap/node/3738677141","sourceUpdatedAt":null,"verifiedAt":null}},{"type":"Feature","geometry":{"type":"Point","coordinates":[20.4114155,47.8473082]},"properties":{"id":"water:5633be9f-4c4a-4ad4-a843-24c7adc0ff2f","kind":"water","longitude":20.4114155,"latitude":47.8473082,"name":"Ivókút","city":null,"address":null,"covered":null,"access":null,"website":null,"phone":null,"source":"OpenStreetMap","sourceUpdatedAt":null,"verifiedAt":null}},{"type":"Feature","geometry":{"type":"Point","coordinates":[20.4274013,47.8690227]},"properties":{"id":"water:7fc39a61-ce33-4eae-9d91-0be6b0a9ffe3","kind":"water","longitude":20.4274013,"latitude":47.8690227,"name":"Ivókút","city":null,"address":null,"covered":null,"access":null,"website":null,"phone":null,"source":"OpenStreetMap","sourceUpdatedAt":null,"verifiedAt":null}}]}