{"type":"FeatureCollection","features":[{"type":"Feature","geometry":{"type":"Point","coordinates":[20.421996,47.716906]},"properties":{"id":"water:0945cbce-ade3-43f7-8deb-8f795219a46e","kind":"water","longitude":20.421996,"latitude":47.716906,"name":"Ivókút","city":null,"address":null,"covered":null,"access":null,"website":null,"phone":null,"source":"OpenStreetMap","sourceUpdatedAt":null,"verifiedAt":null}},{"type":"Feature","geometry":{"type":"Point","coordinates":[20.4278118,47.7004263]},"properties":{"id":"water:d31f535f-6018-4c41-8443-11d2d1ccae19","kind":"water","longitude":20.4278118,"latitude":47.7004263,"name":"Ivókút","city":null,"address":null,"covered":null,"access":null,"website":null,"phone":null,"source":"OpenStreetMap","sourceUpdatedAt":null,"verifiedAt":null}},{"type":"Feature","geometry":{"type":"Point","coordinates":[20.4257842,47.7078176]},"properties":{"id":"water:de3a5cbc-7e6a-4f4c-a07c-9f28fc646eea","kind":"water","longitude":20.4257842,"latitude":47.7078176,"name":"Ivókút","city":null,"address":null,"covered":null,"access":null,"website":null,"phone":null,"source":"OpenStreetMap","sourceUpdatedAt":null,"verifiedAt":null}}]}