{"type":"FeatureCollection","features":[{"type":"Feature","geometry":{"type":"Point","coordinates":[11.1063637,50.9757712]},"properties":{"id":"bikerack:2620be36-8a36-443b-a352-99a00aa8f635","kind":"bikerack","longitude":11.1063637,"latitude":50.9757712,"name":"Fahrradabstellplatz","city":"Monchenholzhausen","address":null,"covered":true,"access":null,"website":null,"phone":null,"source":"OpenStreetMap/node/458875035","sourceUpdatedAt":null,"verifiedAt":null}},{"type":"Feature","geometry":{"type":"Point","coordinates":[11.0942037,50.9603908]},"properties":{"id":"bikerack:71349a90-f5c8-421e-8761-e2198b166366","kind":"bikerack","longitude":11.0942037,"latitude":50.9603908,"name":"Fahrradabstellplatz","city":"Monchenholzhausen","address":null,"covered":true,"access":null,"website":null,"phone":null,"source":"OpenStreetMap/node/11066610392","sourceUpdatedAt":null,"verifiedAt":null}},{"type":"Feature","geometry":{"type":"Point","coordinates":[11.0949572,50.9606255]},"properties":{"id":"bikerack:8a139625-a4da-434d-bad3-d41d1a54d8f5","kind":"bikerack","longitude":11.0949572,"latitude":50.9606255,"name":"Fahrradabstellplatz","city":"Monchenholzhausen","address":null,"covered":false,"access":null,"website":null,"phone":null,"source":"OpenStreetMap/node/11564628471","sourceUpdatedAt":null,"verifiedAt":null}},{"type":"Feature","geometry":{"type":"Point","coordinates":[11.1101339,50.9640603]},"properties":{"id":"bikerack:a5bf618b-dec3-496f-8edc-472ef9665378","kind":"bikerack","longitude":11.1101339,"latitude":50.9640603,"name":"Fahrradabstellplatz","city":"Monchenholzhausen","address":null,"covered":false,"access":null,"website":null,"phone":null,"source":"OpenStreetMap/node/12433139019","sourceUpdatedAt":null,"verifiedAt":null}},{"type":"Feature","geometry":{"type":"Point","coordinates":[11.0949985,50.9605424]},"properties":{"id":"bikerack:dc2f41aa-394c-4e46-ae59-9d4f8662b2c2","kind":"bikerack","longitude":11.0949985,"latitude":50.9605424,"name":"Fahrradabstellplatz","city":"Monchenholzhausen","address":null,"covered":false,"access":null,"website":null,"phone":null,"source":"OpenStreetMap/node/11564628472","sourceUpdatedAt":null,"verifiedAt":null}}]}