{"type":"FeatureCollection","features":[{"type":"Feature","geometry":{"type":"Point","coordinates":[11.0777009,49.7254482]},"properties":{"id":"bikerack:0a197543-b819-4321-abb4-9facb61b920d","kind":"bikerack","longitude":11.0777009,"latitude":49.7254482,"name":"Fahrradabstellplatz","city":"Forchheim","address":null,"covered":false,"access":null,"website":null,"phone":null,"source":"OpenStreetMap/node/9992560224","sourceUpdatedAt":null,"verifiedAt":null}},{"type":"Feature","geometry":{"type":"Point","coordinates":[11.0759784,49.7287715]},"properties":{"id":"bikerack:0d93d7dd-7cec-4d60-8aad-bb7cdfba66d7","kind":"bikerack","longitude":11.0759784,"latitude":49.7287715,"name":"Fahrradabstellplatz","city":"Forchheim","address":null,"covered":false,"access":null,"website":null,"phone":null,"source":"OpenStreetMap/node/10884624092","sourceUpdatedAt":null,"verifiedAt":null}},{"type":"Feature","geometry":{"type":"Point","coordinates":[11.0749395,49.7297643]},"properties":{"id":"bikerack:3fdb6d79-4e30-4fc6-822f-63e241367433","kind":"bikerack","longitude":11.0749395,"latitude":49.7297643,"name":"Fahrradabstellplatz","city":"Forchheim","address":null,"covered":false,"access":null,"website":null,"phone":null,"source":"OpenStreetMap/node/10884624093","sourceUpdatedAt":null,"verifiedAt":null}},{"type":"Feature","geometry":{"type":"Point","coordinates":[11.0766681,49.7487249]},"properties":{"id":"bikerack:4246adc0-cade-4a2d-adfb-422d6c80f49d","kind":"bikerack","longitude":11.0766681,"latitude":49.7487249,"name":"Fahrradabstellplatz","city":"Eggolsheim","address":null,"covered":false,"access":null,"website":null,"phone":null,"source":"OpenStreetMap/way/819142550","sourceUpdatedAt":null,"verifiedAt":null}}]}