{"type":"FeatureCollection","features":[{"type":"Feature","geometry":{"type":"Point","coordinates":[11.09411,46.4051911]},"properties":{"id":"water:00f9a6b6-23f5-46fb-9b77-641ea214208e","kind":"water","longitude":11.09411,"latitude":46.4051911,"name":"Fontanella","city":"Dambel","address":null,"covered":null,"access":null,"website":null,"phone":null,"source":"OpenStreetMap/node/5774871981","sourceUpdatedAt":null,"verifiedAt":null}},{"type":"Feature","geometry":{"type":"Point","coordinates":[11.0837934,46.3791018]},"properties":{"id":"water:151213ec-bdb8-4245-833c-015aa854aab9","kind":"water","longitude":11.0837934,"latitude":46.3791018,"name":"Fontanella","city":"Sanzeno","address":null,"covered":null,"access":null,"website":null,"phone":null,"source":"OpenStreetMap/node/13175501101","sourceUpdatedAt":null,"verifiedAt":null}},{"type":"Feature","geometry":{"type":"Point","coordinates":[11.0923548,46.3796686]},"properties":{"id":"water:24fd8674-d1aa-4430-b381-dcbc7fd08c73","kind":"water","longitude":11.0923548,"latitude":46.3796686,"name":"Fontanella","city":"Sanzeno","address":null,"covered":null,"access":null,"website":null,"phone":null,"source":"OpenStreetMap/node/1717098651","sourceUpdatedAt":null,"verifiedAt":null}},{"type":"Feature","geometry":{"type":"Point","coordinates":[11.0917519,46.4043881]},"properties":{"id":"water:27137edb-2714-435b-8574-0c55894c0a92","kind":"water","longitude":11.0917519,"latitude":46.4043881,"name":"Fontanella","city":"Dambel","address":null,"covered":null,"access":null,"website":null,"phone":null,"source":"OpenStreetMap/node/3074954547","sourceUpdatedAt":null,"verifiedAt":null}},{"type":"Feature","geometry":{"type":"Point","coordinates":[11.0880567,46.3773901]},"properties":{"id":"water:531a879a-534e-47f0-aae7-bf21beddd9d4","kind":"water","longitude":11.0880567,"latitude":46.3773901,"name":"Fontanella","city":"Sanzeno","address":null,"covered":null,"access":null,"website":null,"phone":null,"source":"OpenStreetMap/node/1717098604","sourceUpdatedAt":null,"verifiedAt":null}},{"type":"Feature","geometry":{"type":"Point","coordinates":[11.0928551,46.4055838]},"properties":{"id":"water:57491176-439c-46de-ab93-fbbd6bf73859","kind":"water","longitude":11.0928551,"latitude":46.4055838,"name":"Fontanella","city":"Dambel","address":null,"covered":null,"access":null,"website":null,"phone":null,"source":"OpenStreetMap/node/3074954546","sourceUpdatedAt":null,"verifiedAt":null}},{"type":"Feature","geometry":{"type":"Point","coordinates":[11.0912601,46.3790497]},"properties":{"id":"water:6a1e52e6-4a65-4975-aaf2-4a7133c4ac5d","kind":"water","longitude":11.0912601,"latitude":46.3790497,"name":"Fontanella","city":"Sanzeno","address":null,"covered":null,"access":null,"website":null,"phone":null,"source":"OpenStreetMap/node/1717098646","sourceUpdatedAt":null,"verifiedAt":null}},{"type":"Feature","geometry":{"type":"Point","coordinates":[11.0786015,46.3931623]},"properties":{"id":"water:80de2bd5-14dc-4e12-921e-084580c64822","kind":"water","longitude":11.0786015,"latitude":46.3931623,"name":"Peschiera - Sirmione – Fontanella","city":"Romallo","address":null,"covered":null,"access":null,"website":null,"phone":null,"source":"OpenStreetMap/node/5896450279","sourceUpdatedAt":null,"verifiedAt":null}},{"type":"Feature","geometry":{"type":"Point","coordinates":[11.0942662,46.4026452]},"properties":{"id":"water:aa3c5b6f-a00a-4871-9d72-6f042388fa6e","kind":"water","longitude":11.0942662,"latitude":46.4026452,"name":"Fontanella","city":"Dambel","address":null,"covered":null,"access":null,"website":null,"phone":null,"source":"OpenStreetMap/node/3074954545","sourceUpdatedAt":null,"verifiedAt":null}},{"type":"Feature","geometry":{"type":"Point","coordinates":[11.1094843,46.3943635]},"properties":{"id":"water:df1c99d6-714b-4f3d-a448-9d4c27d92972","kind":"water","longitude":11.1094843,"latitude":46.3943635,"name":"Fontanella","city":"Romeno","address":null,"covered":null,"access":null,"website":null,"phone":null,"source":"OpenStreetMap/node/5796333594","sourceUpdatedAt":null,"verifiedAt":null}}]}