{"type":"FeatureCollection","features":[{"type":"Feature","geometry":{"type":"Point","coordinates":[11.093683,46.2132333]},"properties":{"id":"bikerack:0398fee0-d24f-4db4-962a-a7b9ec3b5476","kind":"bikerack","longitude":11.093683,"latitude":46.2132333,"name":"Parcheggio bici","city":"Mezzolombardo","address":null,"covered":false,"access":null,"website":null,"phone":null,"source":"OpenStreetMap/node/937070455","sourceUpdatedAt":null,"verifiedAt":null}},{"type":"Feature","geometry":{"type":"Point","coordinates":[11.0998637,46.2198671]},"properties":{"id":"bikerack:1a106be0-bdf3-473b-bc77-1b22c8424c86","kind":"bikerack","longitude":11.0998637,"latitude":46.2198671,"name":"Parcheggio bici","city":"Mezzolombardo","address":null,"covered":false,"access":null,"website":null,"phone":null,"source":"OpenStreetMap/node/4740516461","sourceUpdatedAt":null,"verifiedAt":null}},{"type":"Feature","geometry":{"type":"Point","coordinates":[11.0914755,46.2137463]},"properties":{"id":"bikerack:232cef4b-bbd8-49ff-8c27-8a6e0396572c","kind":"bikerack","longitude":11.0914755,"latitude":46.2137463,"name":"Parcheggio bici","city":"Mezzolombardo","address":null,"covered":false,"access":null,"website":null,"phone":null,"source":"OpenStreetMap/node/937562531","sourceUpdatedAt":null,"verifiedAt":null}},{"type":"Feature","geometry":{"type":"Point","coordinates":[11.0989538,46.2129375]},"properties":{"id":"bikerack:241dc5ff-8fb8-4619-a8ec-cbbdcab3cf74","kind":"bikerack","longitude":11.0989538,"latitude":46.2129375,"name":"Parcheggio bici","city":"Mezzolombardo","address":null,"covered":false,"access":null,"website":null,"phone":null,"source":"OpenStreetMap/node/1645012741","sourceUpdatedAt":null,"verifiedAt":null}},{"type":"Feature","geometry":{"type":"Point","coordinates":[11.0937842,46.2114849]},"properties":{"id":"bikerack:278e97e8-e7fb-4433-b549-8c10432f83fc","kind":"bikerack","longitude":11.0937842,"latitude":46.2114849,"name":"Parcheggio bici","city":"Mezzolombardo","address":null,"covered":false,"access":null,"website":null,"phone":null,"source":"OpenStreetMap/node/956203920","sourceUpdatedAt":null,"verifiedAt":null}},{"type":"Feature","geometry":{"type":"Point","coordinates":[11.1014821,46.208929]},"properties":{"id":"bikerack:28ccfde7-ed72-4b02-a1a4-d65df619a636","kind":"bikerack","longitude":11.1014821,"latitude":46.208929,"name":"Parcheggio bici","city":"Mezzolombardo","address":null,"covered":false,"access":null,"website":null,"phone":null,"source":"OpenStreetMap/node/5503564006","sourceUpdatedAt":null,"verifiedAt":null}},{"type":"Feature","geometry":{"type":"Point","coordinates":[11.1024456,46.2087911]},"properties":{"id":"bikerack:2cc24413-eb10-4c8a-a167-4e2a6d4a9a40","kind":"bikerack","longitude":11.1024456,"latitude":46.2087911,"name":"Parcheggio bici","city":"Mezzolombardo","address":null,"covered":false,"access":null,"website":null,"phone":null,"source":"OpenStreetMap/node/5503564008","sourceUpdatedAt":null,"verifiedAt":null}},{"type":"Feature","geometry":{"type":"Point","coordinates":[11.0939902,46.2120098]},"properties":{"id":"bikerack:39659a3f-025a-4bc0-8bea-917631cff5d5","kind":"bikerack","longitude":11.0939902,"latitude":46.2120098,"name":"Parcheggio bici","city":"Mezzolombardo","address":null,"covered":false,"access":null,"website":null,"phone":null,"source":"OpenStreetMap/node/1268937588","sourceUpdatedAt":null,"verifiedAt":null}},{"type":"Feature","geometry":{"type":"Point","coordinates":[11.0917439,46.2135353]},"properties":{"id":"bikerack:40dd9bed-34dc-4ac7-9933-f283de76989c","kind":"bikerack","longitude":11.0917439,"latitude":46.2135353,"name":"Parcheggio bici","city":"Mezzolombardo","address":null,"covered":false,"access":null,"website":null,"phone":null,"source":"OpenStreetMap/node/1896609534","sourceUpdatedAt":null,"verifiedAt":null}},{"type":"Feature","geometry":{"type":"Point","coordinates":[11.091402,46.2128953]},"properties":{"id":"bikerack:43956507-c464-4ba9-9013-88ce3c55f411","kind":"bikerack","longitude":11.091402,"latitude":46.2128953,"name":"Parcheggio bici","city":"Mezzolombardo","address":null,"covered":false,"access":null,"website":null,"phone":null,"source":"OpenStreetMap/node/1376673731","sourceUpdatedAt":null,"verifiedAt":null}},{"type":"Feature","geometry":{"type":"Point","coordinates":[11.0913852,46.2141744]},"properties":{"id":"bikerack:45a50c87-e128-4aba-92dd-2440634ea3d1","kind":"bikerack","longitude":11.0913852,"latitude":46.2141744,"name":"Parcheggio bici","city":"Mezzolombardo","address":null,"covered":false,"access":null,"website":null,"phone":null,"source":"OpenStreetMap/node/1305986892","sourceUpdatedAt":null,"verifiedAt":null}},{"type":"Feature","geometry":{"type":"Point","coordinates":[11.0920024,46.213341]},"properties":{"id":"bikerack:4f59af4f-28f0-4650-a340-c49e2a2d4e3b","kind":"bikerack","longitude":11.0920024,"latitude":46.213341,"name":"Parcheggio bici","city":"Mezzolombardo","address":null,"covered":false,"access":null,"website":null,"phone":null,"source":"OpenStreetMap/node/937561833","sourceUpdatedAt":null,"verifiedAt":null}},{"type":"Feature","geometry":{"type":"Point","coordinates":[11.0909303,46.21076]},"properties":{"id":"bikerack:526fa432-64d4-4c12-b85d-84d33fd823f5","kind":"bikerack","longitude":11.0909303,"latitude":46.21076,"name":"Parcheggio bici","city":"Mezzolombardo","address":null,"covered":false,"access":null,"website":null,"phone":null,"source":"OpenStreetMap/node/8672128744","sourceUpdatedAt":null,"verifiedAt":null}},{"type":"Feature","geometry":{"type":"Point","coordinates":[11.0927312,46.2120064]},"properties":{"id":"bikerack:6baf2e85-fd66-4112-8ad7-096543ebda67","kind":"bikerack","longitude":11.0927312,"latitude":46.2120064,"name":"Parcheggio bici","city":"Mezzolombardo","address":null,"covered":false,"access":null,"website":null,"phone":null,"source":"OpenStreetMap/node/1268937408","sourceUpdatedAt":null,"verifiedAt":null}},{"type":"Feature","geometry":{"type":"Point","coordinates":[11.0936191,46.2133106]},"properties":{"id":"bikerack:720e824e-3b17-4b4b-a126-1c511c10930e","kind":"bikerack","longitude":11.0936191,"latitude":46.2133106,"name":"Parcheggio bici","city":"Mezzolombardo","address":null,"covered":false,"access":null,"website":null,"phone":null,"source":"OpenStreetMap/node/892399737","sourceUpdatedAt":null,"verifiedAt":null}},{"type":"Feature","geometry":{"type":"Point","coordinates":[11.1081542,46.2131852]},"properties":{"id":"bikerack:7483e3f9-6ce6-4e15-b781-493a25173946","kind":"bikerack","longitude":11.1081542,"latitude":46.2131852,"name":"Parcheggio bici","city":"Mezzolombardo","address":null,"covered":false,"access":null,"website":null,"phone":null,"source":"OpenStreetMap/node/4740516479","sourceUpdatedAt":null,"verifiedAt":null}},{"type":"Feature","geometry":{"type":"Point","coordinates":[11.0940331,46.2119841]},"properties":{"id":"bikerack:7730d62a-e4b8-43d9-94e4-3a208e4c1b4b","kind":"bikerack","longitude":11.0940331,"latitude":46.2119841,"name":"Parcheggio bici","city":"Mezzolombardo","address":null,"covered":false,"access":null,"website":null,"phone":null,"source":"OpenStreetMap/node/1268937183","sourceUpdatedAt":null,"verifiedAt":null}},{"type":"Feature","geometry":{"type":"Point","coordinates":[11.0940442,46.2117629]},"properties":{"id":"bikerack:819c5b39-41f0-4ec1-acc2-5ebdcf33b5a6","kind":"bikerack","longitude":11.0940442,"latitude":46.2117629,"name":"Parcheggio bici","city":"Mezzolombardo","address":null,"covered":false,"access":null,"website":null,"phone":null,"source":"OpenStreetMap/node/956203977","sourceUpdatedAt":null,"verifiedAt":null}},{"type":"Feature","geometry":{"type":"Point","coordinates":[11.090269,46.2133771]},"properties":{"id":"bikerack:8447a288-f470-489d-b1d7-28785e7dacf9","kind":"bikerack","longitude":11.090269,"latitude":46.2133771,"name":"Parcheggio bici","city":"Mezzolombardo","address":null,"covered":false,"access":null,"website":null,"phone":null,"source":"OpenStreetMap/node/1297036406","sourceUpdatedAt":null,"verifiedAt":null}},{"type":"Feature","geometry":{"type":"Point","coordinates":[11.1025938,46.2088204]},"properties":{"id":"bikerack:853822c9-62ad-441e-ad56-6276c1454a58","kind":"bikerack","longitude":11.1025938,"latitude":46.2088204,"name":"Parcheggio bici","city":"Mezzolombardo","address":null,"covered":false,"access":null,"website":null,"phone":null,"source":"OpenStreetMap/node/5503564009","sourceUpdatedAt":null,"verifiedAt":null}},{"type":"Feature","geometry":{"type":"Point","coordinates":[11.0936783,46.2132719]},"properties":{"id":"bikerack:94ae6b5b-6521-45a8-b38f-a88768b146d1","kind":"bikerack","longitude":11.0936783,"latitude":46.2132719,"name":"Parcheggio bici","city":"Mezzolombardo","address":null,"covered":false,"access":null,"website":null,"phone":null,"source":"OpenStreetMap/node/1262242737","sourceUpdatedAt":null,"verifiedAt":null}},{"type":"Feature","geometry":{"type":"Point","coordinates":[11.0945949,46.2102282]},"properties":{"id":"bikerack:974917b2-4022-481b-be59-8ce4bfa935e1","kind":"bikerack","longitude":11.0945949,"latitude":46.2102282,"name":"Parcheggio bici","city":"Mezzolombardo","address":null,"covered":false,"access":null,"website":null,"phone":null,"source":"OpenStreetMap/node/5462630519","sourceUpdatedAt":null,"verifiedAt":null}},{"type":"Feature","geometry":{"type":"Point","coordinates":[11.0898094,46.2120329]},"properties":{"id":"bikerack:c5de73c1-3dd5-41f2-a66b-fb1bc149d2bc","kind":"bikerack","longitude":11.0898094,"latitude":46.2120329,"name":"Parcheggio bici","city":"Mezzolombardo","address":null,"covered":false,"access":null,"website":null,"phone":null,"source":"OpenStreetMap/node/1226777902","sourceUpdatedAt":null,"verifiedAt":null}},{"type":"Feature","geometry":{"type":"Point","coordinates":[11.0891832,46.2128537]},"properties":{"id":"bikerack:d0c223ae-1f30-49fa-a9a0-80cce1a410fb","kind":"bikerack","longitude":11.0891832,"latitude":46.2128537,"name":"Parcheggio bici","city":"Mezzolombardo","address":null,"covered":false,"access":null,"website":null,"phone":null,"source":"OpenStreetMap/node/1226778231","sourceUpdatedAt":null,"verifiedAt":null}},{"type":"Feature","geometry":{"type":"Point","coordinates":[11.0913126,46.2119605]},"properties":{"id":"bikerack:d0d4face-948c-4fbb-a5b3-0204623172d1","kind":"bikerack","longitude":11.0913126,"latitude":46.2119605,"name":"Parcheggio bici","city":"Mezzolombardo","address":null,"covered":false,"access":null,"website":null,"phone":null,"source":"OpenStreetMap/node/1614921164","sourceUpdatedAt":null,"verifiedAt":null}},{"type":"Feature","geometry":{"type":"Point","coordinates":[11.0888494,46.2134494]},"properties":{"id":"bikerack:e5714d89-6e02-473c-a074-8514c1e79d3f","kind":"bikerack","longitude":11.0888494,"latitude":46.2134494,"name":"Parcheggio bici","city":"Mezzolombardo","address":null,"covered":false,"access":null,"website":null,"phone":null,"source":"OpenStreetMap/node/1297031990","sourceUpdatedAt":null,"verifiedAt":null}},{"type":"Feature","geometry":{"type":"Point","coordinates":[11.0932962,46.2135979]},"properties":{"id":"bikerack:e69f6cb2-3e6c-4ff3-8da3-e1528cf0d1c0","kind":"bikerack","longitude":11.0932962,"latitude":46.2135979,"name":"Parcheggio bici","city":"Mezzolombardo","address":null,"covered":false,"access":null,"website":null,"phone":null,"source":"OpenStreetMap/node/892399760","sourceUpdatedAt":null,"verifiedAt":null}},{"type":"Feature","geometry":{"type":"Point","coordinates":[11.1084957,46.2122007]},"properties":{"id":"bikerack:e9b4604d-9dd7-42c5-a198-37f1ccde7539","kind":"bikerack","longitude":11.1084957,"latitude":46.2122007,"name":"Parcheggio bici","city":"Mezzolombardo","address":null,"covered":false,"access":null,"website":null,"phone":null,"source":"OpenStreetMap/node/4740516491","sourceUpdatedAt":null,"verifiedAt":null}},{"type":"Feature","geometry":{"type":"Point","coordinates":[11.0903112,46.2138103]},"properties":{"id":"bikerack:fb8a1b8b-45f3-4908-8b8e-80396ab8e87b","kind":"bikerack","longitude":11.0903112,"latitude":46.2138103,"name":"Parcheggio bici","city":"Mezzolombardo","address":null,"covered":false,"access":null,"website":null,"phone":null,"source":"OpenStreetMap/node/944999712","sourceUpdatedAt":null,"verifiedAt":null}},{"type":"Feature","geometry":{"type":"Point","coordinates":[11.096374,46.2227538]},"properties":{"id":"bikerack:fd378d87-52fd-4d8c-8476-df343d089b24","kind":"bikerack","longitude":11.096374,"latitude":46.2227538,"name":"Parcheggio bici","city":"Mezzolombardo","address":null,"covered":false,"access":null,"website":null,"phone":null,"source":"OpenStreetMap/node/4740516450","sourceUpdatedAt":null,"verifiedAt":null}},{"type":"Feature","geometry":{"type":"Point","coordinates":[11.0912824,46.2141102]},"properties":{"id":"bikerack:fdfaa006-925d-4b1f-9687-1d85c964f11c","kind":"bikerack","longitude":11.0912824,"latitude":46.2141102,"name":"Parcheggio bici","city":"Mezzolombardo","address":null,"covered":false,"access":null,"website":null,"phone":null,"source":"OpenStreetMap/node/1305986863","sourceUpdatedAt":null,"verifiedAt":null}},{"type":"Feature","geometry":{"type":"Point","coordinates":[11.116481,46.213375]},"properties":{"id":"bikerack:ff4cfca0-2329-4e3c-b177-666f0594e3e4","kind":"bikerack","longitude":11.116481,"latitude":46.213375,"name":"Parcheggio bici","city":"Mezzocorona","address":null,"covered":true,"access":null,"website":null,"phone":null,"source":"OpenStreetMap/node/1596908304","sourceUpdatedAt":null,"verifiedAt":null}},{"type":"Feature","geometry":{"type":"Point","coordinates":[11.0895084,46.21484]},"properties":{"id":"service:9dc38f88-9f1c-4430-b254-9e0bc59c77d3","kind":"service","longitude":11.0895084,"latitude":46.21484,"name":"Errepi Ciclo","city":"Mezzolombardo","address":null,"covered":null,"access":null,"website":null,"phone":null,"source":"OpenStreetMap/node/1168689208","sourceUpdatedAt":null,"verifiedAt":null}},{"type":"Feature","geometry":{"type":"Point","coordinates":[11.0939642,46.2098887]},"properties":{"id":"service:e89aedd1-807b-4372-8414-4e4ea6f9069f","kind":"service","longitude":11.0939642,"latitude":46.2098887,"name":"Ciclo Shop","city":"Mezzolombardo","address":null,"covered":null,"access":null,"website":null,"phone":null,"source":"OpenStreetMap/node/1226777962","sourceUpdatedAt":null,"verifiedAt":null}},{"type":"Feature","geometry":{"type":"Point","coordinates":[11.1180286,46.2161374]},"properties":{"id":"water:085fad75-670d-4ae4-92ab-ff2eca27427e","kind":"water","longitude":11.1180286,"latitude":46.2161374,"name":"Fontanella","city":"Mezzocorona","address":null,"covered":null,"access":null,"website":null,"phone":null,"source":"OpenStreetMap/node/6090240031","sourceUpdatedAt":null,"verifiedAt":null}},{"type":"Feature","geometry":{"type":"Point","coordinates":[11.0897654,46.2140922]},"properties":{"id":"water:13369474-1771-408b-bd4e-c46d2c27c4e3","kind":"water","longitude":11.0897654,"latitude":46.2140922,"name":"Fontanella","city":"Mezzolombardo","address":null,"covered":null,"access":null,"website":null,"phone":null,"source":"OpenStreetMap/node/865333800","sourceUpdatedAt":null,"verifiedAt":null}},{"type":"Feature","geometry":{"type":"Point","coordinates":[11.0931941,46.2132863]},"properties":{"id":"water:1b05207e-793d-4ea7-89db-3b245531fe44","kind":"water","longitude":11.0931941,"latitude":46.2132863,"name":"Fontanella","city":"Mezzolombardo","address":null,"covered":null,"access":null,"website":null,"phone":null,"source":"OpenStreetMap/node/937561830","sourceUpdatedAt":null,"verifiedAt":null}},{"type":"Feature","geometry":{"type":"Point","coordinates":[11.0945434,46.2087432]},"properties":{"id":"water:1d4b1d52-8002-4907-b9a4-129f177a68e3","kind":"water","longitude":11.0945434,"latitude":46.2087432,"name":"Fontanella","city":"Mezzolombardo","address":null,"covered":null,"access":null,"website":null,"phone":null,"source":"OpenStreetMap/node/1633035183","sourceUpdatedAt":null,"verifiedAt":null}},{"type":"Feature","geometry":{"type":"Point","coordinates":[11.0927831,46.2130256]},"properties":{"id":"water:3425df1a-139d-4285-a3e4-e5aefc61d83c","kind":"water","longitude":11.0927831,"latitude":46.2130256,"name":"Fontanella","city":"Mezzolombardo","address":null,"covered":null,"access":null,"website":null,"phone":null,"source":"OpenStreetMap/node/13195729031","sourceUpdatedAt":null,"verifiedAt":null}},{"type":"Feature","geometry":{"type":"Point","coordinates":[11.0998112,46.2199065]},"properties":{"id":"water:40792855-08eb-41d9-883d-6567c66b5924","kind":"water","longitude":11.0998112,"latitude":46.2199065,"name":"Fontanella","city":"Mezzolombardo","address":null,"covered":null,"access":null,"website":null,"phone":null,"source":"OpenStreetMap/node/4740516460","sourceUpdatedAt":null,"verifiedAt":null}},{"type":"Feature","geometry":{"type":"Point","coordinates":[11.0897743,46.2120574]},"properties":{"id":"water:40b1dfe7-612d-445c-b817-0f958684d85c","kind":"water","longitude":11.0897743,"latitude":46.2120574,"name":"Fontanella","city":"Mezzolombardo","address":null,"covered":null,"access":null,"website":null,"phone":null,"source":"OpenStreetMap/node/1297031951","sourceUpdatedAt":null,"verifiedAt":null}},{"type":"Feature","geometry":{"type":"Point","coordinates":[11.0930124,46.2128108]},"properties":{"id":"water:5a4b13f9-9495-4fae-9a86-f0ddc6bbf93c","kind":"water","longitude":11.0930124,"latitude":46.2128108,"name":"Fontanella","city":"Mezzolombardo","address":null,"covered":null,"access":null,"website":null,"phone":null,"source":"OpenStreetMap/node/13195729019","sourceUpdatedAt":null,"verifiedAt":null}},{"type":"Feature","geometry":{"type":"Point","coordinates":[11.1081648,46.2170321]},"properties":{"id":"water:667568a2-31f4-4d17-9b91-8f6da4b769df","kind":"water","longitude":11.1081648,"latitude":46.2170321,"name":"Fontanella","city":"Mezzolombardo","address":null,"covered":null,"access":null,"website":null,"phone":null,"source":"OpenStreetMap/node/388393322","sourceUpdatedAt":null,"verifiedAt":null}},{"type":"Feature","geometry":{"type":"Point","coordinates":[11.0928612,46.2125441]},"properties":{"id":"water:6f21be3c-648a-4fb2-b2e6-89b503caae5c","kind":"water","longitude":11.0928612,"latitude":46.2125441,"name":"Fontanella","city":"Mezzolombardo","address":null,"covered":null,"access":null,"website":null,"phone":null,"source":"OpenStreetMap/node/1147996707","sourceUpdatedAt":null,"verifiedAt":null}},{"type":"Feature","geometry":{"type":"Point","coordinates":[11.0957139,46.2085125]},"properties":{"id":"water:8a0272d9-0927-41ce-a67a-d414a5e6f0a5","kind":"water","longitude":11.0957139,"latitude":46.2085125,"name":"Fontanella","city":"Mezzolombardo","address":null,"covered":null,"access":null,"website":null,"phone":null,"source":"OpenStreetMap/node/2019113888","sourceUpdatedAt":null,"verifiedAt":null}},{"type":"Feature","geometry":{"type":"Point","coordinates":[11.0893454,46.2092096]},"properties":{"id":"water:8d3ab555-a375-482d-a473-e8a4c5fa38b4","kind":"water","longitude":11.0893454,"latitude":46.2092096,"name":"Fontanella","city":"Mezzolombardo","address":null,"covered":null,"access":null,"website":null,"phone":null,"source":"OpenStreetMap/node/12828395458","sourceUpdatedAt":null,"verifiedAt":null}},{"type":"Feature","geometry":{"type":"Point","coordinates":[11.0877317,46.2159217]},"properties":{"id":"water:a1221c28-4327-406b-8956-c3c183c52d3a","kind":"water","longitude":11.0877317,"latitude":46.2159217,"name":"Fontanella","city":"Mezzolombardo","address":null,"covered":null,"access":null,"website":null,"phone":null,"source":"OpenStreetMap/node/5040652012","sourceUpdatedAt":null,"verifiedAt":null}},{"type":"Feature","geometry":{"type":"Point","coordinates":[11.1031506,46.2191987]},"properties":{"id":"water:a5c74cc7-5faf-4b97-a796-c26956e70fe4","kind":"water","longitude":11.1031506,"latitude":46.2191987,"name":"Fontanella","city":"Mezzolombardo","address":null,"covered":null,"access":null,"website":null,"phone":null,"source":"OpenStreetMap/node/1550658887","sourceUpdatedAt":null,"verifiedAt":null}},{"type":"Feature","geometry":{"type":"Point","coordinates":[11.0879764,46.213201]},"properties":{"id":"water:a9546806-2b35-49f6-b230-f8261ed31eb8","kind":"water","longitude":11.0879764,"latitude":46.213201,"name":"Fontanella","city":"Mezzolombardo","address":null,"covered":null,"access":null,"website":null,"phone":null,"source":"OpenStreetMap/node/1721725132","sourceUpdatedAt":null,"verifiedAt":null}},{"type":"Feature","geometry":{"type":"Point","coordinates":[11.0940581,46.224618]},"properties":{"id":"water:b160f121-3e4b-4f2e-a47b-85e3cbb46fcf","kind":"water","longitude":11.0940581,"latitude":46.224618,"name":"Fontanella","city":"Mezzolombardo","address":null,"covered":null,"access":null,"website":null,"phone":null,"source":"OpenStreetMap/node/388416008","sourceUpdatedAt":null,"verifiedAt":null}},{"type":"Feature","geometry":{"type":"Point","coordinates":[11.1134326,46.2144674]},"properties":{"id":"water:b3b2907b-f7c0-4779-8e34-84493efbaf98","kind":"water","longitude":11.1134326,"latitude":46.2144674,"name":"Fontanella","city":"Mezzocorona","address":null,"covered":null,"access":null,"website":null,"phone":null,"source":"OpenStreetMap/node/388393249","sourceUpdatedAt":null,"verifiedAt":null}},{"type":"Feature","geometry":{"type":"Point","coordinates":[11.1033109,46.2170324]},"properties":{"id":"water:c325b373-7229-4350-acc1-700b4c6e7b91","kind":"water","longitude":11.1033109,"latitude":46.2170324,"name":"Fontanella","city":"Mezzolombardo","address":null,"covered":null,"access":null,"website":null,"phone":null,"source":"OpenStreetMap/node/2444602971","sourceUpdatedAt":null,"verifiedAt":null}},{"type":"Feature","geometry":{"type":"Point","coordinates":[11.0855087,46.2037539]},"properties":{"id":"water:dc2063dd-85f9-46d3-994d-bc0e59e70aae","kind":"water","longitude":11.0855087,"latitude":46.2037539,"name":"Fontanella","city":"Mezzolombardo","address":null,"covered":null,"access":null,"website":null,"phone":null,"source":"OpenStreetMap/node/4508560141","sourceUpdatedAt":null,"verifiedAt":null}},{"type":"Feature","geometry":{"type":"Point","coordinates":[11.0899811,46.2120318]},"properties":{"id":"water:dec98a15-3cc6-41fc-8839-42222bcd2c1a","kind":"water","longitude":11.0899811,"latitude":46.2120318,"name":"Fontanella","city":"Mezzolombardo","address":null,"covered":null,"access":null,"website":null,"phone":null,"source":"OpenStreetMap/node/2442987448","sourceUpdatedAt":null,"verifiedAt":null}},{"type":"Feature","geometry":{"type":"Point","coordinates":[11.0927079,46.2129531]},"properties":{"id":"water:e76a9248-c513-475c-86cd-38408cb1ce8a","kind":"water","longitude":11.0927079,"latitude":46.2129531,"name":"Fontanella","city":"Mezzolombardo","address":null,"covered":null,"access":null,"website":null,"phone":null,"source":"OpenStreetMap/node/937561879","sourceUpdatedAt":null,"verifiedAt":null}},{"type":"Feature","geometry":{"type":"Point","coordinates":[11.0963516,46.2227663]},"properties":{"id":"water:fc02f6a7-73af-4587-bd04-a05e74ede132","kind":"water","longitude":11.0963516,"latitude":46.2227663,"name":"Fontanella","city":"Mezzolombardo","address":null,"covered":null,"access":null,"website":null,"phone":null,"source":"OpenStreetMap/node/4740516453","sourceUpdatedAt":null,"verifiedAt":null}}]}