{"type":"FeatureCollection","features":[{"type":"Feature","geometry":{"type":"Point","coordinates":[11.0923596,45.9825167]},"properties":{"id":"water:267598ae-f74a-4f69-aa22-3e0d39e71672","kind":"water","longitude":11.0923596,"latitude":45.9825167,"name":"Fontanella","city":"Aldeno","address":null,"covered":null,"access":null,"website":null,"phone":null,"source":"OpenStreetMap/node/474970466","sourceUpdatedAt":null,"verifiedAt":null}},{"type":"Feature","geometry":{"type":"Point","coordinates":[11.0904982,46.0055443]},"properties":{"id":"water:7719d0b3-4504-42b6-8ca8-ed92a1cd3977","kind":"water","longitude":11.0904982,"latitude":46.0055443,"name":"Fontanella","city":"Garniga Nuova","address":null,"covered":null,"access":null,"website":null,"phone":null,"source":"OpenStreetMap/node/12082255435","sourceUpdatedAt":null,"verifiedAt":null}},{"type":"Feature","geometry":{"type":"Point","coordinates":[11.0806312,45.991059]},"properties":{"id":"water:a3614d36-da65-4f15-9468-46d2115e23e9","kind":"water","longitude":11.0806312,"latitude":45.991059,"name":"Fontanella","city":"Cimoneri","address":null,"covered":null,"access":null,"website":null,"phone":null,"source":"OpenStreetMap/node/2466899683","sourceUpdatedAt":null,"verifiedAt":null}},{"type":"Feature","geometry":{"type":"Point","coordinates":[11.0861508,46.0029087]},"properties":{"id":"water:c873b8f0-87b8-4f07-a394-d36f09382a1a","kind":"water","longitude":11.0861508,"latitude":46.0029087,"name":"Fontanella","city":"Garniga Nuova","address":null,"covered":null,"access":null,"website":null,"phone":null,"source":"OpenStreetMap/node/6974117431","sourceUpdatedAt":null,"verifiedAt":null}},{"type":"Feature","geometry":{"type":"Point","coordinates":[11.0855845,46.0019796]},"properties":{"id":"water:e1ba547d-f515-4948-a72a-95541fd5582a","kind":"water","longitude":11.0855845,"latitude":46.0019796,"name":"Fontanella","city":"Garniga Nuova","address":null,"covered":null,"access":null,"website":null,"phone":null,"source":"OpenStreetMap/node/840454221","sourceUpdatedAt":null,"verifiedAt":null}},{"type":"Feature","geometry":{"type":"Point","coordinates":[11.0862029,46.0008679]},"properties":{"id":"water:f4009b34-7279-439b-8bb6-f2bc35ceb996","kind":"water","longitude":11.0862029,"latitude":46.0008679,"name":"Fontanella","city":"Garniga Nuova","address":null,"covered":null,"access":null,"website":null,"phone":null,"source":"OpenStreetMap/node/5488405150","sourceUpdatedAt":null,"verifiedAt":null}}]}