{"type":"FeatureCollection","features":[{"type":"Feature","geometry":{"type":"Point","coordinates":[11.1061389,45.0325]},"properties":{"id":"water:225fa083-10fe-4a98-a312-33054cf93dfd","kind":"water","longitude":11.1061389,"latitude":45.0325,"name":"Fontanella","city":"Pieve di Coriano","address":null,"covered":null,"access":null,"website":null,"phone":null,"source":"OpenStreetMap/node/12703100920","sourceUpdatedAt":null,"verifiedAt":null}},{"type":"Feature","geometry":{"type":"Point","coordinates":[11.0916389,45.0435278]},"properties":{"id":"water:a53ff79e-8937-4fca-8faf-7347ca2dac1b","kind":"water","longitude":11.0916389,"latitude":45.0435278,"name":"Fontanella","city":"Pieve di Coriano","address":null,"covered":null,"access":null,"website":null,"phone":null,"source":"OpenStreetMap/node/12703100919","sourceUpdatedAt":null,"verifiedAt":null}}]}