{"type":"FeatureCollection","features":[{"type":"Feature","geometry":{"type":"Point","coordinates":[15.7753463,51.0611803]},"properties":{"id":"bikerack:f961a1dc-2c9b-4d9b-9e3a-759ff7b89f54","kind":"bikerack","longitude":15.7753463,"latitude":51.0611803,"name":"Biciklitároló","city":"Wlen","address":null,"covered":false,"access":null,"website":null,"phone":null,"source":"OpenStreetMap/node/11642055272","sourceUpdatedAt":null,"verifiedAt":null}},{"type":"Feature","geometry":{"type":"Point","coordinates":[15.7753372,51.061166]},"properties":{"id":"repair:26fdbe13-5033-4ae1-a997-27e4435abeaf","kind":"repair","longitude":15.7753372,"latitude":51.061166,"name":"Kerékpár szervizállomás","city":"Wlen","address":null,"covered":false,"access":null,"website":null,"phone":null,"source":"OpenStreetMap/node/11642055271","sourceUpdatedAt":null,"verifiedAt":null}}]}