{"type":"FeatureCollection","features":[{"type":"Feature","geometry":{"type":"Point","coordinates":[15.7399573,50.278635]},"properties":{"id":"bikerack:1a147643-52b9-4131-992a-08517f623c21","kind":"bikerack","longitude":15.7399573,"latitude":50.278635,"name":"Bicycle Parking","city":"Vsestary","address":null,"covered":false,"access":null,"website":null,"phone":null,"source":"OpenStreetMap/node/12506438225","sourceUpdatedAt":null,"verifiedAt":null}},{"type":"Feature","geometry":{"type":"Point","coordinates":[15.740853,50.2782702]},"properties":{"id":"bikerack:2e03d383-feca-4b7e-adb8-72eb0a6d4227","kind":"bikerack","longitude":15.740853,"latitude":50.2782702,"name":"Bicycle Parking","city":"Vsestary","address":null,"covered":false,"access":null,"website":null,"phone":null,"source":"OpenStreetMap/node/12507023362","sourceUpdatedAt":null,"verifiedAt":null}},{"type":"Feature","geometry":{"type":"Point","coordinates":[15.7399229,50.2785823]},"properties":{"id":"bikerack:30b0f46c-133e-4f7f-82af-b1da76dc038f","kind":"bikerack","longitude":15.7399229,"latitude":50.2785823,"name":"Bicycle Parking","city":"Vsestary","address":null,"covered":false,"access":null,"website":null,"phone":null,"source":"OpenStreetMap/node/12506438223","sourceUpdatedAt":null,"verifiedAt":null}},{"type":"Feature","geometry":{"type":"Point","coordinates":[15.7399392,50.2786076]},"properties":{"id":"bikerack:8ceea222-687e-44c9-aa67-dba7a4ece84a","kind":"bikerack","longitude":15.7399392,"latitude":50.2786076,"name":"Bicycle Parking","city":"Vsestary","address":null,"covered":false,"access":null,"website":null,"phone":null,"source":"OpenStreetMap/node/12506438224","sourceUpdatedAt":null,"verifiedAt":null}},{"type":"Feature","geometry":{"type":"Point","coordinates":[15.7408909,50.2783201]},"properties":{"id":"bikerack:94b2e0d8-133f-4922-a0d9-581eadf5d29d","kind":"bikerack","longitude":15.7408909,"latitude":50.2783201,"name":"Bicycle Parking","city":"Vsestary","address":null,"covered":false,"access":null,"website":null,"phone":null,"source":"OpenStreetMap/node/12507023360","sourceUpdatedAt":null,"verifiedAt":null}},{"type":"Feature","geometry":{"type":"Point","coordinates":[15.7408784,50.2783048]},"properties":{"id":"bikerack:c2974648-0a29-4fc9-957b-76f91e7017dc","kind":"bikerack","longitude":15.7408784,"latitude":50.2783048,"name":"Bicycle Parking","city":"Vsestary","address":null,"covered":false,"access":null,"website":null,"phone":null,"source":"OpenStreetMap/node/12507023363","sourceUpdatedAt":null,"verifiedAt":null}},{"type":"Feature","geometry":{"type":"Point","coordinates":[15.7408372,50.2782502]},"properties":{"id":"bikerack:c3b2d0d7-9115-4512-af8a-97830f26a4cf","kind":"bikerack","longitude":15.7408372,"latitude":50.2782502,"name":"Bicycle Parking","city":"Vsestary","address":null,"covered":false,"access":null,"website":null,"phone":null,"source":"OpenStreetMap/node/12507023361","sourceUpdatedAt":null,"verifiedAt":null}},{"type":"Feature","geometry":{"type":"Point","coordinates":[15.7408659,50.2782869]},"properties":{"id":"bikerack:dfb24718-2a7f-47fa-8ac9-3def71df9a93","kind":"bikerack","longitude":15.7408659,"latitude":50.2782869,"name":"Bicycle Parking","city":"Vsestary","address":null,"covered":false,"access":null,"website":null,"phone":null,"source":"OpenStreetMap/node/12507023359","sourceUpdatedAt":null,"verifiedAt":null}}]}