{"type":"FeatureCollection","features":[{"type":"Feature","geometry":{"type":"Point","coordinates":[9.5780155,53.4816385]},"properties":{"id":"bikerack:8e7856f6-fb8d-45a2-8532-0a203fe4ef68","kind":"bikerack","longitude":9.5780155,"latitude":53.4816385,"name":"Fahrradabstellplatz","city":"Bliedersdorf","address":null,"covered":false,"access":null,"website":null,"phone":null,"source":"OpenStreetMap/way/1491210971","sourceUpdatedAt":null,"verifiedAt":null}},{"type":"Feature","geometry":{"type":"Point","coordinates":[9.5780217,53.4820039]},"properties":{"id":"bikerack:a0196060-8708-41d4-9a4a-14042f9ea256","kind":"bikerack","longitude":9.5780217,"latitude":53.4820039,"name":"Fahrradabstellplatz","city":"Bliedersdorf","address":null,"covered":false,"access":null,"website":null,"phone":null,"source":"OpenStreetMap/way/1491208882","sourceUpdatedAt":null,"verifiedAt":null}}]}