{"type":"FeatureCollection","features":[{"type":"Feature","geometry":{"type":"Point","coordinates":[9.5665843,52.9803812]},"properties":{"id":"bikerack:6180671d-49b9-4f38-bc63-dc0ee31953d6","kind":"bikerack","longitude":9.5665843,"latitude":52.9803812,"name":"Fahrradabstellplatz","city":"Visselhovede","address":null,"covered":false,"access":null,"website":null,"phone":null,"source":"OpenStreetMap/node/11261966791","sourceUpdatedAt":null,"verifiedAt":null}},{"type":"Feature","geometry":{"type":"Point","coordinates":[9.5767683,52.983984]},"properties":{"id":"bikerack:9bb8d1c6-5970-4a45-964d-904938c6257f","kind":"bikerack","longitude":9.5767683,"latitude":52.983984,"name":"Fahrradabstellplatz","city":"Visselhovede","address":null,"covered":false,"access":null,"website":null,"phone":null,"source":"OpenStreetMap/node/12144696251","sourceUpdatedAt":null,"verifiedAt":null}},{"type":"Feature","geometry":{"type":"Point","coordinates":[9.5432621,52.986591]},"properties":{"id":"bikerack:b919760b-122b-49fe-851b-5d717f2b70ab","kind":"bikerack","longitude":9.5432621,"latitude":52.986591,"name":"Fahrradabstellplatz","city":"Buchholz","address":null,"covered":false,"access":null,"website":null,"phone":null,"source":"OpenStreetMap/node/11455354345","sourceUpdatedAt":null,"verifiedAt":null}}]}