{"type":"FeatureCollection","features":[{"type":"Feature","geometry":{"type":"Point","coordinates":[9.5638501,51.3888416]},"properties":{"id":"bikerack:2486c712-a3a1-4530-afed-d4bcba4f820a","kind":"bikerack","longitude":9.5638501,"latitude":51.3888416,"name":"Fahrradabstellplatz","city":"Fuldatal","address":null,"covered":false,"access":null,"website":null,"phone":null,"source":"OpenStreetMap/node/1240252101","sourceUpdatedAt":null,"verifiedAt":null}},{"type":"Feature","geometry":{"type":"Point","coordinates":[9.5539922,51.3723615]},"properties":{"id":"bikerack:34ef4b26-79a7-41e3-a06e-869bae9a8b75","kind":"bikerack","longitude":9.5539922,"latitude":51.3723615,"name":"Fahrradabstellplatz","city":"Fuldatal","address":null,"covered":false,"access":null,"website":null,"phone":null,"source":"OpenStreetMap/node/13464202611","sourceUpdatedAt":null,"verifiedAt":null}},{"type":"Feature","geometry":{"type":"Point","coordinates":[9.5658361,51.3738716]},"properties":{"id":"bikerack:3cdd2b96-f3a1-4300-983c-8cf5b18b86f4","kind":"bikerack","longitude":9.5658361,"latitude":51.3738716,"name":"Fahrradabstellplatz","city":"Fuldatal","address":null,"covered":false,"access":null,"website":null,"phone":null,"source":"OpenStreetMap/node/11935210809","sourceUpdatedAt":null,"verifiedAt":null}},{"type":"Feature","geometry":{"type":"Point","coordinates":[9.5658243,51.3769096]},"properties":{"id":"water:6cf8e8c5-7ce1-4b0a-8b09-97b13a1f0a12","kind":"water","longitude":9.5658243,"latitude":51.3769096,"name":"Trinkwasser","city":"Fuldatal","address":null,"covered":null,"access":null,"website":null,"phone":null,"source":"OpenStreetMap/node/9968758900","sourceUpdatedAt":null,"verifiedAt":null}},{"type":"Feature","geometry":{"type":"Point","coordinates":[9.5662252,51.377065]},"properties":{"id":"water:d37bb7dc-966b-4685-b055-3cb84b082888","kind":"water","longitude":9.5662252,"latitude":51.377065,"name":"Trinkwasser","city":"Fuldatal","address":null,"covered":null,"access":null,"website":null,"phone":null,"source":"OpenStreetMap/node/9968758899","sourceUpdatedAt":null,"verifiedAt":null}}]}