{"type":"FeatureCollection","features":[{"type":"Feature","geometry":{"type":"Point","coordinates":[9.5679434,45.8132894]},"properties":{"id":"water:27d7aef1-08e5-493a-90be-0bc2bfdc36f9","kind":"water","longitude":9.5679434,"latitude":45.8132894,"name":"Fontanella","city":"Berbenno","address":null,"covered":null,"access":null,"website":null,"phone":null,"source":"OpenStreetMap/node/1611927765","sourceUpdatedAt":null,"verifiedAt":null}},{"type":"Feature","geometry":{"type":"Point","coordinates":[9.5647926,45.8162101]},"properties":{"id":"water:bab02a91-5c96-463b-b911-72674ebc9fa0","kind":"water","longitude":9.5647926,"latitude":45.8162101,"name":"Fontanella","city":"Berbenno","address":null,"covered":null,"access":null,"website":null,"phone":null,"source":"OpenStreetMap/node/11254409180","sourceUpdatedAt":null,"verifiedAt":null}},{"type":"Feature","geometry":{"type":"Point","coordinates":[9.5523919,45.8228462]},"properties":{"id":"water:c13495a8-fe1e-4c28-a32c-522ee885585c","kind":"water","longitude":9.5523919,"latitude":45.8228462,"name":"Fontanella","city":"Corna Imagna","address":null,"covered":null,"access":null,"website":null,"phone":null,"source":"OpenStreetMap/node/8986576147","sourceUpdatedAt":null,"verifiedAt":null}},{"type":"Feature","geometry":{"type":"Point","coordinates":[9.5480609,45.8209651]},"properties":{"id":"water:f100fa45-8deb-421e-b347-b05e02253b66","kind":"water","longitude":9.5480609,"latitude":45.8209651,"name":"Fontanella","city":"Corna Imagna","address":null,"covered":null,"access":null,"website":null,"phone":null,"source":"OpenStreetMap/node/10135855644","sourceUpdatedAt":null,"verifiedAt":null}}]}