{"type":"FeatureCollection","features":[{"type":"Feature","geometry":{"type":"Point","coordinates":[20.9389168,50.4399946]},"properties":{"id":"bikerack:df98cfb6-49aa-42e2-a15d-3998e488137a","kind":"bikerack","longitude":20.9389168,"latitude":50.4399946,"name":"Biciklitároló","city":"Stopnica","address":null,"covered":false,"access":null,"website":null,"phone":null,"source":"OpenStreetMap/node/11476888210","sourceUpdatedAt":null,"verifiedAt":null}},{"type":"Feature","geometry":{"type":"Point","coordinates":[20.9382301,50.4360342]},"properties":{"id":"bikerack:fbed9757-1790-45dd-af83-d262c3ab4b70","kind":"bikerack","longitude":20.9382301,"latitude":50.4360342,"name":"Biciklitároló","city":"Stopnica","address":null,"covered":false,"access":null,"website":null,"phone":null,"source":"OpenStreetMap/node/11476892233","sourceUpdatedAt":null,"verifiedAt":null}}]}