{"type":"FeatureCollection","features":[{"type":"Feature","geometry":{"type":"Point","coordinates":[22.8624972,49.8177566]},"properties":{"id":"bikerack:146de38a-24ed-4018-b6b6-66a0121b59ee","kind":"bikerack","longitude":22.8624972,"latitude":49.8177566,"name":"Biciklitároló","city":"Medyka","address":null,"covered":false,"access":null,"website":null,"phone":null,"source":"OpenStreetMap/node/8847106596","sourceUpdatedAt":null,"verifiedAt":null}},{"type":"Feature","geometry":{"type":"Point","coordinates":[22.8624254,49.8169043]},"properties":{"id":"bikerack:ea77a3aa-83d0-4f33-ab49-113f5927322a","kind":"bikerack","longitude":22.8624254,"latitude":49.8169043,"name":"Biciklitároló","city":"Medyka","address":null,"covered":false,"access":null,"website":null,"phone":null,"source":"OpenStreetMap/node/5918108758","sourceUpdatedAt":null,"verifiedAt":null}},{"type":"Feature","geometry":{"type":"Point","coordinates":[22.8624845,49.8169718]},"properties":{"id":"bikerack:f4e4f2ba-4b01-4be3-9678-3044ec7a4b36","kind":"bikerack","longitude":22.8624845,"latitude":49.8169718,"name":"Biciklitároló","city":"Medyka","address":null,"covered":false,"access":null,"website":null,"phone":null,"source":"OpenStreetMap/node/5918108759","sourceUpdatedAt":null,"verifiedAt":null}}]}