{"type":"FeatureCollection","features":[{"type":"Feature","geometry":{"type":"Point","coordinates":[16.9395647,54.5228642]},"properties":{"id":"bikerack:64aedda7-50fd-4423-8157-9118ac88c108","kind":"bikerack","longitude":16.9395647,"latitude":54.5228642,"name":"Biciklitároló","city":"Ustka","address":null,"covered":false,"access":null,"website":null,"phone":null,"source":"OpenStreetMap/node/7840791290","sourceUpdatedAt":null,"verifiedAt":null}},{"type":"Feature","geometry":{"type":"Point","coordinates":[16.9194915,54.5321118]},"properties":{"id":"bikerack:fd30b427-5aa4-49c8-9528-887c4a25d689","kind":"bikerack","longitude":16.9194915,"latitude":54.5321118,"name":"Biciklitároló","city":"Ustka","address":null,"covered":false,"access":null,"website":null,"phone":null,"source":"OpenStreetMap/node/7840791319","sourceUpdatedAt":null,"verifiedAt":null}}]}