{"type":"FeatureCollection","features":[{"type":"Feature","geometry":{"type":"Point","coordinates":[13.2128577,54.3029227]},"properties":{"id":"bikerack:14e9ee36-4354-499b-9548-2fdf2e28a61f","kind":"bikerack","longitude":13.2128577,"latitude":54.3029227,"name":"Fahrradabstellplatz","city":"Rambin","address":null,"covered":false,"access":null,"website":null,"phone":null,"source":"OpenStreetMap/node/11178438126","sourceUpdatedAt":null,"verifiedAt":null}},{"type":"Feature","geometry":{"type":"Point","coordinates":[13.2146921,54.3020852]},"properties":{"id":"bikerack:c8a1bfa3-c8a4-4f44-86b0-a16a256d6f0d","kind":"bikerack","longitude":13.2146921,"latitude":54.3020852,"name":"Fahrradabstellplatz","city":"Rambin","address":null,"covered":false,"access":null,"website":null,"phone":null,"source":"OpenStreetMap/node/11178478200","sourceUpdatedAt":null,"verifiedAt":null}},{"type":"Feature","geometry":{"type":"Point","coordinates":[13.1906297,54.2967951]},"properties":{"id":"water:dc649247-e404-48c4-b7ea-4f3f3a380594","kind":"water","longitude":13.1906297,"latitude":54.2967951,"name":"Trinkwasser","city":"Rambin","address":null,"covered":null,"access":null,"website":null,"phone":null,"source":"OpenStreetMap/node/13028018081","sourceUpdatedAt":null,"verifiedAt":null}}]}