{"type":"FeatureCollection","features":[{"type":"Feature","geometry":{"type":"Point","coordinates":[13.2041333,52.6550408]},"properties":{"id":"bikerack:5f747684-f225-4e0b-89b3-d66cee699697","kind":"bikerack","longitude":13.2041333,"latitude":52.6550408,"name":"Fahrradabstellplatz","city":"Hennigsdorf","address":null,"covered":false,"access":null,"website":null,"phone":null,"source":"OpenStreetMap/node/3398394670","sourceUpdatedAt":null,"verifiedAt":null}},{"type":"Feature","geometry":{"type":"Point","coordinates":[13.2059381,52.6439027]},"properties":{"id":"bikerack:71bc9174-932c-4bfb-b255-66da99e596de","kind":"bikerack","longitude":13.2059381,"latitude":52.6439027,"name":"Fahrradabstellplatz","city":"Hennigsdorf","address":null,"covered":false,"access":null,"website":null,"phone":null,"source":"OpenStreetMap/way/728354400","sourceUpdatedAt":null,"verifiedAt":null}},{"type":"Feature","geometry":{"type":"Point","coordinates":[13.189295,52.6560938]},"properties":{"id":"bikerack:935fed0d-9939-4cf7-8a4f-32ceed3c2472","kind":"bikerack","longitude":13.189295,"latitude":52.6560938,"name":"Fahrradabstellplatz","city":"Hennigsdorf","address":null,"covered":false,"access":null,"website":null,"phone":null,"source":"OpenStreetMap/node/9960111311","sourceUpdatedAt":null,"verifiedAt":null}}]}