{"type":"FeatureCollection","features":[{"type":"Feature","geometry":{"type":"Point","coordinates":[13.2263401,49.0206573]},"properties":{"id":"bikerack:1c686acb-f7bc-496c-9e98-c8f6c87ca64f","kind":"bikerack","longitude":13.2263401,"latitude":49.0206573,"name":"Fahrradabstellplatz","city":"Zwiesel","address":null,"covered":false,"access":null,"website":null,"phone":null,"source":"OpenStreetMap/node/10055837117","sourceUpdatedAt":null,"verifiedAt":null}},{"type":"Feature","geometry":{"type":"Point","coordinates":[13.2262157,49.0205345]},"properties":{"id":"bikerack:24a7e1c4-96d5-43f3-8703-991f6def6f78","kind":"bikerack","longitude":13.2262157,"latitude":49.0205345,"name":"Fahrradabstellplatz","city":"Zwiesel","address":null,"covered":true,"access":null,"website":null,"phone":null,"source":"OpenStreetMap/way/1393845811","sourceUpdatedAt":null,"verifiedAt":null}},{"type":"Feature","geometry":{"type":"Point","coordinates":[13.2266947,49.0124375]},"properties":{"id":"bikerack:2d2cf765-a55a-49b3-819c-ca310f50ebb4","kind":"bikerack","longitude":13.2266947,"latitude":49.0124375,"name":"Fahrradabstellplatz","city":"Zwiesel","address":null,"covered":true,"access":null,"website":null,"phone":null,"source":"OpenStreetMap/node/8996013356","sourceUpdatedAt":null,"verifiedAt":null}},{"type":"Feature","geometry":{"type":"Point","coordinates":[13.2223782,49.0103458]},"properties":{"id":"service:a001e82a-3d3c-45a1-8105-57a561445924","kind":"service","longitude":13.2223782,"latitude":49.0103458,"name":"Sporrer Technik","city":"Zwiesel","address":null,"covered":null,"access":null,"website":null,"phone":null,"source":"OpenStreetMap/node/5005955970","sourceUpdatedAt":null,"verifiedAt":null}}]}