{"type":"FeatureCollection","features":[{"type":"Feature","geometry":{"type":"Point","coordinates":[13.2247339,47.9451474]},"properties":{"id":"bikerack:b4eb0b84-1905-4198-b2c9-25f110a4cc9b","kind":"bikerack","longitude":13.2247339,"latitude":47.9451474,"name":"Biciklitároló","city":"Neumarkt am Wallersee","address":null,"covered":false,"access":null,"website":null,"phone":null,"source":"OpenStreetMap/node/11527521397","sourceUpdatedAt":null,"verifiedAt":null}},{"type":"Feature","geometry":{"type":"Point","coordinates":[13.221301,47.942039]},"properties":{"id":"bikerack:eed19d0a-74ea-4270-8724-568365410a2a","kind":"bikerack","longitude":13.221301,"latitude":47.942039,"name":"Biciklitároló","city":"Neumarkt am Wallersee","address":null,"covered":true,"access":null,"website":null,"phone":null,"source":"OpenStreetMap/way/414340350","sourceUpdatedAt":null,"verifiedAt":null}},{"type":"Feature","geometry":{"type":"Point","coordinates":[13.2255503,47.9552685]},"properties":{"id":"repair:1f45594d-88af-44fa-970d-ca744b9cff28","kind":"repair","longitude":13.2255503,"latitude":47.9552685,"name":"Kerékpár szervizállomás","city":"Neumarkt am Wallersee","address":null,"covered":false,"access":null,"website":null,"phone":null,"source":"OpenStreetMap/node/10593742013","sourceUpdatedAt":null,"verifiedAt":null}}]}