{"type":"FeatureCollection","features":[{"type":"Feature","geometry":{"type":"Point","coordinates":[13.2072995,45.832891]},"properties":{"id":"bikerack:161dbd19-ddc2-492a-8c06-2c8746d0983b","kind":"bikerack","longitude":13.2072995,"latitude":45.832891,"name":"Parcheggio bici","city":"San Giorgio di Nogaro","address":null,"covered":false,"access":null,"website":null,"phone":null,"source":"OpenStreetMap/node/10131002212","sourceUpdatedAt":null,"verifiedAt":null}},{"type":"Feature","geometry":{"type":"Point","coordinates":[13.2091977,45.8331943]},"properties":{"id":"bikerack:16d69c6a-4f88-4b33-bf32-4b1a21c3671a","kind":"bikerack","longitude":13.2091977,"latitude":45.8331943,"name":"Parcheggio bici","city":"San Giorgio di Nogaro","address":null,"covered":false,"access":null,"website":null,"phone":null,"source":"OpenStreetMap/node/11224982194","sourceUpdatedAt":null,"verifiedAt":null}},{"type":"Feature","geometry":{"type":"Point","coordinates":[13.2054837,45.832853]},"properties":{"id":"bikerack:3f5ca40e-3542-477a-8664-e285d7bd0744","kind":"bikerack","longitude":13.2054837,"latitude":45.832853,"name":"Parcheggio bici","city":"San Giorgio di Nogaro","address":null,"covered":false,"access":null,"website":null,"phone":null,"source":"OpenStreetMap/node/10159322560","sourceUpdatedAt":null,"verifiedAt":null}},{"type":"Feature","geometry":{"type":"Point","coordinates":[13.2062434,45.8327775]},"properties":{"id":"bikerack:5f7f5733-ab1b-4a17-b0ff-0b0643c84074","kind":"bikerack","longitude":13.2062434,"latitude":45.8327775,"name":"Parcheggio bici","city":"San Giorgio di Nogaro","address":null,"covered":true,"access":null,"website":null,"phone":null,"source":"OpenStreetMap/node/10159322547","sourceUpdatedAt":null,"verifiedAt":null}},{"type":"Feature","geometry":{"type":"Point","coordinates":[13.2090918,45.8328918]},"properties":{"id":"bikerack:730423a7-0c55-450d-9601-81165365b233","kind":"bikerack","longitude":13.2090918,"latitude":45.8328918,"name":"Parcheggio bici","city":"San Giorgio di Nogaro","address":null,"covered":false,"access":null,"website":null,"phone":null,"source":"OpenStreetMap/node/11224982190","sourceUpdatedAt":null,"verifiedAt":null}},{"type":"Feature","geometry":{"type":"Point","coordinates":[13.2071506,45.8327581]},"properties":{"id":"bikerack:a14e844c-7e82-4cec-84e9-69a147aa459e","kind":"bikerack","longitude":13.2071506,"latitude":45.8327581,"name":"Parcheggio bici","city":"San Giorgio di Nogaro","address":null,"covered":false,"access":null,"website":null,"phone":null,"source":"OpenStreetMap/node/10131002197","sourceUpdatedAt":null,"verifiedAt":null}},{"type":"Feature","geometry":{"type":"Point","coordinates":[13.2090939,45.8329083]},"properties":{"id":"bikerack:a675c894-8c66-4185-a19c-988f53167eb7","kind":"bikerack","longitude":13.2090939,"latitude":45.8329083,"name":"Parcheggio bici","city":"San Giorgio di Nogaro","address":null,"covered":false,"access":null,"website":null,"phone":null,"source":"OpenStreetMap/node/1141575620","sourceUpdatedAt":null,"verifiedAt":null}},{"type":"Feature","geometry":{"type":"Point","coordinates":[13.204619,45.8342712]},"properties":{"id":"water:8cfb3fad-a43d-4c48-8c0f-436b6422487b","kind":"water","longitude":13.204619,"latitude":45.8342712,"name":"Fontanella","city":"San Giorgio di Nogaro","address":null,"covered":null,"access":null,"website":null,"phone":null,"source":"OpenStreetMap/node/10131157855","sourceUpdatedAt":null,"verifiedAt":null}},{"type":"Feature","geometry":{"type":"Point","coordinates":[13.215393,45.8338025]},"properties":{"id":"water:d3ccacb9-cc29-4077-b60e-bde1618d917f","kind":"water","longitude":13.215393,"latitude":45.8338025,"name":"Fontanella","city":"San Giorgio di Nogaro","address":null,"covered":null,"access":null,"website":null,"phone":null,"source":"OpenStreetMap/node/2600575417","sourceUpdatedAt":null,"verifiedAt":null}},{"type":"Feature","geometry":{"type":"Point","coordinates":[13.2147632,45.8333545]},"properties":{"id":"water:d4cd76be-d8bf-4f42-98b4-d6ef808bb2c9","kind":"water","longitude":13.2147632,"latitude":45.8333545,"name":"Fontanella","city":"San Giorgio di Nogaro","address":null,"covered":null,"access":null,"website":null,"phone":null,"source":"OpenStreetMap/node/2600574887","sourceUpdatedAt":null,"verifiedAt":null}},{"type":"Feature","geometry":{"type":"Point","coordinates":[13.2080653,45.8306115]},"properties":{"id":"water:e5bfdf04-2fd3-4819-82da-5bc74609bc11","kind":"water","longitude":13.2080653,"latitude":45.8306115,"name":"Fontanella","city":"San Giorgio di Nogaro","address":null,"covered":null,"access":null,"website":null,"phone":null,"source":"OpenStreetMap/node/1966643675","sourceUpdatedAt":null,"verifiedAt":null}}]}