{"type":"FeatureCollection","features":[{"type":"Feature","geometry":{"type":"Point","coordinates":[21.2238719,52.1302982]},"properties":{"id":"bikerack:6d1307e8-274c-4ef2-bcc8-e70911521f96","kind":"bikerack","longitude":21.2238719,"latitude":52.1302982,"name":"Biciklitároló","city":"Jozefow","address":null,"covered":false,"access":null,"website":null,"phone":null,"source":"OpenStreetMap/node/13376540246","sourceUpdatedAt":null,"verifiedAt":null}},{"type":"Feature","geometry":{"type":"Point","coordinates":[21.2225396,52.1301611]},"properties":{"id":"bikerack:79ec9a16-180a-491f-8070-cf01ec980eb0","kind":"bikerack","longitude":21.2225396,"latitude":52.1301611,"name":"Biciklitároló","city":"Jozefow","address":null,"covered":false,"access":null,"website":null,"phone":null,"source":"OpenStreetMap/node/13380728247","sourceUpdatedAt":null,"verifiedAt":null}},{"type":"Feature","geometry":{"type":"Point","coordinates":[21.2090612,52.1242179]},"properties":{"id":"bikerack:95f2dced-6dae-4e5d-adbf-d83560539a4a","kind":"bikerack","longitude":21.2090612,"latitude":52.1242179,"name":"Biciklitároló","city":"Jozefow","address":null,"covered":false,"access":null,"website":null,"phone":null,"source":"OpenStreetMap/node/13463066601","sourceUpdatedAt":null,"verifiedAt":null}},{"type":"Feature","geometry":{"type":"Point","coordinates":[21.2224051,52.1298246]},"properties":{"id":"bikerack:e6522895-310b-4d3c-bf9b-f1233f336a98","kind":"bikerack","longitude":21.2224051,"latitude":52.1298246,"name":"Biciklitároló","city":"Jozefow","address":null,"covered":false,"access":null,"website":null,"phone":null,"source":"OpenStreetMap/node/13380728246","sourceUpdatedAt":null,"verifiedAt":null}},{"type":"Feature","geometry":{"type":"Point","coordinates":[21.2236249,52.1309989]},"properties":{"id":"bikerack:ed58a287-13cf-4f18-aa95-336b577b9fd4","kind":"bikerack","longitude":21.2236249,"latitude":52.1309989,"name":"Biciklitároló","city":"Jozefow","address":null,"covered":false,"access":null,"website":null,"phone":null,"source":"OpenStreetMap/way/1458571080","sourceUpdatedAt":null,"verifiedAt":null}},{"type":"Feature","geometry":{"type":"Point","coordinates":[21.210984,52.1232197]},"properties":{"id":"water:ed9a2513-e65b-4d8f-a8ae-f0fafe8e1fe4","kind":"water","longitude":21.210984,"latitude":52.1232197,"name":"Zdrój 3","city":"Jozefow","address":null,"covered":null,"access":null,"website":null,"phone":null,"source":"OpenStreetMap/node/2653501744","sourceUpdatedAt":null,"verifiedAt":null}}]}