{"type":"FeatureCollection","features":[{"type":"Feature","geometry":{"type":"Point","coordinates":[21.207625,48.7471506]},"properties":{"id":"bikerack:12a45a9c-4d79-4ca2-8537-11fbc2b803c8","kind":"bikerack","longitude":21.207625,"latitude":48.7471506,"name":"Biciklitároló","city":"Kosice","address":null,"covered":false,"access":null,"website":null,"phone":null,"source":"OpenStreetMap/node/5569043222","sourceUpdatedAt":null,"verifiedAt":null}},{"type":"Feature","geometry":{"type":"Point","coordinates":[21.2058643,48.7213016]},"properties":{"id":"bikerack:620442b3-ba2b-41b2-a252-d5853de05e61","kind":"bikerack","longitude":21.2058643,"latitude":48.7213016,"name":"Biciklitároló","city":"Kosice","address":null,"covered":false,"access":null,"website":null,"phone":null,"source":"OpenStreetMap/node/4423447455","sourceUpdatedAt":null,"verifiedAt":null}},{"type":"Feature","geometry":{"type":"Point","coordinates":[21.2117001,48.7203419]},"properties":{"id":"bikerack:ab6e4c01-80c0-47f4-8c2f-a18417b05527","kind":"bikerack","longitude":21.2117001,"latitude":48.7203419,"name":"Biciklitároló","city":"Kosice","address":null,"covered":false,"access":null,"website":null,"phone":null,"source":"OpenStreetMap/node/12840509243","sourceUpdatedAt":null,"verifiedAt":null}},{"type":"Feature","geometry":{"type":"Point","coordinates":[21.2093683,48.7438537]},"properties":{"id":"bikerack:d5c4db3d-0752-4c89-a8b9-54790ee866fb","kind":"bikerack","longitude":21.2093683,"latitude":48.7438537,"name":"Biciklitároló","city":"Kosice","address":null,"covered":false,"access":null,"website":null,"phone":null,"source":"OpenStreetMap/node/6024440718","sourceUpdatedAt":null,"verifiedAt":null}},{"type":"Feature","geometry":{"type":"Point","coordinates":[21.2140373,48.7443013]},"properties":{"id":"bikerack:e7f561ca-7410-4868-aac8-18c8463c4307","kind":"bikerack","longitude":21.2140373,"latitude":48.7443013,"name":"Biciklitároló","city":"Kosice","address":null,"covered":true,"access":null,"website":null,"phone":null,"source":"OpenStreetMap/node/13705962680","sourceUpdatedAt":null,"verifiedAt":null}},{"type":"Feature","geometry":{"type":"Point","coordinates":[21.2097519,48.7447646]},"properties":{"id":"water:f0a4571b-49ca-4d0f-ab14-3cb3eeb4709d","kind":"water","longitude":21.2097519,"latitude":48.7447646,"name":"Ivókút","city":"Kosice","address":null,"covered":null,"access":null,"website":null,"phone":null,"source":"OpenStreetMap/node/1263125951","sourceUpdatedAt":null,"verifiedAt":null}}]}