{"type":"FeatureCollection","features":[{"type":"Feature","geometry":{"type":"Point","coordinates":[17.1928309,48.8872605]},"properties":{"id":"repair:aa90db9c-8ae8-4479-99fb-55ef24eb0f41","kind":"repair","longitude":17.1928309,"latitude":48.8872605,"name":"Bicycle Repair Station","city":"Rohatec","address":null,"covered":false,"access":null,"website":null,"phone":null,"source":"OpenStreetMap/node/11542646602","sourceUpdatedAt":null,"verifiedAt":null}},{"type":"Feature","geometry":{"type":"Point","coordinates":[17.211938,48.8719725]},"properties":{"id":"repair:e24bc9ed-e6f3-497a-a062-2af38a3910e2","kind":"repair","longitude":17.211938,"latitude":48.8719725,"name":"Kerékpár szervizállomás","city":"Rohatec","address":null,"covered":false,"access":null,"website":null,"phone":null,"source":"OpenStreetMap/node/7823583978","sourceUpdatedAt":null,"verifiedAt":null}}]}