{"type":"FeatureCollection","features":[{"type":"Feature","geometry":{"type":"Point","coordinates":[17.1956681,48.199513]},"properties":{"id":"bikerack:3d39944e-e1b2-4c10-84b0-2b19c2193139","kind":"bikerack","longitude":17.1956681,"latitude":48.199513,"name":"Biciklitároló","city":"Svaty Jur","address":null,"covered":false,"access":null,"website":null,"phone":null,"source":"OpenStreetMap/node/7147472167","sourceUpdatedAt":null,"verifiedAt":null}},{"type":"Feature","geometry":{"type":"Point","coordinates":[17.2068902,48.2062265]},"properties":{"id":"bikerack:573faacb-31c3-4fc3-8645-238b415337ba","kind":"bikerack","longitude":17.2068902,"latitude":48.2062265,"name":"Biciklitároló","city":"Svaty Jur","address":null,"covered":false,"access":null,"website":null,"phone":null,"source":"OpenStreetMap/node/9051684963","sourceUpdatedAt":null,"verifiedAt":null}},{"type":"Feature","geometry":{"type":"Point","coordinates":[17.2050673,48.207085]},"properties":{"id":"bikerack:5a69ea3b-74a8-4379-927a-3b9772dd563c","kind":"bikerack","longitude":17.2050673,"latitude":48.207085,"name":"Biciklitároló","city":"Svaty Jur","address":null,"covered":false,"access":null,"website":null,"phone":null,"source":"OpenStreetMap/node/8999614458","sourceUpdatedAt":null,"verifiedAt":null}},{"type":"Feature","geometry":{"type":"Point","coordinates":[17.2070206,48.2058386]},"properties":{"id":"bikerack:8f129544-25ae-43da-a5d5-0fc6bb30d1b2","kind":"bikerack","longitude":17.2070206,"latitude":48.2058386,"name":"Biciklitároló","city":"Svaty Jur","address":null,"covered":false,"access":null,"website":null,"phone":null,"source":"OpenStreetMap/node/8896049031","sourceUpdatedAt":null,"verifiedAt":null}},{"type":"Feature","geometry":{"type":"Point","coordinates":[17.1987916,48.1990646]},"properties":{"id":"bikerack:b535ebfa-95a1-4eb9-9a21-9e73abf65939","kind":"bikerack","longitude":17.1987916,"latitude":48.1990646,"name":"Biciklitároló","city":"Svaty Jur","address":null,"covered":false,"access":null,"website":null,"phone":null,"source":"OpenStreetMap/node/13312338109","sourceUpdatedAt":null,"verifiedAt":null}},{"type":"Feature","geometry":{"type":"Point","coordinates":[17.204565,48.207523]},"properties":{"id":"bikerack:ba70d343-798d-47ce-af79-3d0fdccce0cc","kind":"bikerack","longitude":17.204565,"latitude":48.207523,"name":"Biciklitároló","city":"Svaty Jur","address":null,"covered":false,"access":null,"website":null,"phone":null,"source":"OpenStreetMap/node/8999607288","sourceUpdatedAt":null,"verifiedAt":null}},{"type":"Feature","geometry":{"type":"Point","coordinates":[17.2059705,48.2058565]},"properties":{"id":"bikerack:fb9872b7-3ce1-4289-810d-6e705478463f","kind":"bikerack","longitude":17.2059705,"latitude":48.2058565,"name":"Biciklitároló","city":"Svaty Jur","address":null,"covered":false,"access":null,"website":null,"phone":null,"source":"OpenStreetMap/node/7866647911","sourceUpdatedAt":null,"verifiedAt":null}},{"type":"Feature","geometry":{"type":"Point","coordinates":[17.2070573,48.205653]},"properties":{"id":"service:01bf6aea-0d79-4c09-8b57-b58ca57a9001","kind":"service","longitude":17.2070573,"latitude":48.205653,"name":"BikeSki","city":"Svaty Jur","address":null,"covered":null,"access":null,"website":null,"phone":null,"source":"OpenStreetMap/node/1021170186","sourceUpdatedAt":null,"verifiedAt":null}},{"type":"Feature","geometry":{"type":"Point","coordinates":[17.2072117,48.2061492]},"properties":{"id":"water:4690855d-8a94-4393-8284-386802465562","kind":"water","longitude":17.2072117,"latitude":48.2061492,"name":"Ivókút","city":"Svaty Jur","address":null,"covered":null,"access":null,"website":null,"phone":null,"source":"OpenStreetMap/node/8896049032","sourceUpdatedAt":null,"verifiedAt":null}},{"type":"Feature","geometry":{"type":"Point","coordinates":[17.2053823,48.2063219]},"properties":{"id":"water:c063212f-67e5-41dd-92b8-02abd8d79be5","kind":"water","longitude":17.2053823,"latitude":48.2063219,"name":"Ivókút","city":"Svaty Jur","address":null,"covered":null,"access":null,"website":null,"phone":null,"source":"OpenStreetMap/node/13442475979","sourceUpdatedAt":null,"verifiedAt":null}},{"type":"Feature","geometry":{"type":"Point","coordinates":[17.2043753,48.2073196]},"properties":{"id":"water:de1e2052-ce99-4c52-b8ab-c9e850b3d857","kind":"water","longitude":17.2043753,"latitude":48.2073196,"name":"Ivókút","city":"Svaty Jur","address":null,"covered":null,"access":null,"website":null,"phone":null,"source":"OpenStreetMap/node/9002304156","sourceUpdatedAt":null,"verifiedAt":null}}]}