{"type":"FeatureCollection","features":[{"type":"Feature","geometry":{"type":"Point","coordinates":[17.2171883,47.7200608]},"properties":{"id":"water:917c9faf-6085-4c25-b2b1-38439c41bdb3","kind":"water","longitude":17.2171883,"latitude":47.7200608,"name":"Ivókút","city":null,"address":null,"covered":null,"access":null,"website":null,"phone":null,"source":"OpenStreetMap","sourceUpdatedAt":null,"verifiedAt":null}},{"type":"Feature","geometry":{"type":"Point","coordinates":[17.2191285,47.7212067]},"properties":{"id":"water:c1cc1fce-9a95-46f4-b30f-832f5ddf5a50","kind":"water","longitude":17.2191285,"latitude":47.7212067,"name":"Ivókút","city":null,"address":null,"covered":null,"access":null,"website":null,"phone":null,"source":"OpenStreetMap","sourceUpdatedAt":null,"verifiedAt":null}}]}