{"type":"FeatureCollection","features":[{"type":"Feature","geometry":{"type":"Point","coordinates":[17.2078937,47.5365349]},"properties":{"id":"water:6448a1ff-ed71-4569-9b30-982f5dc968c8","kind":"water","longitude":17.2078937,"latitude":47.5365349,"name":"Ivókút","city":null,"address":null,"covered":null,"access":null,"website":null,"phone":null,"source":"OpenStreetMap","sourceUpdatedAt":null,"verifiedAt":null}},{"type":"Feature","geometry":{"type":"Point","coordinates":[17.2044585,47.5273962]},"properties":{"id":"water:6d118139-5cb6-44e5-b8dd-ac5e27f37434","kind":"water","longitude":17.2044585,"latitude":47.5273962,"name":"Ivókút","city":null,"address":null,"covered":null,"access":null,"website":null,"phone":null,"source":"OpenStreetMap","sourceUpdatedAt":null,"verifiedAt":null}}]}