{"type":"FeatureCollection","features":[{"type":"Feature","geometry":{"type":"Point","coordinates":[17.190807,46.5124909]},"properties":{"id":"water:2d252010-9924-437a-8343-1b12fe558ac6","kind":"water","longitude":17.190807,"latitude":46.5124909,"name":"Ivókút","city":null,"address":null,"covered":null,"access":null,"website":null,"phone":null,"source":"OpenStreetMap","sourceUpdatedAt":null,"verifiedAt":null}},{"type":"Feature","geometry":{"type":"Point","coordinates":[17.1908353,46.5102715]},"properties":{"id":"water:796d871a-5b2d-4604-821c-57307fd3bc04","kind":"water","longitude":17.1908353,"latitude":46.5102715,"name":"Ivókút","city":null,"address":null,"covered":null,"access":null,"website":null,"phone":null,"source":"OpenStreetMap","sourceUpdatedAt":null,"verifiedAt":null}}]}