{"type":"FeatureCollection","features":[{"type":"Feature","geometry":{"type":"Point","coordinates":[9.0667095,50.2974699]},"properties":{"id":"bikerack:be83ec0f-c765-4ba5-9b3d-65308b922361","kind":"bikerack","longitude":9.0667095,"latitude":50.2974699,"name":"Fahrradabstellplatz","city":"Budingen","address":null,"covered":true,"access":null,"website":null,"phone":null,"source":"OpenStreetMap/node/6377833318","sourceUpdatedAt":null,"verifiedAt":null}},{"type":"Feature","geometry":{"type":"Point","coordinates":[9.0874146,50.3077088]},"properties":{"id":"service:f83d95df-f2f5-4df1-b7c0-a289928e762a","kind":"service","longitude":9.0874146,"latitude":50.3077088,"name":"Bikes//Parts&more","city":"Budingen","address":null,"covered":null,"access":null,"website":null,"phone":null,"source":"OpenStreetMap/node/295205544","sourceUpdatedAt":null,"verifiedAt":null}}]}