{"type":"FeatureCollection","features":[{"type":"Feature","geometry":{"type":"Point","coordinates":[9.0944542,47.570469]},"properties":{"id":"bikerack:61348d72-094d-43ec-83de-e1eb1b5b1585","kind":"bikerack","longitude":9.0944542,"latitude":47.570469,"name":"Bicycle Parking","city":"Weinfelden","address":null,"covered":true,"access":null,"website":null,"phone":null,"source":"OpenStreetMap/node/8817569391","sourceUpdatedAt":null,"verifiedAt":null}},{"type":"Feature","geometry":{"type":"Point","coordinates":[9.0620068,47.5521187]},"properties":{"id":"bikerack:69e132cb-8e6f-4bb5-bc07-cd4325990bbf","kind":"bikerack","longitude":9.0620068,"latitude":47.5521187,"name":"Bicycle Parking","city":"Affeltrangen","address":null,"covered":true,"access":null,"website":null,"phone":null,"source":"OpenStreetMap/way/195340071","sourceUpdatedAt":null,"verifiedAt":null}},{"type":"Feature","geometry":{"type":"Point","coordinates":[9.0828242,47.5581353]},"properties":{"id":"bikerack:75f3523d-cf67-412b-9a86-18a8c69a36c0","kind":"bikerack","longitude":9.0828242,"latitude":47.5581353,"name":"Bicycle Parking","city":"Weinfelden","address":null,"covered":true,"access":null,"website":null,"phone":null,"source":"OpenStreetMap/node/4559019408","sourceUpdatedAt":null,"verifiedAt":null}},{"type":"Feature","geometry":{"type":"Point","coordinates":[9.0848256,47.5565519]},"properties":{"id":"bikerack:93bdb621-9ae2-4e13-8115-6fcdf0d668c3","kind":"bikerack","longitude":9.0848256,"latitude":47.5565519,"name":"Bicycle Parking","city":"Weinfelden","address":null,"covered":false,"access":null,"website":null,"phone":null,"source":"OpenStreetMap/way/1499136391","sourceUpdatedAt":null,"verifiedAt":null}},{"type":"Feature","geometry":{"type":"Point","coordinates":[9.0871145,47.5564126]},"properties":{"id":"bikerack:94d3054d-25ee-484e-9b96-d9d8d52900f9","kind":"bikerack","longitude":9.0871145,"latitude":47.5564126,"name":"Bicycle Parking","city":"Weinfelden","address":null,"covered":true,"access":null,"website":null,"phone":null,"source":"OpenStreetMap/node/13728338761","sourceUpdatedAt":null,"verifiedAt":null}},{"type":"Feature","geometry":{"type":"Point","coordinates":[9.0842555,47.5562165]},"properties":{"id":"bikerack:b99e07f3-4de5-43e5-b32a-a2d5178a890b","kind":"bikerack","longitude":9.0842555,"latitude":47.5562165,"name":"Bicycle Parking","city":"Weinfelden","address":null,"covered":true,"access":null,"website":null,"phone":null,"source":"OpenStreetMap/way/1203975299","sourceUpdatedAt":null,"verifiedAt":null}},{"type":"Feature","geometry":{"type":"Point","coordinates":[9.0935972,47.5676023]},"properties":{"id":"bikerack:e4b8fb29-f28f-4302-8951-2c1b63631c16","kind":"bikerack","longitude":9.0935972,"latitude":47.5676023,"name":"Bicycle Parking","city":"Weinfelden","address":null,"covered":false,"access":null,"website":null,"phone":null,"source":"OpenStreetMap/node/9399094753","sourceUpdatedAt":null,"verifiedAt":null}},{"type":"Feature","geometry":{"type":"Point","coordinates":[9.0572125,47.5683469]},"properties":{"id":"bikerack:f88e38cd-58d1-4085-9274-c7f7e632ce3f","kind":"bikerack","longitude":9.0572125,"latitude":47.5683469,"name":"Bicycle Parking","city":"Maerstetten-Dorf","address":null,"covered":true,"access":null,"website":null,"phone":null,"source":"OpenStreetMap/way/299568849","sourceUpdatedAt":null,"verifiedAt":null}},{"type":"Feature","geometry":{"type":"Point","coordinates":[9.0601865,47.550771]},"properties":{"id":"water:02263569-31e7-4f4b-a1f7-0395dfc76bad","kind":"water","longitude":9.0601865,"latitude":47.550771,"name":"Drinking Fountain","city":"Affeltrangen","address":null,"covered":null,"access":null,"website":null,"phone":null,"source":"OpenStreetMap/node/3008783528","sourceUpdatedAt":null,"verifiedAt":null}},{"type":"Feature","geometry":{"type":"Point","coordinates":[9.0789027,47.558025]},"properties":{"id":"water:590b82f8-973a-413d-a2c5-3d4fe8a393dd","kind":"water","longitude":9.0789027,"latitude":47.558025,"name":"Dorfbrunnen","city":"Weinfelden","address":null,"covered":null,"access":null,"website":null,"phone":null,"source":"OpenStreetMap/node/1301076485","sourceUpdatedAt":null,"verifiedAt":null}},{"type":"Feature","geometry":{"type":"Point","coordinates":[9.0640854,47.5585911]},"properties":{"id":"water:f113c26e-cf6c-4c13-9776-f9028fac74cc","kind":"water","longitude":9.0640854,"latitude":47.5585911,"name":"Drinking Fountain","city":"Maerstetten-Dorf","address":null,"covered":null,"access":null,"website":null,"phone":null,"source":"OpenStreetMap/node/4146493734","sourceUpdatedAt":null,"verifiedAt":null}}]}