{"type":"FeatureCollection","features":[{"type":"Feature","geometry":{"type":"Point","coordinates":[21.2608972,48.9607183]},"properties":{"id":"bikerack:042130ec-167d-489b-9da9-90dc6ca225a1","kind":"bikerack","longitude":21.2608972,"latitude":48.9607183,"name":"Biciklitároló","city":"Presov","address":null,"covered":false,"access":null,"website":null,"phone":null,"source":"OpenStreetMap/node/10973696643","sourceUpdatedAt":null,"verifiedAt":null}},{"type":"Feature","geometry":{"type":"Point","coordinates":[21.2633515,48.9763622]},"properties":{"id":"bikerack:05a04206-119d-4e64-b5ad-fbac25ac0a60","kind":"bikerack","longitude":21.2633515,"latitude":48.9763622,"name":"Biciklitároló","city":"Presov","address":null,"covered":false,"access":null,"website":null,"phone":null,"source":"OpenStreetMap/node/10299561116","sourceUpdatedAt":null,"verifiedAt":null}},{"type":"Feature","geometry":{"type":"Point","coordinates":[21.2367878,48.9585558]},"properties":{"id":"bikerack:0c68f4a0-6cbc-4295-9e44-fc416b601ae0","kind":"bikerack","longitude":21.2367878,"latitude":48.9585558,"name":"Biciklitároló","city":"Presov","address":null,"covered":false,"access":null,"website":null,"phone":null,"source":"OpenStreetMap/node/10923668330","sourceUpdatedAt":null,"verifiedAt":null}},{"type":"Feature","geometry":{"type":"Point","coordinates":[21.2626016,48.9741915]},"properties":{"id":"bikerack:2b821bb3-4384-4f04-91e0-92feae4a0965","kind":"bikerack","longitude":21.2626016,"latitude":48.9741915,"name":"Biciklitároló","city":"Presov","address":null,"covered":false,"access":null,"website":null,"phone":null,"source":"OpenStreetMap/node/10597302281","sourceUpdatedAt":null,"verifiedAt":null}},{"type":"Feature","geometry":{"type":"Point","coordinates":[21.2599968,48.9728457]},"properties":{"id":"bikerack:38f9bddb-d82f-401d-b2ff-3f33889621ae","kind":"bikerack","longitude":21.2599968,"latitude":48.9728457,"name":"Biciklitároló","city":"Presov","address":null,"covered":false,"access":null,"website":null,"phone":null,"source":"OpenStreetMap/node/10263335386","sourceUpdatedAt":null,"verifiedAt":null}},{"type":"Feature","geometry":{"type":"Point","coordinates":[21.2603453,48.9731989]},"properties":{"id":"bikerack:3fe9b3ef-7f59-46b5-b125-d0eead8afefd","kind":"bikerack","longitude":21.2603453,"latitude":48.9731989,"name":"Biciklitároló","city":"Presov","address":null,"covered":false,"access":null,"website":null,"phone":null,"source":"OpenStreetMap/node/10263335389","sourceUpdatedAt":null,"verifiedAt":null}},{"type":"Feature","geometry":{"type":"Point","coordinates":[21.2600807,48.9602135]},"properties":{"id":"bikerack:5ec80449-5f7c-4098-8517-da169c65f27c","kind":"bikerack","longitude":21.2600807,"latitude":48.9602135,"name":"Biciklitároló","city":"Presov","address":null,"covered":false,"access":null,"website":null,"phone":null,"source":"OpenStreetMap/node/3717616351","sourceUpdatedAt":null,"verifiedAt":null}},{"type":"Feature","geometry":{"type":"Point","coordinates":[21.2608229,48.9736466]},"properties":{"id":"bikerack:5eff0232-6d60-4995-999f-6ce4df2f0f08","kind":"bikerack","longitude":21.2608229,"latitude":48.9736466,"name":"Biciklitároló","city":"Presov","address":null,"covered":false,"access":null,"website":null,"phone":null,"source":"OpenStreetMap/node/10249764429","sourceUpdatedAt":null,"verifiedAt":null}},{"type":"Feature","geometry":{"type":"Point","coordinates":[21.2609414,48.9607124]},"properties":{"id":"bikerack:ca513c51-47ca-4377-9b47-72dfb4a7d678","kind":"bikerack","longitude":21.2609414,"latitude":48.9607124,"name":"Biciklitároló","city":"Presov","address":null,"covered":false,"access":null,"website":null,"phone":null,"source":"OpenStreetMap/node/10973696644","sourceUpdatedAt":null,"verifiedAt":null}},{"type":"Feature","geometry":{"type":"Point","coordinates":[21.2368214,48.9585437]},"properties":{"id":"bikerack:da8d4d5e-fa31-4e4b-84ee-8bad4124a9b0","kind":"bikerack","longitude":21.2368214,"latitude":48.9585437,"name":"Biciklitároló","city":"Presov","address":null,"covered":false,"access":null,"website":null,"phone":null,"source":"OpenStreetMap/node/10923668331","sourceUpdatedAt":null,"verifiedAt":null}},{"type":"Feature","geometry":{"type":"Point","coordinates":[21.2692936,48.9697861]},"properties":{"id":"bikerack:ef314948-1539-4c5c-a544-476e78067d7f","kind":"bikerack","longitude":21.2692936,"latitude":48.9697861,"name":"Biciklitároló","city":"Presov","address":null,"covered":false,"access":null,"website":null,"phone":null,"source":"OpenStreetMap/node/13179080801","sourceUpdatedAt":null,"verifiedAt":null}},{"type":"Feature","geometry":{"type":"Point","coordinates":[21.2601565,48.9730245]},"properties":{"id":"bikerack:fa476133-e105-4db7-b3a1-e7c114ac9019","kind":"bikerack","longitude":21.2601565,"latitude":48.9730245,"name":"Biciklitároló","city":"Presov","address":null,"covered":false,"access":null,"website":null,"phone":null,"source":"OpenStreetMap/node/10263335390","sourceUpdatedAt":null,"verifiedAt":null}},{"type":"Feature","geometry":{"type":"Point","coordinates":[21.2636981,48.9775675]},"properties":{"id":"bikerack:fd6af442-2cb3-427b-894f-9ce32dbc0cd7","kind":"bikerack","longitude":21.2636981,"latitude":48.9775675,"name":"Biciklitároló","city":"Presov","address":null,"covered":false,"access":null,"website":null,"phone":null,"source":"OpenStreetMap/node/12710690418","sourceUpdatedAt":null,"verifiedAt":null}},{"type":"Feature","geometry":{"type":"Point","coordinates":[21.2627282,48.974461]},"properties":{"id":"service:2a10e558-72a9-4ec5-8f72-bf55db210fc6","kind":"service","longitude":21.2627282,"latitude":48.974461,"name":"BAJKUJ - Bicykle PREDAJ - SERVIS","city":"Presov","address":null,"covered":null,"access":null,"website":null,"phone":null,"source":"OpenStreetMap/node/9994819216","sourceUpdatedAt":null,"verifiedAt":null}},{"type":"Feature","geometry":{"type":"Point","coordinates":[21.2448185,48.9777012]},"properties":{"id":"service:a534261a-9878-4880-895c-3722f610552a","kind":"service","longitude":21.2448185,"latitude":48.9777012,"name":"BEST BIKE SERVICE - Servis bicyklov","city":"Presov","address":null,"covered":null,"access":null,"website":null,"phone":null,"source":"OpenStreetMap/node/9666111910","sourceUpdatedAt":null,"verifiedAt":null}},{"type":"Feature","geometry":{"type":"Point","coordinates":[21.2652966,48.9766377]},"properties":{"id":"service:ff3716d1-844d-49c3-9450-4c980e276532","kind":"service","longitude":21.2652966,"latitude":48.9766377,"name":"Cyklofix","city":"Prešov","address":null,"covered":null,"access":null,"website":null,"phone":null,"source":"OpenStreetMap/node/11565002990","sourceUpdatedAt":null,"verifiedAt":null}},{"type":"Feature","geometry":{"type":"Point","coordinates":[21.2633702,48.9613459]},"properties":{"id":"water:74784a12-e278-4010-a2d5-8a1bcf999deb","kind":"water","longitude":21.2633702,"latitude":48.9613459,"name":"Ivókút","city":"Presov","address":null,"covered":null,"access":null,"website":null,"phone":null,"source":"OpenStreetMap/node/10973696592","sourceUpdatedAt":null,"verifiedAt":null}},{"type":"Feature","geometry":{"type":"Point","coordinates":[21.2654646,48.9605976]},"properties":{"id":"water:c74b2d59-eb34-4b7d-bb4a-bb78ed7006e9","kind":"water","longitude":21.2654646,"latitude":48.9605976,"name":"Ivókút","city":"Presov","address":null,"covered":null,"access":null,"website":null,"phone":null,"source":"OpenStreetMap/node/10973696625","sourceUpdatedAt":null,"verifiedAt":null}}]}