{"type":"FeatureCollection","features":[{"type":"Feature","geometry":{"type":"Point","coordinates":[21.2283214,48.7054783]},"properties":{"id":"bikerack:0208e526-c9c0-43d3-9e39-4b5dcb6af8f0","kind":"bikerack","longitude":21.2283214,"latitude":48.7054783,"name":"Biciklitároló","city":"Kosice","address":null,"covered":false,"access":null,"website":null,"phone":null,"source":"OpenStreetMap/node/6532899774","sourceUpdatedAt":null,"verifiedAt":null}},{"type":"Feature","geometry":{"type":"Point","coordinates":[21.2382125,48.7142884]},"properties":{"id":"bikerack:026d06c9-7852-4b0d-918d-b721509c8052","kind":"bikerack","longitude":21.2382125,"latitude":48.7142884,"name":"Biciklitároló","city":"Kosice","address":null,"covered":false,"access":null,"website":null,"phone":null,"source":"OpenStreetMap/node/7448453597","sourceUpdatedAt":null,"verifiedAt":null}},{"type":"Feature","geometry":{"type":"Point","coordinates":[21.2366536,48.7084317]},"properties":{"id":"bikerack:04737bc7-a037-42ef-9b10-9bd7c6a8fd46","kind":"bikerack","longitude":21.2366536,"latitude":48.7084317,"name":"Biciklitároló","city":"Kosice","address":null,"covered":false,"access":null,"website":null,"phone":null,"source":"OpenStreetMap/node/5520708980","sourceUpdatedAt":null,"verifiedAt":null}},{"type":"Feature","geometry":{"type":"Point","coordinates":[21.2615079,48.7170082]},"properties":{"id":"bikerack:089f2452-9a82-4c53-9fd9-203337713556","kind":"bikerack","longitude":21.2615079,"latitude":48.7170082,"name":"Biciklitároló","city":"Kosice","address":null,"covered":false,"access":null,"website":null,"phone":null,"source":"OpenStreetMap/node/5378487429","sourceUpdatedAt":null,"verifiedAt":null}},{"type":"Feature","geometry":{"type":"Point","coordinates":[21.2475367,48.709428]},"properties":{"id":"bikerack:09dbd7ad-b18e-42d5-bcdd-2e8f8dd802b8","kind":"bikerack","longitude":21.2475367,"latitude":48.709428,"name":"Biciklitároló","city":"Kosice","address":null,"covered":false,"access":null,"website":null,"phone":null,"source":"OpenStreetMap/node/5732610232","sourceUpdatedAt":null,"verifiedAt":null}},{"type":"Feature","geometry":{"type":"Point","coordinates":[21.2461713,48.7190147]},"properties":{"id":"bikerack:0d2b3507-f7a9-4fb8-971d-1999f57e589a","kind":"bikerack","longitude":21.2461713,"latitude":48.7190147,"name":"Biciklitároló","city":"Kosice","address":null,"covered":true,"access":null,"website":null,"phone":null,"source":"OpenStreetMap/node/7568768534","sourceUpdatedAt":null,"verifiedAt":null}},{"type":"Feature","geometry":{"type":"Point","coordinates":[21.2601402,48.7109358]},"properties":{"id":"bikerack:0dacabab-2918-48cd-a8c5-547cfb578fdc","kind":"bikerack","longitude":21.2601402,"latitude":48.7109358,"name":"Biciklitároló","city":"Kosice","address":null,"covered":false,"access":null,"website":null,"phone":null,"source":"OpenStreetMap/node/13031740516","sourceUpdatedAt":null,"verifiedAt":null}},{"type":"Feature","geometry":{"type":"Point","coordinates":[21.2352263,48.6983078]},"properties":{"id":"bikerack:129ccfe1-2553-4e7a-8837-a88da0f730a3","kind":"bikerack","longitude":21.2352263,"latitude":48.6983078,"name":"Biciklitároló","city":"Kosice","address":null,"covered":false,"access":null,"website":null,"phone":null,"source":"OpenStreetMap/node/5582988552","sourceUpdatedAt":null,"verifiedAt":null}},{"type":"Feature","geometry":{"type":"Point","coordinates":[21.2294864,48.7161018]},"properties":{"id":"bikerack:14ead29b-2bcb-46d8-aedd-ef32044b3733","kind":"bikerack","longitude":21.2294864,"latitude":48.7161018,"name":"Biciklitároló","city":"Kosice","address":null,"covered":false,"access":null,"website":null,"phone":null,"source":"OpenStreetMap/node/6083462651","sourceUpdatedAt":null,"verifiedAt":null}},{"type":"Feature","geometry":{"type":"Point","coordinates":[21.2441059,48.7067927]},"properties":{"id":"bikerack:177a90ed-3b12-4a43-a87b-850384d5acab","kind":"bikerack","longitude":21.2441059,"latitude":48.7067927,"name":"Biciklitároló","city":"Kosice","address":null,"covered":false,"access":null,"website":null,"phone":null,"source":"OpenStreetMap/node/8514728609","sourceUpdatedAt":null,"verifiedAt":null}},{"type":"Feature","geometry":{"type":"Point","coordinates":[21.2485247,48.7156693]},"properties":{"id":"bikerack:1891850f-b578-4cca-a3fc-29a30951195a","kind":"bikerack","longitude":21.2485247,"latitude":48.7156693,"name":"Biciklitároló","city":"Kosice","address":null,"covered":false,"access":null,"website":null,"phone":null,"source":"OpenStreetMap/node/10696701870","sourceUpdatedAt":null,"verifiedAt":null}},{"type":"Feature","geometry":{"type":"Point","coordinates":[21.2317021,48.7071059]},"properties":{"id":"bikerack:19f24aae-34a8-4b26-90f9-6035dad32f69","kind":"bikerack","longitude":21.2317021,"latitude":48.7071059,"name":"Biciklitároló","city":"Kosice","address":null,"covered":false,"access":null,"website":null,"phone":null,"source":"OpenStreetMap/node/12199977488","sourceUpdatedAt":null,"verifiedAt":null}},{"type":"Feature","geometry":{"type":"Point","coordinates":[21.2600325,48.7109679]},"properties":{"id":"bikerack:1a4e41d3-8e1d-443c-a449-c690d73c574c","kind":"bikerack","longitude":21.2600325,"latitude":48.7109679,"name":"Biciklitároló","city":"Kosice","address":null,"covered":false,"access":null,"website":null,"phone":null,"source":"OpenStreetMap/node/4842468664","sourceUpdatedAt":null,"verifiedAt":null}},{"type":"Feature","geometry":{"type":"Point","coordinates":[21.2643003,48.7178258]},"properties":{"id":"bikerack:1c474bec-f810-4a44-8d50-c861ff167a9e","kind":"bikerack","longitude":21.2643003,"latitude":48.7178258,"name":"Biciklitároló","city":"Kosice","address":null,"covered":false,"access":null,"website":null,"phone":null,"source":"OpenStreetMap/node/5730925127","sourceUpdatedAt":null,"verifiedAt":null}},{"type":"Feature","geometry":{"type":"Point","coordinates":[21.2638242,48.7184138]},"properties":{"id":"bikerack:1d5a9d90-c86f-4291-8f2c-0df08c555855","kind":"bikerack","longitude":21.2638242,"latitude":48.7184138,"name":"Biciklitároló","city":"Kosice","address":null,"covered":false,"access":null,"website":null,"phone":null,"source":"OpenStreetMap/node/4983379683","sourceUpdatedAt":null,"verifiedAt":null}},{"type":"Feature","geometry":{"type":"Point","coordinates":[21.2533249,48.710011]},"properties":{"id":"bikerack:1f330a2d-0d8d-4d3a-99ab-14b7cb6366d4","kind":"bikerack","longitude":21.2533249,"latitude":48.710011,"name":"Biciklitároló","city":"Kosice","address":null,"covered":false,"access":null,"website":null,"phone":null,"source":"OpenStreetMap/node/12926012119","sourceUpdatedAt":null,"verifiedAt":null}},{"type":"Feature","geometry":{"type":"Point","coordinates":[21.2649338,48.7193537]},"properties":{"id":"bikerack:256299f3-f3ef-4c80-8bb6-85c43226ae97","kind":"bikerack","longitude":21.2649338,"latitude":48.7193537,"name":"Biciklitároló","city":"Kosice","address":null,"covered":false,"access":null,"website":null,"phone":null,"source":"OpenStreetMap/node/5536565738","sourceUpdatedAt":null,"verifiedAt":null}},{"type":"Feature","geometry":{"type":"Point","coordinates":[21.2406495,48.7006501]},"properties":{"id":"bikerack:25b5f5d2-093c-40f1-a9bd-45d763f72e1b","kind":"bikerack","longitude":21.2406495,"latitude":48.7006501,"name":"Biciklitároló","city":"Kosice","address":null,"covered":false,"access":null,"website":null,"phone":null,"source":"OpenStreetMap/node/11511507615","sourceUpdatedAt":null,"verifiedAt":null}},{"type":"Feature","geometry":{"type":"Point","coordinates":[21.2604345,48.7185933]},"properties":{"id":"bikerack:27d9f9cb-c9e2-4f91-a2f7-04bc707db1c8","kind":"bikerack","longitude":21.2604345,"latitude":48.7185933,"name":"Biciklitároló","city":"Kosice","address":null,"covered":false,"access":null,"website":null,"phone":null,"source":"OpenStreetMap/node/12011768990","sourceUpdatedAt":null,"verifiedAt":null}},{"type":"Feature","geometry":{"type":"Point","coordinates":[21.2391839,48.7064597]},"properties":{"id":"bikerack:28ae2bd8-8e3f-4de6-ab90-8a40485a8306","kind":"bikerack","longitude":21.2391839,"latitude":48.7064597,"name":"Biciklitároló","city":"Kosice","address":null,"covered":false,"access":null,"website":null,"phone":null,"source":"OpenStreetMap/node/4972301502","sourceUpdatedAt":null,"verifiedAt":null}},{"type":"Feature","geometry":{"type":"Point","coordinates":[21.2479101,48.7064549]},"properties":{"id":"bikerack:29ec32be-5039-4cb3-83cb-71f2f4e1865d","kind":"bikerack","longitude":21.2479101,"latitude":48.7064549,"name":"Biciklitároló","city":"Kosice","address":null,"covered":true,"access":null,"website":null,"phone":null,"source":"OpenStreetMap/node/6080548308","sourceUpdatedAt":null,"verifiedAt":null}},{"type":"Feature","geometry":{"type":"Point","coordinates":[21.2460793,48.707715]},"properties":{"id":"bikerack:2a35a6c2-6fb1-4d5d-b450-73d27a49c9b0","kind":"bikerack","longitude":21.2460793,"latitude":48.707715,"name":"Biciklitároló","city":"Kosice","address":null,"covered":true,"access":null,"website":null,"phone":null,"source":"OpenStreetMap/way/1395536637","sourceUpdatedAt":null,"verifiedAt":null}},{"type":"Feature","geometry":{"type":"Point","coordinates":[21.2372688,48.7146561]},"properties":{"id":"bikerack:2ad4f382-216e-4d7d-a311-af7490fbe342","kind":"bikerack","longitude":21.2372688,"latitude":48.7146561,"name":"Biciklitároló","city":"Kosice","address":null,"covered":false,"access":null,"website":null,"phone":null,"source":"OpenStreetMap/node/3608858005","sourceUpdatedAt":null,"verifiedAt":null}},{"type":"Feature","geometry":{"type":"Point","coordinates":[21.2337922,48.6981352]},"properties":{"id":"bikerack:2bc72688-8813-417c-beb5-b4b3d7d0bd05","kind":"bikerack","longitude":21.2337922,"latitude":48.6981352,"name":"Biciklitároló","city":"Kosice","address":null,"covered":true,"access":null,"website":null,"phone":null,"source":"OpenStreetMap/node/13571939614","sourceUpdatedAt":null,"verifiedAt":null}},{"type":"Feature","geometry":{"type":"Point","coordinates":[21.2661711,48.7196979]},"properties":{"id":"bikerack:2dd16b6e-8f06-4b1e-9a1b-6889a31a8921","kind":"bikerack","longitude":21.2661711,"latitude":48.7196979,"name":"Biciklitároló","city":"Kosice","address":null,"covered":false,"access":null,"website":null,"phone":null,"source":"OpenStreetMap/node/9020437473","sourceUpdatedAt":null,"verifiedAt":null}},{"type":"Feature","geometry":{"type":"Point","coordinates":[21.2330848,48.7148141]},"properties":{"id":"bikerack:329d6284-8cf6-4a3f-abed-e95af6d83594","kind":"bikerack","longitude":21.2330848,"latitude":48.7148141,"name":"Biciklitároló","city":"Kosice","address":null,"covered":true,"access":null,"website":null,"phone":null,"source":"OpenStreetMap/node/9035817553","sourceUpdatedAt":null,"verifiedAt":null}},{"type":"Feature","geometry":{"type":"Point","coordinates":[21.2624491,48.7178081]},"properties":{"id":"bikerack:333c4b0f-fed8-4cce-9df3-b1de4726f694","kind":"bikerack","longitude":21.2624491,"latitude":48.7178081,"name":"Biciklitároló","city":"Kosice","address":null,"covered":false,"access":null,"website":null,"phone":null,"source":"OpenStreetMap/node/5744358353","sourceUpdatedAt":null,"verifiedAt":null}},{"type":"Feature","geometry":{"type":"Point","coordinates":[21.2615493,48.6944326]},"properties":{"id":"bikerack:336f677b-c7fe-4927-94c7-9767f615cdc9","kind":"bikerack","longitude":21.2615493,"latitude":48.6944326,"name":"Biciklitároló","city":"Kosice","address":null,"covered":false,"access":null,"website":null,"phone":null,"source":"OpenStreetMap/node/12855579775","sourceUpdatedAt":null,"verifiedAt":null}},{"type":"Feature","geometry":{"type":"Point","coordinates":[21.2578358,48.7061259]},"properties":{"id":"bikerack:34af532b-613b-4cf8-9220-5b8fb09c53a7","kind":"bikerack","longitude":21.2578358,"latitude":48.7061259,"name":"Biciklitároló","city":"Kosice","address":null,"covered":false,"access":null,"website":null,"phone":null,"source":"OpenStreetMap/node/8936581418","sourceUpdatedAt":null,"verifiedAt":null}},{"type":"Feature","geometry":{"type":"Point","coordinates":[21.2385412,48.718953]},"properties":{"id":"bikerack:34bc8a5c-c03c-4aca-8a7a-ea7fb4bf5eb1","kind":"bikerack","longitude":21.2385412,"latitude":48.718953,"name":"Biciklitároló","city":"Kosice","address":null,"covered":false,"access":null,"website":null,"phone":null,"source":"OpenStreetMap/node/4885299555","sourceUpdatedAt":null,"verifiedAt":null}},{"type":"Feature","geometry":{"type":"Point","coordinates":[21.2450467,48.7166779]},"properties":{"id":"bikerack:37ebf42d-2e72-4b55-b54b-6cbd9144a4ae","kind":"bikerack","longitude":21.2450467,"latitude":48.7166779,"name":"Biciklitároló","city":"Kosice","address":null,"covered":false,"access":null,"website":null,"phone":null,"source":"OpenStreetMap/node/13119992538","sourceUpdatedAt":null,"verifiedAt":null}},{"type":"Feature","geometry":{"type":"Point","coordinates":[21.2324315,48.7158498]},"properties":{"id":"bikerack:3b63bebb-05ab-4d06-a038-37992dd9d06e","kind":"bikerack","longitude":21.2324315,"latitude":48.7158498,"name":"Biciklitároló","city":"Kosice","address":null,"covered":false,"access":null,"website":null,"phone":null,"source":"OpenStreetMap/node/4988205766","sourceUpdatedAt":null,"verifiedAt":null}},{"type":"Feature","geometry":{"type":"Point","coordinates":[21.2321199,48.7191807]},"properties":{"id":"bikerack:3f4de693-c58b-4a29-9e41-5917ec08b375","kind":"bikerack","longitude":21.2321199,"latitude":48.7191807,"name":"Biciklitároló","city":"Kosice","address":null,"covered":false,"access":null,"website":null,"phone":null,"source":"OpenStreetMap/node/7578440894","sourceUpdatedAt":null,"verifiedAt":null}},{"type":"Feature","geometry":{"type":"Point","coordinates":[21.2312583,48.6990037]},"properties":{"id":"bikerack:459a594f-87b9-49c3-913b-eebb86b1f41f","kind":"bikerack","longitude":21.2312583,"latitude":48.6990037,"name":"Biciklitároló","city":"Kosice","address":null,"covered":false,"access":null,"website":null,"phone":null,"source":"OpenStreetMap/node/12912107404","sourceUpdatedAt":null,"verifiedAt":null}},{"type":"Feature","geometry":{"type":"Point","coordinates":[21.2470776,48.7061489]},"properties":{"id":"bikerack:45c29283-bd61-470e-85f6-5eab198de3db","kind":"bikerack","longitude":21.2470776,"latitude":48.7061489,"name":"Biciklitároló","city":"Kosice","address":null,"covered":true,"access":null,"website":null,"phone":null,"source":"OpenStreetMap/way/1395536641","sourceUpdatedAt":null,"verifiedAt":null}},{"type":"Feature","geometry":{"type":"Point","coordinates":[21.2482235,48.7088114]},"properties":{"id":"bikerack:49f5cf35-0a8b-4f7e-8a65-175d792bbf2a","kind":"bikerack","longitude":21.2482235,"latitude":48.7088114,"name":"Biciklitároló","city":"Kosice","address":null,"covered":false,"access":null,"website":null,"phone":null,"source":"OpenStreetMap/node/12915551927","sourceUpdatedAt":null,"verifiedAt":null}},{"type":"Feature","geometry":{"type":"Point","coordinates":[21.2505146,48.7168714]},"properties":{"id":"bikerack:4c598aee-15a9-4950-93ae-242f3ef9f0b9","kind":"bikerack","longitude":21.2505146,"latitude":48.7168714,"name":"Biciklitároló","city":"Kosice","address":null,"covered":false,"access":null,"website":null,"phone":null,"source":"OpenStreetMap/node/6717009583","sourceUpdatedAt":null,"verifiedAt":null}},{"type":"Feature","geometry":{"type":"Point","coordinates":[21.2406406,48.7007162]},"properties":{"id":"bikerack:4d7844d2-fa3f-453a-9c7e-8ab9c242ae0b","kind":"bikerack","longitude":21.2406406,"latitude":48.7007162,"name":"Biciklitároló","city":"Kosice","address":null,"covered":false,"access":null,"website":null,"phone":null,"source":"OpenStreetMap/node/11511507614","sourceUpdatedAt":null,"verifiedAt":null}},{"type":"Feature","geometry":{"type":"Point","coordinates":[21.2650393,48.7131329]},"properties":{"id":"bikerack:4fc273cb-9006-4b64-bb9a-097e197da47b","kind":"bikerack","longitude":21.2650393,"latitude":48.7131329,"name":"Biciklitároló","city":"Kosice","address":null,"covered":false,"access":null,"website":null,"phone":null,"source":"OpenStreetMap/node/4956838411","sourceUpdatedAt":null,"verifiedAt":null}},{"type":"Feature","geometry":{"type":"Point","coordinates":[21.2366364,48.7040199]},"properties":{"id":"bikerack:50afbc1b-f0e3-4a72-94c0-3b388c3ee2a8","kind":"bikerack","longitude":21.2366364,"latitude":48.7040199,"name":"Biciklitároló","city":"Kosice","address":null,"covered":false,"access":null,"website":null,"phone":null,"source":"OpenStreetMap/node/8062567151","sourceUpdatedAt":null,"verifiedAt":null}},{"type":"Feature","geometry":{"type":"Point","coordinates":[21.2481006,48.7072612]},"properties":{"id":"bikerack:53624808-58ba-4dca-aa37-15576c473dee","kind":"bikerack","longitude":21.2481006,"latitude":48.7072612,"name":"Biciklitároló","city":"Kosice","address":null,"covered":true,"access":null,"website":null,"phone":null,"source":"OpenStreetMap/node/6080548315","sourceUpdatedAt":null,"verifiedAt":null}},{"type":"Feature","geometry":{"type":"Point","coordinates":[21.2461588,48.7074603]},"properties":{"id":"bikerack:56bd9c6e-1608-43fe-a400-362f734da1d0","kind":"bikerack","longitude":21.2461588,"latitude":48.7074603,"name":"Biciklitároló","city":"Kosice","address":null,"covered":false,"access":null,"website":null,"phone":null,"source":"OpenStreetMap/node/12920058840","sourceUpdatedAt":null,"verifiedAt":null}},{"type":"Feature","geometry":{"type":"Point","coordinates":[21.2412655,48.7052696]},"properties":{"id":"bikerack:57215bb1-8d00-4acd-9fd5-84418f62be11","kind":"bikerack","longitude":21.2412655,"latitude":48.7052696,"name":"Biciklitároló","city":"Kosice","address":null,"covered":true,"access":null,"website":null,"phone":null,"source":"OpenStreetMap/way/1168461794","sourceUpdatedAt":null,"verifiedAt":null}},{"type":"Feature","geometry":{"type":"Point","coordinates":[21.2378127,48.694472]},"properties":{"id":"bikerack:577cb732-6fa8-4982-a9e5-839071e2c2e3","kind":"bikerack","longitude":21.2378127,"latitude":48.694472,"name":"Biciklitároló","city":"Kosice","address":null,"covered":false,"access":null,"website":null,"phone":null,"source":"OpenStreetMap/node/6767507642","sourceUpdatedAt":null,"verifiedAt":null}},{"type":"Feature","geometry":{"type":"Point","coordinates":[21.2327672,48.7103618]},"properties":{"id":"bikerack:5785bd1a-8d3e-4810-93f9-013abbf241e2","kind":"bikerack","longitude":21.2327672,"latitude":48.7103618,"name":"Biciklitároló","city":"Kosice","address":null,"covered":false,"access":null,"website":null,"phone":null,"source":"OpenStreetMap/node/7580002391","sourceUpdatedAt":null,"verifiedAt":null}},{"type":"Feature","geometry":{"type":"Point","coordinates":[21.2490778,48.7166472]},"properties":{"id":"bikerack:5ddf9f16-aedb-4974-8516-0e640365d1ff","kind":"bikerack","longitude":21.2490778,"latitude":48.7166472,"name":"Biciklitároló","city":"Kosice","address":null,"covered":false,"access":null,"website":null,"phone":null,"source":"OpenStreetMap/node/9084396958","sourceUpdatedAt":null,"verifiedAt":null}},{"type":"Feature","geometry":{"type":"Point","coordinates":[21.2473801,48.7143095]},"properties":{"id":"bikerack:5e65b156-eaca-4ab2-93c1-64061e4d8b89","kind":"bikerack","longitude":21.2473801,"latitude":48.7143095,"name":"Biciklitároló","city":"Kosice","address":null,"covered":false,"access":null,"website":null,"phone":null,"source":"OpenStreetMap/node/5534697094","sourceUpdatedAt":null,"verifiedAt":null}},{"type":"Feature","geometry":{"type":"Point","coordinates":[21.2461548,48.7195386]},"properties":{"id":"bikerack:677b5fa2-f7aa-4b68-81b0-ba3e4040b48a","kind":"bikerack","longitude":21.2461548,"latitude":48.7195386,"name":"Biciklitároló","city":"Kosice","address":null,"covered":false,"access":null,"website":null,"phone":null,"source":"OpenStreetMap/node/5553092426","sourceUpdatedAt":null,"verifiedAt":null}},{"type":"Feature","geometry":{"type":"Point","coordinates":[21.2515283,48.7187008]},"properties":{"id":"bikerack:689208c0-8ce0-4c29-9c7d-1431d7ed93cf","kind":"bikerack","longitude":21.2515283,"latitude":48.7187008,"name":"Biciklitároló","city":"Kosice","address":null,"covered":false,"access":null,"website":null,"phone":null,"source":"OpenStreetMap/node/11063809745","sourceUpdatedAt":null,"verifiedAt":null}},{"type":"Feature","geometry":{"type":"Point","coordinates":[21.2513135,48.7195783]},"properties":{"id":"bikerack:6e552909-62e8-4bde-9f59-6ec107e31888","kind":"bikerack","longitude":21.2513135,"latitude":48.7195783,"name":"Biciklitároló","city":"Kosice","address":null,"covered":false,"access":null,"website":null,"phone":null,"source":"OpenStreetMap/node/11071612823","sourceUpdatedAt":null,"verifiedAt":null}},{"type":"Feature","geometry":{"type":"Point","coordinates":[21.2565411,48.719951]},"properties":{"id":"bikerack:71ae81c6-cddc-4c5c-82d9-e33959311ba3","kind":"bikerack","longitude":21.2565411,"latitude":48.719951,"name":"Biciklitároló","city":"Kosice","address":null,"covered":false,"access":null,"website":null,"phone":null,"source":"OpenStreetMap/node/7577928257","sourceUpdatedAt":null,"verifiedAt":null}},{"type":"Feature","geometry":{"type":"Point","coordinates":[21.2518273,48.7193541]},"properties":{"id":"bikerack:7889caac-523c-4c45-b81a-228d39f031cd","kind":"bikerack","longitude":21.2518273,"latitude":48.7193541,"name":"Biciklitároló","city":"Kosice","address":null,"covered":false,"access":null,"website":null,"phone":null,"source":"OpenStreetMap/node/11063056609","sourceUpdatedAt":null,"verifiedAt":null}},{"type":"Feature","geometry":{"type":"Point","coordinates":[21.2376321,48.6945032]},"properties":{"id":"bikerack:79183754-5056-4b94-bfe6-5567e729befb","kind":"bikerack","longitude":21.2376321,"latitude":48.6945032,"name":"Biciklitároló","city":"Kosice","address":null,"covered":false,"access":null,"website":null,"phone":null,"source":"OpenStreetMap/node/4978990326","sourceUpdatedAt":null,"verifiedAt":null}},{"type":"Feature","geometry":{"type":"Point","coordinates":[21.2321118,48.7191966]},"properties":{"id":"bikerack:7b149f87-bed9-4a84-b8bc-21bcc4e8d27c","kind":"bikerack","longitude":21.2321118,"latitude":48.7191966,"name":"Biciklitároló","city":"Kosice","address":null,"covered":true,"access":null,"website":null,"phone":null,"source":"OpenStreetMap/node/6109944613","sourceUpdatedAt":null,"verifiedAt":null}},{"type":"Feature","geometry":{"type":"Point","coordinates":[21.2359776,48.714452]},"properties":{"id":"bikerack:7f7d6443-8665-48f1-abf7-92e1b1a09936","kind":"bikerack","longitude":21.2359776,"latitude":48.714452,"name":"Biciklitároló","city":"Kosice","address":null,"covered":true,"access":null,"website":null,"phone":null,"source":"OpenStreetMap/node/6264717762","sourceUpdatedAt":null,"verifiedAt":null}},{"type":"Feature","geometry":{"type":"Point","coordinates":[21.239143,48.6943262]},"properties":{"id":"bikerack:8305e3ec-25f3-46db-8590-3301e8d8630a","kind":"bikerack","longitude":21.239143,"latitude":48.6943262,"name":"Biciklitároló","city":"Kosice","address":null,"covered":true,"access":null,"website":null,"phone":null,"source":"OpenStreetMap/node/12178922263","sourceUpdatedAt":null,"verifiedAt":null}},{"type":"Feature","geometry":{"type":"Point","coordinates":[21.2581243,48.7130894]},"properties":{"id":"bikerack:83cbdffd-a1d9-4a7c-ac53-010958ac81d0","kind":"bikerack","longitude":21.2581243,"latitude":48.7130894,"name":"Biciklitároló","city":"Kosice","address":null,"covered":true,"access":null,"website":null,"phone":null,"source":"OpenStreetMap/node/5526231461","sourceUpdatedAt":null,"verifiedAt":null}},{"type":"Feature","geometry":{"type":"Point","coordinates":[21.2401975,48.6939688]},"properties":{"id":"bikerack:84fb7666-111d-4a93-875c-0845e103f52e","kind":"bikerack","longitude":21.2401975,"latitude":48.6939688,"name":"Biciklitároló","city":"Kosice","address":null,"covered":false,"access":null,"website":null,"phone":null,"source":"OpenStreetMap/node/5582988040","sourceUpdatedAt":null,"verifiedAt":null}},{"type":"Feature","geometry":{"type":"Point","coordinates":[21.2401689,48.6938323]},"properties":{"id":"bikerack:85154a7c-aac2-412a-8363-ad1519bf647e","kind":"bikerack","longitude":21.2401689,"latitude":48.6938323,"name":"Biciklitároló","city":"Kosice","address":null,"covered":false,"access":null,"website":null,"phone":null,"source":"OpenStreetMap/node/12178922276","sourceUpdatedAt":null,"verifiedAt":null}},{"type":"Feature","geometry":{"type":"Point","coordinates":[21.2484465,48.70744]},"properties":{"id":"bikerack:883aab13-a893-4cb8-b889-48d42c04fed3","kind":"bikerack","longitude":21.2484465,"latitude":48.70744,"name":"Biciklitároló","city":"Kosice","address":null,"covered":true,"access":null,"website":null,"phone":null,"source":"OpenStreetMap/way/647477444","sourceUpdatedAt":null,"verifiedAt":null}},{"type":"Feature","geometry":{"type":"Point","coordinates":[21.2376169,48.7187653]},"properties":{"id":"bikerack:8bc22f70-857a-4dae-a4bc-5be85fb6cd5b","kind":"bikerack","longitude":21.2376169,"latitude":48.7187653,"name":"Biciklitároló","city":"Kosice","address":null,"covered":false,"access":null,"website":null,"phone":null,"source":"OpenStreetMap/node/8521489235","sourceUpdatedAt":null,"verifiedAt":null}},{"type":"Feature","geometry":{"type":"Point","coordinates":[21.2591066,48.7168616]},"properties":{"id":"bikerack:8c64854a-119d-428a-9dc5-d32499abab7f","kind":"bikerack","longitude":21.2591066,"latitude":48.7168616,"name":"Biciklitároló","city":"Kosice","address":null,"covered":false,"access":null,"website":null,"phone":null,"source":"OpenStreetMap/node/4762493250","sourceUpdatedAt":null,"verifiedAt":null}},{"type":"Feature","geometry":{"type":"Point","coordinates":[21.2364911,48.7089678]},"properties":{"id":"bikerack:90117151-3ecb-4686-b4d5-c9d0e9076cc4","kind":"bikerack","longitude":21.2364911,"latitude":48.7089678,"name":"Biciklitároló","city":"Kosice","address":null,"covered":false,"access":null,"website":null,"phone":null,"source":"OpenStreetMap/node/5520708981","sourceUpdatedAt":null,"verifiedAt":null}},{"type":"Feature","geometry":{"type":"Point","coordinates":[21.245383,48.7061914]},"properties":{"id":"bikerack:91c44ecd-2813-482a-bd96-48f6e209cef0","kind":"bikerack","longitude":21.245383,"latitude":48.7061914,"name":"Biciklitároló","city":"Kosice","address":null,"covered":false,"access":null,"website":null,"phone":null,"source":"OpenStreetMap/node/6080555373","sourceUpdatedAt":null,"verifiedAt":null}},{"type":"Feature","geometry":{"type":"Point","coordinates":[21.2588413,48.7089512]},"properties":{"id":"bikerack:948fc7c2-71b0-4406-ac3c-6a86fb835c3d","kind":"bikerack","longitude":21.2588413,"latitude":48.7089512,"name":"Biciklitároló","city":"Kosice","address":null,"covered":false,"access":null,"website":null,"phone":null,"source":"OpenStreetMap/node/13030252041","sourceUpdatedAt":null,"verifiedAt":null}},{"type":"Feature","geometry":{"type":"Point","coordinates":[21.260481,48.7135456]},"properties":{"id":"bikerack:975627de-3c42-4686-ac92-ee3db5aa1ada","kind":"bikerack","longitude":21.260481,"latitude":48.7135456,"name":"Biciklitároló","city":"Kosice","address":null,"covered":false,"access":null,"website":null,"phone":null,"source":"OpenStreetMap/node/12995635506","sourceUpdatedAt":null,"verifiedAt":null}},{"type":"Feature","geometry":{"type":"Point","coordinates":[21.2362983,48.6960536]},"properties":{"id":"bikerack:9b333865-166c-4d21-be0f-bfee04c94386","kind":"bikerack","longitude":21.2362983,"latitude":48.6960536,"name":"Biciklitároló","city":"Kosice","address":null,"covered":false,"access":null,"website":null,"phone":null,"source":"OpenStreetMap/node/6767473657","sourceUpdatedAt":null,"verifiedAt":null}},{"type":"Feature","geometry":{"type":"Point","coordinates":[21.2338001,48.7037506]},"properties":{"id":"bikerack:9d5f55f6-9603-4e60-8d04-5fd60e4aa30c","kind":"bikerack","longitude":21.2338001,"latitude":48.7037506,"name":"Biciklitároló","city":"Kosice","address":null,"covered":false,"access":null,"website":null,"phone":null,"source":"OpenStreetMap/node/10542906170","sourceUpdatedAt":null,"verifiedAt":null}},{"type":"Feature","geometry":{"type":"Point","coordinates":[21.2594758,48.718366]},"properties":{"id":"bikerack:9d971aa6-1ac4-4e11-b4f5-fbd8f22f5f37","kind":"bikerack","longitude":21.2594758,"latitude":48.718366,"name":"Biciklitároló","city":"Kosice","address":null,"covered":false,"access":null,"website":null,"phone":null,"source":"OpenStreetMap/node/7577932576","sourceUpdatedAt":null,"verifiedAt":null}},{"type":"Feature","geometry":{"type":"Point","coordinates":[21.2455683,48.7084653]},"properties":{"id":"bikerack:9ffca9c4-0989-48f7-96b2-ce42b760aead","kind":"bikerack","longitude":21.2455683,"latitude":48.7084653,"name":"Biciklitároló","city":"Kosice","address":null,"covered":false,"access":null,"website":null,"phone":null,"source":"OpenStreetMap/node/8012226094","sourceUpdatedAt":null,"verifiedAt":null}},{"type":"Feature","geometry":{"type":"Point","coordinates":[21.2331223,48.7107482]},"properties":{"id":"bikerack:a2ff2601-0fe2-4651-95a7-371e30490439","kind":"bikerack","longitude":21.2331223,"latitude":48.7107482,"name":"Biciklitároló","city":"Kosice","address":null,"covered":false,"access":null,"website":null,"phone":null,"source":"OpenStreetMap/node/6096480068","sourceUpdatedAt":null,"verifiedAt":null}},{"type":"Feature","geometry":{"type":"Point","coordinates":[21.2645106,48.7199146]},"properties":{"id":"bikerack:a3b7e175-5ab1-4eb8-ac56-ba01fb54e3c1","kind":"bikerack","longitude":21.2645106,"latitude":48.7199146,"name":"Biciklitároló","city":"Kosice","address":null,"covered":true,"access":null,"website":null,"phone":null,"source":"OpenStreetMap/node/9233868460","sourceUpdatedAt":null,"verifiedAt":null}},{"type":"Feature","geometry":{"type":"Point","coordinates":[21.2319937,48.7192636]},"properties":{"id":"bikerack:a3d479e6-1ae9-471f-9a1e-8ebb489aceac","kind":"bikerack","longitude":21.2319937,"latitude":48.7192636,"name":"Biciklitároló","city":"Kosice","address":null,"covered":false,"access":null,"website":null,"phone":null,"source":"OpenStreetMap/node/8541128614","sourceUpdatedAt":null,"verifiedAt":null}},{"type":"Feature","geometry":{"type":"Point","coordinates":[21.2479457,48.706384]},"properties":{"id":"bikerack:a46b5f3e-f025-4371-a529-e8abff451b89","kind":"bikerack","longitude":21.2479457,"latitude":48.706384,"name":"Biciklitároló","city":"Kosice","address":null,"covered":true,"access":null,"website":null,"phone":null,"source":"OpenStreetMap/node/6080548309","sourceUpdatedAt":null,"verifiedAt":null}},{"type":"Feature","geometry":{"type":"Point","coordinates":[21.2600515,48.7163665]},"properties":{"id":"bikerack:a5faa672-f7e1-4f23-83a4-a35a8fbccb3e","kind":"bikerack","longitude":21.2600515,"latitude":48.7163665,"name":"Biciklitároló","city":"Kosice","address":null,"covered":false,"access":null,"website":null,"phone":null,"source":"OpenStreetMap/node/8108646963","sourceUpdatedAt":null,"verifiedAt":null}},{"type":"Feature","geometry":{"type":"Point","coordinates":[21.2325842,48.7126072]},"properties":{"id":"bikerack:a60f1eab-201c-4db2-bf3b-8e7c5e0a1c85","kind":"bikerack","longitude":21.2325842,"latitude":48.7126072,"name":"Biciklitároló","city":"Kosice","address":null,"covered":false,"access":null,"website":null,"phone":null,"source":"OpenStreetMap/node/9884976714","sourceUpdatedAt":null,"verifiedAt":null}},{"type":"Feature","geometry":{"type":"Point","coordinates":[21.2513445,48.7014733]},"properties":{"id":"bikerack:a6cd8ccd-566e-4026-b36b-20c134e57fb0","kind":"bikerack","longitude":21.2513445,"latitude":48.7014733,"name":"Biciklitároló","city":"Kosice","address":null,"covered":false,"access":null,"website":null,"phone":null,"source":"OpenStreetMap/node/1323638062","sourceUpdatedAt":null,"verifiedAt":null}},{"type":"Feature","geometry":{"type":"Point","coordinates":[21.2366622,48.7079175]},"properties":{"id":"bikerack:a74c8aea-7a51-4dd6-b128-1ed55e66c32a","kind":"bikerack","longitude":21.2366622,"latitude":48.7079175,"name":"Biciklitároló","city":"Kosice","address":null,"covered":false,"access":null,"website":null,"phone":null,"source":"OpenStreetMap/node/6027484580","sourceUpdatedAt":null,"verifiedAt":null}},{"type":"Feature","geometry":{"type":"Point","coordinates":[21.2589479,48.7196984]},"properties":{"id":"bikerack:a7e7ef57-3084-4e47-923e-67fba0c92d9c","kind":"bikerack","longitude":21.2589479,"latitude":48.7196984,"name":"Biciklitároló","city":"Kosice","address":null,"covered":false,"access":null,"website":null,"phone":null,"source":"OpenStreetMap/node/5525828825","sourceUpdatedAt":null,"verifiedAt":null}},{"type":"Feature","geometry":{"type":"Point","coordinates":[21.2562684,48.7178516]},"properties":{"id":"bikerack:a7f7d653-9f40-4964-a685-56657f9ab88f","kind":"bikerack","longitude":21.2562684,"latitude":48.7178516,"name":"Biciklitároló","city":"Kosice","address":null,"covered":false,"access":null,"website":null,"phone":null,"source":"OpenStreetMap/node/5554920593","sourceUpdatedAt":null,"verifiedAt":null}},{"type":"Feature","geometry":{"type":"Point","coordinates":[21.2461153,48.7189826]},"properties":{"id":"bikerack:abcb0801-adc8-40b7-9a2d-2e2843f5617e","kind":"bikerack","longitude":21.2461153,"latitude":48.7189826,"name":"Biciklitároló","city":"Kosice","address":null,"covered":true,"access":null,"website":null,"phone":null,"source":"OpenStreetMap/node/4883672606","sourceUpdatedAt":null,"verifiedAt":null}},{"type":"Feature","geometry":{"type":"Point","coordinates":[21.2304947,48.7152982]},"properties":{"id":"bikerack:abe572ca-2922-469f-9d35-c3547e01c556","kind":"bikerack","longitude":21.2304947,"latitude":48.7152982,"name":"Biciklitároló","city":"Kosice","address":null,"covered":false,"access":null,"website":null,"phone":null,"source":"OpenStreetMap/node/6083462656","sourceUpdatedAt":null,"verifiedAt":null}},{"type":"Feature","geometry":{"type":"Point","coordinates":[21.2617767,48.7171304]},"properties":{"id":"bikerack:ad569f8e-d99e-410f-b8cd-e730b7a482f4","kind":"bikerack","longitude":21.2617767,"latitude":48.7171304,"name":"Biciklitároló","city":"Kosice","address":null,"covered":true,"access":null,"website":null,"phone":null,"source":"OpenStreetMap/node/6577609100","sourceUpdatedAt":null,"verifiedAt":null}},{"type":"Feature","geometry":{"type":"Point","coordinates":[21.2321999,48.7055978]},"properties":{"id":"bikerack:add43e80-590d-4baa-8c64-7dced4866314","kind":"bikerack","longitude":21.2321999,"latitude":48.7055978,"name":"Biciklitároló","city":"Kosice","address":null,"covered":true,"access":null,"website":null,"phone":null,"source":"OpenStreetMap/node/8942016524","sourceUpdatedAt":null,"verifiedAt":null}},{"type":"Feature","geometry":{"type":"Point","coordinates":[21.2648581,48.7174501]},"properties":{"id":"bikerack:b10b357a-39a4-4697-a5d6-e12232b426ee","kind":"bikerack","longitude":21.2648581,"latitude":48.7174501,"name":"Biciklitároló","city":"Kosice","address":null,"covered":true,"access":null,"website":null,"phone":null,"source":"OpenStreetMap/node/7447018460","sourceUpdatedAt":null,"verifiedAt":null}},{"type":"Feature","geometry":{"type":"Point","coordinates":[21.2602979,48.711091]},"properties":{"id":"bikerack:b13879f1-7e99-405c-810b-eadd9c2d2a07","kind":"bikerack","longitude":21.2602979,"latitude":48.711091,"name":"Biciklitároló","city":"Kosice","address":null,"covered":false,"access":null,"website":null,"phone":null,"source":"OpenStreetMap/node/13031740501","sourceUpdatedAt":null,"verifiedAt":null}},{"type":"Feature","geometry":{"type":"Point","coordinates":[21.2648145,48.7183058]},"properties":{"id":"bikerack:b7d8624f-93e5-4745-94f2-11193503599d","kind":"bikerack","longitude":21.2648145,"latitude":48.7183058,"name":"Biciklitároló","city":"Kosice","address":null,"covered":false,"access":null,"website":null,"phone":null,"source":"OpenStreetMap/node/5866248754","sourceUpdatedAt":null,"verifiedAt":null}},{"type":"Feature","geometry":{"type":"Point","coordinates":[21.2568744,48.7165415]},"properties":{"id":"bikerack:b83f3c5b-baf0-4c9e-99e8-f0b52685118f","kind":"bikerack","longitude":21.2568744,"latitude":48.7165415,"name":"Biciklitároló","city":"Kosice","address":null,"covered":false,"access":null,"website":null,"phone":null,"source":"OpenStreetMap/node/5588576722","sourceUpdatedAt":null,"verifiedAt":null}},{"type":"Feature","geometry":{"type":"Point","coordinates":[21.2541359,48.7023146]},"properties":{"id":"bikerack:bbf228f8-9673-44d4-b9da-db8a925303c0","kind":"bikerack","longitude":21.2541359,"latitude":48.7023146,"name":"Biciklitároló","city":"Kosice","address":null,"covered":false,"access":null,"website":null,"phone":null,"source":"OpenStreetMap/node/12945146260","sourceUpdatedAt":null,"verifiedAt":null}},{"type":"Feature","geometry":{"type":"Point","coordinates":[21.2331259,48.719347]},"properties":{"id":"bikerack:bcc5ce0b-1a4b-4b5f-8133-df1bd830a9ff","kind":"bikerack","longitude":21.2331259,"latitude":48.719347,"name":"Biciklitároló","city":"Kosice","address":null,"covered":false,"access":null,"website":null,"phone":null,"source":"OpenStreetMap/node/8541799129","sourceUpdatedAt":null,"verifiedAt":null}},{"type":"Feature","geometry":{"type":"Point","coordinates":[21.2474541,48.7065952]},"properties":{"id":"bikerack:beaac055-6a8d-45ea-b501-a7f1f537cd74","kind":"bikerack","longitude":21.2474541,"latitude":48.7065952,"name":"Biciklitároló","city":"Kosice","address":null,"covered":false,"access":null,"website":null,"phone":null,"source":"OpenStreetMap/node/7580051545","sourceUpdatedAt":null,"verifiedAt":null}},{"type":"Feature","geometry":{"type":"Point","coordinates":[21.2597643,48.7100734]},"properties":{"id":"bikerack:c0878a1c-2a97-4651-a995-7501bca3ed9e","kind":"bikerack","longitude":21.2597643,"latitude":48.7100734,"name":"Biciklitároló","city":"Kosice","address":null,"covered":false,"access":null,"website":null,"phone":null,"source":"OpenStreetMap/node/10973875252","sourceUpdatedAt":null,"verifiedAt":null}},{"type":"Feature","geometry":{"type":"Point","coordinates":[21.2316897,48.7188362]},"properties":{"id":"bikerack:c3d93322-44df-44bb-b1e0-93b62309d2a1","kind":"bikerack","longitude":21.2316897,"latitude":48.7188362,"name":"Biciklitároló","city":"Kosice","address":null,"covered":true,"access":null,"website":null,"phone":null,"source":"OpenStreetMap/node/6265613365","sourceUpdatedAt":null,"verifiedAt":null}},{"type":"Feature","geometry":{"type":"Point","coordinates":[21.2462192,48.6963808]},"properties":{"id":"bikerack:c4e591e1-986b-41ac-9004-05f1badb6387","kind":"bikerack","longitude":21.2462192,"latitude":48.6963808,"name":"Biciklitároló","city":"Kosice","address":null,"covered":false,"access":null,"website":null,"phone":null,"source":"OpenStreetMap/node/12178684305","sourceUpdatedAt":null,"verifiedAt":null}},{"type":"Feature","geometry":{"type":"Point","coordinates":[21.2546051,48.7165731]},"properties":{"id":"bikerack:c63a3e6a-1e2f-4ba7-9815-388375701da8","kind":"bikerack","longitude":21.2546051,"latitude":48.7165731,"name":"Biciklitároló","city":"Kosice","address":null,"covered":false,"access":null,"website":null,"phone":null,"source":"OpenStreetMap/node/6644650639","sourceUpdatedAt":null,"verifiedAt":null}},{"type":"Feature","geometry":{"type":"Point","coordinates":[21.2468585,48.7037239]},"properties":{"id":"bikerack:c7bc0929-34f1-4c86-a674-bb56fd7d7339","kind":"bikerack","longitude":21.2468585,"latitude":48.7037239,"name":"Biciklitároló","city":"Kosice","address":null,"covered":false,"access":null,"website":null,"phone":null,"source":"OpenStreetMap/node/4716224117","sourceUpdatedAt":null,"verifiedAt":null}},{"type":"Feature","geometry":{"type":"Point","coordinates":[21.262254,48.6975261]},"properties":{"id":"bikerack:cb023281-7115-42ce-b367-fdb791ed9518","kind":"bikerack","longitude":21.262254,"latitude":48.6975261,"name":"Biciklitároló","city":"Kosice","address":null,"covered":true,"access":null,"website":null,"phone":null,"source":"OpenStreetMap/node/13630631395","sourceUpdatedAt":null,"verifiedAt":null}},{"type":"Feature","geometry":{"type":"Point","coordinates":[21.2465174,48.7181684]},"properties":{"id":"bikerack:cc5b8125-f128-4540-b3b3-27967aabcd2e","kind":"bikerack","longitude":21.2465174,"latitude":48.7181684,"name":"Biciklitároló","city":"Kosice","address":null,"covered":true,"access":null,"website":null,"phone":null,"source":"OpenStreetMap/node/7568768535","sourceUpdatedAt":null,"verifiedAt":null}},{"type":"Feature","geometry":{"type":"Point","coordinates":[21.2651593,48.7175657]},"properties":{"id":"bikerack:cf323cdc-6a8a-491c-8ccc-a0e9504192a4","kind":"bikerack","longitude":21.2651593,"latitude":48.7175657,"name":"Biciklitároló","city":"Kosice","address":null,"covered":true,"access":null,"website":null,"phone":null,"source":"OpenStreetMap/node/7447018461","sourceUpdatedAt":null,"verifiedAt":null}},{"type":"Feature","geometry":{"type":"Point","coordinates":[21.257833,48.7161618]},"properties":{"id":"bikerack:d036ea06-cb84-433f-b3f8-f7073a6b9797","kind":"bikerack","longitude":21.257833,"latitude":48.7161618,"name":"Biciklitároló","city":"Kosice","address":null,"covered":false,"access":null,"website":null,"phone":null,"source":"OpenStreetMap/node/5584427013","sourceUpdatedAt":null,"verifiedAt":null}},{"type":"Feature","geometry":{"type":"Point","coordinates":[21.2482818,48.7007563]},"properties":{"id":"bikerack:d4376ebd-dd52-4962-a7e4-3b8abe6529cd","kind":"bikerack","longitude":21.2482818,"latitude":48.7007563,"name":"Biciklitároló","city":"Kosice","address":null,"covered":false,"access":null,"website":null,"phone":null,"source":"OpenStreetMap/node/5535951633","sourceUpdatedAt":null,"verifiedAt":null}},{"type":"Feature","geometry":{"type":"Point","coordinates":[21.2460941,48.7190248]},"properties":{"id":"bikerack:d4adf217-ad8f-4383-9b58-07d0cbfb4b55","kind":"bikerack","longitude":21.2460941,"latitude":48.7190248,"name":"Biciklitároló","city":"Kosice","address":null,"covered":true,"access":null,"website":null,"phone":null,"source":"OpenStreetMap/node/4883672605","sourceUpdatedAt":null,"verifiedAt":null}},{"type":"Feature","geometry":{"type":"Point","coordinates":[21.2440213,48.7062756]},"properties":{"id":"bikerack:d788f396-40e8-4f14-8f27-6f9831068500","kind":"bikerack","longitude":21.2440213,"latitude":48.7062756,"name":"Biciklitároló","city":"Kosice","address":null,"covered":false,"access":null,"website":null,"phone":null,"source":"OpenStreetMap/node/8108646965","sourceUpdatedAt":null,"verifiedAt":null}},{"type":"Feature","geometry":{"type":"Point","coordinates":[21.2586237,48.7076208]},"properties":{"id":"bikerack:d8b321ca-15f4-4e00-9f1c-ca86c35ba196","kind":"bikerack","longitude":21.2586237,"latitude":48.7076208,"name":"Biciklitároló","city":"Kosice","address":null,"covered":false,"access":null,"website":null,"phone":null,"source":"OpenStreetMap/node/13033491157","sourceUpdatedAt":null,"verifiedAt":null}},{"type":"Feature","geometry":{"type":"Point","coordinates":[21.2474718,48.7063404]},"properties":{"id":"bikerack:dcfb2b13-8f7c-4d57-8e02-02753db97b41","kind":"bikerack","longitude":21.2474718,"latitude":48.7063404,"name":"Biciklitároló","city":"Kosice","address":null,"covered":false,"access":null,"website":null,"phone":null,"source":"OpenStreetMap/node/7580051546","sourceUpdatedAt":null,"verifiedAt":null}},{"type":"Feature","geometry":{"type":"Point","coordinates":[21.2448311,48.7076998]},"properties":{"id":"bikerack:e45dee5b-ebc1-4a11-8ddc-33c66dc1c0e1","kind":"bikerack","longitude":21.2448311,"latitude":48.7076998,"name":"Biciklitároló","city":"Kosice","address":null,"covered":false,"access":null,"website":null,"phone":null,"source":"OpenStreetMap/node/5584429542","sourceUpdatedAt":null,"verifiedAt":null}},{"type":"Feature","geometry":{"type":"Point","coordinates":[21.2565793,48.7136355]},"properties":{"id":"bikerack:e50fdfce-ea79-4e6f-b2ae-b66ab103fd15","kind":"bikerack","longitude":21.2565793,"latitude":48.7136355,"name":"Biciklitároló","city":"Kosice","address":null,"covered":false,"access":null,"website":null,"phone":null,"source":"OpenStreetMap/node/3623945173","sourceUpdatedAt":null,"verifiedAt":null}},{"type":"Feature","geometry":{"type":"Point","coordinates":[21.2363176,48.7144828]},"properties":{"id":"bikerack:e59ec4a4-aaa0-4d5d-bea4-16566c9500e8","kind":"bikerack","longitude":21.2363176,"latitude":48.7144828,"name":"Biciklitároló","city":"Kosice","address":null,"covered":false,"access":null,"website":null,"phone":null,"source":"OpenStreetMap/node/8511284420","sourceUpdatedAt":null,"verifiedAt":null}},{"type":"Feature","geometry":{"type":"Point","coordinates":[21.250675,48.7172831]},"properties":{"id":"bikerack:e6a76ad0-3444-467b-9679-bbb4bd0bc287","kind":"bikerack","longitude":21.250675,"latitude":48.7172831,"name":"Biciklitároló","city":"Kosice","address":null,"covered":false,"access":null,"website":null,"phone":null,"source":"OpenStreetMap/node/5908805916","sourceUpdatedAt":null,"verifiedAt":null}},{"type":"Feature","geometry":{"type":"Point","coordinates":[21.2513755,48.6986492]},"properties":{"id":"bikerack:e8644b3b-9f3d-4667-ad0a-2498687a6761","kind":"bikerack","longitude":21.2513755,"latitude":48.6986492,"name":"Biciklitároló","city":"Kosice","address":null,"covered":true,"access":null,"website":null,"phone":null,"source":"OpenStreetMap/node/5378464683","sourceUpdatedAt":null,"verifiedAt":null}},{"type":"Feature","geometry":{"type":"Point","coordinates":[21.2278502,48.7172832]},"properties":{"id":"bikerack:e983e170-e42d-41c0-8cf2-4584faf39d19","kind":"bikerack","longitude":21.2278502,"latitude":48.7172832,"name":"Biciklitároló","city":"Kosice","address":null,"covered":false,"access":null,"website":null,"phone":null,"source":"OpenStreetMap/node/8541604656","sourceUpdatedAt":null,"verifiedAt":null}},{"type":"Feature","geometry":{"type":"Point","coordinates":[21.2461642,48.6967004]},"properties":{"id":"bikerack:e9a64048-7ab8-4e14-bcca-fb11c718c2b1","kind":"bikerack","longitude":21.2461642,"latitude":48.6967004,"name":"Biciklitároló","city":"Kosice","address":null,"covered":false,"access":null,"website":null,"phone":null,"source":"OpenStreetMap/node/12178684304","sourceUpdatedAt":null,"verifiedAt":null}},{"type":"Feature","geometry":{"type":"Point","coordinates":[21.247156,48.7094409]},"properties":{"id":"bikerack:ed11a05d-fa8a-4ad1-a986-1a565a3bc6ee","kind":"bikerack","longitude":21.247156,"latitude":48.7094409,"name":"Biciklitároló","city":"Kosice","address":null,"covered":false,"access":null,"website":null,"phone":null,"source":"OpenStreetMap/node/4879928541","sourceUpdatedAt":null,"verifiedAt":null}},{"type":"Feature","geometry":{"type":"Point","coordinates":[21.2463277,48.7185472]},"properties":{"id":"bikerack:f2b68259-4937-461a-9274-e2630418f073","kind":"bikerack","longitude":21.2463277,"latitude":48.7185472,"name":"Biciklitároló","city":"Kosice","address":null,"covered":false,"access":null,"website":null,"phone":null,"source":"OpenStreetMap/node/5528868864","sourceUpdatedAt":null,"verifiedAt":null}},{"type":"Feature","geometry":{"type":"Point","coordinates":[21.2378311,48.6943656]},"properties":{"id":"bikerack:f2c61524-ad0b-457c-b743-3bb2809a36eb","kind":"bikerack","longitude":21.2378311,"latitude":48.6943656,"name":"Biciklitároló","city":"Kosice","address":null,"covered":false,"access":null,"website":null,"phone":null,"source":"OpenStreetMap/node/4978990330","sourceUpdatedAt":null,"verifiedAt":null}},{"type":"Feature","geometry":{"type":"Point","coordinates":[21.2339091,48.7146078]},"properties":{"id":"bikerack:f2e16055-ccf3-47d0-acad-0a3965c7fe4a","kind":"bikerack","longitude":21.2339091,"latitude":48.7146078,"name":"Biciklitároló","city":"Kosice","address":null,"covered":false,"access":null,"website":null,"phone":null,"source":"OpenStreetMap/node/3806742478","sourceUpdatedAt":null,"verifiedAt":null}},{"type":"Feature","geometry":{"type":"Point","coordinates":[21.2366093,48.7075496]},"properties":{"id":"bikerack:f9b0ef89-32ad-48a7-adb0-3dccde764ff4","kind":"bikerack","longitude":21.2366093,"latitude":48.7075496,"name":"Biciklitároló","city":"Kosice","address":null,"covered":false,"access":null,"website":null,"phone":null,"source":"OpenStreetMap/node/8139923948","sourceUpdatedAt":null,"verifiedAt":null}},{"type":"Feature","geometry":{"type":"Point","coordinates":[21.2630049,48.7173766]},"properties":{"id":"bikerack:fa9fcb28-63c5-424e-bb0a-21fafae38e17","kind":"bikerack","longitude":21.2630049,"latitude":48.7173766,"name":"Biciklitároló","city":"Kosice","address":null,"covered":false,"access":null,"website":null,"phone":null,"source":"OpenStreetMap/node/5744358354","sourceUpdatedAt":null,"verifiedAt":null}},{"type":"Feature","geometry":{"type":"Point","coordinates":[21.2360397,48.6957926]},"properties":{"id":"bikerack:fb62e39e-5fd2-4cdf-ae8b-4a670d8d28f4","kind":"bikerack","longitude":21.2360397,"latitude":48.6957926,"name":"Biciklitároló","city":"Kosice","address":null,"covered":false,"access":null,"website":null,"phone":null,"source":"OpenStreetMap/node/12178961277","sourceUpdatedAt":null,"verifiedAt":null}},{"type":"Feature","geometry":{"type":"Point","coordinates":[21.2621268,48.7131888]},"properties":{"id":"bikerack:fb789c3e-8fac-4694-9432-a60f1796c7c5","kind":"bikerack","longitude":21.2621268,"latitude":48.7131888,"name":"Biciklitároló","city":"Kosice","address":null,"covered":false,"access":null,"website":null,"phone":null,"source":"OpenStreetMap/node/12803853104","sourceUpdatedAt":null,"verifiedAt":null}},{"type":"Feature","geometry":{"type":"Point","coordinates":[21.2509994,48.7195389]},"properties":{"id":"bikerack:fda9e4b9-3d8e-47c1-8693-79188fa9a67a","kind":"bikerack","longitude":21.2509994,"latitude":48.7195389,"name":"Biciklitároló","city":"Kosice","address":null,"covered":false,"access":null,"website":null,"phone":null,"source":"OpenStreetMap/node/11071612824","sourceUpdatedAt":null,"verifiedAt":null}},{"type":"Feature","geometry":{"type":"Point","coordinates":[21.2458012,48.7036423]},"properties":{"id":"bikerack:ff277da3-c3fa-44f2-a449-910ed0d6133c","kind":"bikerack","longitude":21.2458012,"latitude":48.7036423,"name":"Biciklitároló","city":"Kosice","address":null,"covered":false,"access":null,"website":null,"phone":null,"source":"OpenStreetMap/node/12731907588","sourceUpdatedAt":null,"verifiedAt":null}},{"type":"Feature","geometry":{"type":"Point","coordinates":[21.2330758,48.7148463]},"properties":{"id":"repair:09e4d29b-cc38-4077-bc91-aa9f0b18d79c","kind":"repair","longitude":21.2330758,"latitude":48.7148463,"name":"Kerékpár szervizállomás","city":"Kosice","address":null,"covered":false,"access":null,"website":null,"phone":null,"source":"OpenStreetMap/node/9035817554","sourceUpdatedAt":null,"verifiedAt":null}},{"type":"Feature","geometry":{"type":"Point","coordinates":[21.264461,48.7199004]},"properties":{"id":"repair:3323201d-b5d6-4b9e-b718-f2d8f1af3762","kind":"repair","longitude":21.264461,"latitude":48.7199004,"name":"Kerékpár szervizállomás","city":"Kosice","address":null,"covered":false,"access":null,"website":null,"phone":null,"source":"OpenStreetMap/node/9233868461","sourceUpdatedAt":null,"verifiedAt":null}},{"type":"Feature","geometry":{"type":"Point","coordinates":[21.250509,48.7079693]},"properties":{"id":"repair:a27b71da-00ed-4bd0-908c-b3036ab282ef","kind":"repair","longitude":21.250509,"latitude":48.7079693,"name":"Kerékpár szervizállomás","city":"Kosice","address":null,"covered":false,"access":null,"website":null,"phone":null,"source":"OpenStreetMap/node/12070565940","sourceUpdatedAt":null,"verifiedAt":null}},{"type":"Feature","geometry":{"type":"Point","coordinates":[21.2321837,48.7056536]},"properties":{"id":"repair:a4263a44-88db-4161-9523-7db55f0cac3f","kind":"repair","longitude":21.2321837,"latitude":48.7056536,"name":"Kerékpár szervizállomás","city":"Kosice","address":null,"covered":false,"access":null,"website":null,"phone":null,"source":"OpenStreetMap/node/8942016525","sourceUpdatedAt":null,"verifiedAt":null}},{"type":"Feature","geometry":{"type":"Point","coordinates":[21.2425777,48.7005277]},"properties":{"id":"repair:b4540022-3632-4fe7-a467-7d5d52b6caf9","kind":"repair","longitude":21.2425777,"latitude":48.7005277,"name":"Kerékpár szervizállomás","city":"Kosice","address":null,"covered":false,"access":null,"website":null,"phone":null,"source":"OpenStreetMap/node/12168355502","sourceUpdatedAt":null,"verifiedAt":null}},{"type":"Feature","geometry":{"type":"Point","coordinates":[21.2562946,48.7021522]},"properties":{"id":"repair:c8d4cbe2-ef28-40bf-9525-55e7fcb1afb8","kind":"repair","longitude":21.2562946,"latitude":48.7021522,"name":"Kerékpár szervizállomás","city":"Kosice","address":null,"covered":false,"access":null,"website":null,"phone":null,"source":"OpenStreetMap/node/12943694564","sourceUpdatedAt":null,"verifiedAt":null}},{"type":"Feature","geometry":{"type":"Point","coordinates":[21.238201,48.7143195]},"properties":{"id":"repair:c93e31f1-a832-4c7e-865c-19d5b1030842","kind":"repair","longitude":21.238201,"latitude":48.7143195,"name":"Kerékpár szervizállomás","city":"Kosice","address":null,"covered":false,"access":null,"website":null,"phone":null,"source":"OpenStreetMap/node/4973492762","sourceUpdatedAt":null,"verifiedAt":null}},{"type":"Feature","geometry":{"type":"Point","coordinates":[21.2336427,48.7171915]},"properties":{"id":"service:4356258d-0f79-4850-a9d8-a545fded07c6","kind":"service","longitude":21.2336427,"latitude":48.7171915,"name":"Bike Point","city":"Kosice","address":null,"covered":null,"access":null,"website":null,"phone":null,"source":"OpenStreetMap/node/7878344625","sourceUpdatedAt":null,"verifiedAt":null}},{"type":"Feature","geometry":{"type":"Point","coordinates":[21.26045,48.7186623]},"properties":{"id":"service:5ffd591b-8699-4c95-b8bf-cd79ab44619a","kind":"service","longitude":21.26045,"latitude":48.7186623,"name":"MadBiker","city":"Kosice","address":null,"covered":null,"access":null,"website":null,"phone":null,"source":"OpenStreetMap/node/12011768999","sourceUpdatedAt":null,"verifiedAt":null}},{"type":"Feature","geometry":{"type":"Point","coordinates":[21.2604725,48.7194989]},"properties":{"id":"service:6db2198c-d555-4fab-9ef9-c66e9d15a426","kind":"service","longitude":21.2604725,"latitude":48.7194989,"name":"BIKE STOP","city":"Kosice","address":null,"covered":null,"access":null,"website":null,"phone":null,"source":"OpenStreetMap/node/4993398170","sourceUpdatedAt":null,"verifiedAt":null}},{"type":"Feature","geometry":{"type":"Point","coordinates":[21.2598136,48.7158309]},"properties":{"id":"service:875ad8a8-774c-4ff8-bb4b-cec0c4305b6b","kind":"service","longitude":21.2598136,"latitude":48.7158309,"name":"MTBIKER","city":"Kosice","address":null,"covered":null,"access":null,"website":null,"phone":null,"source":"OpenStreetMap/node/5651968286","sourceUpdatedAt":null,"verifiedAt":null}},{"type":"Feature","geometry":{"type":"Point","coordinates":[21.2458873,48.7182818]},"properties":{"id":"service:cbcfabf3-13c9-413a-859b-341501e7f4e2","kind":"service","longitude":21.2458873,"latitude":48.7182818,"name":"Ebajk","city":"Kosice","address":null,"covered":null,"access":null,"website":null,"phone":null,"source":"OpenStreetMap/node/6515963542","sourceUpdatedAt":null,"verifiedAt":null}},{"type":"Feature","geometry":{"type":"Point","coordinates":[21.2644551,48.7018875]},"properties":{"id":"service:e040af21-6704-4f5a-9725-0965744ac84f","kind":"service","longitude":21.2644551,"latitude":48.7018875,"name":"Bicycle Garage","city":"Kosice","address":null,"covered":null,"access":null,"website":null,"phone":null,"source":"OpenStreetMap/node/8561393751","sourceUpdatedAt":null,"verifiedAt":null}},{"type":"Feature","geometry":{"type":"Point","coordinates":[21.2656767,48.7028303]},"properties":{"id":"service:efbe9035-ba47-4025-bfc1-03bef42d46e3","kind":"service","longitude":21.2656767,"latitude":48.7028303,"name":"Rýchlooprava bicyklov","city":"Kosice","address":null,"covered":null,"access":null,"website":null,"phone":null,"source":"OpenStreetMap/node/2290239733","sourceUpdatedAt":null,"verifiedAt":null}},{"type":"Feature","geometry":{"type":"Point","coordinates":[21.2329031,48.7108922]},"properties":{"id":"water:54df4141-e4e6-416d-901e-7f8d64b20b5d","kind":"water","longitude":21.2329031,"latitude":48.7108922,"name":"Ivókút","city":"Kosice","address":null,"covered":null,"access":null,"website":null,"phone":null,"source":"OpenStreetMap/node/6417814365","sourceUpdatedAt":null,"verifiedAt":null}},{"type":"Feature","geometry":{"type":"Point","coordinates":[21.255113,48.7140695]},"properties":{"id":"water:8bd7f9d1-14c9-4efb-b1b4-34ade5e37cf6","kind":"water","longitude":21.255113,"latitude":48.7140695,"name":"Ivókút","city":"Kosice","address":null,"covered":null,"access":null,"website":null,"phone":null,"source":"OpenStreetMap/node/5526231621","sourceUpdatedAt":null,"verifiedAt":null}},{"type":"Feature","geometry":{"type":"Point","coordinates":[21.2585871,48.7192418]},"properties":{"id":"water:8ff4d828-dfbf-4cc5-a27e-a29c6fde1b5c","kind":"water","longitude":21.2585871,"latitude":48.7192418,"name":"Ivókút","city":"Kosice","address":null,"covered":null,"access":null,"website":null,"phone":null,"source":"OpenStreetMap/node/5543022319","sourceUpdatedAt":null,"verifiedAt":null}},{"type":"Feature","geometry":{"type":"Point","coordinates":[21.2596649,48.7171336]},"properties":{"id":"water:9979c85c-ba05-4f8e-a75a-efb7befbce79","kind":"water","longitude":21.2596649,"latitude":48.7171336,"name":"Ivókút","city":"Kosice","address":null,"covered":null,"access":null,"website":null,"phone":null,"source":"OpenStreetMap/node/12179762386","sourceUpdatedAt":null,"verifiedAt":null}},{"type":"Feature","geometry":{"type":"Point","coordinates":[21.2375545,48.7186512]},"properties":{"id":"water:ae02e16a-ec0e-4a9a-9e33-df43029f94e7","kind":"water","longitude":21.2375545,"latitude":48.7186512,"name":"Ivókút","city":"Kosice","address":null,"covered":null,"access":null,"website":null,"phone":null,"source":"OpenStreetMap/node/8097774647","sourceUpdatedAt":null,"verifiedAt":null}},{"type":"Feature","geometry":{"type":"Point","coordinates":[21.259285,48.7178967]},"properties":{"id":"water:bf03f009-ff8c-4c87-b059-c37a10244ffc","kind":"water","longitude":21.259285,"latitude":48.7178967,"name":"Ivókút","city":"Kosice","address":null,"covered":null,"access":null,"website":null,"phone":null,"source":"OpenStreetMap/node/5520816886","sourceUpdatedAt":null,"verifiedAt":null}},{"type":"Feature","geometry":{"type":"Point","coordinates":[21.2605025,48.7199145]},"properties":{"id":"water:c6a94117-d774-460d-818e-30ffb4b1e526","kind":"water","longitude":21.2605025,"latitude":48.7199145,"name":"Ivókút","city":"Kosice","address":null,"covered":null,"access":null,"website":null,"phone":null,"source":"OpenStreetMap/node/5528831624","sourceUpdatedAt":null,"verifiedAt":null}},{"type":"Feature","geometry":{"type":"Point","coordinates":[21.2326901,48.7125823]},"properties":{"id":"water:ce710e97-730f-40d1-83c1-587e623c4a52","kind":"water","longitude":21.2326901,"latitude":48.7125823,"name":"Ivókút","city":"Kosice","address":null,"covered":null,"access":null,"website":null,"phone":null,"source":"OpenStreetMap/node/7992651013","sourceUpdatedAt":null,"verifiedAt":null}},{"type":"Feature","geometry":{"type":"Point","coordinates":[21.2563679,48.7199535]},"properties":{"id":"water:d41638a3-76ff-471e-9b44-9a9abe84b075","kind":"water","longitude":21.2563679,"latitude":48.7199535,"name":"Ivókút","city":"Kosice","address":null,"covered":null,"access":null,"website":null,"phone":null,"source":"OpenStreetMap/node/5525828919","sourceUpdatedAt":null,"verifiedAt":null}},{"type":"Feature","geometry":{"type":"Point","coordinates":[21.2593573,48.7185501]},"properties":{"id":"water:ea94826e-ffba-4135-8097-b92dd9b24c0f","kind":"water","longitude":21.2593573,"latitude":48.7185501,"name":"Ivókút","city":"Kosice","address":null,"covered":null,"access":null,"website":null,"phone":null,"source":"OpenStreetMap/node/2384613641","sourceUpdatedAt":null,"verifiedAt":null}},{"type":"Feature","geometry":{"type":"Point","coordinates":[21.2332732,48.7194885]},"properties":{"id":"water:fe623a64-89d3-43ba-b89b-18f8c052efe0","kind":"water","longitude":21.2332732,"latitude":48.7194885,"name":"Ivókút","city":"Kosice","address":null,"covered":null,"access":null,"website":null,"phone":null,"source":"OpenStreetMap/node/7105413792","sourceUpdatedAt":null,"verifiedAt":null}}]}