{"type":"FeatureCollection","features":[{"type":"Feature","geometry":{"type":"Point","coordinates":[11.3418987,51.0080191]},"properties":{"id":"bikerack:250aec9d-0730-4e05-9bf1-0a30aad21161","kind":"bikerack","longitude":11.3418987,"latitude":51.0080191,"name":"Fahrradabstellplatz","city":"Kromsdorf","address":null,"covered":false,"access":null,"website":null,"phone":null,"source":"OpenStreetMap/way/1094493246","sourceUpdatedAt":null,"verifiedAt":null}},{"type":"Feature","geometry":{"type":"Point","coordinates":[11.3455831,50.9893577]},"properties":{"id":"bikerack:27c1434b-156e-45b9-adcd-5ec0d0329a85","kind":"bikerack","longitude":11.3455831,"latitude":50.9893577,"name":"Fahrradabstellplatz","city":"Weimar","address":null,"covered":false,"access":null,"website":null,"phone":null,"source":"OpenStreetMap/node/8383530336","sourceUpdatedAt":null,"verifiedAt":null}}]}