{"type":"FeatureCollection","features":[{"type":"Feature","geometry":{"type":"Point","coordinates":[11.3769127,50.9491615]},"properties":{"id":"bikerack:051fbd67-b156-4515-b8eb-a8af7aa96897","kind":"bikerack","longitude":11.3769127,"latitude":50.9491615,"name":"Fahrradabstellplatz","city":"Mellingen","address":null,"covered":false,"access":null,"website":null,"phone":null,"source":"OpenStreetMap/node/10918279360","sourceUpdatedAt":null,"verifiedAt":null}},{"type":"Feature","geometry":{"type":"Point","coordinates":[11.347543,50.9511162]},"properties":{"id":"bikerack:4deacd4a-477f-4a31-95ae-26ac6ddad13e","kind":"bikerack","longitude":11.347543,"latitude":50.9511162,"name":"Fahrradabstellplatz","city":"Vollersroda","address":null,"covered":false,"access":null,"website":null,"phone":null,"source":"OpenStreetMap/way/1423973506","sourceUpdatedAt":null,"verifiedAt":null}}]}