{"type":"FeatureCollection","features":[{"type":"Feature","geometry":{"type":"Point","coordinates":[11.3449081,50.6436833]},"properties":{"id":"bikerack:1fe05964-8efa-43df-af52-4099baad6962","kind":"bikerack","longitude":11.3449081,"latitude":50.6436833,"name":"Fahrradabstellplatz","city":"Saalfeld","address":null,"covered":true,"access":null,"website":null,"phone":null,"source":"OpenStreetMap/node/12747332915","sourceUpdatedAt":null,"verifiedAt":null}},{"type":"Feature","geometry":{"type":"Point","coordinates":[11.3598484,50.6484465]},"properties":{"id":"bikerack:2735835a-b202-43c3-8656-4e03436f0639","kind":"bikerack","longitude":11.3598484,"latitude":50.6484465,"name":"Fahrradabstellplatz","city":"Saalfeld","address":null,"covered":false,"access":null,"website":null,"phone":null,"source":"OpenStreetMap/node/12860659015","sourceUpdatedAt":null,"verifiedAt":null}},{"type":"Feature","geometry":{"type":"Point","coordinates":[11.3450288,50.6435544]},"properties":{"id":"bikerack:2832d8e8-9994-487b-ab75-25937607f865","kind":"bikerack","longitude":11.3450288,"latitude":50.6435544,"name":"Fahrradabstellplatz","city":"Saalfeld","address":null,"covered":false,"access":null,"website":null,"phone":null,"source":"OpenStreetMap/node/12747347795","sourceUpdatedAt":null,"verifiedAt":null}},{"type":"Feature","geometry":{"type":"Point","coordinates":[11.3428933,50.6452567]},"properties":{"id":"bikerack:2c4fff50-2b20-4d47-a160-54f7cd591153","kind":"bikerack","longitude":11.3428933,"latitude":50.6452567,"name":"Fahrradabstellplatz","city":"Saalfeld","address":null,"covered":false,"access":null,"website":null,"phone":null,"source":"OpenStreetMap/node/12747619529","sourceUpdatedAt":null,"verifiedAt":null}},{"type":"Feature","geometry":{"type":"Point","coordinates":[11.3416257,50.6355484]},"properties":{"id":"bikerack:3156ca39-f17b-4e04-8ad6-d8e53ad15d16","kind":"bikerack","longitude":11.3416257,"latitude":50.6355484,"name":"Fahrradabstellplatz","city":"Saalfeld","address":null,"covered":false,"access":null,"website":null,"phone":null,"source":"OpenStreetMap/node/4788372659","sourceUpdatedAt":null,"verifiedAt":null}},{"type":"Feature","geometry":{"type":"Point","coordinates":[11.3632796,50.6355134]},"properties":{"id":"bikerack:38b3dc89-b7fe-42c5-b94e-ed4e40225704","kind":"bikerack","longitude":11.3632796,"latitude":50.6355134,"name":"Fahrradabstellplatz","city":"Saalfeld","address":null,"covered":false,"access":null,"website":null,"phone":null,"source":"OpenStreetMap/node/12860518127","sourceUpdatedAt":null,"verifiedAt":null}},{"type":"Feature","geometry":{"type":"Point","coordinates":[11.3739288,50.6502997]},"properties":{"id":"bikerack:4bfd270e-1310-4ba5-b10f-52d2e7c9190e","kind":"bikerack","longitude":11.3739288,"latitude":50.6502997,"name":"Fahrradabstellplatz","city":"Saalfeld","address":null,"covered":false,"access":null,"website":null,"phone":null,"source":"OpenStreetMap/way/1360865770","sourceUpdatedAt":null,"verifiedAt":null}},{"type":"Feature","geometry":{"type":"Point","coordinates":[11.3602266,50.6476155]},"properties":{"id":"bikerack:51ab78bc-1699-408d-a188-4af7ab0cd928","kind":"bikerack","longitude":11.3602266,"latitude":50.6476155,"name":"Fahrradabstellplatz","city":"Saalfeld","address":null,"covered":false,"access":null,"website":null,"phone":null,"source":"OpenStreetMap/node/12860728911","sourceUpdatedAt":null,"verifiedAt":null}},{"type":"Feature","geometry":{"type":"Point","coordinates":[11.3598505,50.6480993]},"properties":{"id":"bikerack:6684204f-ec83-4acf-b000-aff4b2760e52","kind":"bikerack","longitude":11.3598505,"latitude":50.6480993,"name":"Fahrradabstellplatz","city":"Saalfeld","address":null,"covered":false,"access":null,"website":null,"phone":null,"source":"OpenStreetMap/node/12860646742","sourceUpdatedAt":null,"verifiedAt":null}},{"type":"Feature","geometry":{"type":"Point","coordinates":[11.3596319,50.6481311]},"properties":{"id":"bikerack:6bb61959-2ce2-41f3-9eb6-2947c5d834ee","kind":"bikerack","longitude":11.3596319,"latitude":50.6481311,"name":"Fahrradabstellplatz","city":"Saalfeld","address":null,"covered":false,"access":null,"website":null,"phone":null,"source":"OpenStreetMap/node/12860630568","sourceUpdatedAt":null,"verifiedAt":null}},{"type":"Feature","geometry":{"type":"Point","coordinates":[11.3449705,50.6437518]},"properties":{"id":"bikerack:704c6238-7b78-4b77-bc0b-b7481decdaa6","kind":"bikerack","longitude":11.3449705,"latitude":50.6437518,"name":"Fahrradabstellplatz","city":"Saalfeld","address":null,"covered":false,"access":null,"website":null,"phone":null,"source":"OpenStreetMap/node/12747320575","sourceUpdatedAt":null,"verifiedAt":null}},{"type":"Feature","geometry":{"type":"Point","coordinates":[11.3597759,50.6475252]},"properties":{"id":"bikerack:99bf43bc-7999-480e-bc1f-45bb635c0a4f","kind":"bikerack","longitude":11.3597759,"latitude":50.6475252,"name":"Fahrradabstellplatz","city":"Saalfeld","address":null,"covered":false,"access":null,"website":null,"phone":null,"source":"OpenStreetMap/node/12860614149","sourceUpdatedAt":null,"verifiedAt":null}},{"type":"Feature","geometry":{"type":"Point","coordinates":[11.361387,50.6453816]},"properties":{"id":"bikerack:9b9b5077-621e-4c8f-8c8a-6e73232f0012","kind":"bikerack","longitude":11.361387,"latitude":50.6453816,"name":"Fahrradabstellplatz","city":"Saalfeld","address":null,"covered":false,"access":null,"website":null,"phone":null,"source":"OpenStreetMap/node/12860551089","sourceUpdatedAt":null,"verifiedAt":null}},{"type":"Feature","geometry":{"type":"Point","coordinates":[11.3660365,50.6478062]},"properties":{"id":"bikerack:a77733b3-5499-4e37-a8b6-ecc4ecc88ba7","kind":"bikerack","longitude":11.3660365,"latitude":50.6478062,"name":"Fahrradabstellplatz","city":"Saalfeld","address":null,"covered":false,"access":null,"website":null,"phone":null,"source":"OpenStreetMap/node/12860407303","sourceUpdatedAt":null,"verifiedAt":null}},{"type":"Feature","geometry":{"type":"Point","coordinates":[11.3578155,50.6425175]},"properties":{"id":"bikerack:b34301cb-d487-42fa-93cf-77859e3f7cb5","kind":"bikerack","longitude":11.3578155,"latitude":50.6425175,"name":"Fahrradabstellplatz","city":"Saalfeld","address":null,"covered":false,"access":null,"website":null,"phone":null,"source":"OpenStreetMap/node/12409454438","sourceUpdatedAt":null,"verifiedAt":null}},{"type":"Feature","geometry":{"type":"Point","coordinates":[11.3446611,50.6440937]},"properties":{"id":"bikerack:cb760c30-4614-4362-bc07-c10532db496b","kind":"bikerack","longitude":11.3446611,"latitude":50.6440937,"name":"Fahrradabstellplatz","city":"Saalfeld","address":null,"covered":false,"access":null,"website":null,"phone":null,"source":"OpenStreetMap/node/11659374725","sourceUpdatedAt":null,"verifiedAt":null}},{"type":"Feature","geometry":{"type":"Point","coordinates":[11.3591344,50.6503731]},"properties":{"id":"service:98a2c5a8-c868-44b3-af06-cce70df6b01c","kind":"service","longitude":11.3591344,"latitude":50.6503731,"name":"City Rad Shop","city":"Saalfeld/Saale","address":null,"covered":null,"access":null,"website":null,"phone":null,"source":"OpenStreetMap/way/125389652","sourceUpdatedAt":null,"verifiedAt":null}},{"type":"Feature","geometry":{"type":"Point","coordinates":[11.3601,50.6441736]},"properties":{"id":"water:f6a54650-3654-414a-9b23-3aeac3eb3c7e","kind":"water","longitude":11.3601,"latitude":50.6441736,"name":"Trinkwasser","city":"Saalfeld","address":null,"covered":null,"access":null,"website":null,"phone":null,"source":"OpenStreetMap/node/5042602986","sourceUpdatedAt":null,"verifiedAt":null}},{"type":"Feature","geometry":{"type":"Point","coordinates":[11.3610356,50.6477566]},"properties":{"id":"water:f7931db9-a9ca-45a1-b4b6-d62fc9bde54a","kind":"water","longitude":11.3610356,"latitude":50.6477566,"name":"Trinkwasser","city":"Saalfeld","address":null,"covered":null,"access":null,"website":null,"phone":null,"source":"OpenStreetMap/node/12995952030","sourceUpdatedAt":null,"verifiedAt":null}}]}