{"type":"FeatureCollection","features":[{"type":"Feature","geometry":{"type":"Point","coordinates":[11.3564129,50.0387205]},"properties":{"id":"bikerack:2bc3e740-4de9-45f0-bde2-426e7997afa1","kind":"bikerack","longitude":11.3564129,"latitude":50.0387205,"name":"Fahrradabstellplatz","city":"Kasendorf","address":null,"covered":true,"access":null,"website":null,"phone":null,"source":"OpenStreetMap/node/11804695453","sourceUpdatedAt":null,"verifiedAt":null}},{"type":"Feature","geometry":{"type":"Point","coordinates":[11.3573,50.0389833]},"properties":{"id":"bikerack:6171f339-08a2-4537-a76d-147cde658094","kind":"bikerack","longitude":11.3573,"latitude":50.0389833,"name":"Fahrradabstellplatz","city":"Kasendorf","address":null,"covered":false,"access":null,"website":null,"phone":null,"source":"OpenStreetMap/way/1317584168","sourceUpdatedAt":null,"verifiedAt":null}},{"type":"Feature","geometry":{"type":"Point","coordinates":[11.3507966,50.0363596]},"properties":{"id":"bikerack:cacd35cf-ba67-4919-8a1f-0ebdc76e904f","kind":"bikerack","longitude":11.3507966,"latitude":50.0363596,"name":"Fahrradabstellplatz","city":"Kasendorf","address":null,"covered":true,"access":null,"website":null,"phone":null,"source":"OpenStreetMap/way/1269125246","sourceUpdatedAt":null,"verifiedAt":null}}]}