{"type":"FeatureCollection","features":[{"type":"Feature","geometry":{"type":"Point","coordinates":[11.3639603,48.2996404]},"properties":{"id":"bikerack:37f7310a-7f8f-486a-99c1-39a17958116b","kind":"bikerack","longitude":11.3639603,"latitude":48.2996404,"name":"Fahrradabstellplatz","city":"Schwabhausen","address":null,"covered":false,"access":null,"website":null,"phone":null,"source":"OpenStreetMap/node/9532556445","sourceUpdatedAt":null,"verifiedAt":null}},{"type":"Feature","geometry":{"type":"Point","coordinates":[11.3589236,48.3024553]},"properties":{"id":"bikerack:c29fa7d5-ae6e-4f8b-8046-7500d0be2673","kind":"bikerack","longitude":11.3589236,"latitude":48.3024553,"name":"Fahrradabstellplatz","city":"Schwabhausen","address":null,"covered":false,"access":null,"website":null,"phone":null,"source":"OpenStreetMap/way/1341523605","sourceUpdatedAt":null,"verifiedAt":null}},{"type":"Feature","geometry":{"type":"Point","coordinates":[11.3648772,48.3004648]},"properties":{"id":"bikerack:c7b0fe46-459c-4bfb-9f61-9b7336a1e555","kind":"bikerack","longitude":11.3648772,"latitude":48.3004648,"name":"Fahrradabstellplatz","city":"Schwabhausen","address":null,"covered":true,"access":null,"website":null,"phone":null,"source":"OpenStreetMap/way/646488924","sourceUpdatedAt":null,"verifiedAt":null}},{"type":"Feature","geometry":{"type":"Point","coordinates":[11.3644849,48.3008661]},"properties":{"id":"bikerack:ff0f08d7-dd7c-416c-b144-cb429b5f9280","kind":"bikerack","longitude":11.3644849,"latitude":48.3008661,"name":"Fahrradabstellplatz","city":"Schwabhausen","address":null,"covered":true,"access":null,"website":null,"phone":null,"source":"OpenStreetMap/way/1034819790","sourceUpdatedAt":null,"verifiedAt":null}},{"type":"Feature","geometry":{"type":"Point","coordinates":[11.3525518,48.3073449]},"properties":{"id":"water:97784a75-e333-4484-88c6-1ed48aa12109","kind":"water","longitude":11.3525518,"latitude":48.3073449,"name":"Trinkwasser","city":"Schwabhausen","address":null,"covered":null,"access":null,"website":null,"phone":null,"source":"OpenStreetMap/node/4963717515","sourceUpdatedAt":null,"verifiedAt":null}},{"type":"Feature","geometry":{"type":"Point","coordinates":[11.3430646,48.2899632]},"properties":{"id":"water:b825426c-840f-4276-b4b0-5ce90dcaea60","kind":"water","longitude":11.3430646,"latitude":48.2899632,"name":"Trinkwasser","city":"Schwabhausen","address":null,"covered":null,"access":null,"website":null,"phone":null,"source":"OpenStreetMap/node/6077197596","sourceUpdatedAt":null,"verifiedAt":null}}]}