{"type":"FeatureCollection","features":[{"type":"Feature","geometry":{"type":"Point","coordinates":[11.3615907,48.2510012]},"properties":{"id":"bikerack:26c28091-53d3-49a5-8f99-b4100178ef7c","kind":"bikerack","longitude":11.3615907,"latitude":48.2510012,"name":"Fahrradabstellplatz","city":"Bergkirchen","address":null,"covered":false,"access":null,"website":null,"phone":null,"source":"OpenStreetMap/node/13050815823","sourceUpdatedAt":null,"verifiedAt":null}},{"type":"Feature","geometry":{"type":"Point","coordinates":[11.3431362,48.2255277]},"properties":{"id":"bikerack:3aad2f29-81ee-414b-9a9f-471e5fda6f20","kind":"bikerack","longitude":11.3431362,"latitude":48.2255277,"name":"Fahrradabstellplatz","city":"Olching","address":null,"covered":false,"access":null,"website":null,"phone":null,"source":"OpenStreetMap/way/934710128","sourceUpdatedAt":null,"verifiedAt":null}},{"type":"Feature","geometry":{"type":"Point","coordinates":[11.3415135,48.225819]},"properties":{"id":"bikerack:583f9edf-c8af-4602-98a6-402d73435dd5","kind":"bikerack","longitude":11.3415135,"latitude":48.225819,"name":"Fahrradabstellplatz","city":"Olching","address":null,"covered":false,"access":null,"website":null,"phone":null,"source":"OpenStreetMap/way/934003372","sourceUpdatedAt":null,"verifiedAt":null}}]}