{"type":"FeatureCollection","features":[{"type":"Feature","geometry":{"type":"Point","coordinates":[11.3792507,47.3062316]},"properties":{"id":"bikerack:49f2ef85-3ed2-4f6f-bbbe-80d8b538fe92","kind":"bikerack","longitude":11.3792507,"latitude":47.3062316,"name":"Biciklitároló","city":"Innsbruck","address":null,"covered":false,"access":null,"website":null,"phone":null,"source":"OpenStreetMap/node/12277160162","sourceUpdatedAt":null,"verifiedAt":null}},{"type":"Feature","geometry":{"type":"Point","coordinates":[11.366767,47.2984186]},"properties":{"id":"repair:a8e177bc-ea11-457d-9fea-d9f8a07305da","kind":"repair","longitude":11.366767,"latitude":47.2984186,"name":"Kerékpár szervizállomás","city":"Innsbruck","address":null,"covered":false,"access":null,"website":null,"phone":null,"source":"OpenStreetMap/node/11992525838","sourceUpdatedAt":null,"verifiedAt":null}},{"type":"Feature","geometry":{"type":"Point","coordinates":[11.3792409,47.3062475]},"properties":{"id":"repair:ea263857-44a3-4990-9efb-a0339a52e4cf","kind":"repair","longitude":11.3792409,"latitude":47.3062475,"name":"Kerékpár szervizállomás","city":"Innsbruck","address":null,"covered":false,"access":null,"website":null,"phone":null,"source":"OpenStreetMap/node/7595765265","sourceUpdatedAt":null,"verifiedAt":null}},{"type":"Feature","geometry":{"type":"Point","coordinates":[11.3787436,47.282571]},"properties":{"id":"water:1034e603-0cab-4fe3-b2b0-d6eef1ce82d7","kind":"water","longitude":11.3787436,"latitude":47.282571,"name":"Ivókút","city":"Innsbruck","address":null,"covered":null,"access":null,"website":null,"phone":null,"source":"OpenStreetMap/node/434397430","sourceUpdatedAt":null,"verifiedAt":null}},{"type":"Feature","geometry":{"type":"Point","coordinates":[11.36963,47.282462]},"properties":{"id":"water:2ef74e0a-f1b9-4418-808a-8d4683d709ec","kind":"water","longitude":11.36963,"latitude":47.282462,"name":"St. Wendelin","city":"Innsbruck","address":null,"covered":null,"access":null,"website":null,"phone":null,"source":"OpenStreetMap/node/276519550","sourceUpdatedAt":null,"verifiedAt":null}},{"type":"Feature","geometry":{"type":"Point","coordinates":[11.3786361,47.2834014]},"properties":{"id":"water:650efe0a-3507-479a-944d-f35cc6d7b011","kind":"water","longitude":11.3786361,"latitude":47.2834014,"name":"Brunnenstube Gramart","city":"Innsbruck","address":null,"covered":null,"access":null,"website":null,"phone":null,"source":"OpenStreetMap/node/7476935965","sourceUpdatedAt":null,"verifiedAt":null}},{"type":"Feature","geometry":{"type":"Point","coordinates":[11.3561756,47.2986537]},"properties":{"id":"water:6c4fbd54-3670-46be-91d7-1b57edf23308","kind":"water","longitude":11.3561756,"latitude":47.2986537,"name":"Ivókút","city":"Innsbruck","address":null,"covered":null,"access":null,"website":null,"phone":null,"source":"OpenStreetMap/node/9799630098","sourceUpdatedAt":null,"verifiedAt":null}},{"type":"Feature","geometry":{"type":"Point","coordinates":[11.3696713,47.2824913]},"properties":{"id":"water:8fb90752-dce5-45e2-8bc3-924c17e39ca2","kind":"water","longitude":11.3696713,"latitude":47.2824913,"name":"Bäckerbründl","city":"Innsbruck","address":null,"covered":null,"access":null,"website":null,"phone":null,"source":"OpenStreetMap/node/12769105562","sourceUpdatedAt":null,"verifiedAt":null}},{"type":"Feature","geometry":{"type":"Point","coordinates":[11.3532459,47.2887712]},"properties":{"id":"water:b566cd21-f499-4093-8a29-740476816be5","kind":"water","longitude":11.3532459,"latitude":47.2887712,"name":"Ivókút","city":"Vols","address":null,"covered":null,"access":null,"website":null,"phone":null,"source":"OpenStreetMap/node/7477206416","sourceUpdatedAt":null,"verifiedAt":null}},{"type":"Feature","geometry":{"type":"Point","coordinates":[11.353494,47.2889036]},"properties":{"id":"water:f217ec40-2c04-4ceb-b16f-6a56165c96a1","kind":"water","longitude":11.353494,"latitude":47.2889036,"name":"Ivókút","city":"Vols","address":null,"covered":null,"access":null,"website":null,"phone":null,"source":"OpenStreetMap/node/420796209","sourceUpdatedAt":null,"verifiedAt":null}},{"type":"Feature","geometry":{"type":"Point","coordinates":[11.366761,47.2983947]},"properties":{"id":"water:f7ad35d2-d515-4058-8055-ae8e94c05136","kind":"water","longitude":11.366761,"latitude":47.2983947,"name":"Ivókút","city":"Innsbruck","address":null,"covered":null,"access":null,"website":null,"phone":null,"source":"OpenStreetMap/node/274379245","sourceUpdatedAt":null,"verifiedAt":null}},{"type":"Feature","geometry":{"type":"Point","coordinates":[11.3473468,47.2792348]},"properties":{"id":"water:f8d7bafb-39ae-4e73-b240-ab9cff37044d","kind":"water","longitude":11.3473468,"latitude":47.2792348,"name":"Ivókút","city":"Vols","address":null,"covered":null,"access":null,"website":null,"phone":null,"source":"OpenStreetMap/node/9848744660","sourceUpdatedAt":null,"verifiedAt":null}}]}