{"type":"FeatureCollection","features":[{"type":"Feature","geometry":{"type":"Point","coordinates":[11.3418498,46.4470663]},"properties":{"id":"bikerack:149e205a-9d3b-411d-be2d-5aa450995f23","kind":"bikerack","longitude":11.3418498,"latitude":46.4470663,"name":"Parcheggio bici","city":"Pineta","address":null,"covered":false,"access":null,"website":null,"phone":null,"source":"OpenStreetMap/node/4811967000","sourceUpdatedAt":null,"verifiedAt":null}},{"type":"Feature","geometry":{"type":"Point","coordinates":[11.3395069,46.4459702]},"properties":{"id":"bikerack:35b9061f-5904-46ea-9836-0890da1a349e","kind":"bikerack","longitude":11.3395069,"latitude":46.4459702,"name":"Parcheggio bici","city":"Pineta","address":null,"covered":false,"access":null,"website":null,"phone":null,"source":"OpenStreetMap/node/12690974873","sourceUpdatedAt":null,"verifiedAt":null}},{"type":"Feature","geometry":{"type":"Point","coordinates":[11.3418632,46.4461935]},"properties":{"id":"bikerack:686fbfc7-9007-4c7c-98a3-573c1b61b81a","kind":"bikerack","longitude":11.3418632,"latitude":46.4461935,"name":"Parcheggio bici","city":"Pineta","address":null,"covered":false,"access":null,"website":null,"phone":null,"source":"OpenStreetMap/node/4811966986","sourceUpdatedAt":null,"verifiedAt":null}},{"type":"Feature","geometry":{"type":"Point","coordinates":[11.340101,46.4470187]},"properties":{"id":"bikerack:a2496329-9376-4879-ad4d-7a50bdb0c210","kind":"bikerack","longitude":11.340101,"latitude":46.4470187,"name":"Parcheggio bici","city":"Pineta","address":null,"covered":false,"access":null,"website":null,"phone":null,"source":"OpenStreetMap/node/4811966995","sourceUpdatedAt":null,"verifiedAt":null}},{"type":"Feature","geometry":{"type":"Point","coordinates":[11.3433116,46.4469235]},"properties":{"id":"bikerack:cb916548-3faf-4729-a7b0-1ecf7fbece5e","kind":"bikerack","longitude":11.3433116,"latitude":46.4469235,"name":"Parcheggio bici","city":"Pineta","address":null,"covered":false,"access":null,"website":null,"phone":null,"source":"OpenStreetMap/node/4811966999","sourceUpdatedAt":null,"verifiedAt":null}},{"type":"Feature","geometry":{"type":"Point","coordinates":[11.3412356,46.4462111]},"properties":{"id":"bikerack:d98ef25b-065c-462f-b097-65ce313a9c1f","kind":"bikerack","longitude":11.3412356,"latitude":46.4462111,"name":"Parcheggio bici","city":"Pineta","address":null,"covered":false,"access":null,"website":null,"phone":null,"source":"OpenStreetMap/node/4811966989","sourceUpdatedAt":null,"verifiedAt":null}},{"type":"Feature","geometry":{"type":"Point","coordinates":[11.348175,46.440881]},"properties":{"id":"water:0a60e5f7-5b76-46a1-b052-4ddee22efbf3","kind":"water","longitude":11.348175,"latitude":46.440881,"name":"Fontanella","city":"Pineta","address":null,"covered":null,"access":null,"website":null,"phone":null,"source":"OpenStreetMap/node/5556139929","sourceUpdatedAt":null,"verifiedAt":null}},{"type":"Feature","geometry":{"type":"Point","coordinates":[11.347647,46.441045]},"properties":{"id":"water:6a2d2d9d-b782-4470-a626-6459cd034fdb","kind":"water","longitude":11.347647,"latitude":46.441045,"name":"Fontanella","city":"Pineta","address":null,"covered":null,"access":null,"website":null,"phone":null,"source":"OpenStreetMap/node/5556155303","sourceUpdatedAt":null,"verifiedAt":null}},{"type":"Feature","geometry":{"type":"Point","coordinates":[11.356473,46.450685]},"properties":{"id":"water:87668b65-be57-4b5b-8ba9-0649a6e05636","kind":"water","longitude":11.356473,"latitude":46.450685,"name":"Fontanella","city":"Pineta","address":null,"covered":null,"access":null,"website":null,"phone":null,"source":"OpenStreetMap/node/833477216","sourceUpdatedAt":null,"verifiedAt":null}},{"type":"Feature","geometry":{"type":"Point","coordinates":[11.346793,46.438768]},"properties":{"id":"water:96741d8c-31f8-4f5f-b01d-edecc3843e32","kind":"water","longitude":11.346793,"latitude":46.438768,"name":"Fontanella","city":"Pineta","address":null,"covered":null,"access":null,"website":null,"phone":null,"source":"OpenStreetMap/node/4811901036","sourceUpdatedAt":null,"verifiedAt":null}}]}