{"type":"FeatureCollection","features":[{"type":"Feature","geometry":{"type":"Point","coordinates":[11.3764021,46.2127255]},"properties":{"id":"water:04d18d19-1ea1-4820-989f-ca4ea08d020d","kind":"water","longitude":11.3764021,"latitude":46.2127255,"name":"Fontanella","city":"Valfloriana","address":null,"covered":null,"access":null,"website":null,"phone":null,"source":"OpenStreetMap/node/1711815451","sourceUpdatedAt":null,"verifiedAt":null}},{"type":"Feature","geometry":{"type":"Point","coordinates":[11.3484275,46.2087818]},"properties":{"id":"water:526ffb6c-aae6-4206-a3cd-b61a5db7a91b","kind":"water","longitude":11.3484275,"latitude":46.2087818,"name":"Fontanella","city":"Sover","address":null,"covered":null,"access":null,"website":null,"phone":null,"source":"OpenStreetMap/node/4072074994","sourceUpdatedAt":null,"verifiedAt":null}},{"type":"Feature","geometry":{"type":"Point","coordinates":[11.351002,46.1964918]},"properties":{"id":"water:667356d8-5a44-48c7-be80-5fba1f935108","kind":"water","longitude":11.351002,"latitude":46.1964918,"name":"Fontanella","city":"Sover","address":null,"covered":null,"access":null,"website":null,"phone":null,"source":"OpenStreetMap/node/5590753920","sourceUpdatedAt":null,"verifiedAt":null}},{"type":"Feature","geometry":{"type":"Point","coordinates":[11.3528185,46.2122215]},"properties":{"id":"water:84568213-5b18-421c-a289-6f8a0524fd6b","kind":"water","longitude":11.3528185,"latitude":46.2122215,"name":"Fontanella","city":"Sover","address":null,"covered":null,"access":null,"website":null,"phone":null,"source":"OpenStreetMap/node/9796103998","sourceUpdatedAt":null,"verifiedAt":null}}]}