{"type":"FeatureCollection","features":[{"type":"Feature","geometry":{"type":"Point","coordinates":[19.9780078,50.196086]},"properties":{"id":"bikerack:32d6f398-023d-463e-9848-ae3e6bb23e93","kind":"bikerack","longitude":19.9780078,"latitude":50.196086,"name":"Biciklitároló","city":"Michalowice","address":null,"covered":false,"access":null,"website":null,"phone":null,"source":"OpenStreetMap/node/8541859838","sourceUpdatedAt":null,"verifiedAt":null}},{"type":"Feature","geometry":{"type":"Point","coordinates":[19.9792653,50.1963485]},"properties":{"id":"bikerack:b9f9f4f4-df51-4725-870d-4c0337684d31","kind":"bikerack","longitude":19.9792653,"latitude":50.1963485,"name":"Biciklitároló","city":"Michalowice","address":null,"covered":false,"access":null,"website":null,"phone":null,"source":"OpenStreetMap/node/9176029846","sourceUpdatedAt":null,"verifiedAt":null}},{"type":"Feature","geometry":{"type":"Point","coordinates":[19.9835144,50.189757]},"properties":{"id":"water:d629969f-dfa4-4c0a-a3a5-faab8a9d130c","kind":"water","longitude":19.9835144,"latitude":50.189757,"name":"Ivókút","city":"Michalowice","address":null,"covered":null,"access":null,"website":null,"phone":null,"source":"OpenStreetMap/node/1808145995","sourceUpdatedAt":null,"verifiedAt":null}}]}