{"type":"FeatureCollection","features":[{"type":"Feature","geometry":{"type":"Point","coordinates":[15.4343522,50.8195582]},"properties":{"id":"bikerack:bbbeb807-33b2-4435-a553-cd994f525282","kind":"bikerack","longitude":15.4343522,"latitude":50.8195582,"name":"Biciklitároló","city":"Harrachov","address":null,"covered":false,"access":null,"website":null,"phone":null,"source":"OpenStreetMap/node/9006836235","sourceUpdatedAt":null,"verifiedAt":null}},{"type":"Feature","geometry":{"type":"Point","coordinates":[15.4329751,50.816973]},"properties":{"id":"repair:1bc9f2e7-0c0e-482a-8ea7-8112137aa3a2","kind":"repair","longitude":15.4329751,"latitude":50.816973,"name":"Kerékpár szervizállomás","city":"Harrachov","address":null,"covered":false,"access":null,"website":null,"phone":null,"source":"OpenStreetMap/node/6361882642","sourceUpdatedAt":null,"verifiedAt":null}},{"type":"Feature","geometry":{"type":"Point","coordinates":[15.4338389,50.8186366]},"properties":{"id":"service:7ffccf20-4553-4b7b-bd4b-c5301d28a81a","kind":"service","longitude":15.4338389,"latitude":50.8186366,"name":"Bike Wood","city":"Harrachov","address":null,"covered":null,"access":null,"website":null,"phone":null,"source":"OpenStreetMap/node/6869154830","sourceUpdatedAt":null,"verifiedAt":null}},{"type":"Feature","geometry":{"type":"Point","coordinates":[15.4335036,50.818197]},"properties":{"id":"service:e9dc5547-4419-410b-86e9-687417643f3d","kind":"service","longitude":15.4335036,"latitude":50.818197,"name":"Stacja Jakuszyce","city":"Harrachov","address":null,"covered":null,"access":null,"website":null,"phone":null,"source":"OpenStreetMap/node/6869154829","sourceUpdatedAt":null,"verifiedAt":null}}]}