{"type":"FeatureCollection","features":[{"type":"Feature","geometry":{"type":"Point","coordinates":[15.430559,47.1108485]},"properties":{"id":"bikerack:06ecf2d5-7702-4332-b992-f60d706f9ac5","kind":"bikerack","longitude":15.430559,"latitude":47.1108485,"name":"Biciklitároló","city":"Stattegg","address":null,"covered":true,"access":null,"website":null,"phone":null,"source":"OpenStreetMap/node/2589272529","sourceUpdatedAt":null,"verifiedAt":null}},{"type":"Feature","geometry":{"type":"Point","coordinates":[15.4258506,47.1009596]},"properties":{"id":"bikerack:0ce852ea-2d5b-4e99-8ed3-aa38f08408cd","kind":"bikerack","longitude":15.4258506,"latitude":47.1009596,"name":"Biciklitároló","city":"Goesting","address":null,"covered":true,"access":null,"website":null,"phone":null,"source":"OpenStreetMap/node/1918951255","sourceUpdatedAt":null,"verifiedAt":null}},{"type":"Feature","geometry":{"type":"Point","coordinates":[15.4287868,47.106749]},"properties":{"id":"bikerack:1486cc7b-42f7-4e22-951c-286ba7c30762","kind":"bikerack","longitude":15.4287868,"latitude":47.106749,"name":"Biciklitároló","city":"Stattegg","address":null,"covered":false,"access":null,"website":null,"phone":null,"source":"OpenStreetMap/node/5521009066","sourceUpdatedAt":null,"verifiedAt":null}},{"type":"Feature","geometry":{"type":"Point","coordinates":[15.4287313,47.1063632]},"properties":{"id":"bikerack:29f4bdd5-2d09-49fa-9a75-9b7ca4b962b7","kind":"bikerack","longitude":15.4287313,"latitude":47.1063632,"name":"Biciklitároló","city":"Stattegg","address":null,"covered":false,"access":null,"website":null,"phone":null,"source":"OpenStreetMap/node/5521009064","sourceUpdatedAt":null,"verifiedAt":null}},{"type":"Feature","geometry":{"type":"Point","coordinates":[15.4277778,47.1066019]},"properties":{"id":"bikerack:2d9174f4-fba6-46a1-a12c-2918d04ed048","kind":"bikerack","longitude":15.4277778,"latitude":47.1066019,"name":"Biciklitároló","city":"Stattegg","address":null,"covered":false,"access":null,"website":null,"phone":null,"source":"OpenStreetMap/node/5521009057","sourceUpdatedAt":null,"verifiedAt":null}},{"type":"Feature","geometry":{"type":"Point","coordinates":[15.4277546,47.1064211]},"properties":{"id":"bikerack:2e3f1ab6-de28-4ee4-a561-facf6982a69b","kind":"bikerack","longitude":15.4277546,"latitude":47.1064211,"name":"Biciklitároló","city":"Stattegg","address":null,"covered":false,"access":null,"website":null,"phone":null,"source":"OpenStreetMap/node/1412653714","sourceUpdatedAt":null,"verifiedAt":null}},{"type":"Feature","geometry":{"type":"Point","coordinates":[15.4278379,47.1070053]},"properties":{"id":"bikerack:3c71bb93-5300-4402-b0f1-e20a30c6f805","kind":"bikerack","longitude":15.4278379,"latitude":47.1070053,"name":"Biciklitároló","city":"Stattegg","address":null,"covered":false,"access":null,"website":null,"phone":null,"source":"OpenStreetMap/node/5521009059","sourceUpdatedAt":null,"verifiedAt":null}},{"type":"Feature","geometry":{"type":"Point","coordinates":[15.4292988,47.1069123]},"properties":{"id":"bikerack:5a091851-e6ce-4493-b674-3ad1d628c3e2","kind":"bikerack","longitude":15.4292988,"latitude":47.1069123,"name":"Biciklitároló","city":"Stattegg","address":null,"covered":false,"access":null,"website":null,"phone":null,"source":"OpenStreetMap/node/5521009071","sourceUpdatedAt":null,"verifiedAt":null}},{"type":"Feature","geometry":{"type":"Point","coordinates":[15.4282899,47.1067859]},"properties":{"id":"bikerack:71acf525-c59b-4d28-9adc-d7d0fa0121e4","kind":"bikerack","longitude":15.4282899,"latitude":47.1067859,"name":"Biciklitároló","city":"Stattegg","address":null,"covered":false,"access":null,"website":null,"phone":null,"source":"OpenStreetMap/node/5521009062","sourceUpdatedAt":null,"verifiedAt":null}},{"type":"Feature","geometry":{"type":"Point","coordinates":[15.4288166,47.1069453]},"properties":{"id":"bikerack:786cacd0-8cf6-4785-a024-2634e1f1e8c7","kind":"bikerack","longitude":15.4288166,"latitude":47.1069453,"name":"Biciklitároló","city":"Stattegg","address":null,"covered":false,"access":null,"website":null,"phone":null,"source":"OpenStreetMap/node/5521009067","sourceUpdatedAt":null,"verifiedAt":null}},{"type":"Feature","geometry":{"type":"Point","coordinates":[15.4282358,47.1063942]},"properties":{"id":"bikerack:7c548e54-2b8c-4858-ba6a-0c565afd8711","kind":"bikerack","longitude":15.4282358,"latitude":47.1063942,"name":"Biciklitároló","city":"Stattegg","address":null,"covered":false,"access":null,"website":null,"phone":null,"source":"OpenStreetMap/node/5521009060","sourceUpdatedAt":null,"verifiedAt":null}},{"type":"Feature","geometry":{"type":"Point","coordinates":[15.427804,47.1067925]},"properties":{"id":"bikerack:9e79b08f-5c3b-4621-8040-7c3fefc57b0b","kind":"bikerack","longitude":15.427804,"latitude":47.1067925,"name":"Biciklitároló","city":"Stattegg","address":null,"covered":false,"access":null,"website":null,"phone":null,"source":"OpenStreetMap/node/5521009058","sourceUpdatedAt":null,"verifiedAt":null}},{"type":"Feature","geometry":{"type":"Point","coordinates":[15.4292434,47.1065288]},"properties":{"id":"bikerack:9f6700d4-1357-44c9-9dd9-7ecad0ec9bf4","kind":"bikerack","longitude":15.4292434,"latitude":47.1065288,"name":"Biciklitároló","city":"Stattegg","address":null,"covered":false,"access":null,"website":null,"phone":null,"source":"OpenStreetMap/node/5521009069","sourceUpdatedAt":null,"verifiedAt":null}},{"type":"Feature","geometry":{"type":"Point","coordinates":[15.4267504,47.1037899]},"properties":{"id":"bikerack:b07f2c5d-944e-40a2-9bc1-2ee4a28c1f92","kind":"bikerack","longitude":15.4267504,"latitude":47.1037899,"name":"Biciklitároló","city":"Goesting","address":null,"covered":false,"access":null,"website":null,"phone":null,"source":"OpenStreetMap/node/2385833847","sourceUpdatedAt":null,"verifiedAt":null}},{"type":"Feature","geometry":{"type":"Point","coordinates":[15.4283243,47.1069814]},"properties":{"id":"bikerack:b0e8f761-3344-4da6-aebb-875bbbd2490e","kind":"bikerack","longitude":15.4283243,"latitude":47.1069814,"name":"Biciklitároló","city":"Stattegg","address":null,"covered":false,"access":null,"website":null,"phone":null,"source":"OpenStreetMap/node/5521009063","sourceUpdatedAt":null,"verifiedAt":null}},{"type":"Feature","geometry":{"type":"Point","coordinates":[15.4292137,47.1063229]},"properties":{"id":"bikerack:c269302f-3ec9-4130-8f4b-5802dd84f9a8","kind":"bikerack","longitude":15.4292137,"latitude":47.1063229,"name":"Biciklitároló","city":"Stattegg","address":null,"covered":false,"access":null,"website":null,"phone":null,"source":"OpenStreetMap/node/5521009068","sourceUpdatedAt":null,"verifiedAt":null}},{"type":"Feature","geometry":{"type":"Point","coordinates":[15.428759,47.106557]},"properties":{"id":"bikerack:d4874187-0619-48d2-a6fe-01b50de83f86","kind":"bikerack","longitude":15.428759,"latitude":47.106557,"name":"Biciklitároló","city":"Stattegg","address":null,"covered":false,"access":null,"website":null,"phone":null,"source":"OpenStreetMap/node/5521009065","sourceUpdatedAt":null,"verifiedAt":null}},{"type":"Feature","geometry":{"type":"Point","coordinates":[15.4363992,47.1016647]},"properties":{"id":"bikerack:dcf711c5-69f1-44d5-afc2-6da73ad40f31","kind":"bikerack","longitude":15.4363992,"latitude":47.1016647,"name":"Biciklitároló","city":"Stattegg","address":null,"covered":false,"access":null,"website":null,"phone":null,"source":"OpenStreetMap/node/1730470367","sourceUpdatedAt":null,"verifiedAt":null}},{"type":"Feature","geometry":{"type":"Point","coordinates":[15.4292624,47.1067108]},"properties":{"id":"bikerack:ddfe4a0b-2065-4b4e-9c0d-68e89622bfe8","kind":"bikerack","longitude":15.4292624,"latitude":47.1067108,"name":"Biciklitároló","city":"Stattegg","address":null,"covered":false,"access":null,"website":null,"phone":null,"source":"OpenStreetMap/node/5521009070","sourceUpdatedAt":null,"verifiedAt":null}},{"type":"Feature","geometry":{"type":"Point","coordinates":[15.4282662,47.1065942]},"properties":{"id":"bikerack:f48851f6-e69d-46a8-85bd-5dd75796e6c7","kind":"bikerack","longitude":15.4282662,"latitude":47.1065942,"name":"Biciklitároló","city":"Stattegg","address":null,"covered":false,"access":null,"website":null,"phone":null,"source":"OpenStreetMap/node/5521009061","sourceUpdatedAt":null,"verifiedAt":null}},{"type":"Feature","geometry":{"type":"Point","coordinates":[15.43055,47.111048]},"properties":{"id":"bikerack:fec38cbe-8916-4f31-986e-53c9fa87ad1d","kind":"bikerack","longitude":15.43055,"latitude":47.111048,"name":"Biciklitároló","city":"Stattegg","address":null,"covered":true,"access":null,"website":null,"phone":null,"source":"OpenStreetMap/node/3588685937","sourceUpdatedAt":null,"verifiedAt":null}},{"type":"Feature","geometry":{"type":"Point","coordinates":[15.4314094,47.1014116]},"properties":{"id":"water:abc743f6-900d-48b6-9004-fd9e3646ddab","kind":"water","longitude":15.4314094,"latitude":47.1014116,"name":"Ivókút","city":"Goesting","address":null,"covered":null,"access":null,"website":null,"phone":null,"source":"OpenStreetMap/node/2485284458","sourceUpdatedAt":null,"verifiedAt":null}},{"type":"Feature","geometry":{"type":"Point","coordinates":[15.4422473,47.1254376]},"properties":{"id":"water:e78200b4-531c-4f25-b206-84f84da1d4e8","kind":"water","longitude":15.4422473,"latitude":47.1254376,"name":"Ivókút","city":"Stattegg","address":null,"covered":null,"access":null,"website":null,"phone":null,"source":"OpenStreetMap/node/2452546670","sourceUpdatedAt":null,"verifiedAt":null}}]}