{"type":"FeatureCollection","features":[{"type":"Feature","geometry":{"type":"Point","coordinates":[16.2251928,49.9939596]},"properties":{"id":"bikerack:025ffba0-9bf3-43cb-8184-d71ffc37d710","kind":"bikerack","longitude":16.2251928,"latitude":49.9939596,"name":"Bicycle Parking","city":"Chocen","address":null,"covered":true,"access":null,"website":null,"phone":null,"source":"OpenStreetMap/way/1056454717","sourceUpdatedAt":null,"verifiedAt":null}},{"type":"Feature","geometry":{"type":"Point","coordinates":[16.2228306,49.9945178]},"properties":{"id":"bikerack:0316f197-10a6-4cce-80dc-36a878848e7b","kind":"bikerack","longitude":16.2228306,"latitude":49.9945178,"name":"Bicycle Parking","city":"Chocen","address":null,"covered":false,"access":null,"website":null,"phone":null,"source":"OpenStreetMap/node/8348794630","sourceUpdatedAt":null,"verifiedAt":null}},{"type":"Feature","geometry":{"type":"Point","coordinates":[16.2242144,49.9937456]},"properties":{"id":"bikerack:a73a73d2-41fe-4259-8fdb-3605c5171e07","kind":"bikerack","longitude":16.2242144,"latitude":49.9937456,"name":"Bicycle Parking","city":"Chocen","address":null,"covered":false,"access":null,"website":null,"phone":null,"source":"OpenStreetMap/node/8404752511","sourceUpdatedAt":null,"verifiedAt":null}},{"type":"Feature","geometry":{"type":"Point","coordinates":[16.2251681,49.9940247]},"properties":{"id":"bikerack:a8a7052e-c94e-47b0-8d98-aaae1212d327","kind":"bikerack","longitude":16.2251681,"latitude":49.9940247,"name":"Bicycle Parking","city":"Chocen","address":null,"covered":true,"access":null,"website":null,"phone":null,"source":"OpenStreetMap/way/1056454716","sourceUpdatedAt":null,"verifiedAt":null}},{"type":"Feature","geometry":{"type":"Point","coordinates":[16.2228306,49.9944212]},"properties":{"id":"bikerack:c1300650-242a-44b4-aede-ad8a716d5d4a","kind":"bikerack","longitude":16.2228306,"latitude":49.9944212,"name":"Bicycle Parking","city":"Chocen","address":null,"covered":false,"access":null,"website":null,"phone":null,"source":"OpenStreetMap/node/8348794631","sourceUpdatedAt":null,"verifiedAt":null}},{"type":"Feature","geometry":{"type":"Point","coordinates":[16.2241517,50.0008952]},"properties":{"id":"bikerack:fbfec048-5519-41c9-a027-49ecf268b71e","kind":"bikerack","longitude":16.2241517,"latitude":50.0008952,"name":"Bicycle Parking","city":"Chocen","address":null,"covered":false,"access":null,"website":null,"phone":null,"source":"OpenStreetMap/node/12775726831","sourceUpdatedAt":null,"verifiedAt":null}},{"type":"Feature","geometry":{"type":"Point","coordinates":[16.2210795,50.0008731]},"properties":{"id":"service:76a5e14a-9b70-4f03-9f58-def149a6d031","kind":"service","longitude":16.2210795,"latitude":50.0008731,"name":"Cyclosport KOLMO","city":"Chocen","address":null,"covered":null,"access":null,"website":null,"phone":null,"source":"OpenStreetMap/node/9066917117","sourceUpdatedAt":null,"verifiedAt":null}},{"type":"Feature","geometry":{"type":"Point","coordinates":[16.22295,50.0008532]},"properties":{"id":"service:af964797-1fa0-41de-8388-625b38d4dac1","kind":"service","longitude":16.22295,"latitude":50.0008532,"name":"Cycli","city":"Chocen","address":null,"covered":null,"access":null,"website":null,"phone":null,"source":"OpenStreetMap/node/11130680310","sourceUpdatedAt":null,"verifiedAt":null}}]}