{"type":"FeatureCollection","features":[{"type":"Feature","geometry":{"type":"Point","coordinates":[16.2249854,48.1001793]},"properties":{"id":"bikerack:1312a593-b91c-494a-86e1-7b3440059d23","kind":"bikerack","longitude":16.2249854,"latitude":48.1001793,"name":"Biciklitároló","city":"Giesshubl","address":null,"covered":false,"access":null,"website":null,"phone":null,"source":"OpenStreetMap/node/8261478924","sourceUpdatedAt":null,"verifiedAt":null}},{"type":"Feature","geometry":{"type":"Point","coordinates":[16.2471883,48.0868277]},"properties":{"id":"repair:cdf87d20-c08e-4731-9b04-444f6a3d086e","kind":"repair","longitude":16.2471883,"latitude":48.0868277,"name":"Kerékpár szervizállomás","city":"Hinterbruehl","address":null,"covered":false,"access":null,"website":null,"phone":null,"source":"OpenStreetMap/node/12369704362","sourceUpdatedAt":null,"verifiedAt":null}},{"type":"Feature","geometry":{"type":"Point","coordinates":[16.2252188,48.0997293]},"properties":{"id":"water:02930fd6-fd0e-4f42-bb27-0360928ba411","kind":"water","longitude":16.2252188,"latitude":48.0997293,"name":"Ivókút","city":"Giesshubl","address":null,"covered":null,"access":null,"website":null,"phone":null,"source":"OpenStreetMap/node/7627262443","sourceUpdatedAt":null,"verifiedAt":null}},{"type":"Feature","geometry":{"type":"Point","coordinates":[16.2264701,48.0991901]},"properties":{"id":"water:58b21c80-56bb-4645-8d4c-dc71989d7fcb","kind":"water","longitude":16.2264701,"latitude":48.0991901,"name":"Ivókút","city":"Giesshubl","address":null,"covered":null,"access":null,"website":null,"phone":null,"source":"OpenStreetMap/node/3684666903","sourceUpdatedAt":null,"verifiedAt":null}},{"type":"Feature","geometry":{"type":"Point","coordinates":[16.223233,48.080654]},"properties":{"id":"water:5a37da2e-c382-4ef4-88e0-ff1b2a097f82","kind":"water","longitude":16.223233,"latitude":48.080654,"name":"Ivókút","city":"Giesshubl","address":null,"covered":null,"access":null,"website":null,"phone":null,"source":"OpenStreetMap/node/12369704363","sourceUpdatedAt":null,"verifiedAt":null}},{"type":"Feature","geometry":{"type":"Point","coordinates":[16.2565223,48.0884795]},"properties":{"id":"water:88ca6eb3-69dc-4ed1-a14f-cb4ce0401b74","kind":"water","longitude":16.2565223,"latitude":48.0884795,"name":"Fock-Quelle","city":"Hinterbruehl","address":null,"covered":null,"access":null,"website":null,"phone":null,"source":"OpenStreetMap/node/3475064258","sourceUpdatedAt":null,"verifiedAt":null}},{"type":"Feature","geometry":{"type":"Point","coordinates":[16.239187,48.088411]},"properties":{"id":"water:9746da57-7b3e-4d31-b45c-dc330511b797","kind":"water","longitude":16.239187,"latitude":48.088411,"name":"Ivókút","city":"Hinterbruehl","address":null,"covered":null,"access":null,"website":null,"phone":null,"source":"OpenStreetMap/node/1099986093","sourceUpdatedAt":null,"verifiedAt":null}},{"type":"Feature","geometry":{"type":"Point","coordinates":[16.2479096,48.085897]},"properties":{"id":"water:ac0d0f2e-e2d5-4809-afda-2f51decd4c5f","kind":"water","longitude":16.2479096,"latitude":48.085897,"name":"Ivókút","city":"Hinterbruehl","address":null,"covered":null,"access":null,"website":null,"phone":null,"source":"OpenStreetMap/node/4329527205","sourceUpdatedAt":null,"verifiedAt":null}},{"type":"Feature","geometry":{"type":"Point","coordinates":[16.223189,48.0806513]},"properties":{"id":"water:b7f48477-9dda-4f2b-8ef6-ad7a43720a35","kind":"water","longitude":16.223189,"latitude":48.0806513,"name":"Ivókút","city":"Giesshubl","address":null,"covered":null,"access":null,"website":null,"phone":null,"source":"OpenStreetMap/node/3252069458","sourceUpdatedAt":null,"verifiedAt":null}},{"type":"Feature","geometry":{"type":"Point","coordinates":[16.2493825,48.092596]},"properties":{"id":"water:e6d722ff-5a83-44e7-935d-49401be19350","kind":"water","longitude":16.2493825,"latitude":48.092596,"name":"Ivókút","city":"Hinterbruehl","address":null,"covered":null,"access":null,"website":null,"phone":null,"source":"OpenStreetMap/node/2609824526","sourceUpdatedAt":null,"verifiedAt":null}}]}