{"type":"FeatureCollection","features":[{"type":"Feature","geometry":{"type":"Point","coordinates":[20.3199441,48.4257088]},"properties":{"id":"bikerack:6265e996-ed23-4e37-bd59-99ad99bbf948","kind":"bikerack","longitude":20.3199441,"latitude":48.4257088,"name":"Biciklitároló","city":"Putnok","address":null,"covered":false,"access":null,"website":null,"phone":null,"source":"OpenStreetMap/node/13195960881","sourceUpdatedAt":null,"verifiedAt":null}},{"type":"Feature","geometry":{"type":"Point","coordinates":[20.3236331,48.4213526]},"properties":{"id":"bikerack:73cf96c3-6cb4-4eaa-9fc0-fb7b0d0357e1","kind":"bikerack","longitude":20.3236331,"latitude":48.4213526,"name":"Biciklitároló","city":"Putnok","address":null,"covered":false,"access":null,"website":null,"phone":null,"source":"OpenStreetMap/node/13503982639","sourceUpdatedAt":null,"verifiedAt":null}},{"type":"Feature","geometry":{"type":"Point","coordinates":[20.3242063,48.4215459]},"properties":{"id":"bikerack:b4e9dd99-94cc-421e-ac9d-7c8874fcb42c","kind":"bikerack","longitude":20.3242063,"latitude":48.4215459,"name":"Biciklitároló","city":"Putnok","address":null,"covered":false,"access":null,"website":null,"phone":null,"source":"OpenStreetMap/node/13503982637","sourceUpdatedAt":null,"verifiedAt":null}},{"type":"Feature","geometry":{"type":"Point","coordinates":[20.322139,48.4228635]},"properties":{"id":"service:53e17629-554f-4858-958e-0d8d42b5fa79","kind":"service","longitude":20.322139,"latitude":48.4228635,"name":"Bicikli szervíz","city":"Putnok","address":null,"covered":null,"access":null,"website":null,"phone":null,"source":"OpenStreetMap/node/11761474030","sourceUpdatedAt":null,"verifiedAt":null}},{"type":"Feature","geometry":{"type":"Point","coordinates":[20.3198935,48.4256807]},"properties":{"id":"water:6bf712eb-401e-4a7a-815c-5002ed282d30","kind":"water","longitude":20.3198935,"latitude":48.4256807,"name":"Gemerka","city":"Putnok","address":null,"covered":null,"access":null,"website":null,"phone":null,"source":"OpenStreetMap/node/9859015230","sourceUpdatedAt":null,"verifiedAt":null}}]}