{"type":"FeatureCollection","features":[{"type":"Feature","geometry":{"type":"Point","coordinates":[17.4480165,54.6925117]},"properties":{"id":"bikerack:0496d754-c5bc-4ee8-b8e7-56fd31a3af1a","kind":"bikerack","longitude":17.4480165,"latitude":54.6925117,"name":"Biciklitároló","city":"Glowczyce","address":null,"covered":false,"access":null,"website":null,"phone":null,"source":"OpenStreetMap/node/11139493533","sourceUpdatedAt":null,"verifiedAt":null}},{"type":"Feature","geometry":{"type":"Point","coordinates":[17.4479683,54.6925377]},"properties":{"id":"repair:129f01e8-c0c4-45f0-a09c-a7b22d5861c3","kind":"repair","longitude":17.4479683,"latitude":54.6925377,"name":"Kerékpár szervizállomás","city":"Glowczyce","address":null,"covered":false,"access":null,"website":null,"phone":null,"source":"OpenStreetMap/node/11139493538","sourceUpdatedAt":null,"verifiedAt":null}}]}