{"type":"FeatureCollection","features":[{"type":"Feature","geometry":{"type":"Point","coordinates":[9.6803015,53.8522901]},"properties":{"id":"bikerack:28e956f8-41d0-45aa-a922-c9a606e6ccfc","kind":"bikerack","longitude":9.6803015,"latitude":53.8522901,"name":"Fahrradabstellplatz","city":"Westerhorn","address":null,"covered":true,"access":null,"website":null,"phone":null,"source":"OpenStreetMap/node/9573634749","sourceUpdatedAt":null,"verifiedAt":null}},{"type":"Feature","geometry":{"type":"Point","coordinates":[9.6802977,53.8523297]},"properties":{"id":"bikerack:c405a33f-a3bf-48fc-9a6b-bb3a93a645a5","kind":"bikerack","longitude":9.6802977,"latitude":53.8523297,"name":"Fahrradabstellplatz","city":"Westerhorn","address":null,"covered":false,"access":null,"website":null,"phone":null,"source":"OpenStreetMap/way/1456373847","sourceUpdatedAt":null,"verifiedAt":null}}]}