{"type":"FeatureCollection","features":[{"type":"Feature","geometry":{"type":"Point","coordinates":[9.6739638,51.2346871]},"properties":{"id":"bikerack:0f93cb45-3676-4210-a98d-ed59da5eed9c","kind":"bikerack","longitude":9.6739638,"latitude":51.2346871,"name":"Fahrradabstellplatz","city":"Helsa","address":null,"covered":true,"access":null,"website":null,"phone":null,"source":"OpenStreetMap/node/2989914054","sourceUpdatedAt":null,"verifiedAt":null}},{"type":"Feature","geometry":{"type":"Point","coordinates":[9.6828718,51.2576811]},"properties":{"id":"bikerack:3b064556-fc90-4dfa-bec8-410cb1a816cd","kind":"bikerack","longitude":9.6828718,"latitude":51.2576811,"name":"Fahrradabstellplatz","city":"Helsa","address":null,"covered":false,"access":null,"website":null,"phone":null,"source":"OpenStreetMap/node/2989914061","sourceUpdatedAt":null,"verifiedAt":null}},{"type":"Feature","geometry":{"type":"Point","coordinates":[9.6829851,51.2576283]},"properties":{"id":"bikerack:c2209f66-3009-4236-aeff-4edf77c1596e","kind":"bikerack","longitude":9.6829851,"latitude":51.2576283,"name":"Fahrradabstellplatz","city":"Helsa","address":null,"covered":false,"access":null,"website":null,"phone":null,"source":"OpenStreetMap/node/2989914060","sourceUpdatedAt":null,"verifiedAt":null}},{"type":"Feature","geometry":{"type":"Point","coordinates":[9.6739339,51.2346491]},"properties":{"id":"bikerack:db208feb-2b89-46e5-9083-3d7294275490","kind":"bikerack","longitude":9.6739339,"latitude":51.2346491,"name":"Fahrradabstellplatz","city":"Helsa","address":null,"covered":false,"access":null,"website":null,"phone":null,"source":"OpenStreetMap/node/2989914053","sourceUpdatedAt":null,"verifiedAt":null}}]}