{"type":"FeatureCollection","features":[{"type":"Feature","geometry":{"type":"Point","coordinates":[9.7071661,49.3834885]},"properties":{"id":"bikerack:085ec6fb-c3e4-426c-8eb2-46a7722d761c","kind":"bikerack","longitude":9.7071661,"latitude":49.3834885,"name":"Fahrradabstellplatz","city":"Dorzbach","address":null,"covered":false,"access":null,"website":null,"phone":null,"source":"OpenStreetMap/node/13434476946","sourceUpdatedAt":null,"verifiedAt":null}},{"type":"Feature","geometry":{"type":"Point","coordinates":[9.6965506,49.3838615]},"properties":{"id":"bikerack:b99fb923-ca0d-45b7-a9a4-1a0dfd60fec7","kind":"bikerack","longitude":9.6965506,"latitude":49.3838615,"name":"Fahrradabstellplatz","city":"Dorzbach","address":null,"covered":false,"access":null,"website":null,"phone":null,"source":"OpenStreetMap/node/12997292178","sourceUpdatedAt":null,"verifiedAt":null}},{"type":"Feature","geometry":{"type":"Point","coordinates":[9.7030371,49.3845703]},"properties":{"id":"repair:84cf276e-0d82-4ec7-9c8a-634b6d184ed2","kind":"repair","longitude":9.7030371,"latitude":49.3845703,"name":"Fahrrad-Teparaturstation","city":"Dorzbach","address":null,"covered":false,"access":null,"website":null,"phone":null,"source":"OpenStreetMap/node/11892847291","sourceUpdatedAt":null,"verifiedAt":null}},{"type":"Feature","geometry":{"type":"Point","coordinates":[9.708296,49.3832994]},"properties":{"id":"water:818831a3-160c-4fc5-8cf5-ca562b629b8f","kind":"water","longitude":9.708296,"latitude":49.3832994,"name":"Trinkwasser","city":"Dorzbach","address":null,"covered":null,"access":null,"website":null,"phone":null,"source":"OpenStreetMap/node/3748535327","sourceUpdatedAt":null,"verifiedAt":null}}]}