{"type":"FeatureCollection","features":[{"type":"Feature","geometry":{"type":"Point","coordinates":[9.7078235,46.8271404]},"properties":{"id":"water:2e083297-a104-4b0d-966d-24f9f1dd0e23","kind":"water","longitude":9.7078235,"latitude":46.8271404,"name":"Drinking Fountain","city":"Arosa","address":null,"covered":null,"access":null,"website":null,"phone":null,"source":"OpenStreetMap/node/9200337043","sourceUpdatedAt":null,"verifiedAt":null}},{"type":"Feature","geometry":{"type":"Point","coordinates":[9.70715,46.8196638]},"properties":{"id":"water:f249506b-d9a0-4281-885c-87d6da152118","kind":"water","longitude":9.70715,"latitude":46.8196638,"name":"Drinking Fountain","city":"Arosa","address":null,"covered":null,"access":null,"website":null,"phone":null,"source":"OpenStreetMap/node/9198084064","sourceUpdatedAt":null,"verifiedAt":null}}]}