{"type":"FeatureCollection","features":[{"type":"Feature","geometry":{"type":"Point","coordinates":[9.6888269,45.7578039]},"properties":{"id":"water:01ee4110-669a-4fb8-a357-ea138160f12a","kind":"water","longitude":9.6888269,"latitude":45.7578039,"name":"Fontanella","city":"Ranica","address":null,"covered":null,"access":null,"website":null,"phone":null,"source":"OpenStreetMap/node/4405491192","sourceUpdatedAt":null,"verifiedAt":null}},{"type":"Feature","geometry":{"type":"Point","coordinates":[9.6995141,45.7400141]},"properties":{"id":"water:20e96a42-cf0d-4fa2-a646-12865b55847e","kind":"water","longitude":9.6995141,"latitude":45.7400141,"name":"Fontanella","city":"Ranica","address":null,"covered":null,"access":null,"website":null,"phone":null,"source":"OpenStreetMap/node/5984003633","sourceUpdatedAt":null,"verifiedAt":null}},{"type":"Feature","geometry":{"type":"Point","coordinates":[9.6908355,45.756893]},"properties":{"id":"water:34d23d1b-3679-49e6-bbf1-444740cb3e8c","kind":"water","longitude":9.6908355,"latitude":45.756893,"name":"Fontanella","city":"Ranica","address":null,"covered":null,"access":null,"website":null,"phone":null,"source":"OpenStreetMap/node/964869321","sourceUpdatedAt":null,"verifiedAt":null}}]}