{"type":"FeatureCollection","features":[{"type":"Feature","geometry":{"type":"Point","coordinates":[17.5086536,49.5322379]},"properties":{"id":"bikerack:79d64ac0-959e-4877-8e16-e41b7f90aca9","kind":"bikerack","longitude":17.5086536,"latitude":49.5322379,"name":"Bicycle Parking","city":"Osek nad Becvou","address":null,"covered":false,"access":null,"website":null,"phone":null,"source":"OpenStreetMap/node/12031857882","sourceUpdatedAt":null,"verifiedAt":null}},{"type":"Feature","geometry":{"type":"Point","coordinates":[17.5042997,49.5306107]},"properties":{"id":"bikerack:91ca1a45-49ea-47df-b3f4-ae3a870dc9ba","kind":"bikerack","longitude":17.5042997,"latitude":49.5306107,"name":"Bicycle Parking","city":"Osek nad Becvou","address":null,"covered":false,"access":null,"website":null,"phone":null,"source":"OpenStreetMap/node/12031857874","sourceUpdatedAt":null,"verifiedAt":null}},{"type":"Feature","geometry":{"type":"Point","coordinates":[17.5085557,49.5322164]},"properties":{"id":"bikerack:9753b438-fba1-4be0-b91d-c864de070192","kind":"bikerack","longitude":17.5085557,"latitude":49.5322164,"name":"Bicycle Parking","city":"Osek nad Becvou","address":null,"covered":false,"access":null,"website":null,"phone":null,"source":"OpenStreetMap/node/12031857881","sourceUpdatedAt":null,"verifiedAt":null}}]}