{"type":"FeatureCollection","features":[{"type":"Feature","geometry":{"type":"Point","coordinates":[17.5259647,49.5156206]},"properties":{"id":"bikerack:a144c8e6-eebf-445e-9497-2003a90cead8","kind":"bikerack","longitude":17.5259647,"latitude":49.5156206,"name":"Bicycle Parking","city":"Osek nad Becvou","address":null,"covered":false,"access":null,"website":null,"phone":null,"source":"OpenStreetMap/way/1318451308","sourceUpdatedAt":null,"verifiedAt":null}},{"type":"Feature","geometry":{"type":"Point","coordinates":[17.527742,49.5106686]},"properties":{"id":"bikerack:ddb6a4e1-c625-41c6-8696-3890bbf33f05","kind":"bikerack","longitude":17.527742,"latitude":49.5106686,"name":"Bicycle Parking","city":"Osek nad Becvou","address":null,"covered":false,"access":null,"website":null,"phone":null,"source":"OpenStreetMap/node/12432839302","sourceUpdatedAt":null,"verifiedAt":null}},{"type":"Feature","geometry":{"type":"Point","coordinates":[17.5272461,49.5116337]},"properties":{"id":"bikerack:ea387bbd-c808-47be-9385-cfc400db2b35","kind":"bikerack","longitude":17.5272461,"latitude":49.5116337,"name":"Bicycle Parking","city":"Osek nad Becvou","address":null,"covered":false,"access":null,"website":null,"phone":null,"source":"OpenStreetMap/node/12157548720","sourceUpdatedAt":null,"verifiedAt":null}}]}