{"type":"FeatureCollection","features":[{"type":"Feature","geometry":{"type":"Point","coordinates":[17.4911174,48.3131745]},"properties":{"id":"bikerack:62cf59d5-679a-4163-9383-0b21f3c67fd4","kind":"bikerack","longitude":17.4911174,"latitude":48.3131745,"name":"Biciklitároló","city":"Trnava","address":null,"covered":true,"access":null,"website":null,"phone":null,"source":"OpenStreetMap/way/1135258898","sourceUpdatedAt":null,"verifiedAt":null}},{"type":"Feature","geometry":{"type":"Point","coordinates":[17.4904977,48.3136575]},"properties":{"id":"water:c5efb96e-681d-4a57-abdf-9168c223de02","kind":"water","longitude":17.4904977,"latitude":48.3136575,"name":"Ivókút","city":"Trnava","address":null,"covered":null,"access":null,"website":null,"phone":null,"source":"OpenStreetMap/node/11067134642","sourceUpdatedAt":null,"verifiedAt":null}}]}