{"type":"FeatureCollection","features":[{"type":"Feature","geometry":{"type":"Point","coordinates":[16.2017823,54.2056334]},"properties":{"id":"bikerack:015bb455-22ac-42e1-97ec-a0d799d9120b","kind":"bikerack","longitude":16.2017823,"latitude":54.2056334,"name":"Biciklitároló","city":"Koszalin","address":null,"covered":true,"access":null,"website":null,"phone":null,"source":"OpenStreetMap/node/13288951596","sourceUpdatedAt":null,"verifiedAt":null}},{"type":"Feature","geometry":{"type":"Point","coordinates":[16.1853319,54.2052957]},"properties":{"id":"bikerack:0160d197-4d84-4dbf-9c46-02ca1901373d","kind":"bikerack","longitude":16.1853319,"latitude":54.2052957,"name":"Biciklitároló","city":"Koszalin","address":null,"covered":false,"access":null,"website":null,"phone":null,"source":"OpenStreetMap/node/2462987300","sourceUpdatedAt":null,"verifiedAt":null}},{"type":"Feature","geometry":{"type":"Point","coordinates":[16.1826208,54.1960161]},"properties":{"id":"bikerack:04417673-cb72-46f6-b07c-03dcbf74334d","kind":"bikerack","longitude":16.1826208,"latitude":54.1960161,"name":"Biciklitároló","city":"Koszalin","address":null,"covered":false,"access":null,"website":null,"phone":null,"source":"OpenStreetMap/node/9781695165","sourceUpdatedAt":null,"verifiedAt":null}},{"type":"Feature","geometry":{"type":"Point","coordinates":[16.2110804,54.1924421]},"properties":{"id":"bikerack:0e373abd-6a3d-4dc2-93d7-aadbef06031b","kind":"bikerack","longitude":16.2110804,"latitude":54.1924421,"name":"Biciklitároló","city":"Koszalin","address":null,"covered":false,"access":null,"website":null,"phone":null,"source":"OpenStreetMap/node/12087551222","sourceUpdatedAt":null,"verifiedAt":null}},{"type":"Feature","geometry":{"type":"Point","coordinates":[16.1782851,54.2051115]},"properties":{"id":"bikerack:11949945-6d5e-4c2d-89aa-0380afc0e189","kind":"bikerack","longitude":16.1782851,"latitude":54.2051115,"name":"Biciklitároló","city":"Koszalin","address":null,"covered":false,"access":null,"website":null,"phone":null,"source":"OpenStreetMap/node/2314101269","sourceUpdatedAt":null,"verifiedAt":null}},{"type":"Feature","geometry":{"type":"Point","coordinates":[16.2113462,54.1907]},"properties":{"id":"bikerack:128c2315-956c-4133-8b32-f58819df4151","kind":"bikerack","longitude":16.2113462,"latitude":54.1907,"name":"Biciklitároló","city":"Koszalin","address":null,"covered":false,"access":null,"website":null,"phone":null,"source":"OpenStreetMap/node/13649438139","sourceUpdatedAt":null,"verifiedAt":null}},{"type":"Feature","geometry":{"type":"Point","coordinates":[16.1819411,54.1891362]},"properties":{"id":"bikerack:1588d2dd-c865-4868-b278-1eeb1a933514","kind":"bikerack","longitude":16.1819411,"latitude":54.1891362,"name":"Biciklitároló","city":"Koszalin","address":null,"covered":false,"access":null,"website":null,"phone":null,"source":"OpenStreetMap/node/3673258071","sourceUpdatedAt":null,"verifiedAt":null}},{"type":"Feature","geometry":{"type":"Point","coordinates":[16.1856737,54.2044556]},"properties":{"id":"bikerack:18da7273-2598-499d-9bba-52979018c021","kind":"bikerack","longitude":16.1856737,"latitude":54.2044556,"name":"Biciklitároló","city":"Koszalin","address":null,"covered":false,"access":null,"website":null,"phone":null,"source":"OpenStreetMap/node/2462987295","sourceUpdatedAt":null,"verifiedAt":null}},{"type":"Feature","geometry":{"type":"Point","coordinates":[16.175287,54.196992]},"properties":{"id":"bikerack:1da528b2-92db-4fed-91df-c25e5838ee75","kind":"bikerack","longitude":16.175287,"latitude":54.196992,"name":"Biciklitároló","city":"Koszalin","address":null,"covered":false,"access":null,"website":null,"phone":null,"source":"OpenStreetMap/node/2463016816","sourceUpdatedAt":null,"verifiedAt":null}},{"type":"Feature","geometry":{"type":"Point","coordinates":[16.1797348,54.1908481]},"properties":{"id":"bikerack:232267b0-8bf1-43c7-aa4a-440f986dc86c","kind":"bikerack","longitude":16.1797348,"latitude":54.1908481,"name":"Biciklitároló","city":"Koszalin","address":null,"covered":false,"access":null,"website":null,"phone":null,"source":"OpenStreetMap/node/2414209275","sourceUpdatedAt":null,"verifiedAt":null}},{"type":"Feature","geometry":{"type":"Point","coordinates":[16.1857041,54.1905882]},"properties":{"id":"bikerack:251d9218-63ee-41fd-a99e-6f9ec3c83a7e","kind":"bikerack","longitude":16.1857041,"latitude":54.1905882,"name":"Biciklitároló","city":"Koszalin","address":null,"covered":false,"access":null,"website":null,"phone":null,"source":"OpenStreetMap/node/2314101235","sourceUpdatedAt":null,"verifiedAt":null}},{"type":"Feature","geometry":{"type":"Point","coordinates":[16.1982782,54.1903605]},"properties":{"id":"bikerack:25bb27e9-4ed3-4957-81db-1edc6a7c154f","kind":"bikerack","longitude":16.1982782,"latitude":54.1903605,"name":"Biciklitároló","city":"Koszalin","address":null,"covered":false,"access":null,"website":null,"phone":null,"source":"OpenStreetMap/node/2314101261","sourceUpdatedAt":null,"verifiedAt":null}},{"type":"Feature","geometry":{"type":"Point","coordinates":[16.173786,54.1907201]},"properties":{"id":"bikerack:2c8bcc2f-db19-4915-9089-91a3ebd32b28","kind":"bikerack","longitude":16.173786,"latitude":54.1907201,"name":"Biciklitároló","city":"Koszalin","address":null,"covered":false,"access":null,"website":null,"phone":null,"source":"OpenStreetMap/node/3246321498","sourceUpdatedAt":null,"verifiedAt":null}},{"type":"Feature","geometry":{"type":"Point","coordinates":[16.2013365,54.2060166]},"properties":{"id":"bikerack:2de89fbf-0a1d-46b1-9111-d980c8cd9b2a","kind":"bikerack","longitude":16.2013365,"latitude":54.2060166,"name":"Biciklitároló","city":"Koszalin","address":null,"covered":false,"access":null,"website":null,"phone":null,"source":"OpenStreetMap/node/2314101256","sourceUpdatedAt":null,"verifiedAt":null}},{"type":"Feature","geometry":{"type":"Point","coordinates":[16.1920882,54.2022072]},"properties":{"id":"bikerack:30aa068d-ec66-4aff-be51-ccae6d5bfd01","kind":"bikerack","longitude":16.1920882,"latitude":54.2022072,"name":"Biciklitároló","city":"Koszalin","address":null,"covered":false,"access":null,"website":null,"phone":null,"source":"OpenStreetMap/node/13041517844","sourceUpdatedAt":null,"verifiedAt":null}},{"type":"Feature","geometry":{"type":"Point","coordinates":[16.1727449,54.1904737]},"properties":{"id":"bikerack:326629e9-e477-4abb-9a5e-86517fa5815d","kind":"bikerack","longitude":16.1727449,"latitude":54.1904737,"name":"Biciklitároló","city":"Koszalin","address":null,"covered":false,"access":null,"website":null,"phone":null,"source":"OpenStreetMap/node/3692456870","sourceUpdatedAt":null,"verifiedAt":null}},{"type":"Feature","geometry":{"type":"Point","coordinates":[16.1993512,54.2117412]},"properties":{"id":"bikerack:35797d97-4c73-4e62-9e95-83914c3a35ab","kind":"bikerack","longitude":16.1993512,"latitude":54.2117412,"name":"Biciklitároló","city":"Koszalin","address":null,"covered":false,"access":null,"website":null,"phone":null,"source":"OpenStreetMap/node/10603847092","sourceUpdatedAt":null,"verifiedAt":null}},{"type":"Feature","geometry":{"type":"Point","coordinates":[16.2089018,54.2056696]},"properties":{"id":"bikerack:36ba31dc-cf79-4725-8948-006e580eeb15","kind":"bikerack","longitude":16.2089018,"latitude":54.2056696,"name":"Biciklitároló","city":"Koszalin","address":null,"covered":false,"access":null,"website":null,"phone":null,"source":"OpenStreetMap/node/12730498029","sourceUpdatedAt":null,"verifiedAt":null}},{"type":"Feature","geometry":{"type":"Point","coordinates":[16.2100487,54.1915011]},"properties":{"id":"bikerack:374856c3-e5ad-431b-bf54-8b3c62e5454b","kind":"bikerack","longitude":16.2100487,"latitude":54.1915011,"name":"Biciklitároló","city":"Koszalin","address":null,"covered":false,"access":null,"website":null,"phone":null,"source":"OpenStreetMap/node/2314101230","sourceUpdatedAt":null,"verifiedAt":null}},{"type":"Feature","geometry":{"type":"Point","coordinates":[16.1957614,54.1883326]},"properties":{"id":"bikerack:37d6829a-cdb1-4ff3-af8f-21a181a5d44f","kind":"bikerack","longitude":16.1957614,"latitude":54.1883326,"name":"Biciklitároló","city":"Koszalin","address":null,"covered":true,"access":null,"website":null,"phone":null,"source":"OpenStreetMap/node/4842143126","sourceUpdatedAt":null,"verifiedAt":null}},{"type":"Feature","geometry":{"type":"Point","coordinates":[16.1892232,54.210937]},"properties":{"id":"bikerack:3917f6cd-2b19-40e6-9188-0820210a3f4a","kind":"bikerack","longitude":16.1892232,"latitude":54.210937,"name":"Biciklitároló","city":"Koszalin","address":null,"covered":false,"access":null,"website":null,"phone":null,"source":"OpenStreetMap/node/2314101260","sourceUpdatedAt":null,"verifiedAt":null}},{"type":"Feature","geometry":{"type":"Point","coordinates":[16.1809962,54.1901521]},"properties":{"id":"bikerack:3f8d13cd-f352-49bb-a148-988aca4fb8eb","kind":"bikerack","longitude":16.1809962,"latitude":54.1901521,"name":"Biciklitároló","city":"Koszalin","address":null,"covered":false,"access":null,"website":null,"phone":null,"source":"OpenStreetMap/node/3623627018","sourceUpdatedAt":null,"verifiedAt":null}},{"type":"Feature","geometry":{"type":"Point","coordinates":[16.1825086,54.1890039]},"properties":{"id":"bikerack:474af95a-be81-476a-99dd-a6d13ab9c9ee","kind":"bikerack","longitude":16.1825086,"latitude":54.1890039,"name":"Biciklitároló","city":"Koszalin","address":null,"covered":false,"access":null,"website":null,"phone":null,"source":"OpenStreetMap/node/3828262202","sourceUpdatedAt":null,"verifiedAt":null}},{"type":"Feature","geometry":{"type":"Point","coordinates":[16.1967473,54.1907748]},"properties":{"id":"bikerack:48b92caa-b4b3-4197-a549-ad11817320f4","kind":"bikerack","longitude":16.1967473,"latitude":54.1907748,"name":"Biciklitároló","city":"Koszalin","address":null,"covered":false,"access":null,"website":null,"phone":null,"source":"OpenStreetMap/node/2314101253","sourceUpdatedAt":null,"verifiedAt":null}},{"type":"Feature","geometry":{"type":"Point","coordinates":[16.1741146,54.1919097]},"properties":{"id":"bikerack:4bfaf724-b5c3-4127-a176-638c83341195","kind":"bikerack","longitude":16.1741146,"latitude":54.1919097,"name":"Biciklitároló","city":"Koszalin","address":null,"covered":false,"access":null,"website":null,"phone":null,"source":"OpenStreetMap/node/2314101234","sourceUpdatedAt":null,"verifiedAt":null}},{"type":"Feature","geometry":{"type":"Point","coordinates":[16.1871356,54.1978422]},"properties":{"id":"bikerack:51aed869-8821-44d5-8b1e-b5c34e014042","kind":"bikerack","longitude":16.1871356,"latitude":54.1978422,"name":"Biciklitároló","city":"Koszalin","address":null,"covered":false,"access":null,"website":null,"phone":null,"source":"OpenStreetMap/node/5230066621","sourceUpdatedAt":null,"verifiedAt":null}},{"type":"Feature","geometry":{"type":"Point","coordinates":[16.2059174,54.188435]},"properties":{"id":"bikerack:5316fed6-320b-4d73-9c1d-e459c5cb3817","kind":"bikerack","longitude":16.2059174,"latitude":54.188435,"name":"Biciklitároló","city":"Koszalin","address":null,"covered":false,"access":null,"website":null,"phone":null,"source":"OpenStreetMap/node/2319463408","sourceUpdatedAt":null,"verifiedAt":null}},{"type":"Feature","geometry":{"type":"Point","coordinates":[16.1964858,54.2016046]},"properties":{"id":"bikerack:554843fb-104a-46d4-bfc6-14692ecca89b","kind":"bikerack","longitude":16.1964858,"latitude":54.2016046,"name":"Biciklitároló","city":"Koszalin","address":null,"covered":false,"access":null,"website":null,"phone":null,"source":"OpenStreetMap/node/11353704338","sourceUpdatedAt":null,"verifiedAt":null}},{"type":"Feature","geometry":{"type":"Point","coordinates":[16.1925554,54.1946258]},"properties":{"id":"bikerack:566d3ac2-4fb7-4fb6-8a6a-bdaa6614dee9","kind":"bikerack","longitude":16.1925554,"latitude":54.1946258,"name":"Biciklitároló","city":"Koszalin","address":null,"covered":false,"access":null,"website":null,"phone":null,"source":"OpenStreetMap/node/11779976699","sourceUpdatedAt":null,"verifiedAt":null}},{"type":"Feature","geometry":{"type":"Point","coordinates":[16.2123617,54.2017123]},"properties":{"id":"bikerack:56efde23-1f1e-4fe8-a91c-a142cfd7db6a","kind":"bikerack","longitude":16.2123617,"latitude":54.2017123,"name":"Biciklitároló","city":"Koszalin","address":null,"covered":false,"access":null,"website":null,"phone":null,"source":"OpenStreetMap/node/1780448530","sourceUpdatedAt":null,"verifiedAt":null}},{"type":"Feature","geometry":{"type":"Point","coordinates":[16.1783418,54.2046853]},"properties":{"id":"bikerack:5719cbf7-15e5-4232-ba68-8c40cfcf9059","kind":"bikerack","longitude":16.1783418,"latitude":54.2046853,"name":"Biciklitároló","city":"Koszalin","address":null,"covered":false,"access":null,"website":null,"phone":null,"source":"OpenStreetMap/node/11817982661","sourceUpdatedAt":null,"verifiedAt":null}},{"type":"Feature","geometry":{"type":"Point","coordinates":[16.1917664,54.209122]},"properties":{"id":"bikerack:5dca56d6-a85c-46d7-b961-fed92ff0e3ff","kind":"bikerack","longitude":16.1917664,"latitude":54.209122,"name":"Biciklitároló","city":"Koszalin","address":null,"covered":false,"access":null,"website":null,"phone":null,"source":"OpenStreetMap/node/12104495775","sourceUpdatedAt":null,"verifiedAt":null}},{"type":"Feature","geometry":{"type":"Point","coordinates":[16.1790558,54.1898274]},"properties":{"id":"bikerack:5e622758-bd7e-497c-bb67-0b0a764099df","kind":"bikerack","longitude":16.1790558,"latitude":54.1898274,"name":"Biciklitároló","city":"Koszalin","address":null,"covered":false,"access":null,"website":null,"phone":null,"source":"OpenStreetMap/node/2414209267","sourceUpdatedAt":null,"verifiedAt":null}},{"type":"Feature","geometry":{"type":"Point","coordinates":[16.1770406,54.1912599]},"properties":{"id":"bikerack:61c2ce09-e3b9-436b-b65a-3dcc571349a7","kind":"bikerack","longitude":16.1770406,"latitude":54.1912599,"name":"Biciklitároló","city":"Koszalin","address":null,"covered":false,"access":null,"website":null,"phone":null,"source":"OpenStreetMap/node/2314101270","sourceUpdatedAt":null,"verifiedAt":null}},{"type":"Feature","geometry":{"type":"Point","coordinates":[16.191959,54.1915769]},"properties":{"id":"bikerack:62853ebd-0f95-47cd-93a5-088483f8a30a","kind":"bikerack","longitude":16.191959,"latitude":54.1915769,"name":"Biciklitároló","city":"Koszalin","address":null,"covered":false,"access":null,"website":null,"phone":null,"source":"OpenStreetMap/node/2314101258","sourceUpdatedAt":null,"verifiedAt":null}},{"type":"Feature","geometry":{"type":"Point","coordinates":[16.1758053,54.1901225]},"properties":{"id":"bikerack:669ab178-6d6f-461f-8785-ed56a5d1ba9e","kind":"bikerack","longitude":16.1758053,"latitude":54.1901225,"name":"Biciklitároló","city":"Koszalin","address":null,"covered":false,"access":null,"website":null,"phone":null,"source":"OpenStreetMap/node/2462987276","sourceUpdatedAt":null,"verifiedAt":null}},{"type":"Feature","geometry":{"type":"Point","coordinates":[16.1886129,54.1926389]},"properties":{"id":"bikerack:66cd982f-d19f-4ab4-9947-8277e7c28541","kind":"bikerack","longitude":16.1886129,"latitude":54.1926389,"name":"Biciklitároló","city":"Koszalin","address":null,"covered":false,"access":null,"website":null,"phone":null,"source":"OpenStreetMap/node/2314101252","sourceUpdatedAt":null,"verifiedAt":null}},{"type":"Feature","geometry":{"type":"Point","coordinates":[16.196695,54.1982486]},"properties":{"id":"bikerack:70dd4d2b-b583-47d9-9369-667f88af1379","kind":"bikerack","longitude":16.196695,"latitude":54.1982486,"name":"Biciklitároló","city":"Koszalin","address":null,"covered":false,"access":null,"website":null,"phone":null,"source":"OpenStreetMap/node/2436644191","sourceUpdatedAt":null,"verifiedAt":null}},{"type":"Feature","geometry":{"type":"Point","coordinates":[16.2075874,54.1890296]},"properties":{"id":"bikerack:7245a25d-c256-4867-a897-5e897826a401","kind":"bikerack","longitude":16.2075874,"latitude":54.1890296,"name":"Biciklitároló","city":"Koszalin","address":null,"covered":false,"access":null,"website":null,"phone":null,"source":"OpenStreetMap/node/13273642735","sourceUpdatedAt":null,"verifiedAt":null}},{"type":"Feature","geometry":{"type":"Point","coordinates":[16.1839183,54.2112683]},"properties":{"id":"bikerack:733da3b0-46c4-4b73-b221-de260ff5739e","kind":"bikerack","longitude":16.1839183,"latitude":54.2112683,"name":"Biciklitároló","city":"Koszalin","address":null,"covered":true,"access":null,"website":null,"phone":null,"source":"OpenStreetMap/way/742906326","sourceUpdatedAt":null,"verifiedAt":null}},{"type":"Feature","geometry":{"type":"Point","coordinates":[16.1810029,54.1905885]},"properties":{"id":"bikerack:73a24ae7-c62a-4f79-8080-91f5661f9260","kind":"bikerack","longitude":16.1810029,"latitude":54.1905885,"name":"Biciklitároló","city":"Koszalin","address":null,"covered":false,"access":null,"website":null,"phone":null,"source":"OpenStreetMap/node/3623627019","sourceUpdatedAt":null,"verifiedAt":null}},{"type":"Feature","geometry":{"type":"Point","coordinates":[16.1907979,54.210086]},"properties":{"id":"bikerack:7519d1ab-822d-40da-99a2-7f710c967a10","kind":"bikerack","longitude":16.1907979,"latitude":54.210086,"name":"Biciklitároló","city":"Koszalin","address":null,"covered":false,"access":null,"website":null,"phone":null,"source":"OpenStreetMap/node/12104472240","sourceUpdatedAt":null,"verifiedAt":null}},{"type":"Feature","geometry":{"type":"Point","coordinates":[16.1786204,54.2047647]},"properties":{"id":"bikerack:7637005d-e20c-45e3-924a-fb57f88df470","kind":"bikerack","longitude":16.1786204,"latitude":54.2047647,"name":"Biciklitároló","city":"Koszalin","address":null,"covered":false,"access":null,"website":null,"phone":null,"source":"OpenStreetMap/node/2314101233","sourceUpdatedAt":null,"verifiedAt":null}},{"type":"Feature","geometry":{"type":"Point","coordinates":[16.1910277,54.1895286]},"properties":{"id":"bikerack:7716e471-9212-476b-b351-96e4117a4cb1","kind":"bikerack","longitude":16.1910277,"latitude":54.1895286,"name":"Biciklitároló","city":"Koszalin","address":null,"covered":false,"access":null,"website":null,"phone":null,"source":"OpenStreetMap/node/13094407143","sourceUpdatedAt":null,"verifiedAt":null}},{"type":"Feature","geometry":{"type":"Point","coordinates":[16.1870063,54.2066999]},"properties":{"id":"bikerack:77c3d7a1-e229-4bf6-bd5c-c560d857a4b0","kind":"bikerack","longitude":16.1870063,"latitude":54.2066999,"name":"Biciklitároló","city":"Koszalin","address":null,"covered":false,"access":null,"website":null,"phone":null,"source":"OpenStreetMap/node/13023028104","sourceUpdatedAt":null,"verifiedAt":null}},{"type":"Feature","geometry":{"type":"Point","coordinates":[16.1811391,54.1898254]},"properties":{"id":"bikerack:7ec48df3-8ace-4dca-94d5-a70b9d49d668","kind":"bikerack","longitude":16.1811391,"latitude":54.1898254,"name":"Biciklitároló","city":"Koszalin","address":null,"covered":false,"access":null,"website":null,"phone":null,"source":"OpenStreetMap/node/13094397212","sourceUpdatedAt":null,"verifiedAt":null}},{"type":"Feature","geometry":{"type":"Point","coordinates":[16.1834631,54.191464]},"properties":{"id":"bikerack:8211132b-91cc-41b8-a582-c603deac102f","kind":"bikerack","longitude":16.1834631,"latitude":54.191464,"name":"Biciklitároló","city":"Koszalin","address":null,"covered":false,"access":null,"website":null,"phone":null,"source":"OpenStreetMap/node/2314101241","sourceUpdatedAt":null,"verifiedAt":null}},{"type":"Feature","geometry":{"type":"Point","coordinates":[16.1847468,54.1893907]},"properties":{"id":"bikerack:828a5421-819e-48ce-ba6d-ef681c131884","kind":"bikerack","longitude":16.1847468,"latitude":54.1893907,"name":"Biciklitároló","city":"Koszalin","address":null,"covered":false,"access":null,"website":null,"phone":null,"source":"OpenStreetMap/node/2477360227","sourceUpdatedAt":null,"verifiedAt":null}},{"type":"Feature","geometry":{"type":"Point","coordinates":[16.1883138,54.1952291]},"properties":{"id":"bikerack:841a03a1-bc00-49ac-819c-5874910bba1e","kind":"bikerack","longitude":16.1883138,"latitude":54.1952291,"name":"Biciklitároló","city":"Koszalin","address":null,"covered":false,"access":null,"website":null,"phone":null,"source":"OpenStreetMap/node/9246150522","sourceUpdatedAt":null,"verifiedAt":null}},{"type":"Feature","geometry":{"type":"Point","coordinates":[16.1808437,54.1893539]},"properties":{"id":"bikerack:870faa2b-de5a-4be9-9a67-e8350fbb96e2","kind":"bikerack","longitude":16.1808437,"latitude":54.1893539,"name":"Biciklitároló","city":"Koszalin","address":null,"covered":false,"access":null,"website":null,"phone":null,"source":"OpenStreetMap/node/3623627011","sourceUpdatedAt":null,"verifiedAt":null}},{"type":"Feature","geometry":{"type":"Point","coordinates":[16.1875492,54.1884636]},"properties":{"id":"bikerack:87498af3-e040-4be8-9ed1-aa2f9425390f","kind":"bikerack","longitude":16.1875492,"latitude":54.1884636,"name":"Biciklitároló","city":"Koszalin","address":null,"covered":false,"access":null,"website":null,"phone":null,"source":"OpenStreetMap/node/2314101250","sourceUpdatedAt":null,"verifiedAt":null}},{"type":"Feature","geometry":{"type":"Point","coordinates":[16.2120397,54.191385]},"properties":{"id":"bikerack:8883a091-895b-4683-a870-0dfad074c806","kind":"bikerack","longitude":16.2120397,"latitude":54.191385,"name":"Biciklitároló","city":"Koszalin","address":null,"covered":false,"access":null,"website":null,"phone":null,"source":"OpenStreetMap/node/2314101265","sourceUpdatedAt":null,"verifiedAt":null}},{"type":"Feature","geometry":{"type":"Point","coordinates":[16.1988233,54.1964272]},"properties":{"id":"bikerack:8fc1fe0a-9e27-45e7-9767-9a25db94afea","kind":"bikerack","longitude":16.1988233,"latitude":54.1964272,"name":"Biciklitároló","city":"Koszalin","address":null,"covered":false,"access":null,"website":null,"phone":null,"source":"OpenStreetMap/node/2314101236","sourceUpdatedAt":null,"verifiedAt":null}},{"type":"Feature","geometry":{"type":"Point","coordinates":[16.1898318,54.2080516]},"properties":{"id":"bikerack:925491f8-ef1a-44cd-98d3-0622a3a2bd93","kind":"bikerack","longitude":16.1898318,"latitude":54.2080516,"name":"Biciklitároló","city":"Koszalin","address":null,"covered":false,"access":null,"website":null,"phone":null,"source":"OpenStreetMap/node/2314101239","sourceUpdatedAt":null,"verifiedAt":null}},{"type":"Feature","geometry":{"type":"Point","coordinates":[16.1735815,54.2034193]},"properties":{"id":"bikerack:940a999e-33a5-4e04-a3b1-7a2c293fda70","kind":"bikerack","longitude":16.1735815,"latitude":54.2034193,"name":"Biciklitároló","city":"Koszalin","address":null,"covered":false,"access":null,"website":null,"phone":null,"source":"OpenStreetMap/way/1419191916","sourceUpdatedAt":null,"verifiedAt":null}},{"type":"Feature","geometry":{"type":"Point","coordinates":[16.1959206,54.1951879]},"properties":{"id":"bikerack:95c72b7f-a55b-493a-ba7a-259a09130d2c","kind":"bikerack","longitude":16.1959206,"latitude":54.1951879,"name":"Biciklitároló","city":"Koszalin","address":null,"covered":false,"access":null,"website":null,"phone":null,"source":"OpenStreetMap/node/2324887507","sourceUpdatedAt":null,"verifiedAt":null}},{"type":"Feature","geometry":{"type":"Point","coordinates":[16.2026771,54.210272]},"properties":{"id":"bikerack:996083eb-b73a-400e-8b81-8cdbe84bf7b3","kind":"bikerack","longitude":16.2026771,"latitude":54.210272,"name":"Biciklitároló","city":"Koszalin","address":null,"covered":false,"access":null,"website":null,"phone":null,"source":"OpenStreetMap/node/2314101238","sourceUpdatedAt":null,"verifiedAt":null}},{"type":"Feature","geometry":{"type":"Point","coordinates":[16.20561,54.2087138]},"properties":{"id":"bikerack:9f70d944-ff96-43ae-8402-5fcc5350bba2","kind":"bikerack","longitude":16.20561,"latitude":54.2087138,"name":"Biciklitároló","city":"Koszalin","address":null,"covered":false,"access":null,"website":null,"phone":null,"source":"OpenStreetMap/node/12176927622","sourceUpdatedAt":null,"verifiedAt":null}},{"type":"Feature","geometry":{"type":"Point","coordinates":[16.1757771,54.1896094]},"properties":{"id":"bikerack:a26feb4e-c7f8-41f5-9711-adfc4cbf0e86","kind":"bikerack","longitude":16.1757771,"latitude":54.1896094,"name":"Biciklitároló","city":"Koszalin","address":null,"covered":false,"access":null,"website":null,"phone":null,"source":"OpenStreetMap/node/2462987261","sourceUpdatedAt":null,"verifiedAt":null}},{"type":"Feature","geometry":{"type":"Point","coordinates":[16.1993537,54.2049093]},"properties":{"id":"bikerack:a494b77e-eb1d-487d-a01a-6cc3df3ce9b7","kind":"bikerack","longitude":16.1993537,"latitude":54.2049093,"name":"Biciklitároló","city":"Koszalin","address":null,"covered":false,"access":null,"website":null,"phone":null,"source":"OpenStreetMap/node/5042517237","sourceUpdatedAt":null,"verifiedAt":null}},{"type":"Feature","geometry":{"type":"Point","coordinates":[16.197358,54.2033302]},"properties":{"id":"bikerack:a5623033-0033-4182-8aca-a3f9729e0786","kind":"bikerack","longitude":16.197358,"latitude":54.2033302,"name":"Biciklitároló","city":"Koszalin","address":null,"covered":false,"access":null,"website":null,"phone":null,"source":"OpenStreetMap/node/2314101249","sourceUpdatedAt":null,"verifiedAt":null}},{"type":"Feature","geometry":{"type":"Point","coordinates":[16.1871873,54.1990524]},"properties":{"id":"bikerack:ab87d684-2cc6-40b0-ab18-7a8da8330a3d","kind":"bikerack","longitude":16.1871873,"latitude":54.1990524,"name":"Biciklitároló","city":"Koszalin","address":null,"covered":false,"access":null,"website":null,"phone":null,"source":"OpenStreetMap/node/11003062234","sourceUpdatedAt":null,"verifiedAt":null}},{"type":"Feature","geometry":{"type":"Point","coordinates":[16.1892956,54.1890099]},"properties":{"id":"bikerack:abaa98fa-a938-4dc4-9d8d-f36c7f4730ee","kind":"bikerack","longitude":16.1892956,"latitude":54.1890099,"name":"Biciklitároló","city":"Koszalin","address":null,"covered":true,"access":null,"website":null,"phone":null,"source":"OpenStreetMap/node/13272058368","sourceUpdatedAt":null,"verifiedAt":null}},{"type":"Feature","geometry":{"type":"Point","coordinates":[16.1816873,54.1912568]},"properties":{"id":"bikerack:adc5110c-8ba6-46d6-b8f6-98d9d505dbde","kind":"bikerack","longitude":16.1816873,"latitude":54.1912568,"name":"Biciklitároló","city":"Koszalin","address":null,"covered":true,"access":null,"website":null,"phone":null,"source":"OpenStreetMap/node/3623627020","sourceUpdatedAt":null,"verifiedAt":null}},{"type":"Feature","geometry":{"type":"Point","coordinates":[16.1817847,54.1933754]},"properties":{"id":"bikerack:af6b5213-fef7-47d7-997a-b4f9ac4317fe","kind":"bikerack","longitude":16.1817847,"latitude":54.1933754,"name":"Biciklitároló","city":"Koszalin","address":null,"covered":false,"access":null,"website":null,"phone":null,"source":"OpenStreetMap/node/2314101266","sourceUpdatedAt":null,"verifiedAt":null}},{"type":"Feature","geometry":{"type":"Point","coordinates":[16.1982101,54.2038043]},"properties":{"id":"bikerack:b0fed88b-6ec9-4fbf-8633-f835445dc570","kind":"bikerack","longitude":16.1982101,"latitude":54.2038043,"name":"Biciklitároló","city":"Koszalin","address":null,"covered":false,"access":null,"website":null,"phone":null,"source":"OpenStreetMap/node/9303549694","sourceUpdatedAt":null,"verifiedAt":null}},{"type":"Feature","geometry":{"type":"Point","coordinates":[16.1999296,54.2045042]},"properties":{"id":"bikerack:b1344a38-34ec-4858-b3df-98784cfdaa99","kind":"bikerack","longitude":16.1999296,"latitude":54.2045042,"name":"Biciklitároló","city":"Koszalin","address":null,"covered":false,"access":null,"website":null,"phone":null,"source":"OpenStreetMap/node/5042517238","sourceUpdatedAt":null,"verifiedAt":null}},{"type":"Feature","geometry":{"type":"Point","coordinates":[16.2125699,54.2020379]},"properties":{"id":"bikerack:b538871b-5fa8-412c-a580-c18ff3935770","kind":"bikerack","longitude":16.2125699,"latitude":54.2020379,"name":"Biciklitároló","city":"Koszalin","address":null,"covered":false,"access":null,"website":null,"phone":null,"source":"OpenStreetMap/node/1780448532","sourceUpdatedAt":null,"verifiedAt":null}},{"type":"Feature","geometry":{"type":"Point","coordinates":[16.1957508,54.1905682]},"properties":{"id":"bikerack:b6a424ea-4323-423e-b819-7bd3d17496ab","kind":"bikerack","longitude":16.1957508,"latitude":54.1905682,"name":"Biciklitároló","city":"Koszalin","address":null,"covered":false,"access":null,"website":null,"phone":null,"source":"OpenStreetMap/node/4772574541","sourceUpdatedAt":null,"verifiedAt":null}},{"type":"Feature","geometry":{"type":"Point","coordinates":[16.1824138,54.2110793]},"properties":{"id":"bikerack:b6ee0ac6-cae7-421b-949e-54e385ea3ed9","kind":"bikerack","longitude":16.1824138,"latitude":54.2110793,"name":"Biciklitároló","city":"Koszalin","address":null,"covered":false,"access":null,"website":null,"phone":null,"source":"OpenStreetMap/way/1419191917","sourceUpdatedAt":null,"verifiedAt":null}},{"type":"Feature","geometry":{"type":"Point","coordinates":[16.1785098,54.1885489]},"properties":{"id":"bikerack:b875a6e7-6c96-444c-9ef1-8c1644a18902","kind":"bikerack","longitude":16.1785098,"latitude":54.1885489,"name":"Biciklitároló","city":"Koszalin","address":null,"covered":false,"access":null,"website":null,"phone":null,"source":"OpenStreetMap/node/2462987249","sourceUpdatedAt":null,"verifiedAt":null}},{"type":"Feature","geometry":{"type":"Point","coordinates":[16.1776801,54.1949418]},"properties":{"id":"bikerack:bb7be333-611a-4134-87b8-0daa7d33b18a","kind":"bikerack","longitude":16.1776801,"latitude":54.1949418,"name":"Biciklitároló","city":"Koszalin","address":null,"covered":false,"access":null,"website":null,"phone":null,"source":"OpenStreetMap/node/2324887503","sourceUpdatedAt":null,"verifiedAt":null}},{"type":"Feature","geometry":{"type":"Point","coordinates":[16.1790278,54.2018096]},"properties":{"id":"bikerack:bcbe64f6-7cf8-4f2a-bdd9-bc3a8b88dc92","kind":"bikerack","longitude":16.1790278,"latitude":54.2018096,"name":"Biciklitároló","city":"Koszalin","address":null,"covered":false,"access":null,"website":null,"phone":null,"source":"OpenStreetMap/node/2715721132","sourceUpdatedAt":null,"verifiedAt":null}},{"type":"Feature","geometry":{"type":"Point","coordinates":[16.1831506,54.1919849]},"properties":{"id":"bikerack:c0230c74-dd2f-4812-b61e-1be988330cbb","kind":"bikerack","longitude":16.1831506,"latitude":54.1919849,"name":"Biciklitároló","city":"Koszalin","address":null,"covered":false,"access":null,"website":null,"phone":null,"source":"OpenStreetMap/node/2314101245","sourceUpdatedAt":null,"verifiedAt":null}},{"type":"Feature","geometry":{"type":"Point","coordinates":[16.2023728,54.2064471]},"properties":{"id":"bikerack:ca0e91c3-24b6-4eea-b88d-ab32d6a52d8c","kind":"bikerack","longitude":16.2023728,"latitude":54.2064471,"name":"Biciklitároló","city":"Koszalin","address":null,"covered":false,"access":null,"website":null,"phone":null,"source":"OpenStreetMap/node/12768369973","sourceUpdatedAt":null,"verifiedAt":null}},{"type":"Feature","geometry":{"type":"Point","coordinates":[16.2035431,54.2117198]},"properties":{"id":"bikerack:cbc07f38-ea4f-4982-8f91-ba76d6fd7c7f","kind":"bikerack","longitude":16.2035431,"latitude":54.2117198,"name":"Biciklitároló","city":"Koszalin","address":null,"covered":false,"access":null,"website":null,"phone":null,"source":"OpenStreetMap/node/12104410505","sourceUpdatedAt":null,"verifiedAt":null}},{"type":"Feature","geometry":{"type":"Point","coordinates":[16.1721804,54.1897879]},"properties":{"id":"bikerack:d52cae3b-958f-4c3d-8efc-37ad77b7e2f9","kind":"bikerack","longitude":16.1721804,"latitude":54.1897879,"name":"Biciklitároló","city":"Koszalin","address":null,"covered":false,"access":null,"website":null,"phone":null,"source":"OpenStreetMap/node/2314101264","sourceUpdatedAt":null,"verifiedAt":null}},{"type":"Feature","geometry":{"type":"Point","coordinates":[16.1925977,54.1945961]},"properties":{"id":"bikerack:d8441a65-38b9-4393-9f7d-0865991f696f","kind":"bikerack","longitude":16.1925977,"latitude":54.1945961,"name":"Biciklitároló","city":"Koszalin","address":null,"covered":false,"access":null,"website":null,"phone":null,"source":"OpenStreetMap/node/2408600892","sourceUpdatedAt":null,"verifiedAt":null}},{"type":"Feature","geometry":{"type":"Point","coordinates":[16.1731919,54.1914571]},"properties":{"id":"bikerack:da719dce-5ae4-4fdd-af2f-c315f216c2cd","kind":"bikerack","longitude":16.1731919,"latitude":54.1914571,"name":"Biciklitároló","city":"Koszalin","address":null,"covered":false,"access":null,"website":null,"phone":null,"source":"OpenStreetMap/node/2462987285","sourceUpdatedAt":null,"verifiedAt":null}},{"type":"Feature","geometry":{"type":"Point","coordinates":[16.1887898,54.1947687]},"properties":{"id":"bikerack:de046f22-e2b4-4bdc-8853-7f73d490dc40","kind":"bikerack","longitude":16.1887898,"latitude":54.1947687,"name":"Biciklitároló","city":"Koszalin","address":null,"covered":false,"access":null,"website":null,"phone":null,"source":"OpenStreetMap/node/2314101255","sourceUpdatedAt":null,"verifiedAt":null}},{"type":"Feature","geometry":{"type":"Point","coordinates":[16.1820241,54.1909021]},"properties":{"id":"bikerack:df32c89b-ad1c-4d5c-90f9-270347efd74a","kind":"bikerack","longitude":16.1820241,"latitude":54.1909021,"name":"Biciklitároló","city":"Koszalin","address":null,"covered":false,"access":null,"website":null,"phone":null,"source":"OpenStreetMap/node/2314101267","sourceUpdatedAt":null,"verifiedAt":null}},{"type":"Feature","geometry":{"type":"Point","coordinates":[16.1906081,54.1903272]},"properties":{"id":"bikerack:e0d475ff-525b-471b-a6ec-b10cf6f10d42","kind":"bikerack","longitude":16.1906081,"latitude":54.1903272,"name":"Biciklitároló","city":"Koszalin","address":null,"covered":true,"access":null,"website":null,"phone":null,"source":"OpenStreetMap/node/13094063777","sourceUpdatedAt":null,"verifiedAt":null}},{"type":"Feature","geometry":{"type":"Point","coordinates":[16.203315,54.1925566]},"properties":{"id":"bikerack:e21159a1-32f5-40f5-9c8f-c2b5426bc1a0","kind":"bikerack","longitude":16.203315,"latitude":54.1925566,"name":"Biciklitároló","city":"Koszalin","address":null,"covered":false,"access":null,"website":null,"phone":null,"source":"OpenStreetMap/node/12402090508","sourceUpdatedAt":null,"verifiedAt":null}},{"type":"Feature","geometry":{"type":"Point","coordinates":[16.214029,54.19342]},"properties":{"id":"bikerack:e3bf0d78-5f66-4451-926c-5d2bc80af929","kind":"bikerack","longitude":16.214029,"latitude":54.19342,"name":"Biciklitároló","city":"Koszalin","address":null,"covered":false,"access":null,"website":null,"phone":null,"source":"OpenStreetMap/node/10273590181","sourceUpdatedAt":null,"verifiedAt":null}},{"type":"Feature","geometry":{"type":"Point","coordinates":[16.2004565,54.2135495]},"properties":{"id":"bikerack:e54228bf-fe80-4f44-9b5a-97004097fcdd","kind":"bikerack","longitude":16.2004565,"latitude":54.2135495,"name":"Biciklitároló","city":"Koszalin","address":null,"covered":false,"access":null,"website":null,"phone":null,"source":"OpenStreetMap/node/9980321947","sourceUpdatedAt":null,"verifiedAt":null}},{"type":"Feature","geometry":{"type":"Point","coordinates":[16.2023272,54.2064776]},"properties":{"id":"bikerack:e6845d7e-4eb2-48fe-8daf-3e09190020fa","kind":"bikerack","longitude":16.2023272,"latitude":54.2064776,"name":"Biciklitároló","city":"Koszalin","address":null,"covered":false,"access":null,"website":null,"phone":null,"source":"OpenStreetMap/node/2314101257","sourceUpdatedAt":null,"verifiedAt":null}},{"type":"Feature","geometry":{"type":"Point","coordinates":[16.2145736,54.1938534]},"properties":{"id":"bikerack:e6bcd92d-0d60-499e-917e-8f780f435c4e","kind":"bikerack","longitude":16.2145736,"latitude":54.1938534,"name":"Biciklitároló","city":"Koszalin","address":null,"covered":false,"access":null,"website":null,"phone":null,"source":"OpenStreetMap/node/2314101268","sourceUpdatedAt":null,"verifiedAt":null}},{"type":"Feature","geometry":{"type":"Point","coordinates":[16.1847348,54.2066285]},"properties":{"id":"bikerack:e6c70e1e-55a7-4259-9761-d15f28cf0650","kind":"bikerack","longitude":16.1847348,"latitude":54.2066285,"name":"Biciklitároló","city":"Koszalin","address":null,"covered":false,"access":null,"website":null,"phone":null,"source":"OpenStreetMap/node/3869793969","sourceUpdatedAt":null,"verifiedAt":null}},{"type":"Feature","geometry":{"type":"Point","coordinates":[16.1986377,54.1932278]},"properties":{"id":"bikerack:e8b8aad5-b015-4ee3-bb4c-2906ee75b45f","kind":"bikerack","longitude":16.1986377,"latitude":54.1932278,"name":"Biciklitároló","city":"Koszalin","address":null,"covered":false,"access":null,"website":null,"phone":null,"source":"OpenStreetMap/node/2314101247","sourceUpdatedAt":null,"verifiedAt":null}},{"type":"Feature","geometry":{"type":"Point","coordinates":[16.198795,54.2111528]},"properties":{"id":"bikerack:e98e14e0-e8bd-432d-9d63-ca26a5274cae","kind":"bikerack","longitude":16.198795,"latitude":54.2111528,"name":"Biciklitároló","city":"Koszalin","address":null,"covered":false,"access":null,"website":null,"phone":null,"source":"OpenStreetMap/node/10603847091","sourceUpdatedAt":null,"verifiedAt":null}},{"type":"Feature","geometry":{"type":"Point","coordinates":[16.2076994,54.1882668]},"properties":{"id":"bikerack:eb21b321-7ed2-4302-b7ab-c9215d1cff9a","kind":"bikerack","longitude":16.2076994,"latitude":54.1882668,"name":"Biciklitároló","city":"Koszalin","address":null,"covered":false,"access":null,"website":null,"phone":null,"source":"OpenStreetMap/node/13273608230","sourceUpdatedAt":null,"verifiedAt":null}},{"type":"Feature","geometry":{"type":"Point","coordinates":[16.1719005,54.1913371]},"properties":{"id":"bikerack:ef45d029-233c-483c-b182-eef84bf72476","kind":"bikerack","longitude":16.1719005,"latitude":54.1913371,"name":"Biciklitároló","city":"Koszalin","address":null,"covered":false,"access":null,"website":null,"phone":null,"source":"OpenStreetMap/node/2462987279","sourceUpdatedAt":null,"verifiedAt":null}},{"type":"Feature","geometry":{"type":"Point","coordinates":[16.2075913,54.1906577]},"properties":{"id":"bikerack:f2c2c069-34b2-42d6-a2cc-57ea4ece7aee","kind":"bikerack","longitude":16.2075913,"latitude":54.1906577,"name":"Biciklitároló","city":"Koszalin","address":null,"covered":false,"access":null,"website":null,"phone":null,"source":"OpenStreetMap/node/13273651261","sourceUpdatedAt":null,"verifiedAt":null}},{"type":"Feature","geometry":{"type":"Point","coordinates":[16.2002456,54.1934084]},"properties":{"id":"bikerack:f384a4f7-a75d-4f35-ac32-0468256f1c34","kind":"bikerack","longitude":16.2002456,"latitude":54.1934084,"name":"Biciklitároló","city":"Koszalin","address":null,"covered":false,"access":null,"website":null,"phone":null,"source":"OpenStreetMap/node/11265073418","sourceUpdatedAt":null,"verifiedAt":null}},{"type":"Feature","geometry":{"type":"Point","coordinates":[16.1812397,54.1891121]},"properties":{"id":"bikerack:f56cae1a-e57a-4336-accf-c3f763646845","kind":"bikerack","longitude":16.1812397,"latitude":54.1891121,"name":"Biciklitároló","city":"Koszalin","address":null,"covered":false,"access":null,"website":null,"phone":null,"source":"OpenStreetMap/node/3582886120","sourceUpdatedAt":null,"verifiedAt":null}},{"type":"Feature","geometry":{"type":"Point","coordinates":[16.1775086,54.1898632]},"properties":{"id":"bikerack:fc9af50d-ce0b-40f0-9f0d-ebddf08fe07a","kind":"bikerack","longitude":16.1775086,"latitude":54.1898632,"name":"Biciklitároló","city":"Koszalin","address":null,"covered":false,"access":null,"website":null,"phone":null,"source":"OpenStreetMap/node/3239920431","sourceUpdatedAt":null,"verifiedAt":null}},{"type":"Feature","geometry":{"type":"Point","coordinates":[16.1850937,54.1925761]},"properties":{"id":"repair:8850cff4-450b-4180-818e-ced9c02acebb","kind":"repair","longitude":16.1850937,"latitude":54.1925761,"name":"Kerékpár szervizállomás","city":"Koszalin","address":null,"covered":false,"access":null,"website":null,"phone":null,"source":"OpenStreetMap/node/6629654141","sourceUpdatedAt":null,"verifiedAt":null}},{"type":"Feature","geometry":{"type":"Point","coordinates":[16.1910289,54.1894915]},"properties":{"id":"repair:ce2534f0-591a-4223-989b-f08aa38852d8","kind":"repair","longitude":16.1910289,"latitude":54.1894915,"name":"Kerékpár szervizállomás","city":"Koszalin","address":null,"covered":false,"access":null,"website":null,"phone":null,"source":"OpenStreetMap/node/13094379347","sourceUpdatedAt":null,"verifiedAt":null}},{"type":"Feature","geometry":{"type":"Point","coordinates":[16.1721036,54.2027178]},"properties":{"id":"repair:f5ab085f-0d94-45a7-8641-8650ac7270b8","kind":"repair","longitude":16.1721036,"latitude":54.2027178,"name":"Kerékpár szervizállomás","city":"Koszalin","address":null,"covered":false,"access":null,"website":null,"phone":null,"source":"OpenStreetMap/node/10125576233","sourceUpdatedAt":null,"verifiedAt":null}},{"type":"Feature","geometry":{"type":"Point","coordinates":[16.1864454,54.1998055]},"properties":{"id":"service:01d4a4b4-3835-41e0-9187-18ff2973a535","kind":"service","longitude":16.1864454,"latitude":54.1998055,"name":"SCOTT","city":"Koszalin","address":null,"covered":null,"access":null,"website":null,"phone":null,"source":"OpenStreetMap/node/2378720239","sourceUpdatedAt":null,"verifiedAt":null}},{"type":"Feature","geometry":{"type":"Point","coordinates":[16.2046795,54.1953826]},"properties":{"id":"service:395fadc2-17d3-4a7e-be47-600a056980fa","kind":"service","longitude":16.2046795,"latitude":54.1953826,"name":"Bicikli szervíz","city":"Koszalin","address":null,"covered":null,"access":null,"website":null,"phone":null,"source":"OpenStreetMap/node/9053559740","sourceUpdatedAt":null,"verifiedAt":null}},{"type":"Feature","geometry":{"type":"Point","coordinates":[16.1750609,54.189044]},"properties":{"id":"service:a97090d4-bd2f-4639-9cb9-6d601ce81265","kind":"service","longitude":16.1750609,"latitude":54.189044,"name":"Małgośka","city":"Koszalin","address":null,"covered":null,"access":null,"website":null,"phone":null,"source":"OpenStreetMap/node/2378720240","sourceUpdatedAt":null,"verifiedAt":null}},{"type":"Feature","geometry":{"type":"Point","coordinates":[16.215017,54.1915253]},"properties":{"id":"service:cda9c42b-f8de-495b-82df-f049ab475b90","kind":"service","longitude":16.215017,"latitude":54.1915253,"name":"Bicikli szervíz","city":"Koszalin","address":null,"covered":null,"access":null,"website":null,"phone":null,"source":"OpenStreetMap/node/2426823007","sourceUpdatedAt":null,"verifiedAt":null}}]}