{"type":"FeatureCollection","features":[{"type":"Feature","geometry":{"type":"Point","coordinates":[18.9338987,52.6407883]},"properties":{"id":"bikerack:2cc9c91f-dcef-4876-8b62-c583224425de","kind":"bikerack","longitude":18.9338987,"latitude":52.6407883,"name":"Biciklitároló","city":"Brzesc Kujawski","address":null,"covered":true,"access":null,"website":null,"phone":null,"source":"OpenStreetMap/way/1479255692","sourceUpdatedAt":null,"verifiedAt":null}},{"type":"Feature","geometry":{"type":"Point","coordinates":[18.9330924,52.6410057]},"properties":{"id":"bikerack:95c3707a-9bc1-4702-9c51-8c81fe83d7da","kind":"bikerack","longitude":18.9330924,"latitude":52.6410057,"name":"Biciklitároló","city":"Brzesc Kujawski","address":null,"covered":true,"access":null,"website":null,"phone":null,"source":"OpenStreetMap/way/1479255670","sourceUpdatedAt":null,"verifiedAt":null}},{"type":"Feature","geometry":{"type":"Point","coordinates":[18.9335517,52.640643]},"properties":{"id":"bikerack:ccb851ea-6a8e-4e0c-890d-a83c11f82d9c","kind":"bikerack","longitude":18.9335517,"latitude":52.640643,"name":"Biciklitároló","city":"Brzesc Kujawski","address":null,"covered":true,"access":null,"website":null,"phone":null,"source":"OpenStreetMap/way/1479255691","sourceUpdatedAt":null,"verifiedAt":null}}]}