{"type":"FeatureCollection","features":[{"type":"Feature","geometry":{"type":"Point","coordinates":[18.9227183,50.0616238]},"properties":{"id":"bikerack:5d63374d-1f05-4a39-a53a-8d846c134342","kind":"bikerack","longitude":18.9227183,"latitude":50.0616238,"name":"Biciklitároló","city":"Kobior","address":null,"covered":false,"access":null,"website":null,"phone":null,"source":"OpenStreetMap/node/12189817801","sourceUpdatedAt":null,"verifiedAt":null}},{"type":"Feature","geometry":{"type":"Point","coordinates":[18.934219,50.0598844]},"properties":{"id":"bikerack:fab3e975-f063-4230-8e0d-60eb76eb06e9","kind":"bikerack","longitude":18.934219,"latitude":50.0598844,"name":"Biciklitároló","city":"Kobior","address":null,"covered":true,"access":null,"website":null,"phone":null,"source":"OpenStreetMap/way/947697421","sourceUpdatedAt":null,"verifiedAt":null}}]}