{"type":"FeatureCollection","features":[{"type":"Feature","geometry":{"type":"Point","coordinates":[18.9091412,47.8009127]},"properties":{"id":"bikerack:0bcb1dc6-d747-493a-aaa4-72beb24a47db","kind":"bikerack","longitude":18.9091412,"latitude":47.8009127,"name":"Biciklitároló","city":"Pilismarot","address":null,"covered":true,"access":null,"website":null,"phone":null,"source":"OpenStreetMap/node/13462219564","sourceUpdatedAt":null,"verifiedAt":null}},{"type":"Feature","geometry":{"type":"Point","coordinates":[18.8986841,47.7989258]},"properties":{"id":"bikerack:12967457-92e2-4ba0-8a1a-96c4254a5da1","kind":"bikerack","longitude":18.8986841,"latitude":47.7989258,"name":"Biciklitároló","city":"Pilismarot","address":null,"covered":false,"access":null,"website":null,"phone":null,"source":"OpenStreetMap/node/11134769450","sourceUpdatedAt":null,"verifiedAt":null}},{"type":"Feature","geometry":{"type":"Point","coordinates":[18.9113005,47.7838294]},"properties":{"id":"bikerack:13d34799-f609-4da4-bce8-ce863b317042","kind":"bikerack","longitude":18.9113005,"latitude":47.7838294,"name":"Kerékbár","city":"Pilismarot","address":null,"covered":false,"access":null,"website":null,"phone":null,"source":"OpenStreetMap/node/4992102437","sourceUpdatedAt":null,"verifiedAt":null}},{"type":"Feature","geometry":{"type":"Point","coordinates":[18.9114718,47.8014471]},"properties":{"id":"bikerack:34882f90-7914-4654-99d4-0afeae852627","kind":"bikerack","longitude":18.9114718,"latitude":47.8014471,"name":"Biciklitároló","city":"Pilismarot","address":null,"covered":false,"access":null,"website":null,"phone":null,"source":"OpenStreetMap/node/12272797415","sourceUpdatedAt":null,"verifiedAt":null}},{"type":"Feature","geometry":{"type":"Point","coordinates":[18.9082729,47.7999645]},"properties":{"id":"bikerack:67d1e954-020f-4995-81c7-292e305257ba","kind":"bikerack","longitude":18.9082729,"latitude":47.7999645,"name":"Biciklitároló","city":"Pilismarot","address":null,"covered":false,"access":null,"website":null,"phone":null,"source":"OpenStreetMap/node/11247502455","sourceUpdatedAt":null,"verifiedAt":null}},{"type":"Feature","geometry":{"type":"Point","coordinates":[18.9101416,47.8009959]},"properties":{"id":"bikerack:8407624f-8d4d-4ca8-a938-2027b491b3e8","kind":"bikerack","longitude":18.9101416,"latitude":47.8009959,"name":"Biciklitároló","city":"Pilismarot","address":null,"covered":false,"access":null,"website":null,"phone":null,"source":"OpenStreetMap/node/5745858667","sourceUpdatedAt":null,"verifiedAt":null}},{"type":"Feature","geometry":{"type":"Point","coordinates":[18.9106275,47.7909586]},"properties":{"id":"water:119b18ef-234a-4467-82b8-852299eaf960","kind":"water","longitude":18.9106275,"latitude":47.7909586,"name":"Ivókút","city":null,"address":null,"covered":null,"access":null,"website":null,"phone":null,"source":"OpenStreetMap","sourceUpdatedAt":null,"verifiedAt":null}},{"type":"Feature","geometry":{"type":"Point","coordinates":[18.912933,47.79845]},"properties":{"id":"water:1c8b831c-c6d1-4739-9e32-2c6af5bdc4d9","kind":"water","longitude":18.912933,"latitude":47.79845,"name":"Ivókút","city":null,"address":null,"covered":null,"access":null,"website":null,"phone":null,"source":"OpenStreetMap","sourceUpdatedAt":null,"verifiedAt":null}},{"type":"Feature","geometry":{"type":"Point","coordinates":[18.9020548,47.8107544]},"properties":{"id":"water:3cffdd43-0491-45b2-8486-d2da6d207c5d","kind":"water","longitude":18.9020548,"latitude":47.8107544,"name":"Ivókút","city":null,"address":null,"covered":null,"access":null,"website":null,"phone":null,"source":"OpenStreetMap","sourceUpdatedAt":null,"verifiedAt":null}},{"type":"Feature","geometry":{"type":"Point","coordinates":[18.909106,47.8007997]},"properties":{"id":"water:43b94bcb-444c-4331-9ffa-3fa5fafcce7f","kind":"water","longitude":18.909106,"latitude":47.8007997,"name":"Ivókút","city":null,"address":null,"covered":null,"access":null,"website":null,"phone":null,"source":"OpenStreetMap","sourceUpdatedAt":null,"verifiedAt":null}},{"type":"Feature","geometry":{"type":"Point","coordinates":[18.9090631,47.7978311]},"properties":{"id":"water:4670b55f-cc15-41d4-ab7f-2cb03fe5c509","kind":"water","longitude":18.9090631,"latitude":47.7978311,"name":"Ivókút","city":null,"address":null,"covered":null,"access":null,"website":null,"phone":null,"source":"OpenStreetMap","sourceUpdatedAt":null,"verifiedAt":null}},{"type":"Feature","geometry":{"type":"Point","coordinates":[18.9099918,47.7956889]},"properties":{"id":"water:5e3717c2-7483-478c-9256-887373178b7f","kind":"water","longitude":18.9099918,"latitude":47.7956889,"name":"Ivókút","city":null,"address":null,"covered":null,"access":null,"website":null,"phone":null,"source":"OpenStreetMap","sourceUpdatedAt":null,"verifiedAt":null}},{"type":"Feature","geometry":{"type":"Point","coordinates":[18.9112846,47.7839225]},"properties":{"id":"water:850631a5-370a-4e72-acf7-a9d2fbef9742","kind":"water","longitude":18.9112846,"latitude":47.7839225,"name":"Ivókút","city":null,"address":null,"covered":null,"access":null,"website":null,"phone":null,"source":"OpenStreetMap","sourceUpdatedAt":null,"verifiedAt":null}},{"type":"Feature","geometry":{"type":"Point","coordinates":[18.9143449,47.8048091]},"properties":{"id":"water:9a641f78-cc66-4048-bd5a-8becdb041e9c","kind":"water","longitude":18.9143449,"latitude":47.8048091,"name":"Ivókút","city":null,"address":null,"covered":null,"access":null,"website":null,"phone":null,"source":"OpenStreetMap","sourceUpdatedAt":null,"verifiedAt":null}},{"type":"Feature","geometry":{"type":"Point","coordinates":[18.9106907,47.8006065]},"properties":{"id":"water:ae7b3b0b-a099-4f88-9381-724d20452c52","kind":"water","longitude":18.9106907,"latitude":47.8006065,"name":"Ivókút","city":null,"address":null,"covered":null,"access":null,"website":null,"phone":null,"source":"OpenStreetMap","sourceUpdatedAt":null,"verifiedAt":null}},{"type":"Feature","geometry":{"type":"Point","coordinates":[18.9105407,47.8012626]},"properties":{"id":"water:c273744f-e0a4-4636-82be-ec8fd720d0a5","kind":"water","longitude":18.9105407,"latitude":47.8012626,"name":"Ivókút","city":null,"address":null,"covered":null,"access":null,"website":null,"phone":null,"source":"OpenStreetMap","sourceUpdatedAt":null,"verifiedAt":null}},{"type":"Feature","geometry":{"type":"Point","coordinates":[18.901,47.808683]},"properties":{"id":"water:cb11ec2d-c829-4fc7-b9bf-7d68a01b9e8c","kind":"water","longitude":18.901,"latitude":47.808683,"name":"Ivókút","city":null,"address":null,"covered":null,"access":null,"website":null,"phone":null,"source":"OpenStreetMap","sourceUpdatedAt":null,"verifiedAt":null}},{"type":"Feature","geometry":{"type":"Point","coordinates":[18.9082862,47.8016614]},"properties":{"id":"water:f5cfa6e4-129e-4602-80f2-788784e9d59d","kind":"water","longitude":18.9082862,"latitude":47.8016614,"name":"Ivókút","city":null,"address":null,"covered":null,"access":null,"website":null,"phone":null,"source":"OpenStreetMap","sourceUpdatedAt":null,"verifiedAt":null}},{"type":"Feature","geometry":{"type":"Point","coordinates":[18.9081982,47.8008074]},"properties":{"id":"water:f8cae49a-61dc-4a35-96ae-88964fabd23d","kind":"water","longitude":18.9081982,"latitude":47.8008074,"name":"Ivókút","city":null,"address":null,"covered":null,"access":null,"website":null,"phone":null,"source":"OpenStreetMap","sourceUpdatedAt":null,"verifiedAt":null}}]}