{"type":"FeatureCollection","features":[{"type":"Feature","geometry":{"type":"Point","coordinates":[18.9359437,47.3569005]},"properties":{"id":"bikerack:3565feee-8b97-4c07-894a-fff24a6268fa","kind":"bikerack","longitude":18.9359437,"latitude":47.3569005,"name":"Biciklitároló","city":"Szazhalombatta","address":null,"covered":false,"access":null,"website":null,"phone":null,"source":"OpenStreetMap/node/7158701595","sourceUpdatedAt":null,"verifiedAt":null}},{"type":"Feature","geometry":{"type":"Point","coordinates":[18.928349,47.36109]},"properties":{"id":"water:167ccc46-dd42-4a2d-a714-9a4a43c3cd40","kind":"water","longitude":18.928349,"latitude":47.36109,"name":"Ivókút","city":null,"address":null,"covered":null,"access":null,"website":null,"phone":null,"source":"OpenStreetMap","sourceUpdatedAt":null,"verifiedAt":null}},{"type":"Feature","geometry":{"type":"Point","coordinates":[18.9360338,47.3568908]},"properties":{"id":"water:f004e5f2-8095-4300-ad78-9f4fc7720924","kind":"water","longitude":18.9360338,"latitude":47.3568908,"name":"Ivókút","city":null,"address":null,"covered":null,"access":null,"website":null,"phone":null,"source":"OpenStreetMap","sourceUpdatedAt":null,"verifiedAt":null}}]}