{"type":"FeatureCollection","features":[{"type":"Feature","geometry":{"type":"Point","coordinates":[23.1418324,53.0189792]},"properties":{"id":"bikerack:b2b51b0a-9afa-4c4d-8162-9a324f041209","kind":"bikerack","longitude":23.1418324,"latitude":53.0189792,"name":"Biciklitároló","city":"Turosn Koscielna","address":null,"covered":false,"access":null,"website":null,"phone":null,"source":"OpenStreetMap/node/12740121379","sourceUpdatedAt":null,"verifiedAt":null}},{"type":"Feature","geometry":{"type":"Point","coordinates":[23.1350465,53.0238044]},"properties":{"id":"bikerack:b4bef255-5316-47fa-ad6b-c9b6758c8dab","kind":"bikerack","longitude":23.1350465,"latitude":53.0238044,"name":"Biciklitároló","city":"Turosn Koscielna","address":null,"covered":false,"access":null,"website":null,"phone":null,"source":"OpenStreetMap/node/11779944981","sourceUpdatedAt":null,"verifiedAt":null}}]}