{"type":"FeatureCollection","features":[{"type":"Feature","geometry":{"type":"Point","coordinates":[14.7141129,53.4122749]},"properties":{"id":"bikerack:564e9f75-4f5f-497a-91bc-a1cdef755114","kind":"bikerack","longitude":14.7141129,"latitude":53.4122749,"name":"Bike&Ride","city":"Stare Czarnowo","address":null,"covered":false,"access":null,"website":null,"phone":null,"source":"OpenStreetMap/way/1180419437","sourceUpdatedAt":null,"verifiedAt":null}},{"type":"Feature","geometry":{"type":"Point","coordinates":[14.6999321,53.4345195]},"properties":{"id":"bikerack:abfd13b7-99b1-436f-81ef-dc65620b80ad","kind":"bikerack","longitude":14.6999321,"latitude":53.4345195,"name":"Biciklitároló","city":"Szczecin","address":null,"covered":false,"access":null,"website":null,"phone":null,"source":"OpenStreetMap/way/1079236788","sourceUpdatedAt":null,"verifiedAt":null}},{"type":"Feature","geometry":{"type":"Point","coordinates":[14.7131882,53.4201222]},"properties":{"id":"bikerack:dd3d62c3-f114-47fc-9db3-672f48234e10","kind":"bikerack","longitude":14.7131882,"latitude":53.4201222,"name":"Biciklitároló","city":"Stare Czarnowo","address":null,"covered":true,"access":null,"website":null,"phone":null,"source":"OpenStreetMap/way/1304310109","sourceUpdatedAt":null,"verifiedAt":null}},{"type":"Feature","geometry":{"type":"Point","coordinates":[14.6998923,53.4345007]},"properties":{"id":"bikerack:e475a8a9-f561-49a2-8304-3c6723a872e9","kind":"bikerack","longitude":14.6998923,"latitude":53.4345007,"name":"Biciklitároló","city":"Szczecin","address":null,"covered":false,"access":null,"website":null,"phone":null,"source":"OpenStreetMap/way/1079236786","sourceUpdatedAt":null,"verifiedAt":null}}]}