{"type":"FeatureCollection","features":[{"type":"Feature","geometry":{"type":"Point","coordinates":[13.914234,54.080209]},"properties":{"id":"bikerack:092a5fa6-968f-4d44-9427-782da77e66c4","kind":"bikerack","longitude":13.914234,"latitude":54.080209,"name":"Fahrradabstellplatz","city":"Ostseebad Zinnowitz","address":null,"covered":false,"access":null,"website":null,"phone":null,"source":"OpenStreetMap/node/6913418080","sourceUpdatedAt":null,"verifiedAt":null}},{"type":"Feature","geometry":{"type":"Point","coordinates":[13.9146436,54.0807544]},"properties":{"id":"bikerack:103906d2-de37-42e0-b534-f8310efd44f2","kind":"bikerack","longitude":13.9146436,"latitude":54.0807544,"name":"Fahrradabstellplatz","city":"Ostseebad Zinnowitz","address":null,"covered":false,"access":null,"website":null,"phone":null,"source":"OpenStreetMap/node/11758205726","sourceUpdatedAt":null,"verifiedAt":null}},{"type":"Feature","geometry":{"type":"Point","coordinates":[13.9129395,54.0789137]},"properties":{"id":"bikerack:1156e4fc-8e53-4d60-a2e1-4a5000856b16","kind":"bikerack","longitude":13.9129395,"latitude":54.0789137,"name":"Fahrradabstellplatz","city":"Ostseebad Zinnowitz","address":null,"covered":false,"access":null,"website":null,"phone":null,"source":"OpenStreetMap/way/1161524963","sourceUpdatedAt":null,"verifiedAt":null}},{"type":"Feature","geometry":{"type":"Point","coordinates":[13.9110002,54.0825805]},"properties":{"id":"bikerack:20637b56-a39f-43d0-93a9-90d43b6ce493","kind":"bikerack","longitude":13.9110002,"latitude":54.0825805,"name":"Fahrradabstellplatz","city":"Ostseebad Zinnowitz","address":null,"covered":false,"access":null,"website":null,"phone":null,"source":"OpenStreetMap/node/9796368973","sourceUpdatedAt":null,"verifiedAt":null}},{"type":"Feature","geometry":{"type":"Point","coordinates":[13.9196206,54.0796176]},"properties":{"id":"bikerack:40faa18d-87c3-4751-98b8-89f7766d489f","kind":"bikerack","longitude":13.9196206,"latitude":54.0796176,"name":"Fahrradabstellplatz","city":"Ostseebad Zinnowitz","address":null,"covered":false,"access":null,"website":null,"phone":null,"source":"OpenStreetMap/node/8996859035","sourceUpdatedAt":null,"verifiedAt":null}},{"type":"Feature","geometry":{"type":"Point","coordinates":[13.9080604,54.0836846]},"properties":{"id":"bikerack:54de8797-cb44-449a-af37-2c1fb31f34e3","kind":"bikerack","longitude":13.9080604,"latitude":54.0836846,"name":"Fahrradabstellplatz","city":"Ostseebad Zinnowitz","address":null,"covered":false,"access":null,"website":null,"phone":null,"source":"OpenStreetMap/node/6240023023","sourceUpdatedAt":null,"verifiedAt":null}},{"type":"Feature","geometry":{"type":"Point","coordinates":[13.9082033,54.0744378]},"properties":{"id":"bikerack:56fc6461-c351-4d22-86a6-17bb5e945f62","kind":"bikerack","longitude":13.9082033,"latitude":54.0744378,"name":"Fahrradabstellplatz","city":"Ostseebad Zinnowitz","address":null,"covered":false,"access":null,"website":null,"phone":null,"source":"OpenStreetMap/node/13055885798","sourceUpdatedAt":null,"verifiedAt":null}},{"type":"Feature","geometry":{"type":"Point","coordinates":[13.903842,54.0757115]},"properties":{"id":"bikerack:7554609a-c783-49da-b211-fe75d80e189f","kind":"bikerack","longitude":13.903842,"latitude":54.0757115,"name":"Fahrradabstellplatz","city":"Ostseebad Zinnowitz","address":null,"covered":false,"access":null,"website":null,"phone":null,"source":"OpenStreetMap/node/10753063108","sourceUpdatedAt":null,"verifiedAt":null}},{"type":"Feature","geometry":{"type":"Point","coordinates":[13.9138742,54.0787034]},"properties":{"id":"bikerack:794a27af-2fe7-4073-bd15-ec99ab7cb584","kind":"bikerack","longitude":13.9138742,"latitude":54.0787034,"name":"Fahrradabstellplatz","city":"Ostseebad Zinnowitz","address":null,"covered":false,"access":null,"website":null,"phone":null,"source":"OpenStreetMap/node/11187623713","sourceUpdatedAt":null,"verifiedAt":null}},{"type":"Feature","geometry":{"type":"Point","coordinates":[13.9091128,54.0803638]},"properties":{"id":"bikerack:7d63577a-13ba-494a-8bef-b1950f2a7c9d","kind":"bikerack","longitude":13.9091128,"latitude":54.0803638,"name":"Fahrradabstellplatz","city":"Ostseebad Zinnowitz","address":null,"covered":false,"access":null,"website":null,"phone":null,"source":"OpenStreetMap/node/6612901839","sourceUpdatedAt":null,"verifiedAt":null}},{"type":"Feature","geometry":{"type":"Point","coordinates":[13.9121595,54.0793763]},"properties":{"id":"bikerack:90533a5c-d1e4-456e-86c9-c4d5c5bbea1f","kind":"bikerack","longitude":13.9121595,"latitude":54.0793763,"name":"Fahrradabstellplatz","city":"Ostseebad Zinnowitz","address":null,"covered":false,"access":null,"website":null,"phone":null,"source":"OpenStreetMap/node/9798306527","sourceUpdatedAt":null,"verifiedAt":null}},{"type":"Feature","geometry":{"type":"Point","coordinates":[13.912933,54.0789653]},"properties":{"id":"bikerack:942372e8-3cbb-43ff-a65e-e0dd4f27f893","kind":"bikerack","longitude":13.912933,"latitude":54.0789653,"name":"Fahrradabstellplatz","city":"Ostseebad Zinnowitz","address":null,"covered":false,"access":null,"website":null,"phone":null,"source":"OpenStreetMap/way/1082368109","sourceUpdatedAt":null,"verifiedAt":null}},{"type":"Feature","geometry":{"type":"Point","coordinates":[13.9041705,54.0755718]},"properties":{"id":"bikerack:a5b98e6d-81f7-462d-9df0-2229afe5ec32","kind":"bikerack","longitude":13.9041705,"latitude":54.0755718,"name":"Fahrradabstellplatz","city":"Ostseebad Zinnowitz","address":null,"covered":true,"access":null,"website":null,"phone":null,"source":"OpenStreetMap/node/10753063107","sourceUpdatedAt":null,"verifiedAt":null}},{"type":"Feature","geometry":{"type":"Point","coordinates":[13.9141683,54.0815129]},"properties":{"id":"bikerack:ae237d5c-cf6e-4ece-92f2-0c3efe210ac3","kind":"bikerack","longitude":13.9141683,"latitude":54.0815129,"name":"Fahrradabstellplatz","city":"Ostseebad Zinnowitz","address":null,"covered":false,"access":null,"website":null,"phone":null,"source":"OpenStreetMap/node/7813834282","sourceUpdatedAt":null,"verifiedAt":null}},{"type":"Feature","geometry":{"type":"Point","coordinates":[13.9119583,54.078568]},"properties":{"id":"bikerack:b15e2d06-ac0d-489a-875f-69608819b8b1","kind":"bikerack","longitude":13.9119583,"latitude":54.078568,"name":"Fahrradabstellplatz","city":"Ostseebad Zinnowitz","address":null,"covered":false,"access":null,"website":null,"phone":null,"source":"OpenStreetMap/node/10803094882","sourceUpdatedAt":null,"verifiedAt":null}},{"type":"Feature","geometry":{"type":"Point","coordinates":[13.9112853,54.0825823]},"properties":{"id":"bikerack:b2e791b5-628d-4e49-ad2a-005d31c5ceff","kind":"bikerack","longitude":13.9112853,"latitude":54.0825823,"name":"Fahrradabstellplatz","city":"Ostseebad Zinnowitz","address":null,"covered":false,"access":null,"website":null,"phone":null,"source":"OpenStreetMap/node/9796368978","sourceUpdatedAt":null,"verifiedAt":null}},{"type":"Feature","geometry":{"type":"Point","coordinates":[13.914078,54.0803618]},"properties":{"id":"bikerack:b5a759d9-b341-4b0b-9ba9-e6e513490f52","kind":"bikerack","longitude":13.914078,"latitude":54.0803618,"name":"Fahrradabstellplatz","city":"Ostseebad Zinnowitz","address":null,"covered":false,"access":null,"website":null,"phone":null,"source":"OpenStreetMap/node/6913418083","sourceUpdatedAt":null,"verifiedAt":null}},{"type":"Feature","geometry":{"type":"Point","coordinates":[13.9172721,54.08063]},"properties":{"id":"bikerack:bc9ecf25-5e11-4f09-8373-05bbc8fe0104","kind":"bikerack","longitude":13.9172721,"latitude":54.08063,"name":"Fahrradabstellplatz","city":"Ostseebad Zinnowitz","address":null,"covered":false,"access":null,"website":null,"phone":null,"source":"OpenStreetMap/node/6412569464","sourceUpdatedAt":null,"verifiedAt":null}},{"type":"Feature","geometry":{"type":"Point","coordinates":[13.9085055,54.0743378]},"properties":{"id":"bikerack:be5e3c04-56c0-41b8-8817-2ca6e806d583","kind":"bikerack","longitude":13.9085055,"latitude":54.0743378,"name":"Fahrradabstellplatz","city":"Ostseebad Zinnowitz","address":null,"covered":false,"access":null,"website":null,"phone":null,"source":"OpenStreetMap/node/13055915622","sourceUpdatedAt":null,"verifiedAt":null}},{"type":"Feature","geometry":{"type":"Point","coordinates":[13.908285,54.0805921]},"properties":{"id":"bikerack:c6e13829-c359-4882-8df6-07502157ad67","kind":"bikerack","longitude":13.908285,"latitude":54.0805921,"name":"Fahrradabstellplatz","city":"Ostseebad Zinnowitz","address":null,"covered":false,"access":null,"website":null,"phone":null,"source":"OpenStreetMap/node/9798212014","sourceUpdatedAt":null,"verifiedAt":null}},{"type":"Feature","geometry":{"type":"Point","coordinates":[13.9111811,54.0798281]},"properties":{"id":"bikerack:d0cf817b-9333-40df-bb37-a4b7d2f540b9","kind":"bikerack","longitude":13.9111811,"latitude":54.0798281,"name":"Fahrradabstellplatz","city":"Ostseebad Zinnowitz","address":null,"covered":false,"access":null,"website":null,"phone":null,"source":"OpenStreetMap/node/9798292301","sourceUpdatedAt":null,"verifiedAt":null}},{"type":"Feature","geometry":{"type":"Point","coordinates":[13.9138811,54.0796721]},"properties":{"id":"bikerack:d2585744-ee2f-412d-9d7b-0fd7937fdb99","kind":"bikerack","longitude":13.9138811,"latitude":54.0796721,"name":"Fahrradabstellplatz","city":"Ostseebad Zinnowitz","address":null,"covered":false,"access":null,"website":null,"phone":null,"source":"OpenStreetMap/node/6913418077","sourceUpdatedAt":null,"verifiedAt":null}},{"type":"Feature","geometry":{"type":"Point","coordinates":[13.904086,54.0791122]},"properties":{"id":"bikerack:d3ccc109-68bf-4772-aeda-be784dbfcea2","kind":"bikerack","longitude":13.904086,"latitude":54.0791122,"name":"Fahrradabstellplatz","city":"Ostseebad Zinnowitz","address":null,"covered":true,"access":null,"website":null,"phone":null,"source":"OpenStreetMap/node/9794213472","sourceUpdatedAt":null,"verifiedAt":null}},{"type":"Feature","geometry":{"type":"Point","coordinates":[13.9041154,54.0755231]},"properties":{"id":"bikerack:e0be8976-b008-4f7b-8688-ef0ed6385ca4","kind":"bikerack","longitude":13.9041154,"latitude":54.0755231,"name":"Fahrradabstellplatz","city":"Ostseebad Zinnowitz","address":null,"covered":false,"access":null,"website":null,"phone":null,"source":"OpenStreetMap/node/11758379746","sourceUpdatedAt":null,"verifiedAt":null}},{"type":"Feature","geometry":{"type":"Point","coordinates":[13.9201849,54.079431]},"properties":{"id":"bikerack:e2642017-8df7-4e80-a8ce-11f115a1c051","kind":"bikerack","longitude":13.9201849,"latitude":54.079431,"name":"Fahrradabstellplatz","city":"Ostseebad Zinnowitz","address":null,"covered":false,"access":null,"website":null,"phone":null,"source":"OpenStreetMap/node/8996874369","sourceUpdatedAt":null,"verifiedAt":null}},{"type":"Feature","geometry":{"type":"Point","coordinates":[13.9062689,54.0750342]},"properties":{"id":"bikerack:eb8b28b1-d25f-40fe-ace7-4749e63549fb","kind":"bikerack","longitude":13.9062689,"latitude":54.0750342,"name":"Fahrradabstellplatz","city":"Ostseebad Zinnowitz","address":null,"covered":false,"access":null,"website":null,"phone":null,"source":"OpenStreetMap/node/12896612939","sourceUpdatedAt":null,"verifiedAt":null}},{"type":"Feature","geometry":{"type":"Point","coordinates":[13.9041116,54.0790863]},"properties":{"id":"bikerack:eda06370-9bce-4d6c-8382-0fd9e3ddfa04","kind":"bikerack","longitude":13.9041116,"latitude":54.0790863,"name":"Fahrradabstellplatz","city":"Ostseebad Zinnowitz","address":null,"covered":false,"access":null,"website":null,"phone":null,"source":"OpenStreetMap/node/9794213476","sourceUpdatedAt":null,"verifiedAt":null}},{"type":"Feature","geometry":{"type":"Point","coordinates":[13.9103597,54.0787931]},"properties":{"id":"bikerack:ee544c3a-8eca-493e-9348-b21c3b94dbb3","kind":"bikerack","longitude":13.9103597,"latitude":54.0787931,"name":"Fahrradabstellplatz","city":"Ostseebad Zinnowitz","address":null,"covered":false,"access":null,"website":null,"phone":null,"source":"OpenStreetMap/node/10803094895","sourceUpdatedAt":null,"verifiedAt":null}},{"type":"Feature","geometry":{"type":"Point","coordinates":[13.9274562,54.0770242]},"properties":{"id":"bikerack:ef9e8390-d5be-413f-af55-6d3553b74e9f","kind":"bikerack","longitude":13.9274562,"latitude":54.0770242,"name":"Fahrradabstellplatz","city":"Ostseebad Zinnowitz","address":null,"covered":false,"access":null,"website":null,"phone":null,"source":"OpenStreetMap/node/3944383966","sourceUpdatedAt":null,"verifiedAt":null}},{"type":"Feature","geometry":{"type":"Point","coordinates":[13.9172244,54.063398]},"properties":{"id":"bikerack:fdab6235-c00d-4266-8121-16cd928e170b","kind":"bikerack","longitude":13.9172244,"latitude":54.063398,"name":"Fahrradabstellplatz","city":"Ostseebad Zinnowitz","address":null,"covered":false,"access":null,"website":null,"phone":null,"source":"OpenStreetMap/node/12770349531","sourceUpdatedAt":null,"verifiedAt":null}},{"type":"Feature","geometry":{"type":"Point","coordinates":[13.9068827,54.0842319]},"properties":{"id":"bikerack:febfd21a-c38c-46bc-bed5-1ceeff962789","kind":"bikerack","longitude":13.9068827,"latitude":54.0842319,"name":"Fahrradabstellplatz","city":"Ostseebad Zinnowitz","address":null,"covered":false,"access":null,"website":null,"phone":null,"source":"OpenStreetMap/way/969629620","sourceUpdatedAt":null,"verifiedAt":null}},{"type":"Feature","geometry":{"type":"Point","coordinates":[13.9080974,54.0791993]},"properties":{"id":"service:2c19ce6d-38b6-4cd0-bbd5-032283453ea0","kind":"service","longitude":13.9080974,"latitude":54.0791993,"name":"Fahrradverleih Kruggel","city":"Zinnowitz","address":null,"covered":null,"access":null,"website":null,"phone":null,"source":"OpenStreetMap/node/1488968235","sourceUpdatedAt":null,"verifiedAt":null}},{"type":"Feature","geometry":{"type":"Point","coordinates":[13.8973944,54.0851044]},"properties":{"id":"water:02936173-383b-424d-946c-d588360f17e7","kind":"water","longitude":13.8973944,"latitude":54.0851044,"name":"Trinkwasser","city":"Ostseebad Zinnowitz","address":null,"covered":null,"access":null,"website":null,"phone":null,"source":"OpenStreetMap/node/9040056488","sourceUpdatedAt":null,"verifiedAt":null}},{"type":"Feature","geometry":{"type":"Point","coordinates":[13.8972614,54.0836413]},"properties":{"id":"water:a64b8aff-c2f9-4688-9f08-061545d5ba84","kind":"water","longitude":13.8972614,"latitude":54.0836413,"name":"Trinkwasser","city":"Ostseebad Zinnowitz","address":null,"covered":null,"access":null,"website":null,"phone":null,"source":"OpenStreetMap/node/9040133902","sourceUpdatedAt":null,"verifiedAt":null}},{"type":"Feature","geometry":{"type":"Point","coordinates":[13.8989726,54.0840533]},"properties":{"id":"water:aab3cf6d-8634-46da-b124-66eaecaa90ff","kind":"water","longitude":13.8989726,"latitude":54.0840533,"name":"Trinkwasser","city":"Ostseebad Zinnowitz","address":null,"covered":null,"access":null,"website":null,"phone":null,"source":"OpenStreetMap/node/9040113260","sourceUpdatedAt":null,"verifiedAt":null}},{"type":"Feature","geometry":{"type":"Point","coordinates":[13.8969854,54.0851217]},"properties":{"id":"water:b6e77c99-fa78-434e-99cc-8d0f93cf14b3","kind":"water","longitude":13.8969854,"latitude":54.0851217,"name":"Trinkwasser","city":"Ostseebad Zinnowitz","address":null,"covered":null,"access":null,"website":null,"phone":null,"source":"OpenStreetMap/node/9040098707","sourceUpdatedAt":null,"verifiedAt":null}}]}