{"type":"FeatureCollection","features":[{"type":"Feature","geometry":{"type":"Point","coordinates":[13.9189484,47.6415995]},"properties":{"id":"bikerack:6fd4cf73-6188-4244-a881-2a11a14c620b","kind":"bikerack","longitude":13.9189484,"latitude":47.6415995,"name":"Biciklitároló","city":"Tauplitz","address":null,"covered":false,"access":null,"website":null,"phone":null,"source":"OpenStreetMap/node/8974739392","sourceUpdatedAt":null,"verifiedAt":null}},{"type":"Feature","geometry":{"type":"Point","coordinates":[13.9032318,47.6363035]},"properties":{"id":"water:21d3b71f-e7f8-439b-b8c6-187b89db000f","kind":"water","longitude":13.9032318,"latitude":47.6363035,"name":"Ivókút","city":"Bad Aussee","address":null,"covered":null,"access":null,"website":null,"phone":null,"source":"OpenStreetMap/node/3015395564","sourceUpdatedAt":null,"verifiedAt":null}},{"type":"Feature","geometry":{"type":"Point","coordinates":[13.888,47.6418124]},"properties":{"id":"water:3f4dd241-1573-47f2-b783-e7415dc2c7e6","kind":"water","longitude":13.888,"latitude":47.6418124,"name":"Ivókút","city":"Bad Aussee","address":null,"covered":null,"access":null,"website":null,"phone":null,"source":"OpenStreetMap/node/6794757074","sourceUpdatedAt":null,"verifiedAt":null}},{"type":"Feature","geometry":{"type":"Point","coordinates":[13.8969688,47.6560151]},"properties":{"id":"water:4a0ecfcd-158f-459b-b232-7d114cb3ae17","kind":"water","longitude":13.8969688,"latitude":47.6560151,"name":"Ivókút","city":"Bad Aussee","address":null,"covered":null,"access":null,"website":null,"phone":null,"source":"OpenStreetMap/node/11037029466","sourceUpdatedAt":null,"verifiedAt":null}},{"type":"Feature","geometry":{"type":"Point","coordinates":[13.929298,47.6576061]},"properties":{"id":"water:73545c0e-d910-4d20-92ef-d5d5fedd576a","kind":"water","longitude":13.929298,"latitude":47.6576061,"name":"Quelle","city":"Tauplitz","address":null,"covered":null,"access":null,"website":null,"phone":null,"source":"OpenStreetMap/node/939214985","sourceUpdatedAt":null,"verifiedAt":null}}]}