{"type":"FeatureCollection","features":[{"type":"Feature","geometry":{"type":"Point","coordinates":[13.8977448,46.8494217]},"properties":{"id":"water:3789b490-9f17-4945-976a-5cd531be5fcb","kind":"water","longitude":13.8977448,"latitude":46.8494217,"name":"Ivókút","city":"Gnesau","address":null,"covered":null,"access":null,"website":null,"phone":null,"source":"OpenStreetMap/node/13408930504","sourceUpdatedAt":null,"verifiedAt":null}},{"type":"Feature","geometry":{"type":"Point","coordinates":[13.9086264,46.8419002]},"properties":{"id":"water:459ce9c5-2417-411e-9d0e-ef4f313a61b0","kind":"water","longitude":13.9086264,"latitude":46.8419002,"name":"Ivókút","city":"Gnesau","address":null,"covered":null,"access":null,"website":null,"phone":null,"source":"OpenStreetMap/node/11142107699","sourceUpdatedAt":null,"verifiedAt":null}},{"type":"Feature","geometry":{"type":"Point","coordinates":[13.8938416,46.8544884]},"properties":{"id":"water:6f951260-24d3-4900-b2fb-b603964cdc39","kind":"water","longitude":13.8938416,"latitude":46.8544884,"name":"Ivókút","city":"Gnesau","address":null,"covered":null,"access":null,"website":null,"phone":null,"source":"OpenStreetMap/node/4788723418","sourceUpdatedAt":null,"verifiedAt":null}},{"type":"Feature","geometry":{"type":"Point","coordinates":[13.9120811,46.8437659]},"properties":{"id":"water:827ea12f-9d8b-4a07-b8fe-4f675b6edf0e","kind":"water","longitude":13.9120811,"latitude":46.8437659,"name":"Ivókút","city":"Gnesau","address":null,"covered":null,"access":null,"website":null,"phone":null,"source":"OpenStreetMap/node/11142058152","sourceUpdatedAt":null,"verifiedAt":null}},{"type":"Feature","geometry":{"type":"Point","coordinates":[13.9241182,46.8332561]},"properties":{"id":"water:ab40233b-d06e-467e-af0c-c74326fe2245","kind":"water","longitude":13.9241182,"latitude":46.8332561,"name":"Ivókút","city":"Gnesau","address":null,"covered":null,"access":null,"website":null,"phone":null,"source":"OpenStreetMap/node/13019612930","sourceUpdatedAt":null,"verifiedAt":null}}]}