{"type":"FeatureCollection","features":[{"type":"Feature","geometry":{"type":"Point","coordinates":[13.9162173,46.3910483]},"properties":{"id":"water:a2aeaa87-eef9-4962-a1df-406bbe7ee023","kind":"water","longitude":13.9162173,"latitude":46.3910483,"name":"Ivókút","city":"Mojstrana","address":null,"covered":null,"access":null,"website":null,"phone":null,"source":"OpenStreetMap/node/304352453","sourceUpdatedAt":null,"verifiedAt":null}},{"type":"Feature","geometry":{"type":"Point","coordinates":[13.9073451,46.3849731]},"properties":{"id":"water:fc72fcae-cd98-41b2-9851-749de8b2c08f","kind":"water","longitude":13.9073451,"latitude":46.3849731,"name":"Ivókút","city":"Mojstrana","address":null,"covered":null,"access":null,"website":null,"phone":null,"source":"OpenStreetMap/node/2914618461","sourceUpdatedAt":null,"verifiedAt":null}}]}