{"type":"FeatureCollection","features":[{"type":"Feature","geometry":{"type":"Point","coordinates":[13.9087375,45.5901834]},"properties":{"id":"water:7c72cb22-af8b-4292-b400-7f0759825b78","kind":"water","longitude":13.9087375,"latitude":45.5901834,"name":"Ivókút","city":"Kozina","address":null,"covered":null,"access":null,"website":null,"phone":null,"source":"OpenStreetMap/node/1340978340","sourceUpdatedAt":null,"verifiedAt":null}},{"type":"Feature","geometry":{"type":"Point","coordinates":[13.8937295,45.5990397]},"properties":{"id":"water:e72c8279-7a40-47c1-bc95-f89bb549ac5b","kind":"water","longitude":13.8937295,"latitude":45.5990397,"name":"Ivókút","city":"Dolina","address":null,"covered":null,"access":null,"website":null,"phone":null,"source":"OpenStreetMap/node/910395062","sourceUpdatedAt":null,"verifiedAt":null}}]}