{"type":"FeatureCollection","features":[{"type":"Feature","geometry":{"type":"Point","coordinates":[13.875736,51.9471207]},"properties":{"id":"bikerack:19a1b1be-24e7-491b-8f40-00e80978ec2c","kind":"bikerack","longitude":13.875736,"latitude":51.9471207,"name":"Fahrradabstellplatz","city":"Luebben","address":null,"covered":false,"access":null,"website":null,"phone":null,"source":"OpenStreetMap/node/3245847562","sourceUpdatedAt":null,"verifiedAt":null}},{"type":"Feature","geometry":{"type":"Point","coordinates":[13.8760601,51.9462776]},"properties":{"id":"bikerack:1e075b9c-6a7b-4576-822a-a1d0ced236d6","kind":"bikerack","longitude":13.8760601,"latitude":51.9462776,"name":"Fahrradabstellplatz","city":"Luebben","address":null,"covered":false,"access":null,"website":null,"phone":null,"source":"OpenStreetMap/node/3245847162","sourceUpdatedAt":null,"verifiedAt":null}},{"type":"Feature","geometry":{"type":"Point","coordinates":[13.875484,51.9462888]},"properties":{"id":"bikerack:29eaf392-b623-4ac8-866d-c921fb424dbd","kind":"bikerack","longitude":13.875484,"latitude":51.9462888,"name":"Fahrradabstellplatz","city":"Luebben","address":null,"covered":false,"access":null,"website":null,"phone":null,"source":"OpenStreetMap/node/3245846962","sourceUpdatedAt":null,"verifiedAt":null}},{"type":"Feature","geometry":{"type":"Point","coordinates":[13.875885,51.9458812]},"properties":{"id":"bikerack:449ce28a-cf3e-4d33-8ac1-0ac25fb6dac4","kind":"bikerack","longitude":13.875885,"latitude":51.9458812,"name":"Fahrradabstellplatz","city":"Luebben","address":null,"covered":false,"access":null,"website":null,"phone":null,"source":"OpenStreetMap/node/3245846662","sourceUpdatedAt":null,"verifiedAt":null}},{"type":"Feature","geometry":{"type":"Point","coordinates":[13.8757107,51.9467109]},"properties":{"id":"bikerack:47cd7f08-93d1-4ecc-b88f-853a2d6a5e27","kind":"bikerack","longitude":13.8757107,"latitude":51.9467109,"name":"Fahrradabstellplatz","city":"Luebben","address":null,"covered":false,"access":null,"website":null,"phone":null,"source":"OpenStreetMap/node/3245847463","sourceUpdatedAt":null,"verifiedAt":null}},{"type":"Feature","geometry":{"type":"Point","coordinates":[13.8759444,51.9471172]},"properties":{"id":"bikerack:49ab1a83-0197-4ad2-a15f-258d4c012452","kind":"bikerack","longitude":13.8759444,"latitude":51.9471172,"name":"Fahrradabstellplatz","city":"Luebben","address":null,"covered":false,"access":null,"website":null,"phone":null,"source":"OpenStreetMap/node/3245847661","sourceUpdatedAt":null,"verifiedAt":null}},{"type":"Feature","geometry":{"type":"Point","coordinates":[13.8756541,51.9462856]},"properties":{"id":"bikerack:93f7d3d7-2add-4ca6-ae31-272a43c97896","kind":"bikerack","longitude":13.8756541,"latitude":51.9462856,"name":"Fahrradabstellplatz","city":"Luebben","address":null,"covered":false,"access":null,"website":null,"phone":null,"source":"OpenStreetMap/node/3245846864","sourceUpdatedAt":null,"verifiedAt":null}},{"type":"Feature","geometry":{"type":"Point","coordinates":[13.8755445,51.9471258]},"properties":{"id":"bikerack:948d0b3b-41e3-4e50-b343-a28530d07cb2","kind":"bikerack","longitude":13.8755445,"latitude":51.9471258,"name":"Fahrradabstellplatz","city":"Luebben","address":null,"covered":false,"access":null,"website":null,"phone":null,"source":"OpenStreetMap/node/3245848161","sourceUpdatedAt":null,"verifiedAt":null}},{"type":"Feature","geometry":{"type":"Point","coordinates":[13.8759064,51.9467081]},"properties":{"id":"bikerack:ac51550d-be0f-4177-b2e3-fe798fe84e62","kind":"bikerack","longitude":13.8759064,"latitude":51.9467081,"name":"Fahrradabstellplatz","city":"Luebben","address":null,"covered":false,"access":null,"website":null,"phone":null,"source":"OpenStreetMap/node/3245847461","sourceUpdatedAt":null,"verifiedAt":null}},{"type":"Feature","geometry":{"type":"Point","coordinates":[13.8757055,51.945883]},"properties":{"id":"bikerack:b2e62c8f-63e7-4e22-ae7a-38813810822a","kind":"bikerack","longitude":13.8757055,"latitude":51.945883,"name":"Fahrradabstellplatz","city":"Luebben","address":null,"covered":false,"access":null,"website":null,"phone":null,"source":"OpenStreetMap/node/3245846861","sourceUpdatedAt":null,"verifiedAt":null}},{"type":"Feature","geometry":{"type":"Point","coordinates":[13.8760627,51.9458758]},"properties":{"id":"bikerack:c74a4183-410c-41ba-9577-732456d93ec0","kind":"bikerack","longitude":13.8760627,"latitude":51.9458758,"name":"Fahrradabstellplatz","city":"Luebben","address":null,"covered":false,"access":null,"website":null,"phone":null,"source":"OpenStreetMap/node/3245846661","sourceUpdatedAt":null,"verifiedAt":null}},{"type":"Feature","geometry":{"type":"Point","coordinates":[13.8761032,51.9467036]},"properties":{"id":"bikerack:e55da4f7-a6f9-42a3-b877-e5b6a84ec355","kind":"bikerack","longitude":13.8761032,"latitude":51.9467036,"name":"Fahrradabstellplatz","city":"Luebben","address":null,"covered":false,"access":null,"website":null,"phone":null,"source":"OpenStreetMap/node/3245846965","sourceUpdatedAt":null,"verifiedAt":null}},{"type":"Feature","geometry":{"type":"Point","coordinates":[13.8754742,51.9458921]},"properties":{"id":"bikerack:ec92df00-79ae-43df-857f-d362319b0e9b","kind":"bikerack","longitude":13.8754742,"latitude":51.9458921,"name":"Fahrradabstellplatz","city":"Luebben","address":null,"covered":false,"access":null,"website":null,"phone":null,"source":"OpenStreetMap/node/3245846961","sourceUpdatedAt":null,"verifiedAt":null}},{"type":"Feature","geometry":{"type":"Point","coordinates":[13.8755075,51.9467134]},"properties":{"id":"bikerack:f4bafbe9-98cc-45bb-b07d-4e33d80668e9","kind":"bikerack","longitude":13.8755075,"latitude":51.9467134,"name":"Fahrradabstellplatz","city":"Luebben","address":null,"covered":false,"access":null,"website":null,"phone":null,"source":"OpenStreetMap/node/3245847066","sourceUpdatedAt":null,"verifiedAt":null}},{"type":"Feature","geometry":{"type":"Point","coordinates":[13.875852,51.9462815]},"properties":{"id":"bikerack:f77be446-262b-4071-b7d9-c5cfd4703d64","kind":"bikerack","longitude":13.875852,"latitude":51.9462815,"name":"Fahrradabstellplatz","city":"Luebben","address":null,"covered":false,"access":null,"website":null,"phone":null,"source":"OpenStreetMap/node/3245846863","sourceUpdatedAt":null,"verifiedAt":null}},{"type":"Feature","geometry":{"type":"Point","coordinates":[13.876118,51.9471132]},"properties":{"id":"bikerack:f7a0e954-37a3-4ef9-bd1c-bdbca1e62490","kind":"bikerack","longitude":13.876118,"latitude":51.9471132,"name":"Fahrradabstellplatz","city":"Luebben","address":null,"covered":false,"access":null,"website":null,"phone":null,"source":"OpenStreetMap/node/3245847466","sourceUpdatedAt":null,"verifiedAt":null}}]}