{"type":"FeatureCollection","features":[{"type":"Feature","geometry":{"type":"Point","coordinates":[13.8784562,45.5501273]},"properties":{"id":"water:cc6a08d1-70e9-483e-8b6c-d274a5181ca0","kind":"water","longitude":13.8784562,"latitude":45.5501273,"name":"Ivókút","city":"Sv. Anton","address":null,"covered":null,"access":null,"website":null,"phone":null,"source":"OpenStreetMap/node/10098394395","sourceUpdatedAt":null,"verifiedAt":null}},{"type":"Feature","geometry":{"type":"Point","coordinates":[13.856623,45.549913]},"properties":{"id":"water:e32b49ef-909e-47e0-a9e0-e4d1b3778fb1","kind":"water","longitude":13.856623,"latitude":45.549913,"name":"Ivókút","city":"Sv. Anton","address":null,"covered":null,"access":null,"website":null,"phone":null,"source":"OpenStreetMap/node/5556123703","sourceUpdatedAt":null,"verifiedAt":null}}]}