{"type":"FeatureCollection","features":[{"type":"Feature","geometry":{"type":"Point","coordinates":[20.618456,50.7484343]},"properties":{"id":"bikerack:005795c4-a316-47d7-8787-3ad2e1aa7778","kind":"bikerack","longitude":20.618456,"latitude":50.7484343,"name":"Biciklitároló","city":"Morawica","address":null,"covered":false,"access":null,"website":null,"phone":null,"source":"OpenStreetMap/node/9016858833","sourceUpdatedAt":null,"verifiedAt":null}},{"type":"Feature","geometry":{"type":"Point","coordinates":[20.6172146,50.7568212]},"properties":{"id":"bikerack:06754aa5-50ac-471d-ba06-4762ad68c8ff","kind":"bikerack","longitude":20.6172146,"latitude":50.7568212,"name":"Biciklitároló","city":"Morawica","address":null,"covered":false,"access":null,"website":null,"phone":null,"source":"OpenStreetMap/way/1359286716","sourceUpdatedAt":null,"verifiedAt":null}},{"type":"Feature","geometry":{"type":"Point","coordinates":[20.6187833,50.7489655]},"properties":{"id":"bikerack:1e3017d6-25e3-4a9a-b2c8-2eef257f8a23","kind":"bikerack","longitude":20.6187833,"latitude":50.7489655,"name":"Biciklitároló","city":"Morawica","address":null,"covered":false,"access":null,"website":null,"phone":null,"source":"OpenStreetMap/node/9016858832","sourceUpdatedAt":null,"verifiedAt":null}},{"type":"Feature","geometry":{"type":"Point","coordinates":[20.6183828,50.743938]},"properties":{"id":"bikerack:6f36aa1f-8313-46c5-aedc-598a1ebb11c7","kind":"bikerack","longitude":20.6183828,"latitude":50.743938,"name":"Biciklitároló","city":"Morawica","address":null,"covered":false,"access":null,"website":null,"phone":null,"source":"OpenStreetMap/node/4203999452","sourceUpdatedAt":null,"verifiedAt":null}},{"type":"Feature","geometry":{"type":"Point","coordinates":[20.6196323,50.7549417]},"properties":{"id":"bikerack:be6dc110-36d2-43ed-b407-89788a1669bc","kind":"bikerack","longitude":20.6196323,"latitude":50.7549417,"name":"Biciklitároló","city":"Morawica","address":null,"covered":false,"access":null,"website":null,"phone":null,"source":"OpenStreetMap/node/12072030713","sourceUpdatedAt":null,"verifiedAt":null}}]}