{"type":"FeatureCollection","features":[{"type":"Feature","geometry":{"type":"Point","coordinates":[20.6403889,49.5826376]},"properties":{"id":"bikerack:a8f96589-af65-4775-8f81-0218ec09c7f0","kind":"bikerack","longitude":20.6403889,"latitude":49.5826376,"name":"Biciklitároló","city":"Stary Sacz","address":null,"covered":false,"access":null,"website":null,"phone":null,"source":"OpenStreetMap/node/3649554448","sourceUpdatedAt":null,"verifiedAt":null}},{"type":"Feature","geometry":{"type":"Point","coordinates":[20.6434775,49.5859137]},"properties":{"id":"bikerack:d965e10d-8d6b-45a1-bf0e-04bc07aceb49","kind":"bikerack","longitude":20.6434775,"latitude":49.5859137,"name":"Biciklitároló","city":"Stary Sacz","address":null,"covered":false,"access":null,"website":null,"phone":null,"source":"OpenStreetMap/node/6363138902","sourceUpdatedAt":null,"verifiedAt":null}},{"type":"Feature","geometry":{"type":"Point","coordinates":[20.6272136,49.5926103]},"properties":{"id":"service:bfc7b57a-d823-4cbb-9c54-ec5513128905","kind":"service","longitude":20.6272136,"latitude":49.5926103,"name":"SKILLEDBIKE Sp. z o.o.","city":"Stary Sacz","address":null,"covered":null,"access":null,"website":null,"phone":null,"source":"OpenStreetMap/node/7283356770","sourceUpdatedAt":null,"verifiedAt":null}}]}