{"type":"FeatureCollection","features":[{"type":"Feature","geometry":{"type":"Point","coordinates":[20.6221818,48.4414933]},"properties":{"id":"water:0b9e47be-8f6f-460e-9b3b-dd0fecc58f0c","kind":"water","longitude":20.6221818,"latitude":48.4414933,"name":"Ivókút","city":null,"address":null,"covered":null,"access":null,"website":null,"phone":null,"source":"OpenStreetMap","sourceUpdatedAt":null,"verifiedAt":null}},{"type":"Feature","geometry":{"type":"Point","coordinates":[20.6313889,48.4429908]},"properties":{"id":"water:9570d189-c982-447b-add9-b8c89e3d9784","kind":"water","longitude":20.6313889,"latitude":48.4429908,"name":"Ivókút","city":null,"address":null,"covered":null,"access":null,"website":null,"phone":null,"source":"OpenStreetMap","sourceUpdatedAt":null,"verifiedAt":null}},{"type":"Feature","geometry":{"type":"Point","coordinates":[20.62735,48.443817]},"properties":{"id":"water:e3d3bc1d-3dff-458e-adf9-07a482b030d5","kind":"water","longitude":20.62735,"latitude":48.443817,"name":"Ivókút","city":null,"address":null,"covered":null,"access":null,"website":null,"phone":null,"source":"OpenStreetMap","sourceUpdatedAt":null,"verifiedAt":null}}]}