{"type":"FeatureCollection","features":[{"type":"Feature","geometry":{"type":"Point","coordinates":[13.2360031,52.4016703]},"properties":{"id":"bikerack:06179d31-814d-4275-b0d7-d275312152af","kind":"bikerack","longitude":13.2360031,"latitude":52.4016703,"name":"Fahrradabstellplatz","city":"Kleinmachnow","address":null,"covered":false,"access":null,"website":null,"phone":null,"source":"OpenStreetMap/way/1429574240","sourceUpdatedAt":null,"verifiedAt":null}},{"type":"Feature","geometry":{"type":"Point","coordinates":[13.2352507,52.4018997]},"properties":{"id":"bikerack:341c260a-02d4-4fe2-8bfb-adb4f5ff36f7","kind":"bikerack","longitude":13.2352507,"latitude":52.4018997,"name":"Fahrradabstellplatz","city":"Kleinmachnow","address":null,"covered":false,"access":null,"website":null,"phone":null,"source":"OpenStreetMap/way/1416286978","sourceUpdatedAt":null,"verifiedAt":null}},{"type":"Feature","geometry":{"type":"Point","coordinates":[13.2684929,52.3961421]},"properties":{"id":"bikerack:3f613bde-8cab-4d3a-bfef-2bb42c662af0","kind":"bikerack","longitude":13.2684929,"latitude":52.3961421,"name":"Fahrradabstellplatz","city":"Teltow","address":null,"covered":false,"access":null,"website":null,"phone":null,"source":"OpenStreetMap/node/10964227505","sourceUpdatedAt":null,"verifiedAt":null}},{"type":"Feature","geometry":{"type":"Point","coordinates":[13.2701692,52.3913877]},"properties":{"id":"bikerack:4e6f2d40-8703-4148-80e9-22809ecbffa5","kind":"bikerack","longitude":13.2701692,"latitude":52.3913877,"name":"Fahrradabstellplatz","city":"Teltow","address":null,"covered":false,"access":null,"website":null,"phone":null,"source":"OpenStreetMap/node/12670474801","sourceUpdatedAt":null,"verifiedAt":null}},{"type":"Feature","geometry":{"type":"Point","coordinates":[13.2710595,52.3994093]},"properties":{"id":"bikerack:5341fca3-ec83-40e0-966e-eea89a3acad2","kind":"bikerack","longitude":13.2710595,"latitude":52.3994093,"name":"Fahrradabstellplatz","city":"Teltow","address":null,"covered":false,"access":null,"website":null,"phone":null,"source":"OpenStreetMap/node/13195853768","sourceUpdatedAt":null,"verifiedAt":null}},{"type":"Feature","geometry":{"type":"Point","coordinates":[13.2301795,52.3959169]},"properties":{"id":"bikerack:59e48728-e6a7-41d4-b0ef-dde6946d5056","kind":"bikerack","longitude":13.2301795,"latitude":52.3959169,"name":"Fahrradabstellplatz","city":"Kleinmachnow","address":null,"covered":false,"access":null,"website":null,"phone":null,"source":"OpenStreetMap/way/209255404","sourceUpdatedAt":null,"verifiedAt":null}},{"type":"Feature","geometry":{"type":"Point","coordinates":[13.2689408,52.3992401]},"properties":{"id":"bikerack:a9547ba1-8072-4df1-8c5e-c1fe5476622b","kind":"bikerack","longitude":13.2689408,"latitude":52.3992401,"name":"Fahrradabstellplatz","city":"Teltow","address":null,"covered":true,"access":null,"website":null,"phone":null,"source":"OpenStreetMap/node/1246743496","sourceUpdatedAt":null,"verifiedAt":null}},{"type":"Feature","geometry":{"type":"Point","coordinates":[13.2321014,52.4008201]},"properties":{"id":"bikerack:da0362cf-c24b-40d7-8f7b-b6887f858800","kind":"bikerack","longitude":13.2321014,"latitude":52.4008201,"name":"Fahrradabstellplatz","city":"Kleinmachnow","address":null,"covered":false,"access":null,"website":null,"phone":null,"source":"OpenStreetMap/way/1416286976","sourceUpdatedAt":null,"verifiedAt":null}},{"type":"Feature","geometry":{"type":"Point","coordinates":[13.2459195,52.3993545]},"properties":{"id":"bikerack:ee7ee736-02d5-471a-bd55-7e85a03c9992","kind":"bikerack","longitude":13.2459195,"latitude":52.3993545,"name":"Fahrradabstellplatz","city":"Teltow","address":null,"covered":false,"access":null,"website":null,"phone":null,"source":"OpenStreetMap/node/12529164361","sourceUpdatedAt":null,"verifiedAt":null}},{"type":"Feature","geometry":{"type":"Point","coordinates":[13.2293128,52.3964467]},"properties":{"id":"bikerack:f29b0524-1712-4a05-a5c6-9260b5d7bdd3","kind":"bikerack","longitude":13.2293128,"latitude":52.3964467,"name":"Fahrradabstellplatz","city":"Kleinmachnow","address":null,"covered":false,"access":null,"website":null,"phone":null,"source":"OpenStreetMap/way/1458856042","sourceUpdatedAt":null,"verifiedAt":null}},{"type":"Feature","geometry":{"type":"Point","coordinates":[13.2437646,52.3932325]},"properties":{"id":"service:5f47e151-47dc-4dc2-8256-b48812a3a0df","kind":"service","longitude":13.2437646,"latitude":52.3932325,"name":"vit:bikes Berlin-Brandenburg","city":"Teltow","address":null,"covered":null,"access":null,"website":null,"phone":null,"source":"OpenStreetMap/node/11059027489","sourceUpdatedAt":null,"verifiedAt":null}},{"type":"Feature","geometry":{"type":"Point","coordinates":[13.2630682,52.4009745]},"properties":{"id":"service:ac7245fc-a429-4c7d-af56-e44ebb46b550","kind":"service","longitude":13.2630682,"latitude":52.4009745,"name":"Der Fahrradladen in Teltow","city":"Teltow","address":null,"covered":null,"access":null,"website":null,"phone":null,"source":"OpenStreetMap/node/4384113385","sourceUpdatedAt":null,"verifiedAt":null}},{"type":"Feature","geometry":{"type":"Point","coordinates":[13.2442624,52.3971459]},"properties":{"id":"water:17c22a13-193c-4727-889b-777c5188954f","kind":"water","longitude":13.2442624,"latitude":52.3971459,"name":"EURO-Trinkbrunnen Teltow","city":"Teltow","address":null,"covered":null,"access":null,"website":null,"phone":null,"source":"OpenStreetMap/node/12047121978","sourceUpdatedAt":null,"verifiedAt":null}}]}