{"type":"FeatureCollection","features":[{"type":"Feature","geometry":{"type":"Point","coordinates":[13.2537679,51.3021704]},"properties":{"id":"bikerack:897cc960-b778-47ca-b03d-40f72eab865b","kind":"bikerack","longitude":13.2537679,"latitude":51.3021704,"name":"Fahrradabstellplatz","city":"Riesa","address":null,"covered":false,"access":null,"website":null,"phone":null,"source":"OpenStreetMap/way/504716828","sourceUpdatedAt":null,"verifiedAt":null}},{"type":"Feature","geometry":{"type":"Point","coordinates":[13.2599083,51.3167654]},"properties":{"id":"bikerack:99d2abe0-8256-4123-9330-3594bbe4c017","kind":"bikerack","longitude":13.2599083,"latitude":51.3167654,"name":"Fahrradabstellplatz","city":"Riesa","address":null,"covered":true,"access":null,"website":null,"phone":null,"source":"OpenStreetMap/node/7875149327","sourceUpdatedAt":null,"verifiedAt":null}},{"type":"Feature","geometry":{"type":"Point","coordinates":[13.2712297,51.3010381]},"properties":{"id":"bikerack:ec455a8d-d161-4a08-abcc-8ade6174afb2","kind":"bikerack","longitude":13.2712297,"latitude":51.3010381,"name":"Fahrradabstellplatz","city":"Riesa","address":null,"covered":false,"access":null,"website":null,"phone":null,"source":"OpenStreetMap/way/504797272","sourceUpdatedAt":null,"verifiedAt":null}}]}