{"type":"FeatureCollection","features":[{"type":"Feature","geometry":{"type":"Point","coordinates":[13.2653498,48.7141736]},"properties":{"id":"bikerack:08f9c6f3-59cf-46c5-9874-65e4535bbbea","kind":"bikerack","longitude":13.2653498,"latitude":48.7141736,"name":"Fahrradabstellplatz","city":"Aicha vorm Wald","address":null,"covered":false,"access":null,"website":null,"phone":null,"source":"OpenStreetMap/node/8063877943","sourceUpdatedAt":null,"verifiedAt":null}},{"type":"Feature","geometry":{"type":"Point","coordinates":[13.2657286,48.7126929]},"properties":{"id":"bikerack:ee23a3b5-1fd5-44d1-8817-59d192413ba3","kind":"bikerack","longitude":13.2657286,"latitude":48.7126929,"name":"Fahrradabstellplatz","city":"Aicha vorm Wald","address":null,"covered":false,"access":null,"website":null,"phone":null,"source":"OpenStreetMap/node/8174135022","sourceUpdatedAt":null,"verifiedAt":null}},{"type":"Feature","geometry":{"type":"Point","coordinates":[13.2575905,48.7070803]},"properties":{"id":"service:8dd4b3c6-9418-4dba-8fcb-504e780c882c","kind":"service","longitude":13.2575905,"latitude":48.7070803,"name":"Grill Fahrräder","city":"Eging am See","address":null,"covered":null,"access":null,"website":null,"phone":null,"source":"OpenStreetMap/node/8019439450","sourceUpdatedAt":null,"verifiedAt":null}}]}