{"type":"FeatureCollection","features":[{"type":"Feature","geometry":{"type":"Point","coordinates":[23.1149031,53.1063974]},"properties":{"id":"bikerack:008590e7-6bf7-44b3-b2bf-562e34ef37b4","kind":"bikerack","longitude":23.1149031,"latitude":53.1063974,"name":"Biciklitároló","city":"Bialystok","address":null,"covered":false,"access":null,"website":null,"phone":null,"source":"OpenStreetMap/way/1300223274","sourceUpdatedAt":null,"verifiedAt":null}},{"type":"Feature","geometry":{"type":"Point","coordinates":[23.0814011,53.102941]},"properties":{"id":"bikerack:640d2815-09ad-4ba6-885c-0a9d3712ea9e","kind":"bikerack","longitude":23.0814011,"latitude":53.102941,"name":"Biciklitároló","city":"Bialystok","address":null,"covered":false,"access":null,"website":null,"phone":null,"source":"OpenStreetMap/way/1412263366","sourceUpdatedAt":null,"verifiedAt":null}},{"type":"Feature","geometry":{"type":"Point","coordinates":[23.1123683,53.1147999]},"properties":{"id":"bikerack:b0240a7e-3cd0-4a61-abfd-980c01457826","kind":"bikerack","longitude":23.1123683,"latitude":53.1147999,"name":"Biciklitároló","city":"Bialystok","address":null,"covered":false,"access":null,"website":null,"phone":null,"source":"OpenStreetMap/node/13534387235","sourceUpdatedAt":null,"verifiedAt":null}},{"type":"Feature","geometry":{"type":"Point","coordinates":[23.0809913,53.1031934]},"properties":{"id":"bikerack:c52b2b30-c2d9-4473-bd3e-48fdb79632d3","kind":"bikerack","longitude":23.0809913,"latitude":53.1031934,"name":"Biciklitároló","city":"Bialystok","address":null,"covered":false,"access":null,"website":null,"phone":null,"source":"OpenStreetMap/way/1412263365","sourceUpdatedAt":null,"verifiedAt":null}},{"type":"Feature","geometry":{"type":"Point","coordinates":[23.1148611,53.1087467]},"properties":{"id":"bikerack:e033202f-2c53-437e-8a31-d0d67260c96e","kind":"bikerack","longitude":23.1148611,"latitude":53.1087467,"name":"Biciklitároló","city":"Bialystok","address":null,"covered":false,"access":null,"website":null,"phone":null,"source":"OpenStreetMap/node/12192863726","sourceUpdatedAt":null,"verifiedAt":null}}]}