{"type":"FeatureCollection","features":[{"type":"Feature","geometry":{"type":"Point","coordinates":[19.3438114,49.5758347]},"properties":{"id":"repair:b78923ea-a0b7-4f52-a65d-26e9fedf939c","kind":"repair","longitude":19.3438114,"latitude":49.5758347,"name":"Kerékpár szervizállomás","city":"Korbielow","address":null,"covered":false,"access":null,"website":null,"phone":null,"source":"OpenStreetMap/node/8823905630","sourceUpdatedAt":null,"verifiedAt":null}},{"type":"Feature","geometry":{"type":"Point","coordinates":[19.3436811,49.5753701]},"properties":{"id":"service:d52f2df4-76d9-4500-a4fd-87f9c41ed80c","kind":"service","longitude":19.3436811,"latitude":49.5753701,"name":"Ebike Korbielów.pl","city":"Korbielow","address":null,"covered":null,"access":null,"website":null,"phone":null,"source":"OpenStreetMap/way/953319650","sourceUpdatedAt":null,"verifiedAt":null}}]}