{"type":"FeatureCollection","features":[{"type":"Feature","geometry":{"type":"Point","coordinates":[8.9750164,52.9195568]},"properties":{"id":"bikerack:81b7d824-00dd-4aff-8228-96ca6265bd79","kind":"bikerack","longitude":8.9750164,"latitude":52.9195568,"name":"Fahrradabstellplatz","city":"Emtinghausen","address":null,"covered":false,"access":null,"website":null,"phone":null,"source":"OpenStreetMap/node/377006375","sourceUpdatedAt":null,"verifiedAt":null}},{"type":"Feature","geometry":{"type":"Point","coordinates":[8.9785077,52.9294871]},"properties":{"id":"bikerack:85a5f6d4-abbf-4cd7-afea-4d78f2969aec","kind":"bikerack","longitude":8.9785077,"latitude":52.9294871,"name":"Fahrradabstellplatz","city":"Emtinghausen","address":null,"covered":false,"access":null,"website":null,"phone":null,"source":"OpenStreetMap/node/7782164218","sourceUpdatedAt":null,"verifiedAt":null}},{"type":"Feature","geometry":{"type":"Point","coordinates":[8.9651931,52.932349]},"properties":{"id":"bikerack:c8a48409-0fcd-49ab-a00a-b9cef39569b7","kind":"bikerack","longitude":8.9651931,"latitude":52.932349,"name":"Fahrradabstellplatz","city":"Emtinghausen","address":null,"covered":false,"access":null,"website":null,"phone":null,"source":"OpenStreetMap/node/1404688817","sourceUpdatedAt":null,"verifiedAt":null}},{"type":"Feature","geometry":{"type":"Point","coordinates":[8.9651384,52.9324569]},"properties":{"id":"bikerack:f777536f-1f75-4f6f-bf2c-aff5ac263c78","kind":"bikerack","longitude":8.9651384,"latitude":52.9324569,"name":"Fahrradabstellplatz","city":"Emtinghausen","address":null,"covered":false,"access":null,"website":null,"phone":null,"source":"OpenStreetMap/node/1404688818","sourceUpdatedAt":null,"verifiedAt":null}}]}