{"type":"FeatureCollection","features":[{"type":"Feature","geometry":{"type":"Point","coordinates":[8.989858,51.3639623]},"properties":{"id":"bikerack:04b51bd3-b3e9-4cda-b0c4-72f4397db457","kind":"bikerack","longitude":8.989858,"latitude":51.3639623,"name":"Fahrradabstellplatz","city":"Bad Arolsen","address":null,"covered":false,"access":null,"website":null,"phone":null,"source":"OpenStreetMap/node/11985120013","sourceUpdatedAt":null,"verifiedAt":null}},{"type":"Feature","geometry":{"type":"Point","coordinates":[8.9883124,51.3654335]},"properties":{"id":"bikerack:0b1e831f-6847-472a-91d0-4081e943b936","kind":"bikerack","longitude":8.9883124,"latitude":51.3654335,"name":"Fahrradabstellplatz","city":"Bad Arolsen","address":null,"covered":false,"access":null,"website":null,"phone":null,"source":"OpenStreetMap/node/12005953675","sourceUpdatedAt":null,"verifiedAt":null}},{"type":"Feature","geometry":{"type":"Point","coordinates":[8.9859566,51.366642]},"properties":{"id":"bikerack:11064249-518c-4388-95ea-de5867f66006","kind":"bikerack","longitude":8.9859566,"latitude":51.366642,"name":"Fahrradabstellplatz","city":"Bad Arolsen","address":null,"covered":false,"access":null,"website":null,"phone":null,"source":"OpenStreetMap/node/11985084323","sourceUpdatedAt":null,"verifiedAt":null}},{"type":"Feature","geometry":{"type":"Point","coordinates":[9.0056053,51.3711352]},"properties":{"id":"bikerack:3d0751be-5298-4f4c-beb2-b1b628b7010a","kind":"bikerack","longitude":9.0056053,"latitude":51.3711352,"name":"Fahrradabstellplatz","city":"Bad Arolsen","address":null,"covered":false,"access":null,"website":null,"phone":null,"source":"OpenStreetMap/node/12004421217","sourceUpdatedAt":null,"verifiedAt":null}},{"type":"Feature","geometry":{"type":"Point","coordinates":[8.9926825,51.365635]},"properties":{"id":"bikerack:614fe30e-9ab0-4fa6-976a-b7a1dcd93a90","kind":"bikerack","longitude":8.9926825,"latitude":51.365635,"name":"Fahrradabstellplatz","city":"Bad Arolsen","address":null,"covered":false,"access":null,"website":null,"phone":null,"source":"OpenStreetMap/node/11985120012","sourceUpdatedAt":null,"verifiedAt":null}},{"type":"Feature","geometry":{"type":"Point","coordinates":[9.0043573,51.3717476]},"properties":{"id":"bikerack:c10ebad8-691a-43ef-a264-7bb32467f56f","kind":"bikerack","longitude":9.0043573,"latitude":51.3717476,"name":"Fahrradabstellplatz","city":"Bad Arolsen","address":null,"covered":true,"access":null,"website":null,"phone":null,"source":"OpenStreetMap/node/6537445820","sourceUpdatedAt":null,"verifiedAt":null}},{"type":"Feature","geometry":{"type":"Point","coordinates":[8.9923469,51.3673685]},"properties":{"id":"bikerack:c9a744ee-ad07-48de-8c55-11a79e0a1dd8","kind":"bikerack","longitude":8.9923469,"latitude":51.3673685,"name":"Fahrradabstellplatz","city":"Bad Arolsen","address":null,"covered":false,"access":null,"website":null,"phone":null,"source":"OpenStreetMap/node/11985120018","sourceUpdatedAt":null,"verifiedAt":null}},{"type":"Feature","geometry":{"type":"Point","coordinates":[8.983131,51.3634455]},"properties":{"id":"bikerack:e653388f-0a4b-4eac-8051-b8342c3a007d","kind":"bikerack","longitude":8.983131,"latitude":51.3634455,"name":"Fahrradabstellplatz","city":"Bad Arolsen","address":null,"covered":false,"access":null,"website":null,"phone":null,"source":"OpenStreetMap/node/11985084324","sourceUpdatedAt":null,"verifiedAt":null}}]}