{"type":"FeatureCollection","features":[{"type":"Feature","geometry":{"type":"Point","coordinates":[9.000192,50.820611]},"properties":{"id":"bikerack:5aea99b3-be65-4b5d-952c-99ce6d88cf91","kind":"bikerack","longitude":9.000192,"latitude":50.820611,"name":"Fahrradabstellplatz","city":"Stadtallendorf","address":null,"covered":true,"access":null,"website":null,"phone":null,"source":"OpenStreetMap/node/1760425504","sourceUpdatedAt":null,"verifiedAt":null}},{"type":"Feature","geometry":{"type":"Point","coordinates":[9.0077731,50.8237398]},"properties":{"id":"bikerack:86b56754-d534-45af-ae65-172e8c6a0373","kind":"bikerack","longitude":9.0077731,"latitude":50.8237398,"name":"Fahrradabstellplatz","city":"Stadtallendorf","address":null,"covered":false,"access":null,"website":null,"phone":null,"source":"OpenStreetMap/node/12571360274","sourceUpdatedAt":null,"verifiedAt":null}},{"type":"Feature","geometry":{"type":"Point","coordinates":[9.0005272,50.8204877]},"properties":{"id":"bikerack:8791d27c-5bb6-40c7-a47e-c2bcc2bdcf6b","kind":"bikerack","longitude":9.0005272,"latitude":50.8204877,"name":"Fahrradabstellplatz","city":"Stadtallendorf","address":null,"covered":true,"access":null,"website":null,"phone":null,"source":"OpenStreetMap/node/1760425503","sourceUpdatedAt":null,"verifiedAt":null}},{"type":"Feature","geometry":{"type":"Point","coordinates":[9.0063068,50.8260371]},"properties":{"id":"bikerack:96e3a39b-12e9-4c22-b818-4a1fbd72f39f","kind":"bikerack","longitude":9.0063068,"latitude":50.8260371,"name":"Fahrradabstellplatz","city":"Stadtallendorf","address":null,"covered":false,"access":null,"website":null,"phone":null,"source":"OpenStreetMap/node/2611529232","sourceUpdatedAt":null,"verifiedAt":null}},{"type":"Feature","geometry":{"type":"Point","coordinates":[9.0045685,50.8263985]},"properties":{"id":"bikerack:d606fa51-b70b-41e3-a4c9-db4621b82bf9","kind":"bikerack","longitude":9.0045685,"latitude":50.8263985,"name":"Fahrradabstellplatz","city":"Stadtallendorf","address":null,"covered":false,"access":null,"website":null,"phone":null,"source":"OpenStreetMap/node/2611529246","sourceUpdatedAt":null,"verifiedAt":null}}]}