{"type":"FeatureCollection","features":[{"type":"Feature","geometry":{"type":"Point","coordinates":[8.9710842,50.1242328]},"properties":{"id":"bikerack:7ff631a0-f29c-486d-9469-93cd58a4fc96","kind":"bikerack","longitude":8.9710842,"latitude":50.1242328,"name":"Fahrradabstellplatz","city":"Erlensee","address":null,"covered":true,"access":null,"website":null,"phone":null,"source":"OpenStreetMap/way/1444705725","sourceUpdatedAt":null,"verifiedAt":null}},{"type":"Feature","geometry":{"type":"Point","coordinates":[8.9711296,50.1242675]},"properties":{"id":"bikerack:ad092ca0-085b-4265-95b6-3edca9d029ce","kind":"bikerack","longitude":8.9711296,"latitude":50.1242675,"name":"Fahrradabstellplatz","city":"Erlensee","address":null,"covered":true,"access":null,"website":null,"phone":null,"source":"OpenStreetMap/way/1444705724","sourceUpdatedAt":null,"verifiedAt":null}}]}