{"type":"FeatureCollection","features":[{"type":"Feature","geometry":{"type":"Point","coordinates":[8.986237,49.4653795]},"properties":{"id":"bikerack:059443e7-9452-4b82-8d39-538f22dbdeae","kind":"bikerack","longitude":8.986237,"latitude":49.4653795,"name":"Fahrradabstellplatz","city":"Eberbach","address":null,"covered":false,"access":null,"website":null,"phone":null,"source":"OpenStreetMap/way/1422809123","sourceUpdatedAt":null,"verifiedAt":null}},{"type":"Feature","geometry":{"type":"Point","coordinates":[8.9835833,49.465689]},"properties":{"id":"bikerack:11221900-6af6-42b9-ae0a-6bcfe6eada22","kind":"bikerack","longitude":8.9835833,"latitude":49.465689,"name":"VRNRadbox","city":"Eberbach","address":null,"covered":false,"access":null,"website":null,"phone":null,"source":"OpenStreetMap/node/12258114712","sourceUpdatedAt":null,"verifiedAt":null}},{"type":"Feature","geometry":{"type":"Point","coordinates":[8.9871793,49.4624112]},"properties":{"id":"bikerack:9db9dde5-6e2b-438a-9373-b4b7ab8135e5","kind":"bikerack","longitude":8.9871793,"latitude":49.4624112,"name":"Fahrradabstellplatz","city":"Eberbach","address":null,"covered":false,"access":null,"website":null,"phone":null,"source":"OpenStreetMap/node/3725949664","sourceUpdatedAt":null,"verifiedAt":null}},{"type":"Feature","geometry":{"type":"Point","coordinates":[8.9866803,49.4657388]},"properties":{"id":"bikerack:bbbe6d06-f0a0-45b0-9513-cf87714a46af","kind":"bikerack","longitude":8.9866803,"latitude":49.4657388,"name":"Fahrradabstellplatz","city":"Eberbach","address":null,"covered":false,"access":null,"website":null,"phone":null,"source":"OpenStreetMap/way/1485516401","sourceUpdatedAt":null,"verifiedAt":null}},{"type":"Feature","geometry":{"type":"Point","coordinates":[8.9835662,49.4657392]},"properties":{"id":"bikerack:f1d15fc8-6ef1-42ca-8a25-5764eb50719e","kind":"bikerack","longitude":8.9835662,"latitude":49.4657392,"name":"Fahrradabstellplatz","city":"Eberbach","address":null,"covered":true,"access":null,"website":null,"phone":null,"source":"OpenStreetMap/way/126531230","sourceUpdatedAt":null,"verifiedAt":null}},{"type":"Feature","geometry":{"type":"Point","coordinates":[8.9877759,49.4610279]},"properties":{"id":"repair:38bcd45b-3636-4b1a-95de-a713cfb7d421","kind":"repair","longitude":8.9877759,"latitude":49.4610279,"name":"ADAC Radservice-Station","city":"Eberbach","address":null,"covered":false,"access":null,"website":null,"phone":null,"source":"OpenStreetMap/node/12048843859","sourceUpdatedAt":null,"verifiedAt":null}},{"type":"Feature","geometry":{"type":"Point","coordinates":[8.9822299,49.4606469]},"properties":{"id":"repair:94a5ef88-1c90-413a-882a-d2b88f13e3f4","kind":"repair","longitude":8.9822299,"latitude":49.4606469,"name":"RadService-Punkt Eberbach","city":"Eberbach","address":null,"covered":false,"access":null,"website":null,"phone":null,"source":"OpenStreetMap/node/6004858052","sourceUpdatedAt":null,"verifiedAt":null}},{"type":"Feature","geometry":{"type":"Point","coordinates":[8.9874487,49.4624073]},"properties":{"id":"service:c454e6fa-9ef7-4873-9e5d-ca1d5268b743","kind":"service","longitude":8.9874487,"latitude":49.4624073,"name":"BOM","city":"Eberbach","address":null,"covered":null,"access":null,"website":null,"phone":null,"source":"OpenStreetMap/node/11684408906","sourceUpdatedAt":null,"verifiedAt":null}},{"type":"Feature","geometry":{"type":"Point","coordinates":[9.0034428,49.4429998]},"properties":{"id":"water:11fd7668-d22d-46d4-a08e-66b53e60423b","kind":"water","longitude":9.0034428,"latitude":49.4429998,"name":"Trinkwasser","city":"Eberbach","address":null,"covered":null,"access":null,"website":null,"phone":null,"source":"OpenStreetMap/node/12369471785","sourceUpdatedAt":null,"verifiedAt":null}},{"type":"Feature","geometry":{"type":"Point","coordinates":[8.9898623,49.467827]},"properties":{"id":"water:6b4755d2-f389-420c-a023-549feef97691","kind":"water","longitude":8.9898623,"latitude":49.467827,"name":"Trinkwasser","city":"Eberbach","address":null,"covered":null,"access":null,"website":null,"phone":null,"source":"OpenStreetMap/node/12149481671","sourceUpdatedAt":null,"verifiedAt":null}},{"type":"Feature","geometry":{"type":"Point","coordinates":[8.9953521,49.45055]},"properties":{"id":"water:76b83a6f-f349-4cfa-8d5c-65d83a203842","kind":"water","longitude":8.9953521,"latitude":49.45055,"name":"Sichelsbrunnen","city":"Eberbach","address":null,"covered":null,"access":null,"website":null,"phone":null,"source":"OpenStreetMap/node/10933618291","sourceUpdatedAt":null,"verifiedAt":null}}]}