{"type":"FeatureCollection","features":[{"type":"Feature","geometry":{"type":"Point","coordinates":[8.999539,49.0632093]},"properties":{"id":"bikerack:2497ee41-36f2-4a26-889d-7fd717eecfff","kind":"bikerack","longitude":8.999539,"latitude":49.0632093,"name":"Fahrradabstellplatz","city":"Guglingen","address":null,"covered":false,"access":null,"website":null,"phone":null,"source":"OpenStreetMap/way/232451583","sourceUpdatedAt":null,"verifiedAt":null}},{"type":"Feature","geometry":{"type":"Point","coordinates":[8.9939566,49.0653949]},"properties":{"id":"bikerack:25b4987d-4c0a-4468-8f5c-8ab0944c4fd0","kind":"bikerack","longitude":8.9939566,"latitude":49.0653949,"name":"Fahrradabstellplatz","city":"Guglingen","address":null,"covered":false,"access":null,"website":null,"phone":null,"source":"OpenStreetMap/node/11882325696","sourceUpdatedAt":null,"verifiedAt":null}},{"type":"Feature","geometry":{"type":"Point","coordinates":[8.9805412,49.0659344]},"properties":{"id":"bikerack:4baffa86-39e0-4180-9655-c79b1db2f210","kind":"bikerack","longitude":8.9805412,"latitude":49.0659344,"name":"Fahrradabstellplatz","city":"Pfaffenhofen","address":null,"covered":false,"access":null,"website":null,"phone":null,"source":"OpenStreetMap/node/4371671692","sourceUpdatedAt":null,"verifiedAt":null}},{"type":"Feature","geometry":{"type":"Point","coordinates":[9.0060833,49.0632854]},"properties":{"id":"bikerack:5f909eb0-b8b9-4e49-b024-5c18653ac683","kind":"bikerack","longitude":9.0060833,"latitude":49.0632854,"name":"Fahrradabstellplatz","city":"Guglingen","address":null,"covered":false,"access":null,"website":null,"phone":null,"source":"OpenStreetMap/node/11003371429","sourceUpdatedAt":null,"verifiedAt":null}},{"type":"Feature","geometry":{"type":"Point","coordinates":[9.0017603,49.0526605]},"properties":{"id":"bikerack:b66edd85-1a4c-426e-afd4-1ad7f046cc75","kind":"bikerack","longitude":9.0017603,"latitude":49.0526605,"name":"Fahrradabstellplatz","city":"Guglingen","address":null,"covered":false,"access":null,"website":null,"phone":null,"source":"OpenStreetMap/node/10576663142","sourceUpdatedAt":null,"verifiedAt":null}},{"type":"Feature","geometry":{"type":"Point","coordinates":[8.9922172,49.0595963]},"properties":{"id":"bikerack:eec97dc7-eab9-4cb2-93e9-a8622943c65e","kind":"bikerack","longitude":8.9922172,"latitude":49.0595963,"name":"Fahrradabstellplatz","city":"Guglingen","address":null,"covered":true,"access":null,"website":null,"phone":null,"source":"OpenStreetMap/way/193538578","sourceUpdatedAt":null,"verifiedAt":null}},{"type":"Feature","geometry":{"type":"Point","coordinates":[8.9755659,49.0615047]},"properties":{"id":"repair:0a1ee85f-21ed-4b7f-a62a-ed01b25ca2c7","kind":"repair","longitude":8.9755659,"latitude":49.0615047,"name":"RadService-Punkt Pfaffenhofen-Rathaus","city":"Pfaffenhofen","address":null,"covered":false,"access":null,"website":null,"phone":null,"source":"OpenStreetMap/node/7705661400","sourceUpdatedAt":null,"verifiedAt":null}}]}