{"type":"FeatureCollection","features":[{"type":"Feature","geometry":{"type":"Point","coordinates":[8.9838804,46.4943885]},"properties":{"id":"water:97bcccb4-4434-401e-ad5b-ca9b06cc0e64","kind":"water","longitude":8.9838804,"latitude":46.4943885,"name":"Drinking Fountain","city":"Acquarossa","address":null,"covered":null,"access":null,"website":null,"phone":null,"source":"OpenStreetMap/node/11789450043","sourceUpdatedAt":null,"verifiedAt":null}},{"type":"Feature","geometry":{"type":"Point","coordinates":[8.9865487,46.4936838]},"properties":{"id":"water:b956f1e3-a1b8-424e-8364-1ac672106a1c","kind":"water","longitude":8.9865487,"latitude":46.4936838,"name":"Drinking Fountain","city":"Acquarossa","address":null,"covered":null,"access":null,"website":null,"phone":null,"source":"OpenStreetMap/node/11958423928","sourceUpdatedAt":null,"verifiedAt":null}},{"type":"Feature","geometry":{"type":"Point","coordinates":[8.9700939,46.4944256]},"properties":{"id":"water:efab5c41-d7a1-47ca-8a22-c851a3cd9e55","kind":"water","longitude":8.9700939,"latitude":46.4944256,"name":"Drinking Fountain","city":"Acquarossa","address":null,"covered":null,"access":null,"website":null,"phone":null,"source":"OpenStreetMap/node/11789450044","sourceUpdatedAt":null,"verifiedAt":null}}]}