{"type":"FeatureCollection","features":[{"type":"Feature","geometry":{"type":"Point","coordinates":[19.7387708,49.9436616]},"properties":{"id":"bikerack:abdb8e45-118f-4bf6-bb05-e7154d182974","kind":"bikerack","longitude":19.7387708,"latitude":49.9436616,"name":"Biciklitároló","city":"Krzecin","address":null,"covered":false,"access":null,"website":null,"phone":null,"source":"OpenStreetMap/way/1197506595","sourceUpdatedAt":null,"verifiedAt":null}},{"type":"Feature","geometry":{"type":"Point","coordinates":[19.7429,49.9416821]},"properties":{"id":"bikerack:b46d2989-fdd6-4954-889a-343e9953a841","kind":"bikerack","longitude":19.7429,"latitude":49.9416821,"name":"Biciklitároló","city":"Krzecin","address":null,"covered":false,"access":null,"website":null,"phone":null,"source":"OpenStreetMap/way/1211019790","sourceUpdatedAt":null,"verifiedAt":null}},{"type":"Feature","geometry":{"type":"Point","coordinates":[19.735884,49.9435929]},"properties":{"id":"bikerack:c4916d48-683b-4591-a35f-16d803127e96","kind":"bikerack","longitude":19.735884,"latitude":49.9435929,"name":"Biciklitároló","city":"Krzecin","address":null,"covered":false,"access":null,"website":null,"phone":null,"source":"OpenStreetMap/way/1193405848","sourceUpdatedAt":null,"verifiedAt":null}}]}