{"type":"FeatureCollection","features":[{"type":"Feature","geometry":{"type":"Point","coordinates":[19.7651271,47.3361369]},"properties":{"id":"water:502a0938-cc1f-41e0-99d6-c85fc68902df","kind":"water","longitude":19.7651271,"latitude":47.3361369,"name":"Ivókút","city":null,"address":null,"covered":null,"access":null,"website":null,"phone":null,"source":"OpenStreetMap","sourceUpdatedAt":null,"verifiedAt":null}},{"type":"Feature","geometry":{"type":"Point","coordinates":[19.7547547,47.331607]},"properties":{"id":"water:5fa0f51b-43a4-4e64-8df3-996383c22b8e","kind":"water","longitude":19.7547547,"latitude":47.331607,"name":"Ivókút","city":null,"address":null,"covered":null,"access":null,"website":null,"phone":null,"source":"OpenStreetMap","sourceUpdatedAt":null,"verifiedAt":null}}]}