{"type":"FeatureCollection","features":[{"type":"Feature","geometry":{"type":"Point","coordinates":[8.1319795,51.3915477]},"properties":{"id":"bikerack:82e8db52-0580-4ca3-bbbf-f9957aac0813","kind":"bikerack","longitude":8.1319795,"latitude":51.3915477,"name":"Fahrradabstellplatz","city":"Arnsberg","address":null,"covered":false,"access":null,"website":null,"phone":null,"source":"OpenStreetMap/node/4697711010","sourceUpdatedAt":null,"verifiedAt":null}},{"type":"Feature","geometry":{"type":"Point","coordinates":[8.1316285,51.3969249]},"properties":{"id":"water:1f68bb1a-3797-40b0-aec6-11113903bffb","kind":"water","longitude":8.1316285,"latitude":51.3969249,"name":"Trinkwasser","city":"Arnsberg","address":null,"covered":null,"access":null,"website":null,"phone":null,"source":"OpenStreetMap/node/12828107101","sourceUpdatedAt":null,"verifiedAt":null}}]}