{"type":"FeatureCollection","features":[{"type":"Feature","geometry":{"type":"Point","coordinates":[8.1598028,50.0187065]},"properties":{"id":"bikerack:704ccb05-77a0-4658-8d38-a06bf25d6fed","kind":"bikerack","longitude":8.1598028,"latitude":50.0187065,"name":"Fahrradabstellplatz","city":"Budenheim","address":null,"covered":false,"access":null,"website":null,"phone":null,"source":"OpenStreetMap/node/9591742717","sourceUpdatedAt":null,"verifiedAt":null}},{"type":"Feature","geometry":{"type":"Point","coordinates":[8.170012,50.0210212]},"properties":{"id":"bikerack:8e9a31d4-365b-4c2c-a591-f0b4c0760d9f","kind":"bikerack","longitude":8.170012,"latitude":50.0210212,"name":"Fahrradabstellplatz","city":"Budenheim","address":null,"covered":false,"access":null,"website":null,"phone":null,"source":"OpenStreetMap/node/12404667796","sourceUpdatedAt":null,"verifiedAt":null}},{"type":"Feature","geometry":{"type":"Point","coordinates":[8.1671703,50.0297585]},"properties":{"id":"repair:950d6443-5083-433c-ba32-b203b34ebd45","kind":"repair","longitude":8.1671703,"latitude":50.0297585,"name":"Fahrradreparaturstation","city":"Budenheim","address":null,"covered":false,"access":null,"website":null,"phone":null,"source":"OpenStreetMap/node/12777814514","sourceUpdatedAt":null,"verifiedAt":null}},{"type":"Feature","geometry":{"type":"Point","coordinates":[8.165404,50.0255916]},"properties":{"id":"water:6940fbd3-d432-46db-8aa0-79b9de53b894","kind":"water","longitude":8.165404,"latitude":50.0255916,"name":"Trinkwasser","city":"Budenheim","address":null,"covered":null,"access":null,"website":null,"phone":null,"source":"OpenStreetMap/node/255941691","sourceUpdatedAt":null,"verifiedAt":null}}]}