{"type":"FeatureCollection","features":[{"type":"Feature","geometry":{"type":"Point","coordinates":[8.1637505,48.7606368]},"properties":{"id":"bikerack:0f1b6823-e145-4bbc-b594-64725e258883","kind":"bikerack","longitude":8.1637505,"latitude":48.7606368,"name":"Fahrradabstellplatz","city":"Sinzheim","address":null,"covered":false,"access":null,"website":null,"phone":null,"source":"OpenStreetMap/node/12675698180","sourceUpdatedAt":null,"verifiedAt":null}},{"type":"Feature","geometry":{"type":"Point","coordinates":[8.1590069,48.760131]},"properties":{"id":"bikerack:30b3c208-d777-4c08-b987-9406737609c4","kind":"bikerack","longitude":8.1590069,"latitude":48.760131,"name":"Fahrradabstellplatz","city":"Sinzheim","address":null,"covered":true,"access":null,"website":null,"phone":null,"source":"OpenStreetMap/node/1888753511","sourceUpdatedAt":null,"verifiedAt":null}},{"type":"Feature","geometry":{"type":"Point","coordinates":[8.1580022,48.7603407]},"properties":{"id":"bikerack:376ae96d-131c-4df6-9873-b9197dd7a867","kind":"bikerack","longitude":8.1580022,"latitude":48.7603407,"name":"Fahrradabstellplatz","city":"Sinzheim","address":null,"covered":true,"access":null,"website":null,"phone":null,"source":"OpenStreetMap/node/309325844","sourceUpdatedAt":null,"verifiedAt":null}},{"type":"Feature","geometry":{"type":"Point","coordinates":[8.1701958,48.7706415]},"properties":{"id":"bikerack:3e535b0e-edae-46d0-ac44-e9454a92e4b2","kind":"bikerack","longitude":8.1701958,"latitude":48.7706415,"name":"Fahrradabstellplatz","city":"Sinzheim","address":null,"covered":false,"access":null,"website":null,"phone":null,"source":"OpenStreetMap/node/3752420108","sourceUpdatedAt":null,"verifiedAt":null}},{"type":"Feature","geometry":{"type":"Point","coordinates":[8.1702062,48.7705467]},"properties":{"id":"bikerack:624e686e-36ac-46e1-affb-ee35f3eb666a","kind":"bikerack","longitude":8.1702062,"latitude":48.7705467,"name":"Fahrradabstellplatz","city":"Sinzheim","address":null,"covered":true,"access":null,"website":null,"phone":null,"source":"OpenStreetMap/node/3752420107","sourceUpdatedAt":null,"verifiedAt":null}},{"type":"Feature","geometry":{"type":"Point","coordinates":[8.1592143,48.7600258]},"properties":{"id":"bikerack:7b3fd668-1445-43da-b7a7-c3660045d363","kind":"bikerack","longitude":8.1592143,"latitude":48.7600258,"name":"Fahrradabstellplatz","city":"Sinzheim","address":null,"covered":false,"access":null,"website":null,"phone":null,"source":"OpenStreetMap/way/1411102030","sourceUpdatedAt":null,"verifiedAt":null}},{"type":"Feature","geometry":{"type":"Point","coordinates":[8.1699491,48.7706774]},"properties":{"id":"bikerack:94a20370-2683-412d-b7d8-265ec5a5c11e","kind":"bikerack","longitude":8.1699491,"latitude":48.7706774,"name":"Fahrradabstellplatz","city":"Sinzheim","address":null,"covered":true,"access":null,"website":null,"phone":null,"source":"OpenStreetMap/node/3752420109","sourceUpdatedAt":null,"verifiedAt":null}},{"type":"Feature","geometry":{"type":"Point","coordinates":[8.1609086,48.7607832]},"properties":{"id":"bikerack:bbcc9110-da79-457b-b2c6-9153cc871043","kind":"bikerack","longitude":8.1609086,"latitude":48.7607832,"name":"Fahrradabstellplatz","city":"Sinzheim","address":null,"covered":false,"access":null,"website":null,"phone":null,"source":"OpenStreetMap/node/12998941949","sourceUpdatedAt":null,"verifiedAt":null}},{"type":"Feature","geometry":{"type":"Point","coordinates":[8.1731497,48.7730998]},"properties":{"id":"bikerack:e8fbe114-25a0-41fe-82db-cfdd6bc19a84","kind":"bikerack","longitude":8.1731497,"latitude":48.7730998,"name":"Fahrradabstellplatz","city":"Sinzheim","address":null,"covered":false,"access":null,"website":null,"phone":null,"source":"OpenStreetMap/node/9177914575","sourceUpdatedAt":null,"verifiedAt":null}},{"type":"Feature","geometry":{"type":"Point","coordinates":[8.1685207,48.7613671]},"properties":{"id":"service:4ca1616e-638a-4bc7-bf90-3ff591f7b712","kind":"service","longitude":8.1685207,"latitude":48.7613671,"name":"Radsport Kosin","city":"Sinzheim","address":null,"covered":null,"access":null,"website":null,"phone":null,"source":"OpenStreetMap/node/766114347","sourceUpdatedAt":null,"verifiedAt":null}}]}