{"type":"FeatureCollection","features":[{"type":"Feature","geometry":{"type":"Point","coordinates":[8.1404878,48.3809701]},"properties":{"id":"bikerack:525aec7a-f823-48d7-98c9-8e677a885985","kind":"bikerack","longitude":8.1404878,"latitude":48.3809701,"name":"Fahrradabstellplatz","city":"Oberharmersbach","address":null,"covered":true,"access":null,"website":null,"phone":null,"source":"OpenStreetMap/way/850003932","sourceUpdatedAt":null,"verifiedAt":null}},{"type":"Feature","geometry":{"type":"Point","coordinates":[8.1403422,48.3807747]},"properties":{"id":"bikerack:e5a36f07-91bf-48c4-8cef-5327d0cf4dbf","kind":"bikerack","longitude":8.1403422,"latitude":48.3807747,"name":"Fahrradabstellplatz","city":"Oberharmersbach","address":null,"covered":true,"access":null,"website":null,"phone":null,"source":"OpenStreetMap/way/850003929","sourceUpdatedAt":null,"verifiedAt":null}},{"type":"Feature","geometry":{"type":"Point","coordinates":[8.1420849,48.3812629]},"properties":{"id":"water:22b725e6-4774-4dc6-87e5-97a4aab9f0c0","kind":"water","longitude":8.1420849,"latitude":48.3812629,"name":"Trinkwasser","city":"Oberharmersbach","address":null,"covered":null,"access":null,"website":null,"phone":null,"source":"OpenStreetMap/node/1752318847","sourceUpdatedAt":null,"verifiedAt":null}},{"type":"Feature","geometry":{"type":"Point","coordinates":[8.1363936,48.3781761]},"properties":{"id":"water:240e2f02-fa6a-48d8-916a-11a03088c505","kind":"water","longitude":8.1363936,"latitude":48.3781761,"name":"Trinkwasser","city":"Oberharmersbach","address":null,"covered":null,"access":null,"website":null,"phone":null,"source":"OpenStreetMap/node/1726784905","sourceUpdatedAt":null,"verifiedAt":null}},{"type":"Feature","geometry":{"type":"Point","coordinates":[8.1367663,48.3891635]},"properties":{"id":"water:547004c5-d69c-424c-b46e-68731a46c09d","kind":"water","longitude":8.1367663,"latitude":48.3891635,"name":"Trinkwasser","city":"Oberharmersbach","address":null,"covered":null,"access":null,"website":null,"phone":null,"source":"OpenStreetMap/node/8948712397","sourceUpdatedAt":null,"verifiedAt":null}},{"type":"Feature","geometry":{"type":"Point","coordinates":[8.1413716,48.3876351]},"properties":{"id":"water:640ac32a-c2d6-4d56-a6f9-c45945cfe14c","kind":"water","longitude":8.1413716,"latitude":48.3876351,"name":"Trinkwasser","city":"Oberharmersbach","address":null,"covered":null,"access":null,"website":null,"phone":null,"source":"OpenStreetMap/node/11898455152","sourceUpdatedAt":null,"verifiedAt":null}},{"type":"Feature","geometry":{"type":"Point","coordinates":[8.1322827,48.3981371]},"properties":{"id":"water:7de81d30-cafe-4bb2-8d56-fc12070a0127","kind":"water","longitude":8.1322827,"latitude":48.3981371,"name":"Trinkwasser","city":"Oberharmersbach","address":null,"covered":null,"access":null,"website":null,"phone":null,"source":"OpenStreetMap/node/1822627621","sourceUpdatedAt":null,"verifiedAt":null}},{"type":"Feature","geometry":{"type":"Point","coordinates":[8.1334418,48.3984298]},"properties":{"id":"water:d5d11595-015c-4be5-bb6d-98d1e7b54de7","kind":"water","longitude":8.1334418,"latitude":48.3984298,"name":"Kornjörgle Brunnen","city":"Oberharmersbach","address":null,"covered":null,"access":null,"website":null,"phone":null,"source":"OpenStreetMap/node/1674404441","sourceUpdatedAt":null,"verifiedAt":null}}]}