{"type":"FeatureCollection","features":[{"type":"Feature","geometry":{"type":"Point","coordinates":[8.1592675,47.9075124]},"properties":{"id":"bikerack:1a413cc0-c213-4fd9-b866-70c6c81298ed","kind":"bikerack","longitude":8.1592675,"latitude":47.9075124,"name":"Fahrradabstellplatz","city":"Titisee-Neustadt","address":null,"covered":false,"access":null,"website":null,"phone":null,"source":"OpenStreetMap/node/11602189752","sourceUpdatedAt":null,"verifiedAt":null}},{"type":"Feature","geometry":{"type":"Point","coordinates":[8.1554732,47.9031294]},"properties":{"id":"bikerack:2a3775c0-2dc9-4ac9-a81d-393d59ef1b04","kind":"bikerack","longitude":8.1554732,"latitude":47.9031294,"name":"Fahrradabstellplatz","city":"Titisee-Neustadt","address":null,"covered":true,"access":null,"website":null,"phone":null,"source":"OpenStreetMap/way/777349788","sourceUpdatedAt":null,"verifiedAt":null}},{"type":"Feature","geometry":{"type":"Point","coordinates":[8.1560228,47.9030664]},"properties":{"id":"bikerack:c577507d-5cb2-4b93-ba14-f7c8bc6cb6e4","kind":"bikerack","longitude":8.1560228,"latitude":47.9030664,"name":"Fahrradabstellplatz","city":"Titisee-Neustadt","address":null,"covered":true,"access":null,"website":null,"phone":null,"source":"OpenStreetMap/way/279660009","sourceUpdatedAt":null,"verifiedAt":null}},{"type":"Feature","geometry":{"type":"Point","coordinates":[8.1545055,47.9028373]},"properties":{"id":"bikerack:dc0f63ca-051a-4319-90c3-fede8f154098","kind":"bikerack","longitude":8.1545055,"latitude":47.9028373,"name":"Fahrradabstellplatz","city":"Titisee-Neustadt","address":null,"covered":true,"access":null,"website":null,"phone":null,"source":"OpenStreetMap/node/4332491504","sourceUpdatedAt":null,"verifiedAt":null}}]}