{"type":"FeatureCollection","features":[{"type":"Feature","geometry":{"type":"Point","coordinates":[8.1373945,47.8186843]},"properties":{"id":"bikerack:096b616f-53e4-472b-ad15-f9a8f0ab82ac","kind":"bikerack","longitude":8.1373945,"latitude":47.8186843,"name":"Fahrradabstellplatz","city":"Schluchsee","address":null,"covered":false,"access":null,"website":null,"phone":null,"source":"OpenStreetMap/node/4340196391","sourceUpdatedAt":null,"verifiedAt":null}},{"type":"Feature","geometry":{"type":"Point","coordinates":[8.1369357,47.8381818]},"properties":{"id":"water:e5b07feb-53ab-418d-a9cb-002c6a3e75b9","kind":"water","longitude":8.1369357,"latitude":47.8381818,"name":"Trinkwasser","city":"Schluchsee","address":null,"covered":null,"access":null,"website":null,"phone":null,"source":"OpenStreetMap/node/3588142411","sourceUpdatedAt":null,"verifiedAt":null}},{"type":"Feature","geometry":{"type":"Point","coordinates":[8.1687779,47.8388341]},"properties":{"id":"water:ff022564-62e8-46b1-ae2f-0398b24c1b73","kind":"water","longitude":8.1687779,"latitude":47.8388341,"name":"Trinkwasser","city":"Schluchsee","address":null,"covered":null,"access":null,"website":null,"phone":null,"source":"OpenStreetMap/node/7649807661","sourceUpdatedAt":null,"verifiedAt":null}}]}