{"type":"FeatureCollection","features":[{"type":"Feature","geometry":{"type":"Point","coordinates":[8.1521584,47.2204397]},"properties":{"id":"bikerack:c7207b91-8723-471e-8ae5-ab2f127ec3dc","kind":"bikerack","longitude":8.1521584,"latitude":47.2204397,"name":"Bicycle Parking","city":"Gunzwil","address":null,"covered":true,"access":null,"website":null,"phone":null,"source":"OpenStreetMap/node/9241308102","sourceUpdatedAt":null,"verifiedAt":null}},{"type":"Feature","geometry":{"type":"Point","coordinates":[8.1565587,47.2479467]},"properties":{"id":"water:3e7690ea-f57b-4b4c-b64e-c07081df8763","kind":"water","longitude":8.1565587,"latitude":47.2479467,"name":"Drinking Fountain","city":"Gontenschwil","address":null,"covered":null,"access":null,"website":null,"phone":null,"source":"OpenStreetMap/node/3052227695","sourceUpdatedAt":null,"verifiedAt":null}},{"type":"Feature","geometry":{"type":"Point","coordinates":[8.1695996,47.235596]},"properties":{"id":"water:425d3b19-f4df-4351-801c-0e3247a0b89f","kind":"water","longitude":8.1695996,"latitude":47.235596,"name":"Drinking Fountain","city":"Menziken","address":null,"covered":null,"access":null,"website":null,"phone":null,"source":"OpenStreetMap/node/8094183523","sourceUpdatedAt":null,"verifiedAt":null}},{"type":"Feature","geometry":{"type":"Point","coordinates":[8.1587586,47.2341878]},"properties":{"id":"water:42870db9-1ae8-46ad-8d0e-be874ce3f5bc","kind":"water","longitude":8.1587586,"latitude":47.2341878,"name":"Drinking Fountain","city":"Gunzwil","address":null,"covered":null,"access":null,"website":null,"phone":null,"source":"OpenStreetMap/node/2078808825","sourceUpdatedAt":null,"verifiedAt":null}},{"type":"Feature","geometry":{"type":"Point","coordinates":[8.1517274,47.2457905]},"properties":{"id":"water:4ab8001f-2074-427d-af42-ace7e17f3635","kind":"water","longitude":8.1517274,"latitude":47.2457905,"name":"Drinking Fountain","city":"Gontenschwil","address":null,"covered":null,"access":null,"website":null,"phone":null,"source":"OpenStreetMap/node/1493551494","sourceUpdatedAt":null,"verifiedAt":null}},{"type":"Feature","geometry":{"type":"Point","coordinates":[8.1603483,47.2486225]},"properties":{"id":"water:5089c4b9-7501-4038-b2dd-333d27905570","kind":"water","longitude":8.1603483,"latitude":47.2486225,"name":"Drinking Fountain","city":"Gontenschwil","address":null,"covered":null,"access":null,"website":null,"phone":null,"source":"OpenStreetMap/node/7386030183","sourceUpdatedAt":null,"verifiedAt":null}},{"type":"Feature","geometry":{"type":"Point","coordinates":[8.1437436,47.2456471]},"properties":{"id":"water:746267e2-e918-4fb2-b5cb-81c95bdc7b84","kind":"water","longitude":8.1437436,"latitude":47.2456471,"name":"Drinking Fountain","city":"Gontenschwil","address":null,"covered":null,"access":null,"website":null,"phone":null,"source":"OpenStreetMap/node/1493551800","sourceUpdatedAt":null,"verifiedAt":null}}]}