{"type":"FeatureCollection","features":[{"type":"Feature","geometry":{"type":"Point","coordinates":[8.1706955,45.3687566]},"properties":{"id":"bikerack:0f32a398-ef5b-43b6-a226-814d27818528","kind":"bikerack","longitude":8.1706955,"latitude":45.3687566,"name":"Parcheggio bici","city":"Santhia","address":null,"covered":false,"access":null,"website":null,"phone":null,"source":"OpenStreetMap/node/2178146038","sourceUpdatedAt":null,"verifiedAt":null}},{"type":"Feature","geometry":{"type":"Point","coordinates":[8.1570804,45.3713706]},"properties":{"id":"water:2e115388-af80-439a-b5f4-7f0cd444bf1e","kind":"water","longitude":8.1570804,"latitude":45.3713706,"name":"Fontanella","city":"Santhia","address":null,"covered":null,"access":null,"website":null,"phone":null,"source":"OpenStreetMap/node/7633276885","sourceUpdatedAt":null,"verifiedAt":null}},{"type":"Feature","geometry":{"type":"Point","coordinates":[8.169542,45.3700607]},"properties":{"id":"water:3bdf7105-b7e4-4ce9-996e-d6bd10b9051b","kind":"water","longitude":8.169542,"latitude":45.3700607,"name":"Fontanella","city":"Santhia","address":null,"covered":null,"access":null,"website":null,"phone":null,"source":"OpenStreetMap/node/799002206","sourceUpdatedAt":null,"verifiedAt":null}},{"type":"Feature","geometry":{"type":"Point","coordinates":[8.1719626,45.3733456]},"properties":{"id":"water:c1ca20fd-d69c-4972-828b-b7a0dbfe39ec","kind":"water","longitude":8.1719626,"latitude":45.3733456,"name":"Fontanella","city":"Santhia","address":null,"covered":null,"access":null,"website":null,"phone":null,"source":"OpenStreetMap/node/9204978896","sourceUpdatedAt":null,"verifiedAt":null}},{"type":"Feature","geometry":{"type":"Point","coordinates":[8.170309,45.3692436]},"properties":{"id":"water:d220497b-e850-4ffe-bffb-8c7d1294638c","kind":"water","longitude":8.170309,"latitude":45.3692436,"name":"Fontanella","city":"Santhia","address":null,"covered":null,"access":null,"website":null,"phone":null,"source":"OpenStreetMap/node/739369729","sourceUpdatedAt":null,"verifiedAt":null}}]}