{"type":"FeatureCollection","features":[{"type":"Feature","geometry":{"type":"Point","coordinates":[9.2502526,51.9591178]},"properties":{"id":"bikerack:45c2b594-25f6-472e-a525-b8dbca2a5f86","kind":"bikerack","longitude":9.2502526,"latitude":51.9591178,"name":"Fahrradabstellplatz","city":"Lugde","address":null,"covered":false,"access":null,"website":null,"phone":null,"source":"OpenStreetMap/node/11146307304","sourceUpdatedAt":null,"verifiedAt":null}},{"type":"Feature","geometry":{"type":"Point","coordinates":[9.2488105,51.9664034]},"properties":{"id":"bikerack:804c8f26-b9d5-45f5-a22d-65070da7b722","kind":"bikerack","longitude":9.2488105,"latitude":51.9664034,"name":"Fahrradabstellplatz","city":"Lugde","address":null,"covered":false,"access":null,"website":null,"phone":null,"source":"OpenStreetMap/way/1052766302","sourceUpdatedAt":null,"verifiedAt":null}},{"type":"Feature","geometry":{"type":"Point","coordinates":[9.250563,51.9589529]},"properties":{"id":"bikerack:a0f615d7-31bb-4366-8df0-1eb19209e818","kind":"bikerack","longitude":9.250563,"latitude":51.9589529,"name":"Fahrradabstellplatz","city":"Lugde","address":null,"covered":true,"access":null,"website":null,"phone":null,"source":"OpenStreetMap/node/11146303228","sourceUpdatedAt":null,"verifiedAt":null}},{"type":"Feature","geometry":{"type":"Point","coordinates":[9.2439651,51.9577411]},"properties":{"id":"bikerack:e53592d5-cf01-45a5-969c-313fc6e24190","kind":"bikerack","longitude":9.2439651,"latitude":51.9577411,"name":"Fahrradabstellplatz","city":"Lugde","address":null,"covered":false,"access":null,"website":null,"phone":null,"source":"OpenStreetMap/node/11889919153","sourceUpdatedAt":null,"verifiedAt":null}},{"type":"Feature","geometry":{"type":"Point","coordinates":[9.243932,51.9577454]},"properties":{"id":"repair:19fcdba3-6235-4c70-9b47-77efd2a6ca99","kind":"repair","longitude":9.243932,"latitude":51.9577454,"name":"Fahrradreparaturstation","city":"Lugde","address":null,"covered":false,"access":null,"website":null,"phone":null,"source":"OpenStreetMap/node/11889919152","sourceUpdatedAt":null,"verifiedAt":null}},{"type":"Feature","geometry":{"type":"Point","coordinates":[9.2427485,51.950518]},"properties":{"id":"service:4cc6a478-85e1-47bd-a931-1946b32372b1","kind":"service","longitude":9.2427485,"latitude":51.950518,"name":"Fahrrad Schlieker","city":"Lügde","address":null,"covered":null,"access":null,"website":null,"phone":null,"source":"OpenStreetMap/way/306741403","sourceUpdatedAt":null,"verifiedAt":null}}]}