{"type":"FeatureCollection","features":[{"type":"Feature","geometry":{"type":"Point","coordinates":[9.2451596,50.9123029]},"properties":{"id":"bikerack:0518e840-29a5-4791-9814-7574c23da0d4","kind":"bikerack","longitude":9.2451596,"latitude":50.9123029,"name":"Fahrradabstellplatz","city":"Schwalmstadt","address":null,"covered":false,"access":null,"website":null,"phone":null,"source":"OpenStreetMap/node/2865066925","sourceUpdatedAt":null,"verifiedAt":null}},{"type":"Feature","geometry":{"type":"Point","coordinates":[9.2435779,50.9121236]},"properties":{"id":"bikerack:18dd1b11-5dce-4ff8-8749-b85010da8601","kind":"bikerack","longitude":9.2435779,"latitude":50.9121236,"name":"Fahrradabstellplatz","city":"Schwalmstadt","address":null,"covered":false,"access":null,"website":null,"phone":null,"source":"OpenStreetMap/node/2865066922","sourceUpdatedAt":null,"verifiedAt":null}},{"type":"Feature","geometry":{"type":"Point","coordinates":[9.2325545,50.9058622]},"properties":{"id":"bikerack:1b7da0d7-defd-4add-bcfa-fc5f26ab25dc","kind":"bikerack","longitude":9.2325545,"latitude":50.9058622,"name":"Fahrradabstellplatz","city":"Schwalmstadt","address":null,"covered":false,"access":null,"website":null,"phone":null,"source":"OpenStreetMap/node/6668111487","sourceUpdatedAt":null,"verifiedAt":null}},{"type":"Feature","geometry":{"type":"Point","coordinates":[9.2435601,50.9121785]},"properties":{"id":"bikerack:2f8e3938-1460-4636-b947-f8e3963f6c12","kind":"bikerack","longitude":9.2435601,"latitude":50.9121785,"name":"Fahrradabstellplatz","city":"Schwalmstadt","address":null,"covered":false,"access":null,"website":null,"phone":null,"source":"OpenStreetMap/node/2865066923","sourceUpdatedAt":null,"verifiedAt":null}},{"type":"Feature","geometry":{"type":"Point","coordinates":[9.2337044,50.9168757]},"properties":{"id":"bikerack:3299ce18-9464-4993-80ce-ba4d182e2f5a","kind":"bikerack","longitude":9.2337044,"latitude":50.9168757,"name":"Fahrradabstellplatz","city":"Schwalmstadt","address":null,"covered":false,"access":null,"website":null,"phone":null,"source":"OpenStreetMap/node/6670677945","sourceUpdatedAt":null,"verifiedAt":null}},{"type":"Feature","geometry":{"type":"Point","coordinates":[9.2338009,50.9166169]},"properties":{"id":"bikerack:41febd0f-41ee-4e50-ad68-fedc24b7723f","kind":"bikerack","longitude":9.2338009,"latitude":50.9166169,"name":"Fahrradabstellplatz","city":"Schwalmstadt","address":null,"covered":false,"access":null,"website":null,"phone":null,"source":"OpenStreetMap/node/6668088183","sourceUpdatedAt":null,"verifiedAt":null}},{"type":"Feature","geometry":{"type":"Point","coordinates":[9.2350468,50.9106848]},"properties":{"id":"bikerack:51834640-7a54-4781-ab51-3b2dd167cbea","kind":"bikerack","longitude":9.2350468,"latitude":50.9106848,"name":"Fahrradabstellplatz","city":"Schwalmstadt","address":null,"covered":false,"access":null,"website":null,"phone":null,"source":"OpenStreetMap/node/2865066908","sourceUpdatedAt":null,"verifiedAt":null}},{"type":"Feature","geometry":{"type":"Point","coordinates":[9.2373699,50.9113969]},"properties":{"id":"bikerack:5671453c-315e-4c4d-b28e-da9211146153","kind":"bikerack","longitude":9.2373699,"latitude":50.9113969,"name":"Fahrradabstellplatz","city":"Schwalmstadt","address":null,"covered":false,"access":null,"website":null,"phone":null,"source":"OpenStreetMap/node/2865066916","sourceUpdatedAt":null,"verifiedAt":null}},{"type":"Feature","geometry":{"type":"Point","coordinates":[9.2338063,50.9167987]},"properties":{"id":"bikerack:5af20144-a75f-4cf6-b38e-c4e7f63034c0","kind":"bikerack","longitude":9.2338063,"latitude":50.9167987,"name":"Fahrradabstellplatz","city":"Schwalmstadt","address":null,"covered":false,"access":null,"website":null,"phone":null,"source":"OpenStreetMap/node/6670677946","sourceUpdatedAt":null,"verifiedAt":null}},{"type":"Feature","geometry":{"type":"Point","coordinates":[9.2328729,50.9061299]},"properties":{"id":"bikerack:5d079b17-adc3-4d03-843f-eb7090f3ba91","kind":"bikerack","longitude":9.2328729,"latitude":50.9061299,"name":"Fahrradabstellplatz","city":"Schwalmstadt","address":null,"covered":false,"access":null,"website":null,"phone":null,"source":"OpenStreetMap/node/6668111488","sourceUpdatedAt":null,"verifiedAt":null}},{"type":"Feature","geometry":{"type":"Point","coordinates":[9.2335367,50.91657]},"properties":{"id":"bikerack:5eaa2e3b-0621-4530-983f-c62e41ceda86","kind":"bikerack","longitude":9.2335367,"latitude":50.91657,"name":"Fahrradabstellplatz","city":"Schwalmstadt","address":null,"covered":false,"access":null,"website":null,"phone":null,"source":"OpenStreetMap/node/6668088182","sourceUpdatedAt":null,"verifiedAt":null}},{"type":"Feature","geometry":{"type":"Point","coordinates":[9.2430777,50.9120567]},"properties":{"id":"bikerack:609e0565-1430-480a-b4de-d2c7729f0e8d","kind":"bikerack","longitude":9.2430777,"latitude":50.9120567,"name":"Fahrradabstellplatz","city":"Schwalmstadt","address":null,"covered":false,"access":null,"website":null,"phone":null,"source":"OpenStreetMap/node/2865066921","sourceUpdatedAt":null,"verifiedAt":null}},{"type":"Feature","geometry":{"type":"Point","coordinates":[9.2345196,50.9110844]},"properties":{"id":"bikerack:87ee15ab-1860-42eb-8a1a-95922c03795d","kind":"bikerack","longitude":9.2345196,"latitude":50.9110844,"name":"Fahrradabstellplatz","city":"Schwalmstadt","address":null,"covered":false,"access":null,"website":null,"phone":null,"source":"OpenStreetMap/node/2865066912","sourceUpdatedAt":null,"verifiedAt":null}},{"type":"Feature","geometry":{"type":"Point","coordinates":[9.2378856,50.9112361]},"properties":{"id":"bikerack:941515e3-76d8-4292-9232-0f5d10c746e3","kind":"bikerack","longitude":9.2378856,"latitude":50.9112361,"name":"Fahrradabstellplatz","city":"Schwalmstadt","address":null,"covered":false,"access":null,"website":null,"phone":null,"source":"OpenStreetMap/node/2865066914","sourceUpdatedAt":null,"verifiedAt":null}},{"type":"Feature","geometry":{"type":"Point","coordinates":[9.2445737,50.912267]},"properties":{"id":"bikerack:97d2f551-c3ce-422b-a33d-f5b956da4d47","kind":"bikerack","longitude":9.2445737,"latitude":50.912267,"name":"Fahrradabstellplatz","city":"Schwalmstadt","address":null,"covered":false,"access":null,"website":null,"phone":null,"source":"OpenStreetMap/node/2865066924","sourceUpdatedAt":null,"verifiedAt":null}},{"type":"Feature","geometry":{"type":"Point","coordinates":[9.2334589,50.9170769]},"properties":{"id":"bikerack:9fcf5f97-aac7-44ff-8d0f-507c73e838f4","kind":"bikerack","longitude":9.2334589,"latitude":50.9170769,"name":"Fahrradabstellplatz","city":"Schwalmstadt","address":null,"covered":false,"access":null,"website":null,"phone":null,"source":"OpenStreetMap/node/6670677944","sourceUpdatedAt":null,"verifiedAt":null}},{"type":"Feature","geometry":{"type":"Point","coordinates":[9.2320159,50.9058618]},"properties":{"id":"bikerack:c5ea51db-068c-4a3d-bda6-6a4c373bd2f6","kind":"bikerack","longitude":9.2320159,"latitude":50.9058618,"name":"Fahrradabstellplatz","city":"Schwalmstadt","address":null,"covered":false,"access":null,"website":null,"phone":null,"source":"OpenStreetMap/node/6668111489","sourceUpdatedAt":null,"verifiedAt":null}},{"type":"Feature","geometry":{"type":"Point","coordinates":[9.235434,50.9113854]},"properties":{"id":"bikerack:ce5e5a0f-05c1-4992-b7e0-77ec2ed52aaa","kind":"bikerack","longitude":9.235434,"latitude":50.9113854,"name":"Fahrradabstellplatz","city":"Schwalmstadt","address":null,"covered":false,"access":null,"website":null,"phone":null,"source":"OpenStreetMap/node/2865066915","sourceUpdatedAt":null,"verifiedAt":null}},{"type":"Feature","geometry":{"type":"Point","coordinates":[9.2445437,50.918759]},"properties":{"id":"bikerack:d1d92c33-c27f-4097-91a0-6efd7f44c061","kind":"bikerack","longitude":9.2445437,"latitude":50.918759,"name":"Fahrradabstellplatz","city":"Schwalmstadt","address":null,"covered":false,"access":null,"website":null,"phone":null,"source":"OpenStreetMap/node/1933424780","sourceUpdatedAt":null,"verifiedAt":null}},{"type":"Feature","geometry":{"type":"Point","coordinates":[9.2286569,50.921182]},"properties":{"id":"bikerack:fb3d6e73-528b-4628-aa44-e66651e3a375","kind":"bikerack","longitude":9.2286569,"latitude":50.921182,"name":"Fahrradabstellplatz","city":"Schwalmstadt","address":null,"covered":false,"access":null,"website":null,"phone":null,"source":"OpenStreetMap/node/9543858724","sourceUpdatedAt":null,"verifiedAt":null}},{"type":"Feature","geometry":{"type":"Point","coordinates":[9.2324268,50.9049664]},"properties":{"id":"repair:949619f0-8eaf-473b-858a-09c9b48d62c9","kind":"repair","longitude":9.2324268,"latitude":50.9049664,"name":"Fahrradreparaturstation","city":"Schwalmstadt","address":null,"covered":false,"access":null,"website":null,"phone":null,"source":"OpenStreetMap/node/11114156727","sourceUpdatedAt":null,"verifiedAt":null}},{"type":"Feature","geometry":{"type":"Point","coordinates":[9.2324269,50.9049591]},"properties":{"id":"water:6eda75c8-fb8a-4f5f-a5db-5b556bbaed07","kind":"water","longitude":9.2324269,"latitude":50.9049591,"name":"Trinkwasser","city":"Schwalmstadt","address":null,"covered":null,"access":null,"website":null,"phone":null,"source":"OpenStreetMap/node/11114148670","sourceUpdatedAt":null,"verifiedAt":null}}]}