{"type":"FeatureCollection","features":[{"type":"Feature","geometry":{"type":"Point","coordinates":[9.2469574,50.8894928]},"properties":{"id":"bikerack:411e3ea6-d962-447b-931f-78f6d6a3d5ac","kind":"bikerack","longitude":9.2469574,"latitude":50.8894928,"name":"Fahrradabstellplatz","city":"Schwalmstadt","address":null,"covered":false,"access":null,"website":null,"phone":null,"source":"OpenStreetMap/node/2892557430","sourceUpdatedAt":null,"verifiedAt":null}},{"type":"Feature","geometry":{"type":"Point","coordinates":[9.2395587,50.897595]},"properties":{"id":"bikerack:5845a220-01dc-453a-885c-864f80af937f","kind":"bikerack","longitude":9.2395587,"latitude":50.897595,"name":"Fahrradabstellplatz","city":"Schwalmstadt","address":null,"covered":false,"access":null,"website":null,"phone":null,"source":"OpenStreetMap/node/2892557431","sourceUpdatedAt":null,"verifiedAt":null}}]}