{"type":"FeatureCollection","features":[{"type":"Feature","geometry":{"type":"Point","coordinates":[9.2685737,50.817223]},"properties":{"id":"bikerack:3d93467a-2cf3-4511-a78d-f6b3c4d94a00","kind":"bikerack","longitude":9.2685737,"latitude":50.817223,"name":"Fahrradabstellplatz","city":"Schrecksbach","address":null,"covered":false,"access":null,"website":null,"phone":null,"source":"OpenStreetMap/node/5654276754","sourceUpdatedAt":null,"verifiedAt":null}},{"type":"Feature","geometry":{"type":"Point","coordinates":[9.2587227,50.8061746]},"properties":{"id":"service:934ede8c-44f3-4941-a8d5-f0aaeefdbb20","kind":"service","longitude":9.2587227,"latitude":50.8061746,"name":"Zweirad Shop Müller e.K.","city":"Schrecksbach","address":null,"covered":null,"access":null,"website":null,"phone":null,"source":"OpenStreetMap/node/5434917543","sourceUpdatedAt":null,"verifiedAt":null}}]}