{"type":"FeatureCollection","features":[{"type":"Feature","geometry":{"type":"Point","coordinates":[9.2630939,46.176559]},"properties":{"id":"water:07b52c9c-5dc3-4f6e-bea6-4fc168a38dfd","kind":"water","longitude":9.2630939,"latitude":46.176559,"name":"Fontanella","city":"Dosso del Liro","address":null,"covered":null,"access":null,"website":null,"phone":null,"source":"OpenStreetMap/node/4588747749","sourceUpdatedAt":null,"verifiedAt":null}},{"type":"Feature","geometry":{"type":"Point","coordinates":[9.250309,46.1776835]},"properties":{"id":"water:0c044d68-de47-49c9-ba17-4e7d58494300","kind":"water","longitude":9.250309,"latitude":46.1776835,"name":"Fontanella","city":"Dosso del Liro","address":null,"covered":null,"access":null,"website":null,"phone":null,"source":"OpenStreetMap/node/2625991383","sourceUpdatedAt":null,"verifiedAt":null}},{"type":"Feature","geometry":{"type":"Point","coordinates":[9.262819,46.1771942]},"properties":{"id":"water:0c60a3d0-8bed-4857-9b45-2606bb8eac30","kind":"water","longitude":9.262819,"latitude":46.1771942,"name":"Fontanella","city":"Dosso del Liro","address":null,"covered":null,"access":null,"website":null,"phone":null,"source":"OpenStreetMap/node/4588747840","sourceUpdatedAt":null,"verifiedAt":null}},{"type":"Feature","geometry":{"type":"Point","coordinates":[9.2625931,46.179711]},"properties":{"id":"water:2356c208-4560-4dfc-a496-a0e8b531ed25","kind":"water","longitude":9.2625931,"latitude":46.179711,"name":"Fontanella","city":"Dosso del Liro","address":null,"covered":null,"access":null,"website":null,"phone":null,"source":"OpenStreetMap/node/4588748257","sourceUpdatedAt":null,"verifiedAt":null}},{"type":"Feature","geometry":{"type":"Point","coordinates":[9.2287884,46.168055]},"properties":{"id":"water:3f571a6a-e1bf-471e-a34f-934710737ea1","kind":"water","longitude":9.2287884,"latitude":46.168055,"name":"Fontanella","city":"Garzeno","address":null,"covered":null,"access":null,"website":null,"phone":null,"source":"OpenStreetMap/node/4148522832","sourceUpdatedAt":null,"verifiedAt":null}},{"type":"Feature","geometry":{"type":"Point","coordinates":[9.2640256,46.1650633]},"properties":{"id":"water:461b5988-077c-4a35-b8ed-12b7d5d16319","kind":"water","longitude":9.2640256,"latitude":46.1650633,"name":"Fontanella","city":"Dosso del Liro","address":null,"covered":null,"access":null,"website":null,"phone":null,"source":"OpenStreetMap/node/5866934716","sourceUpdatedAt":null,"verifiedAt":null}},{"type":"Feature","geometry":{"type":"Point","coordinates":[9.2586167,46.1654407]},"properties":{"id":"water:61df252e-d52c-4526-aeee-ee13a9f195ee","kind":"water","longitude":9.2586167,"latitude":46.1654407,"name":"Fontanella","city":"Dosso del Liro","address":null,"covered":null,"access":null,"website":null,"phone":null,"source":"OpenStreetMap/node/1824728989","sourceUpdatedAt":null,"verifiedAt":null}},{"type":"Feature","geometry":{"type":"Point","coordinates":[9.2577095,46.1657036]},"properties":{"id":"water:797d01b7-3ed5-4194-967a-936e50fe2850","kind":"water","longitude":9.2577095,"latitude":46.1657036,"name":"Fontanella","city":"Dosso del Liro","address":null,"covered":null,"access":null,"website":null,"phone":null,"source":"OpenStreetMap/node/1824728993","sourceUpdatedAt":null,"verifiedAt":null}},{"type":"Feature","geometry":{"type":"Point","coordinates":[9.2326645,46.1804055]},"properties":{"id":"water:7fbf9738-e193-4681-bcda-8498828a1f67","kind":"water","longitude":9.2326645,"latitude":46.1804055,"name":"Fontanella","city":"Dosso del Liro","address":null,"covered":null,"access":null,"website":null,"phone":null,"source":"OpenStreetMap/node/2486287618","sourceUpdatedAt":null,"verifiedAt":null}},{"type":"Feature","geometry":{"type":"Point","coordinates":[9.2356071,46.1925385]},"properties":{"id":"water:8ccf835c-5291-45df-990d-8a55c4690da2","kind":"water","longitude":9.2356071,"latitude":46.1925385,"name":"Fontanella","city":"Dosso del Liro","address":null,"covered":null,"access":null,"website":null,"phone":null,"source":"OpenStreetMap/node/3080285303","sourceUpdatedAt":null,"verifiedAt":null}},{"type":"Feature","geometry":{"type":"Point","coordinates":[9.2411334,46.1797582]},"properties":{"id":"water:9ea2d828-607f-44a1-a6fa-5d206fd8c00e","kind":"water","longitude":9.2411334,"latitude":46.1797582,"name":"Fontanella","city":"Dosso del Liro","address":null,"covered":null,"access":null,"website":null,"phone":null,"source":"OpenStreetMap/node/3785904477","sourceUpdatedAt":null,"verifiedAt":null}},{"type":"Feature","geometry":{"type":"Point","coordinates":[9.2287718,46.1813871]},"properties":{"id":"water:c272f2e9-d48b-4c18-91f2-d9955a901b32","kind":"water","longitude":9.2287718,"latitude":46.1813871,"name":"Fontanella","city":"Dosso del Liro","address":null,"covered":null,"access":null,"website":null,"phone":null,"source":"OpenStreetMap/node/3785922976","sourceUpdatedAt":null,"verifiedAt":null}},{"type":"Feature","geometry":{"type":"Point","coordinates":[9.2670347,46.1718033]},"properties":{"id":"water:c4937837-1274-4599-bc5a-1dac0b94012f","kind":"water","longitude":9.2670347,"latitude":46.1718033,"name":"Fontanella","city":"Dosso del Liro","address":null,"covered":null,"access":null,"website":null,"phone":null,"source":"OpenStreetMap/node/4588747329","sourceUpdatedAt":null,"verifiedAt":null}},{"type":"Feature","geometry":{"type":"Point","coordinates":[9.2293962,46.1761109]},"properties":{"id":"water:c90855b8-0d4f-46b2-8377-52a7ff580ab5","kind":"water","longitude":9.2293962,"latitude":46.1761109,"name":"Fontanella","city":"Dosso del Liro","address":null,"covered":null,"access":null,"website":null,"phone":null,"source":"OpenStreetMap/node/11299982066","sourceUpdatedAt":null,"verifiedAt":null}},{"type":"Feature","geometry":{"type":"Point","coordinates":[9.2410454,46.173598]},"properties":{"id":"water:f50dec23-c678-410e-828b-ab8b22ead522","kind":"water","longitude":9.2410454,"latitude":46.173598,"name":"Fontanella","city":"Dosso del Liro","address":null,"covered":null,"access":null,"website":null,"phone":null,"source":"OpenStreetMap/node/3080285246","sourceUpdatedAt":null,"verifiedAt":null}},{"type":"Feature","geometry":{"type":"Point","coordinates":[9.2681639,46.1696658]},"properties":{"id":"water:fb1dd90d-a25b-4278-9185-ecd7d3329c9f","kind":"water","longitude":9.2681639,"latitude":46.1696658,"name":"Fontanella","city":"Dosso del Liro","address":null,"covered":null,"access":null,"website":null,"phone":null,"source":"OpenStreetMap/node/4588747282","sourceUpdatedAt":null,"verifiedAt":null}}]}