{"type":"FeatureCollection","features":[{"type":"Feature","geometry":{"type":"Point","coordinates":[15.424664,50.7764646]},"properties":{"id":"bikerack:7b42115a-8aa2-43c5-a197-058fda344b78","kind":"bikerack","longitude":15.424664,"latitude":50.7764646,"name":"Bicycle Parking","city":"Harrachov","address":null,"covered":false,"access":null,"website":null,"phone":null,"source":"OpenStreetMap/node/10926065284","sourceUpdatedAt":null,"verifiedAt":null}},{"type":"Feature","geometry":{"type":"Point","coordinates":[15.4235873,50.7783175]},"properties":{"id":"bikerack:7fefbb92-78d2-4987-a898-63b9b2374934","kind":"bikerack","longitude":15.4235873,"latitude":50.7783175,"name":"Bicycle Parking","city":"Harrachov","address":null,"covered":false,"access":null,"website":null,"phone":null,"source":"OpenStreetMap/node/10926347317","sourceUpdatedAt":null,"verifiedAt":null}},{"type":"Feature","geometry":{"type":"Point","coordinates":[15.422832,50.7810322]},"properties":{"id":"bikerack:952cd2b5-508c-448d-b201-e8fe8615b4c0","kind":"bikerack","longitude":15.422832,"latitude":50.7810322,"name":"Bicycle Parking","city":"Harrachov","address":null,"covered":false,"access":null,"website":null,"phone":null,"source":"OpenStreetMap/node/10901663943","sourceUpdatedAt":null,"verifiedAt":null}}]}