{"type":"FeatureCollection","features":[{"type":"Feature","geometry":{"type":"Point","coordinates":[15.4160444,47.0082679]},"properties":{"id":"bikerack:56d2f981-f828-4ff1-aa52-8a0bc10a4232","kind":"bikerack","longitude":15.4160444,"latitude":47.0082679,"name":"Biciklitároló","city":"Seiersberg","address":null,"covered":false,"access":null,"website":null,"phone":null,"source":"OpenStreetMap/node/2296125193","sourceUpdatedAt":null,"verifiedAt":null}},{"type":"Feature","geometry":{"type":"Point","coordinates":[15.3926393,46.998104]},"properties":{"id":"bikerack:81f03362-a8b7-42c3-abd6-2384eb259c3f","kind":"bikerack","longitude":15.3926393,"latitude":46.998104,"name":"Biciklitároló","city":"Seiersberg","address":null,"covered":false,"access":null,"website":null,"phone":null,"source":"OpenStreetMap/node/12157192354","sourceUpdatedAt":null,"verifiedAt":null}},{"type":"Feature","geometry":{"type":"Point","coordinates":[15.3876568,47.0093271]},"properties":{"id":"bikerack:d58eb33f-e728-4a7f-90c2-169f5d4d8937","kind":"bikerack","longitude":15.3876568,"latitude":47.0093271,"name":"Biciklitároló","city":"Pirka","address":null,"covered":true,"access":null,"website":null,"phone":null,"source":"OpenStreetMap/node/13138147219","sourceUpdatedAt":null,"verifiedAt":null}},{"type":"Feature","geometry":{"type":"Point","coordinates":[15.4113494,47.0090903]},"properties":{"id":"bikerack:e125e5f3-b0a5-4d16-8b35-de5564c88ee1","kind":"bikerack","longitude":15.4113494,"latitude":47.0090903,"name":"Biciklitároló","city":"Seiersberg","address":null,"covered":false,"access":null,"website":null,"phone":null,"source":"OpenStreetMap/node/8796117711","sourceUpdatedAt":null,"verifiedAt":null}},{"type":"Feature","geometry":{"type":"Point","coordinates":[15.3880096,46.9922363]},"properties":{"id":"repair:16b1686c-38c4-45e7-93eb-66526a67777c","kind":"repair","longitude":15.3880096,"latitude":46.9922363,"name":"Kerékpár szervizállomás","city":"Pirka","address":null,"covered":false,"access":null,"website":null,"phone":null,"source":"OpenStreetMap/node/12157119444","sourceUpdatedAt":null,"verifiedAt":null}},{"type":"Feature","geometry":{"type":"Point","coordinates":[15.3932326,47.0004162]},"properties":{"id":"repair:88b37bd5-0492-46ad-b4d6-7a46a3c0cdc3","kind":"repair","longitude":15.3932326,"latitude":47.0004162,"name":"Kerékpár szervizállomás","city":"Seiersberg","address":null,"covered":false,"access":null,"website":null,"phone":null,"source":"OpenStreetMap/node/12157125619","sourceUpdatedAt":null,"verifiedAt":null}},{"type":"Feature","geometry":{"type":"Point","coordinates":[15.4223535,46.9870883]},"properties":{"id":"water:0835a171-0ba7-42b4-bcd4-b9942c0388be","kind":"water","longitude":15.4223535,"latitude":46.9870883,"name":"Ivókút","city":"Seiersberg","address":null,"covered":null,"access":null,"website":null,"phone":null,"source":"OpenStreetMap/node/1701039745","sourceUpdatedAt":null,"verifiedAt":null}},{"type":"Feature","geometry":{"type":"Point","coordinates":[15.3872747,47.0062031]},"properties":{"id":"water:18f0f419-97b2-454d-a585-0f7d383cc107","kind":"water","longitude":15.3872747,"latitude":47.0062031,"name":"Ivókút","city":"Pirka","address":null,"covered":null,"access":null,"website":null,"phone":null,"source":"OpenStreetMap/node/12470855577","sourceUpdatedAt":null,"verifiedAt":null}},{"type":"Feature","geometry":{"type":"Point","coordinates":[15.3876283,47.0094734]},"properties":{"id":"water:603b9bfc-2425-443a-b7aa-e9f1959afe43","kind":"water","longitude":15.3876283,"latitude":47.0094734,"name":"Ivókút","city":"Pirka","address":null,"covered":null,"access":null,"website":null,"phone":null,"source":"OpenStreetMap/node/10966358218","sourceUpdatedAt":null,"verifiedAt":null}},{"type":"Feature","geometry":{"type":"Point","coordinates":[15.4209549,47.0054271]},"properties":{"id":"water:7db1bc27-cff8-4a99-afc3-10df2cc21f29","kind":"water","longitude":15.4209549,"latitude":47.0054271,"name":"Ivókút","city":"Seiersberg","address":null,"covered":null,"access":null,"website":null,"phone":null,"source":"OpenStreetMap/node/12157704668","sourceUpdatedAt":null,"verifiedAt":null}},{"type":"Feature","geometry":{"type":"Point","coordinates":[15.4199999,46.9850204]},"properties":{"id":"water:9208caa1-44b5-4bc3-8ff6-dad138f85cb9","kind":"water","longitude":15.4199999,"latitude":46.9850204,"name":"Ivókút","city":"Seiersberg","address":null,"covered":null,"access":null,"website":null,"phone":null,"source":"OpenStreetMap/node/1701046090","sourceUpdatedAt":null,"verifiedAt":null}},{"type":"Feature","geometry":{"type":"Point","coordinates":[15.4243854,46.9874546]},"properties":{"id":"water:e0046975-b79d-4ab1-a835-446771b2d0ec","kind":"water","longitude":15.4243854,"latitude":46.9874546,"name":"Ivókút","city":"Seiersberg","address":null,"covered":null,"access":null,"website":null,"phone":null,"source":"OpenStreetMap/node/1701033348","sourceUpdatedAt":null,"verifiedAt":null}},{"type":"Feature","geometry":{"type":"Point","coordinates":[15.39312,47.0004189]},"properties":{"id":"water:e67e8293-c683-41ec-a95f-792a766151ff","kind":"water","longitude":15.39312,"latitude":47.0004189,"name":"Ivókút","city":"Seiersberg","address":null,"covered":null,"access":null,"website":null,"phone":null,"source":"OpenStreetMap/node/2338627685","sourceUpdatedAt":null,"verifiedAt":null}},{"type":"Feature","geometry":{"type":"Point","coordinates":[15.4210854,46.9827587]},"properties":{"id":"water:f8515a0c-2a5e-4e5d-82ce-79e2c25fe0e6","kind":"water","longitude":15.4210854,"latitude":46.9827587,"name":"Ivókút","city":"Unterpremstatten","address":null,"covered":null,"access":null,"website":null,"phone":null,"source":"OpenStreetMap/node/1710404218","sourceUpdatedAt":null,"verifiedAt":null}}]}