{"type":"FeatureCollection","features":[{"type":"Feature","geometry":{"type":"Point","coordinates":[11.8128585,47.4536235]},"properties":{"id":"water:0bd6d450-4c16-4dc0-a759-d9ff7207a203","kind":"water","longitude":11.8128585,"latitude":47.4536235,"name":"Ivókút","city":"Munster","address":null,"covered":null,"access":null,"website":null,"phone":null,"source":"OpenStreetMap/node/1452291951","sourceUpdatedAt":null,"verifiedAt":null}},{"type":"Feature","geometry":{"type":"Point","coordinates":[11.7970668,47.4379704]},"properties":{"id":"water:22b57c41-5bb1-43ec-a578-1d998a3ba32b","kind":"water","longitude":11.7970668,"latitude":47.4379704,"name":"Brunnen","city":"Wiesing","address":null,"covered":null,"access":null,"website":null,"phone":null,"source":"OpenStreetMap/node/292919715","sourceUpdatedAt":null,"verifiedAt":null}},{"type":"Feature","geometry":{"type":"Point","coordinates":[11.7917607,47.4350729]},"properties":{"id":"water:29c70e31-c550-4088-88f2-f9d450eb55e1","kind":"water","longitude":11.7917607,"latitude":47.4350729,"name":"Ivókút","city":"Wiesing","address":null,"covered":null,"access":null,"website":null,"phone":null,"source":"OpenStreetMap/node/2520163671","sourceUpdatedAt":null,"verifiedAt":null}},{"type":"Feature","geometry":{"type":"Point","coordinates":[11.7893086,47.4383469]},"properties":{"id":"water:6d4e0455-f6bc-4c59-a078-91b3f7f9c816","kind":"water","longitude":11.7893086,"latitude":47.4383469,"name":"Ivókút","city":"Wiesing","address":null,"covered":null,"access":null,"website":null,"phone":null,"source":"OpenStreetMap/node/1484745766","sourceUpdatedAt":null,"verifiedAt":null}},{"type":"Feature","geometry":{"type":"Point","coordinates":[11.8061233,47.4336429]},"properties":{"id":"water:7ad6ccad-ed21-4684-9e19-d8f3eafa0fba","kind":"water","longitude":11.8061233,"latitude":47.4336429,"name":"Ivókút","city":"Munster","address":null,"covered":null,"access":null,"website":null,"phone":null,"source":"OpenStreetMap/node/3786628869","sourceUpdatedAt":null,"verifiedAt":null}},{"type":"Feature","geometry":{"type":"Point","coordinates":[11.8210137,47.445059]},"properties":{"id":"water:b546177a-d9cc-4874-acbb-24472a82207e","kind":"water","longitude":11.8210137,"latitude":47.445059,"name":"Ivókút","city":"Munster","address":null,"covered":null,"access":null,"website":null,"phone":null,"source":"OpenStreetMap/node/4280929961","sourceUpdatedAt":null,"verifiedAt":null}}]}