{"type":"FeatureCollection","features":[{"type":"Feature","geometry":{"type":"Point","coordinates":[11.7840951,45.2869386]},"properties":{"id":"service:69042c92-0b48-4849-84a0-267b461dbb0d","kind":"service","longitude":11.7840951,"latitude":45.2869386,"name":"5.1 Bike Suspension","city":"Battaglia Terme","address":null,"covered":null,"access":null,"website":null,"phone":null,"source":"OpenStreetMap/node/4072137861","sourceUpdatedAt":null,"verifiedAt":null}},{"type":"Feature","geometry":{"type":"Point","coordinates":[11.7823841,45.3037736]},"properties":{"id":"water:1c3f8f97-0890-4ede-93ce-fa6f46cdd1d1","kind":"water","longitude":11.7823841,"latitude":45.3037736,"name":"Fontanella","city":"Battaglia Terme","address":null,"covered":null,"access":null,"website":null,"phone":null,"source":"OpenStreetMap/node/1454235606","sourceUpdatedAt":null,"verifiedAt":null}},{"type":"Feature","geometry":{"type":"Point","coordinates":[11.7802031,45.2840189]},"properties":{"id":"water:2ab7500e-37e2-4125-8597-aaf98bb3796b","kind":"water","longitude":11.7802031,"latitude":45.2840189,"name":"Fontanella","city":"Battaglia Terme","address":null,"covered":null,"access":null,"website":null,"phone":null,"source":"OpenStreetMap/node/1468330228","sourceUpdatedAt":null,"verifiedAt":null}},{"type":"Feature","geometry":{"type":"Point","coordinates":[11.7824855,45.2880355]},"properties":{"id":"water:ca09c6d6-04fe-4922-b17d-c13d3836da12","kind":"water","longitude":11.7824855,"latitude":45.2880355,"name":"Fontanella","city":"Battaglia Terme","address":null,"covered":null,"access":null,"website":null,"phone":null,"source":"OpenStreetMap/node/1468330331","sourceUpdatedAt":null,"verifiedAt":null}},{"type":"Feature","geometry":{"type":"Point","coordinates":[11.7835156,45.286907]},"properties":{"id":"water:e6e74c86-63db-449c-aaee-6fb535a11349","kind":"water","longitude":11.7835156,"latitude":45.286907,"name":"Fontanella","city":"Battaglia Terme","address":null,"covered":null,"access":null,"website":null,"phone":null,"source":"OpenStreetMap/node/1431093501","sourceUpdatedAt":null,"verifiedAt":null}},{"type":"Feature","geometry":{"type":"Point","coordinates":[11.7839111,45.2875842]},"properties":{"id":"water:f3acb0a5-3d30-4898-840c-e914862e226e","kind":"water","longitude":11.7839111,"latitude":45.2875842,"name":"Fontanella","city":"Battaglia Terme","address":null,"covered":null,"access":null,"website":null,"phone":null,"source":"OpenStreetMap/node/12997764149","sourceUpdatedAt":null,"verifiedAt":null}}]}