{"type":"FeatureCollection","features":[{"type":"Feature","geometry":{"type":"Point","coordinates":[11.8331098,48.0889722]},"properties":{"id":"bikerack:0a352007-ab8e-4a24-b696-3157e088b5bf","kind":"bikerack","longitude":11.8331098,"latitude":48.0889722,"name":"Fahrradabstellplatz","city":"Zorneding","address":null,"covered":false,"access":null,"website":null,"phone":null,"source":"OpenStreetMap/node/9051571649","sourceUpdatedAt":null,"verifiedAt":null}},{"type":"Feature","geometry":{"type":"Point","coordinates":[11.8322824,48.089389]},"properties":{"id":"bikerack:0abd8ccf-f1d2-462e-8f83-bbdb636f916d","kind":"bikerack","longitude":11.8322824,"latitude":48.089389,"name":"Fahrradabstellplatz","city":"Zorneding","address":null,"covered":true,"access":null,"website":null,"phone":null,"source":"OpenStreetMap/node/13242748478","sourceUpdatedAt":null,"verifiedAt":null}},{"type":"Feature","geometry":{"type":"Point","coordinates":[11.8287037,48.0925494]},"properties":{"id":"bikerack:1105cb16-9ed7-47eb-8477-c72aee720e02","kind":"bikerack","longitude":11.8287037,"latitude":48.0925494,"name":"Fahrradabstellplatz","city":"Zorneding","address":null,"covered":true,"access":null,"website":null,"phone":null,"source":"OpenStreetMap/node/11777717578","sourceUpdatedAt":null,"verifiedAt":null}},{"type":"Feature","geometry":{"type":"Point","coordinates":[11.8334304,48.0868377]},"properties":{"id":"bikerack:19affca2-da43-4229-baa7-8059c37563bb","kind":"bikerack","longitude":11.8334304,"latitude":48.0868377,"name":"Fahrradabstellplatz","city":"Zorneding","address":null,"covered":false,"access":null,"website":null,"phone":null,"source":"OpenStreetMap/way/1071180597","sourceUpdatedAt":null,"verifiedAt":null}},{"type":"Feature","geometry":{"type":"Point","coordinates":[11.8267208,48.0907345]},"properties":{"id":"bikerack:1f7ba577-f8a6-4e38-8c14-b06db9e31803","kind":"bikerack","longitude":11.8267208,"latitude":48.0907345,"name":"Fahrradabstellplatz","city":"Zorneding","address":null,"covered":false,"access":null,"website":null,"phone":null,"source":"OpenStreetMap/node/10991478324","sourceUpdatedAt":null,"verifiedAt":null}},{"type":"Feature","geometry":{"type":"Point","coordinates":[11.8296498,48.0875]},"properties":{"id":"bikerack:21081259-aee0-4c75-91be-159ad8db6710","kind":"bikerack","longitude":11.8296498,"latitude":48.0875,"name":"Fahrradabstellplatz","city":"Zorneding","address":null,"covered":true,"access":null,"website":null,"phone":null,"source":"OpenStreetMap/way/1078953949","sourceUpdatedAt":null,"verifiedAt":null}},{"type":"Feature","geometry":{"type":"Point","coordinates":[11.8321856,48.089858]},"properties":{"id":"bikerack:222aea40-3fbb-4223-8623-6e121423c357","kind":"bikerack","longitude":11.8321856,"latitude":48.089858,"name":"Fahrradabstellplatz","city":"Zorneding","address":null,"covered":true,"access":null,"website":null,"phone":null,"source":"OpenStreetMap/way/337323656","sourceUpdatedAt":null,"verifiedAt":null}},{"type":"Feature","geometry":{"type":"Point","coordinates":[11.8325718,48.0893397]},"properties":{"id":"bikerack:22507549-3287-436d-b0ae-832487facc9e","kind":"bikerack","longitude":11.8325718,"latitude":48.0893397,"name":"Fahrradabstellplatz","city":"Zorneding","address":null,"covered":true,"access":null,"website":null,"phone":null,"source":"OpenStreetMap/way/446896216","sourceUpdatedAt":null,"verifiedAt":null}},{"type":"Feature","geometry":{"type":"Point","coordinates":[11.8295279,48.0872034]},"properties":{"id":"bikerack:25cebf14-1795-4368-8f1d-f48102c66c81","kind":"bikerack","longitude":11.8295279,"latitude":48.0872034,"name":"Fahrradabstellplatz","city":"Zorneding","address":null,"covered":false,"access":null,"website":null,"phone":null,"source":"OpenStreetMap/node/9710858830","sourceUpdatedAt":null,"verifiedAt":null}},{"type":"Feature","geometry":{"type":"Point","coordinates":[11.8297605,48.0874583]},"properties":{"id":"bikerack:261d8984-2b1c-4964-a7d5-2e4520909246","kind":"bikerack","longitude":11.8297605,"latitude":48.0874583,"name":"Fahrradabstellplatz","city":"Zorneding","address":null,"covered":false,"access":null,"website":null,"phone":null,"source":"OpenStreetMap/node/9890972311","sourceUpdatedAt":null,"verifiedAt":null}},{"type":"Feature","geometry":{"type":"Point","coordinates":[11.8284391,48.0850313]},"properties":{"id":"bikerack:28197f11-3523-4970-b33f-a534beaf326f","kind":"bikerack","longitude":11.8284391,"latitude":48.0850313,"name":"Fahrradabstellplatz","city":"Zorneding","address":null,"covered":false,"access":null,"website":null,"phone":null,"source":"OpenStreetMap/node/8712125769","sourceUpdatedAt":null,"verifiedAt":null}},{"type":"Feature","geometry":{"type":"Point","coordinates":[11.8228887,48.0840459]},"properties":{"id":"bikerack:29852ee8-0c1f-476b-b8e1-a7c5650866fc","kind":"bikerack","longitude":11.8228887,"latitude":48.0840459,"name":"Fahrradabstellplatz","city":"Zorneding","address":null,"covered":false,"access":null,"website":null,"phone":null,"source":"OpenStreetMap/node/10846680318","sourceUpdatedAt":null,"verifiedAt":null}},{"type":"Feature","geometry":{"type":"Point","coordinates":[11.8264078,48.0789142]},"properties":{"id":"bikerack:347304dc-32e3-4f16-a72e-f84483ec2806","kind":"bikerack","longitude":11.8264078,"latitude":48.0789142,"name":"Fahrradabstellplatz","city":"Zorneding","address":null,"covered":false,"access":null,"website":null,"phone":null,"source":"OpenStreetMap/way/317766616","sourceUpdatedAt":null,"verifiedAt":null}},{"type":"Feature","geometry":{"type":"Point","coordinates":[11.8215472,48.0833628]},"properties":{"id":"bikerack:3ab283f1-ee14-44f6-8d50-f961dbc63a11","kind":"bikerack","longitude":11.8215472,"latitude":48.0833628,"name":"Fahrradabstellplatz","city":"Zorneding","address":null,"covered":false,"access":null,"website":null,"phone":null,"source":"OpenStreetMap/node/13240214598","sourceUpdatedAt":null,"verifiedAt":null}},{"type":"Feature","geometry":{"type":"Point","coordinates":[11.8429306,48.0846131]},"properties":{"id":"bikerack:3e6063e7-5068-4cf4-8097-32d6e3852a62","kind":"bikerack","longitude":11.8429306,"latitude":48.0846131,"name":"Fahrradabstellplatz","city":"Zorneding","address":null,"covered":false,"access":null,"website":null,"phone":null,"source":"OpenStreetMap/node/7975029625","sourceUpdatedAt":null,"verifiedAt":null}},{"type":"Feature","geometry":{"type":"Point","coordinates":[11.8292023,48.0871463]},"properties":{"id":"bikerack:4ddd8062-420a-4683-82ef-b3cc587441e5","kind":"bikerack","longitude":11.8292023,"latitude":48.0871463,"name":"Fahrradabstellplatz","city":"Zorneding","address":null,"covered":false,"access":null,"website":null,"phone":null,"source":"OpenStreetMap/node/11461894459","sourceUpdatedAt":null,"verifiedAt":null}},{"type":"Feature","geometry":{"type":"Point","coordinates":[11.834931,48.0861347]},"properties":{"id":"bikerack:52ebe50a-cc06-44cb-9e13-a91d761463ae","kind":"bikerack","longitude":11.834931,"latitude":48.0861347,"name":"Fahrradabstellplatz","city":"Zorneding","address":null,"covered":false,"access":null,"website":null,"phone":null,"source":"OpenStreetMap/node/9878334736","sourceUpdatedAt":null,"verifiedAt":null}},{"type":"Feature","geometry":{"type":"Point","coordinates":[11.829446,48.0906018]},"properties":{"id":"bikerack:53068b46-d92f-4e0c-bc9a-c2dc6d92fa3c","kind":"bikerack","longitude":11.829446,"latitude":48.0906018,"name":"Fahrradabstellplatz","city":"Zorneding","address":null,"covered":false,"access":null,"website":null,"phone":null,"source":"OpenStreetMap/node/9055328805","sourceUpdatedAt":null,"verifiedAt":null}},{"type":"Feature","geometry":{"type":"Point","coordinates":[11.833823,48.0952178]},"properties":{"id":"bikerack:56029f5b-3ea3-4bd8-a8b4-93e0057bd715","kind":"bikerack","longitude":11.833823,"latitude":48.0952178,"name":"Fahrradabstellplatz","city":"Zorneding","address":null,"covered":false,"access":null,"website":null,"phone":null,"source":"OpenStreetMap/node/7973848731","sourceUpdatedAt":null,"verifiedAt":null}},{"type":"Feature","geometry":{"type":"Point","coordinates":[11.8293211,48.0874047]},"properties":{"id":"bikerack:582baba6-9cda-45b2-a73c-112563995626","kind":"bikerack","longitude":11.8293211,"latitude":48.0874047,"name":"Fahrradabstellplatz","city":"Zorneding","address":null,"covered":false,"access":null,"website":null,"phone":null,"source":"OpenStreetMap/node/7630029080","sourceUpdatedAt":null,"verifiedAt":null}},{"type":"Feature","geometry":{"type":"Point","coordinates":[11.8438285,48.0846192]},"properties":{"id":"bikerack:59c9c37d-245b-4a40-9380-bf1bdbee888d","kind":"bikerack","longitude":11.8438285,"latitude":48.0846192,"name":"Fahrradabstellplatz","city":"Zorneding","address":null,"covered":false,"access":null,"website":null,"phone":null,"source":"OpenStreetMap/node/11126782870","sourceUpdatedAt":null,"verifiedAt":null}},{"type":"Feature","geometry":{"type":"Point","coordinates":[11.8356166,48.0845925]},"properties":{"id":"bikerack:5cb0ecc0-f996-4d4e-93d6-b652ac1dd72f","kind":"bikerack","longitude":11.8356166,"latitude":48.0845925,"name":"Fahrradabstellplatz","city":"Zorneding","address":null,"covered":false,"access":null,"website":null,"phone":null,"source":"OpenStreetMap/node/13013039499","sourceUpdatedAt":null,"verifiedAt":null}},{"type":"Feature","geometry":{"type":"Point","coordinates":[11.8333151,48.0944348]},"properties":{"id":"bikerack:5f0db174-6918-4a2e-9250-f0bacd641bb6","kind":"bikerack","longitude":11.8333151,"latitude":48.0944348,"name":"Fahrradabstellplatz","city":"Zorneding","address":null,"covered":false,"access":null,"website":null,"phone":null,"source":"OpenStreetMap/node/7809185026","sourceUpdatedAt":null,"verifiedAt":null}},{"type":"Feature","geometry":{"type":"Point","coordinates":[11.8273561,48.0856411]},"properties":{"id":"bikerack:5fc54523-03b6-4acb-b4f3-abb9907e56c8","kind":"bikerack","longitude":11.8273561,"latitude":48.0856411,"name":"Fahrradabstellplatz","city":"Zorneding","address":null,"covered":false,"access":null,"website":null,"phone":null,"source":"OpenStreetMap/node/8712104801","sourceUpdatedAt":null,"verifiedAt":null}},{"type":"Feature","geometry":{"type":"Point","coordinates":[11.8322536,48.0898483]},"properties":{"id":"bikerack:63902f82-c10f-4914-8acd-af6150ac5271","kind":"bikerack","longitude":11.8322536,"latitude":48.0898483,"name":"Fahrradabstellplatz","city":"Zorneding","address":null,"covered":true,"access":null,"website":null,"phone":null,"source":"OpenStreetMap/way/337323655","sourceUpdatedAt":null,"verifiedAt":null}},{"type":"Feature","geometry":{"type":"Point","coordinates":[11.8545574,48.082756]},"properties":{"id":"bikerack:67a57792-686c-489d-a876-d2cf5b849743","kind":"bikerack","longitude":11.8545574,"latitude":48.082756,"name":"Fahrradabstellplatz","city":"Zorneding","address":null,"covered":false,"access":null,"website":null,"phone":null,"source":"OpenStreetMap/node/7609493436","sourceUpdatedAt":null,"verifiedAt":null}},{"type":"Feature","geometry":{"type":"Point","coordinates":[11.8306195,48.0877679]},"properties":{"id":"bikerack:67ec0a1b-1c1c-4dc2-a61b-9589ebe5a992","kind":"bikerack","longitude":11.8306195,"latitude":48.0877679,"name":"Fahrradabstellplatz","city":"Zorneding","address":null,"covered":false,"access":null,"website":null,"phone":null,"source":"OpenStreetMap/node/11464758895","sourceUpdatedAt":null,"verifiedAt":null}},{"type":"Feature","geometry":{"type":"Point","coordinates":[11.837013,48.093503]},"properties":{"id":"bikerack:6a003bde-0689-4673-a1f4-8ec117abe0c3","kind":"bikerack","longitude":11.837013,"latitude":48.093503,"name":"Fahrradabstellplatz","city":"Zorneding","address":null,"covered":false,"access":null,"website":null,"phone":null,"source":"OpenStreetMap/way/1089611504","sourceUpdatedAt":null,"verifiedAt":null}},{"type":"Feature","geometry":{"type":"Point","coordinates":[11.8228868,48.0927478]},"properties":{"id":"bikerack:6b0227f9-9444-4b75-850a-bb2a99a52f5e","kind":"bikerack","longitude":11.8228868,"latitude":48.0927478,"name":"Fahrradabstellplatz","city":"Zorneding","address":null,"covered":true,"access":null,"website":null,"phone":null,"source":"OpenStreetMap/node/13273486711","sourceUpdatedAt":null,"verifiedAt":null}},{"type":"Feature","geometry":{"type":"Point","coordinates":[11.8551981,48.0797992]},"properties":{"id":"bikerack:6d228841-eeda-445a-ac98-e12f832a2f1a","kind":"bikerack","longitude":11.8551981,"latitude":48.0797992,"name":"Fahrradabstellplatz","city":"Zorneding","address":null,"covered":false,"access":null,"website":null,"phone":null,"source":"OpenStreetMap/way/1149176525","sourceUpdatedAt":null,"verifiedAt":null}},{"type":"Feature","geometry":{"type":"Point","coordinates":[11.8274192,48.0868628]},"properties":{"id":"bikerack:75a945ad-d769-41eb-b2b6-d7d206347213","kind":"bikerack","longitude":11.8274192,"latitude":48.0868628,"name":"Fahrradabstellplatz","city":"Zorneding","address":null,"covered":false,"access":null,"website":null,"phone":null,"source":"OpenStreetMap/node/11126777480","sourceUpdatedAt":null,"verifiedAt":null}},{"type":"Feature","geometry":{"type":"Point","coordinates":[11.8321244,48.0898871]},"properties":{"id":"bikerack:76afb58e-a0ca-4a1a-9484-c58d38253a91","kind":"bikerack","longitude":11.8321244,"latitude":48.0898871,"name":"Fahrradabstellplatz","city":"Zorneding","address":null,"covered":true,"access":null,"website":null,"phone":null,"source":"OpenStreetMap/way/337323654","sourceUpdatedAt":null,"verifiedAt":null}},{"type":"Feature","geometry":{"type":"Point","coordinates":[11.8335893,48.0870353]},"properties":{"id":"bikerack:88217fad-bc77-4c3f-9be1-77e6de4814d9","kind":"bikerack","longitude":11.8335893,"latitude":48.0870353,"name":"Fahrradabstellplatz","city":"Zorneding","address":null,"covered":false,"access":null,"website":null,"phone":null,"source":"OpenStreetMap/way/1071180599","sourceUpdatedAt":null,"verifiedAt":null}},{"type":"Feature","geometry":{"type":"Point","coordinates":[11.8306961,48.0874305]},"properties":{"id":"bikerack:8b53a132-611f-4a88-acc1-f53ab400c6eb","kind":"bikerack","longitude":11.8306961,"latitude":48.0874305,"name":"Fahrradabstellplatz","city":"Zorneding","address":null,"covered":false,"access":null,"website":null,"phone":null,"source":"OpenStreetMap/node/11464777884","sourceUpdatedAt":null,"verifiedAt":null}},{"type":"Feature","geometry":{"type":"Point","coordinates":[11.8266681,48.0857819]},"properties":{"id":"bikerack:8eb8b0ae-b8b8-4ac7-bbeb-91771736dd22","kind":"bikerack","longitude":11.8266681,"latitude":48.0857819,"name":"Fahrradabstellplatz","city":"Zorneding","address":null,"covered":false,"access":null,"website":null,"phone":null,"source":"OpenStreetMap/node/11464738264","sourceUpdatedAt":null,"verifiedAt":null}},{"type":"Feature","geometry":{"type":"Point","coordinates":[11.8253949,48.0793853]},"properties":{"id":"bikerack:92cbadb6-94db-4cb9-8246-0c12d4a4a7a1","kind":"bikerack","longitude":11.8253949,"latitude":48.0793853,"name":"Fahrradabstellplatz","city":"Zorneding","address":null,"covered":false,"access":null,"website":null,"phone":null,"source":"OpenStreetMap/way/1056819182","sourceUpdatedAt":null,"verifiedAt":null}},{"type":"Feature","geometry":{"type":"Point","coordinates":[11.8337627,48.0861628]},"properties":{"id":"bikerack:941716a1-e7bd-49f1-a23d-06c602af4fb5","kind":"bikerack","longitude":11.8337627,"latitude":48.0861628,"name":"Fahrradabstellplatz","city":"Zorneding","address":null,"covered":false,"access":null,"website":null,"phone":null,"source":"OpenStreetMap/node/13697394911","sourceUpdatedAt":null,"verifiedAt":null}},{"type":"Feature","geometry":{"type":"Point","coordinates":[11.8645194,48.0820217]},"properties":{"id":"bikerack:98266dc5-4a51-4fff-9d95-a143d8b80527","kind":"bikerack","longitude":11.8645194,"latitude":48.0820217,"name":"Fahrradabstellplatz","city":"Kirchseeon","address":null,"covered":true,"access":null,"website":null,"phone":null,"source":"OpenStreetMap/way/329280897","sourceUpdatedAt":null,"verifiedAt":null}},{"type":"Feature","geometry":{"type":"Point","coordinates":[11.8300808,48.0875112]},"properties":{"id":"bikerack:a3b6ac70-b866-4362-9eb8-5d58d3f7c009","kind":"bikerack","longitude":11.8300808,"latitude":48.0875112,"name":"Fahrradabstellplatz","city":"Zorneding","address":null,"covered":false,"access":null,"website":null,"phone":null,"source":"OpenStreetMap/node/11464672616","sourceUpdatedAt":null,"verifiedAt":null}},{"type":"Feature","geometry":{"type":"Point","coordinates":[11.8268745,48.0855653]},"properties":{"id":"bikerack:a529a568-ef5e-485f-ad53-83dd2105f86e","kind":"bikerack","longitude":11.8268745,"latitude":48.0855653,"name":"Fahrradabstellplatz","city":"Zorneding","address":null,"covered":false,"access":null,"website":null,"phone":null,"source":"OpenStreetMap/node/11464738265","sourceUpdatedAt":null,"verifiedAt":null}},{"type":"Feature","geometry":{"type":"Point","coordinates":[11.8241371,48.0835137]},"properties":{"id":"bikerack:a76153b7-aa1f-446a-95e4-f1ee6ce658b0","kind":"bikerack","longitude":11.8241371,"latitude":48.0835137,"name":"Fahrradabstellplatz","city":"Zorneding","address":null,"covered":false,"access":null,"website":null,"phone":null,"source":"OpenStreetMap/node/11472406196","sourceUpdatedAt":null,"verifiedAt":null}},{"type":"Feature","geometry":{"type":"Point","coordinates":[11.8556734,48.0814531]},"properties":{"id":"bikerack:aae888ce-3471-467a-971e-00d3483a3908","kind":"bikerack","longitude":11.8556734,"latitude":48.0814531,"name":"Fahrradabstellplatz","city":"Zorneding","address":null,"covered":false,"access":null,"website":null,"phone":null,"source":"OpenStreetMap/way/1090387998","sourceUpdatedAt":null,"verifiedAt":null}},{"type":"Feature","geometry":{"type":"Point","coordinates":[11.8332979,48.0837874]},"properties":{"id":"bikerack:b1a5653c-77be-48dc-81cb-b878f06c9d46","kind":"bikerack","longitude":11.8332979,"latitude":48.0837874,"name":"Fahrradabstellplatz","city":"Zorneding","address":null,"covered":false,"access":null,"website":null,"phone":null,"source":"OpenStreetMap/node/9797883542","sourceUpdatedAt":null,"verifiedAt":null}},{"type":"Feature","geometry":{"type":"Point","coordinates":[11.8328472,48.0890232]},"properties":{"id":"bikerack:b9aa8118-f413-419c-a1c9-2777f8deb873","kind":"bikerack","longitude":11.8328472,"latitude":48.0890232,"name":"Fahrradabstellplatz","city":"Zorneding","address":null,"covered":false,"access":null,"website":null,"phone":null,"source":"OpenStreetMap/node/7769155808","sourceUpdatedAt":null,"verifiedAt":null}},{"type":"Feature","geometry":{"type":"Point","coordinates":[11.8297636,48.08739]},"properties":{"id":"bikerack:bf1f2d62-c954-42bb-82d5-b0eeaaddea43","kind":"bikerack","longitude":11.8297636,"latitude":48.08739,"name":"Fahrradabstellplatz","city":"Zorneding","address":null,"covered":false,"access":null,"website":null,"phone":null,"source":"OpenStreetMap/node/9890978218","sourceUpdatedAt":null,"verifiedAt":null}},{"type":"Feature","geometry":{"type":"Point","coordinates":[11.8649487,48.0822411]},"properties":{"id":"bikerack:bf4e5216-4fc9-40fa-98a1-052681be58c2","kind":"bikerack","longitude":11.8649487,"latitude":48.0822411,"name":"Fahrradabstellplatz","city":"Kirchseeon","address":null,"covered":true,"access":null,"website":null,"phone":null,"source":"OpenStreetMap/way/329280898","sourceUpdatedAt":null,"verifiedAt":null}},{"type":"Feature","geometry":{"type":"Point","coordinates":[11.8292462,48.0871745]},"properties":{"id":"bikerack:bf62f97a-c95d-45a0-b4e7-b8cad6ca36b6","kind":"bikerack","longitude":11.8292462,"latitude":48.0871745,"name":"Fahrradabstellplatz","city":"Zorneding","address":null,"covered":false,"access":null,"website":null,"phone":null,"source":"OpenStreetMap/node/7921302461","sourceUpdatedAt":null,"verifiedAt":null}},{"type":"Feature","geometry":{"type":"Point","coordinates":[11.8268659,48.0858027]},"properties":{"id":"bikerack:c4081fe7-48fc-40a1-b541-3b5ab51c50c2","kind":"bikerack","longitude":11.8268659,"latitude":48.0858027,"name":"Fahrradabstellplatz","city":"Zorneding","address":null,"covered":false,"access":null,"website":null,"phone":null,"source":"OpenStreetMap/node/11464699133","sourceUpdatedAt":null,"verifiedAt":null}},{"type":"Feature","geometry":{"type":"Point","coordinates":[11.8550794,48.0801525]},"properties":{"id":"bikerack:c7a6ed7c-7b26-4818-9d57-7e3f1e74a5d9","kind":"bikerack","longitude":11.8550794,"latitude":48.0801525,"name":"Fahrradabstellplatz","city":"Zorneding","address":null,"covered":false,"access":null,"website":null,"phone":null,"source":"OpenStreetMap/way/1149176526","sourceUpdatedAt":null,"verifiedAt":null}},{"type":"Feature","geometry":{"type":"Point","coordinates":[11.8552072,48.0797304]},"properties":{"id":"bikerack:c8376a2b-8de2-4aa1-8532-6a0ddb42b596","kind":"bikerack","longitude":11.8552072,"latitude":48.0797304,"name":"Fahrradabstellplatz","city":"Zorneding","address":null,"covered":false,"access":null,"website":null,"phone":null,"source":"OpenStreetMap/node/10690998065","sourceUpdatedAt":null,"verifiedAt":null}},{"type":"Feature","geometry":{"type":"Point","coordinates":[11.8304791,48.087611]},"properties":{"id":"bikerack:cdd86bdc-8799-4314-b1a2-4e4adcf1794e","kind":"bikerack","longitude":11.8304791,"latitude":48.087611,"name":"Fahrradabstellplatz","city":"Zorneding","address":null,"covered":false,"access":null,"website":null,"phone":null,"source":"OpenStreetMap/node/11464788369","sourceUpdatedAt":null,"verifiedAt":null}},{"type":"Feature","geometry":{"type":"Point","coordinates":[11.8245233,48.0835589]},"properties":{"id":"bikerack:ce0fd12e-588e-4ac4-b4fe-85d0516f9f5c","kind":"bikerack","longitude":11.8245233,"latitude":48.0835589,"name":"Fahrradabstellplatz","city":"Zorneding","address":null,"covered":false,"access":null,"website":null,"phone":null,"source":"OpenStreetMap/node/11462151907","sourceUpdatedAt":null,"verifiedAt":null}},{"type":"Feature","geometry":{"type":"Point","coordinates":[11.8231174,48.0939254]},"properties":{"id":"bikerack:cf306aa3-6b96-4a11-befc-3574dbecaf7e","kind":"bikerack","longitude":11.8231174,"latitude":48.0939254,"name":"Fahrradabstellplatz","city":"Zorneding","address":null,"covered":false,"access":null,"website":null,"phone":null,"source":"OpenStreetMap/node/12025395331","sourceUpdatedAt":null,"verifiedAt":null}},{"type":"Feature","geometry":{"type":"Point","coordinates":[11.8307993,48.0875692]},"properties":{"id":"bikerack:dce37ffa-38d2-4a01-a3dd-7ddcdb744a06","kind":"bikerack","longitude":11.8307993,"latitude":48.0875692,"name":"Fahrradabstellplatz","city":"Zorneding","address":null,"covered":false,"access":null,"website":null,"phone":null,"source":"OpenStreetMap/node/11464758942","sourceUpdatedAt":null,"verifiedAt":null}},{"type":"Feature","geometry":{"type":"Point","coordinates":[11.8273597,48.079414]},"properties":{"id":"bikerack:de476cfe-bf2b-4f6f-9abe-ae41f09788ed","kind":"bikerack","longitude":11.8273597,"latitude":48.079414,"name":"Fahrradabstellplatz","city":"Zorneding","address":null,"covered":false,"access":null,"website":null,"phone":null,"source":"OpenStreetMap/node/11459018307","sourceUpdatedAt":null,"verifiedAt":null}},{"type":"Feature","geometry":{"type":"Point","coordinates":[11.8552276,48.07967]},"properties":{"id":"bikerack:e4b05eb1-97da-44d0-a2f3-b24550402093","kind":"bikerack","longitude":11.8552276,"latitude":48.07967,"name":"Fahrradabstellplatz","city":"Zorneding","address":null,"covered":false,"access":null,"website":null,"phone":null,"source":"OpenStreetMap/node/10690998078","sourceUpdatedAt":null,"verifiedAt":null}},{"type":"Feature","geometry":{"type":"Point","coordinates":[11.8301318,48.0876438]},"properties":{"id":"bikerack:e9e97703-402a-4220-8d34-81703849269e","kind":"bikerack","longitude":11.8301318,"latitude":48.0876438,"name":"Fahrradabstellplatz","city":"Zorneding","address":null,"covered":false,"access":null,"website":null,"phone":null,"source":"OpenStreetMap/node/11464705756","sourceUpdatedAt":null,"verifiedAt":null}},{"type":"Feature","geometry":{"type":"Point","coordinates":[11.832574,48.0890726]},"properties":{"id":"bikerack:eaa99b64-1f2c-4aa4-b728-038a6c230ab6","kind":"bikerack","longitude":11.832574,"latitude":48.0890726,"name":"Fahrradabstellplatz","city":"Zorneding","address":null,"covered":false,"access":null,"website":null,"phone":null,"source":"OpenStreetMap/node/1741537193","sourceUpdatedAt":null,"verifiedAt":null}},{"type":"Feature","geometry":{"type":"Point","coordinates":[11.829662,48.0875263]},"properties":{"id":"bikerack:ed68432f-5c23-40f6-8271-68de89ccae05","kind":"bikerack","longitude":11.829662,"latitude":48.0875263,"name":"Fahrradabstellplatz","city":"Zorneding","address":null,"covered":true,"access":null,"website":null,"phone":null,"source":"OpenStreetMap/node/9890972309","sourceUpdatedAt":null,"verifiedAt":null}},{"type":"Feature","geometry":{"type":"Point","coordinates":[11.8289711,48.0898446]},"properties":{"id":"bikerack:fb6ab46f-6555-4bd8-926a-52f878e49060","kind":"bikerack","longitude":11.8289711,"latitude":48.0898446,"name":"Fahrradabstellplatz","city":"Zorneding","address":null,"covered":true,"access":null,"website":null,"phone":null,"source":"OpenStreetMap/way/446897249","sourceUpdatedAt":null,"verifiedAt":null}},{"type":"Feature","geometry":{"type":"Point","coordinates":[11.8283733,48.0850251]},"properties":{"id":"bikerack:ff6287c1-e295-41cc-8dd7-564052f9d8cb","kind":"bikerack","longitude":11.8283733,"latitude":48.0850251,"name":"Fahrradabstellplatz","city":"Zorneding","address":null,"covered":false,"access":null,"website":null,"phone":null,"source":"OpenStreetMap/node/8712136499","sourceUpdatedAt":null,"verifiedAt":null}},{"type":"Feature","geometry":{"type":"Point","coordinates":[11.8216202,48.0931498]},"properties":{"id":"service:ccf39424-261d-4463-a857-01c766e35355","kind":"service","longitude":11.8216202,"latitude":48.0931498,"name":"Fahrrad Hemrich","city":"Zorneding","address":null,"covered":null,"access":null,"website":null,"phone":null,"source":"OpenStreetMap/node/1049843153","sourceUpdatedAt":null,"verifiedAt":null}},{"type":"Feature","geometry":{"type":"Point","coordinates":[11.8542027,48.0861866]},"properties":{"id":"water:b97b6387-defe-4a4b-8e3c-a9705db400d5","kind":"water","longitude":11.8542027,"latitude":48.0861866,"name":"Trinkwasser","city":"Zorneding","address":null,"covered":null,"access":null,"website":null,"phone":null,"source":"OpenStreetMap/node/10960295365","sourceUpdatedAt":null,"verifiedAt":null}},{"type":"Feature","geometry":{"type":"Point","coordinates":[11.8613603,48.0786109]},"properties":{"id":"water:c9f55211-33e3-4405-b1ed-b5408b2d8a17","kind":"water","longitude":11.8613603,"latitude":48.0786109,"name":"Trinkwasser","city":"Kirchseeon","address":null,"covered":null,"access":null,"website":null,"phone":null,"source":"OpenStreetMap/node/13724503398","sourceUpdatedAt":null,"verifiedAt":null}}]}