{"type":"FeatureCollection","features":[{"type":"Feature","geometry":{"type":"Point","coordinates":[11.8302596,47.595335]},"properties":{"id":"water:4677400b-19ea-4b8a-89fe-60295805e65b","kind":"water","longitude":11.8302596,"latitude":47.595335,"name":"Trinkwasser","city":"Kreuth","address":null,"covered":null,"access":null,"website":null,"phone":null,"source":"OpenStreetMap/node/899362435","sourceUpdatedAt":null,"verifiedAt":null}},{"type":"Feature","geometry":{"type":"Point","coordinates":[11.8219993,47.6058736]},"properties":{"id":"water:46db0efb-6e79-49f3-87ea-1ded4e506216","kind":"water","longitude":11.8219993,"latitude":47.6058736,"name":"Trinkwasser","city":"Kreuth","address":null,"covered":null,"access":null,"website":null,"phone":null,"source":"OpenStreetMap/node/2403438992","sourceUpdatedAt":null,"verifiedAt":null}}]}