{"type":"FeatureCollection","features":[{"type":"Feature","geometry":{"type":"Point","coordinates":[11.8636784,45.3201185]},"properties":{"id":"bikerack:2201b414-5592-427a-a74c-a5d71e1fd966","kind":"bikerack","longitude":11.8636784,"latitude":45.3201185,"name":"Parcheggio bici","city":"Masera di Padova","address":null,"covered":false,"access":null,"website":null,"phone":null,"source":"OpenStreetMap/node/11807367267","sourceUpdatedAt":null,"verifiedAt":null}},{"type":"Feature","geometry":{"type":"Point","coordinates":[11.8641487,45.3201777]},"properties":{"id":"bikerack:4f36a902-0350-4a3f-a421-9d39e6ccd580","kind":"bikerack","longitude":11.8641487,"latitude":45.3201777,"name":"Parcheggio bici","city":"Masera di Padova","address":null,"covered":false,"access":null,"website":null,"phone":null,"source":"OpenStreetMap/node/11807373473","sourceUpdatedAt":null,"verifiedAt":null}},{"type":"Feature","geometry":{"type":"Point","coordinates":[11.8638484,45.3197734]},"properties":{"id":"bikerack:bfd69e5a-b580-429a-931c-2efc8af4d4e0","kind":"bikerack","longitude":11.8638484,"latitude":45.3197734,"name":"Parcheggio bici","city":"Masera di Padova","address":null,"covered":false,"access":null,"website":null,"phone":null,"source":"OpenStreetMap/node/13316855051","sourceUpdatedAt":null,"verifiedAt":null}},{"type":"Feature","geometry":{"type":"Point","coordinates":[11.8634509,45.3189069]},"properties":{"id":"bikerack:caa1b159-c78f-491d-9ff0-2cac6b462e03","kind":"bikerack","longitude":11.8634509,"latitude":45.3189069,"name":"Parcheggio bici","city":"Masera di Padova","address":null,"covered":false,"access":null,"website":null,"phone":null,"source":"OpenStreetMap/node/11807373478","sourceUpdatedAt":null,"verifiedAt":null}},{"type":"Feature","geometry":{"type":"Point","coordinates":[11.8646127,45.3139882]},"properties":{"id":"bikerack:ef33b16b-644d-49a6-8232-b0aa46ac12f3","kind":"bikerack","longitude":11.8646127,"latitude":45.3139882,"name":"Parcheggio bici","city":"Masera di Padova","address":null,"covered":false,"access":null,"website":null,"phone":null,"source":"OpenStreetMap/node/11830962703","sourceUpdatedAt":null,"verifiedAt":null}},{"type":"Feature","geometry":{"type":"Point","coordinates":[11.8632541,45.3205705]},"properties":{"id":"bikerack:f1d7ad3c-2531-4361-bee3-c2cccc306e08","kind":"bikerack","longitude":11.8632541,"latitude":45.3205705,"name":"Parcheggio bici","city":"Masera di Padova","address":null,"covered":false,"access":null,"website":null,"phone":null,"source":"OpenStreetMap/node/11807373472","sourceUpdatedAt":null,"verifiedAt":null}},{"type":"Feature","geometry":{"type":"Point","coordinates":[11.8645188,45.3171141]},"properties":{"id":"bikerack:fff10453-cea0-40ed-a429-d619ee1a2c79","kind":"bikerack","longitude":11.8645188,"latitude":45.3171141,"name":"Parcheggio bici","city":"Masera di Padova","address":null,"covered":false,"access":null,"website":null,"phone":null,"source":"OpenStreetMap/node/11807373489","sourceUpdatedAt":null,"verifiedAt":null}}]}