{"type":"FeatureCollection","features":[{"type":"Feature","geometry":{"type":"Point","coordinates":[14.2776294,47.6851899]},"properties":{"id":"water:3cba598b-0990-49f4-8327-a96eed1c9714","kind":"water","longitude":14.2776294,"latitude":47.6851899,"name":"Ivókút","city":"Rossleithen","address":null,"covered":null,"access":null,"website":null,"phone":null,"source":"OpenStreetMap/node/12171239993","sourceUpdatedAt":null,"verifiedAt":null}},{"type":"Feature","geometry":{"type":"Point","coordinates":[14.2506409,47.6887889]},"properties":{"id":"water:3cc43f6c-33bf-4711-a79e-761b3cf7cd0f","kind":"water","longitude":14.2506409,"latitude":47.6887889,"name":"Ivókút","city":"Rossleithen","address":null,"covered":null,"access":null,"website":null,"phone":null,"source":"OpenStreetMap/node/7973796348","sourceUpdatedAt":null,"verifiedAt":null}}]}