{"type":"FeatureCollection","features":[{"type":"Feature","geometry":{"type":"Point","coordinates":[14.8258765,47.3992583]},"properties":{"id":"water:284cc43c-49ed-4276-8cd5-a24ea4ceaa5c","kind":"water","longitude":14.8258765,"latitude":47.3992583,"name":"Ivókút","city":"Mautern in Steiermark","address":null,"covered":null,"access":null,"website":null,"phone":null,"source":"OpenStreetMap/node/8998367356","sourceUpdatedAt":null,"verifiedAt":null}},{"type":"Feature","geometry":{"type":"Point","coordinates":[14.834111,47.4039523]},"properties":{"id":"water:fdb8da13-b425-475d-8409-66fd6b472a23","kind":"water","longitude":14.834111,"latitude":47.4039523,"name":"Ivókút","city":"Mautern in Steiermark","address":null,"covered":null,"access":null,"website":null,"phone":null,"source":"OpenStreetMap/node/12332551983","sourceUpdatedAt":null,"verifiedAt":null}}]}