{"type":"FeatureCollection","features":[{"type":"Feature","geometry":{"type":"Point","coordinates":[16.623065,49.1805466]},"properties":{"id":"bikerack:018857ec-2f30-45e2-87c8-08b8ab113615","kind":"bikerack","longitude":16.623065,"latitude":49.1805466,"name":"Bicycle Parking","city":"Brno","address":null,"covered":false,"access":null,"website":null,"phone":null,"source":"OpenStreetMap/node/7261070185","sourceUpdatedAt":null,"verifiedAt":null}},{"type":"Feature","geometry":{"type":"Point","coordinates":[16.6228892,49.1689402]},"properties":{"id":"bikerack:06a42ffa-bed4-45d7-a1d5-af340044f278","kind":"bikerack","longitude":16.6228892,"latitude":49.1689402,"name":"Bicycle Parking","city":"Brno","address":null,"covered":false,"access":null,"website":null,"phone":null,"source":"OpenStreetMap/node/6568636046","sourceUpdatedAt":null,"verifiedAt":null}},{"type":"Feature","geometry":{"type":"Point","coordinates":[16.6239843,49.1774869]},"properties":{"id":"bikerack:29c2127a-1c33-4a67-baee-7e7cea4f4adc","kind":"bikerack","longitude":16.6239843,"latitude":49.1774869,"name":"Bicycle Parking","city":"Brno","address":null,"covered":false,"access":null,"website":null,"phone":null,"source":"OpenStreetMap/node/11613007990","sourceUpdatedAt":null,"verifiedAt":null}},{"type":"Feature","geometry":{"type":"Point","coordinates":[16.6263222,49.1560829]},"properties":{"id":"bikerack:3b1aff19-d782-428e-8017-b363b00f1306","kind":"bikerack","longitude":16.6263222,"latitude":49.1560829,"name":"Bicycle Parking","city":"Modrice","address":null,"covered":false,"access":null,"website":null,"phone":null,"source":"OpenStreetMap/node/5826534517","sourceUpdatedAt":null,"verifiedAt":null}},{"type":"Feature","geometry":{"type":"Point","coordinates":[16.6133008,49.1626127]},"properties":{"id":"bikerack:4279a040-b420-4505-830a-0900b3ce2361","kind":"bikerack","longitude":16.6133008,"latitude":49.1626127,"name":"Bicycle Parking","city":"Brno","address":null,"covered":false,"access":null,"website":null,"phone":null,"source":"OpenStreetMap/node/11613007992","sourceUpdatedAt":null,"verifiedAt":null}},{"type":"Feature","geometry":{"type":"Point","coordinates":[16.6277958,49.1561152]},"properties":{"id":"bikerack:4c84a641-3caf-4e7b-aaba-2b36a74cac8d","kind":"bikerack","longitude":16.6277958,"latitude":49.1561152,"name":"Bicycle Parking","city":"Modrice","address":null,"covered":true,"access":null,"website":null,"phone":null,"source":"OpenStreetMap/node/11279208569","sourceUpdatedAt":null,"verifiedAt":null}},{"type":"Feature","geometry":{"type":"Point","coordinates":[16.624235,49.1763321]},"properties":{"id":"bikerack:53eb1086-0540-4192-8d63-292f17a64dc7","kind":"bikerack","longitude":16.624235,"latitude":49.1763321,"name":"Bicycle Parking","city":"Brno","address":null,"covered":false,"access":null,"website":null,"phone":null,"source":"OpenStreetMap/node/11613007991","sourceUpdatedAt":null,"verifiedAt":null}},{"type":"Feature","geometry":{"type":"Point","coordinates":[16.6386793,49.1665554]},"properties":{"id":"bikerack:5533770a-1125-47b3-bf36-c11747e06f2b","kind":"bikerack","longitude":16.6386793,"latitude":49.1665554,"name":"Bicycle Parking","city":"Brno","address":null,"covered":false,"access":null,"website":null,"phone":null,"source":"OpenStreetMap/node/9838997817","sourceUpdatedAt":null,"verifiedAt":null}},{"type":"Feature","geometry":{"type":"Point","coordinates":[16.6409445,49.1769597]},"properties":{"id":"bikerack:5d58f2b8-5c38-4517-adae-e57de7b95dee","kind":"bikerack","longitude":16.6409445,"latitude":49.1769597,"name":"Bicycle Parking","city":"Brno","address":null,"covered":false,"access":null,"website":null,"phone":null,"source":"OpenStreetMap/node/7643614147","sourceUpdatedAt":null,"verifiedAt":null}},{"type":"Feature","geometry":{"type":"Point","coordinates":[16.634742,49.1773756]},"properties":{"id":"bikerack:66b8ca6c-1418-413c-af6d-ce1feab16c87","kind":"bikerack","longitude":16.634742,"latitude":49.1773756,"name":"Bicycle Parking","city":"Brno","address":null,"covered":false,"access":null,"website":null,"phone":null,"source":"OpenStreetMap/node/7806467600","sourceUpdatedAt":null,"verifiedAt":null}},{"type":"Feature","geometry":{"type":"Point","coordinates":[16.6276731,49.1569816]},"properties":{"id":"bikerack:6a4f10e3-33e7-46c3-b7ec-6ada8bdfb61c","kind":"bikerack","longitude":16.6276731,"latitude":49.1569816,"name":"Bicycle Parking","city":"Brno","address":null,"covered":false,"access":null,"website":null,"phone":null,"source":"OpenStreetMap/node/12246737845","sourceUpdatedAt":null,"verifiedAt":null}},{"type":"Feature","geometry":{"type":"Point","coordinates":[16.6237556,49.1697177]},"properties":{"id":"bikerack:6d91c277-ca74-4731-8252-116e44b03ffe","kind":"bikerack","longitude":16.6237556,"latitude":49.1697177,"name":"Bicycle Parking","city":"Brno","address":null,"covered":false,"access":null,"website":null,"phone":null,"source":"OpenStreetMap/node/6008378463","sourceUpdatedAt":null,"verifiedAt":null}},{"type":"Feature","geometry":{"type":"Point","coordinates":[16.6361407,49.1777441]},"properties":{"id":"bikerack:6f538db9-f83c-40bf-b717-0721b21c2712","kind":"bikerack","longitude":16.6361407,"latitude":49.1777441,"name":"Bicycle Parking","city":"Brno","address":null,"covered":false,"access":null,"website":null,"phone":null,"source":"OpenStreetMap/node/12855692737","sourceUpdatedAt":null,"verifiedAt":null}},{"type":"Feature","geometry":{"type":"Point","coordinates":[16.6276865,49.1573963]},"properties":{"id":"bikerack:a82c0dbb-72a5-4599-ad7d-356959bab48b","kind":"bikerack","longitude":16.6276865,"latitude":49.1573963,"name":"Bicycle Parking","city":"Brno","address":null,"covered":true,"access":null,"website":null,"phone":null,"source":"OpenStreetMap/node/5175855024","sourceUpdatedAt":null,"verifiedAt":null}},{"type":"Feature","geometry":{"type":"Point","coordinates":[16.6261962,49.1559303]},"properties":{"id":"bikerack:b1c17194-aa0c-43fe-ad36-6883fbf67a91","kind":"bikerack","longitude":16.6261962,"latitude":49.1559303,"name":"Bicycle Parking","city":"Modrice","address":null,"covered":false,"access":null,"website":null,"phone":null,"source":"OpenStreetMap/node/8571557018","sourceUpdatedAt":null,"verifiedAt":null}},{"type":"Feature","geometry":{"type":"Point","coordinates":[16.6159009,49.1657569]},"properties":{"id":"bikerack:b3902dc7-5395-40ae-a950-484378941f86","kind":"bikerack","longitude":16.6159009,"latitude":49.1657569,"name":"Bicycle Parking","city":"Brno","address":null,"covered":false,"access":null,"website":null,"phone":null,"source":"OpenStreetMap/node/6021478764","sourceUpdatedAt":null,"verifiedAt":null}},{"type":"Feature","geometry":{"type":"Point","coordinates":[16.624402,49.1773776]},"properties":{"id":"bikerack:b5c18f3a-b237-4c26-a06d-e45a52daac0a","kind":"bikerack","longitude":16.624402,"latitude":49.1773776,"name":"Bicycle Parking","city":"Brno","address":null,"covered":false,"access":null,"website":null,"phone":null,"source":"OpenStreetMap/node/10857860307","sourceUpdatedAt":null,"verifiedAt":null}},{"type":"Feature","geometry":{"type":"Point","coordinates":[16.6359957,49.1777588]},"properties":{"id":"bikerack:c9772c0f-1d24-461f-9b8f-7443ed4d38ed","kind":"bikerack","longitude":16.6359957,"latitude":49.1777588,"name":"Bicycle Parking","city":"Brno","address":null,"covered":false,"access":null,"website":null,"phone":null,"source":"OpenStreetMap/node/12855692736","sourceUpdatedAt":null,"verifiedAt":null}},{"type":"Feature","geometry":{"type":"Point","coordinates":[16.6228686,49.1752117]},"properties":{"id":"bikerack:cccf8f74-8fb7-4769-bc4d-6d0603b05d4c","kind":"bikerack","longitude":16.6228686,"latitude":49.1752117,"name":"Bicycle Parking","city":"Brno","address":null,"covered":false,"access":null,"website":null,"phone":null,"source":"OpenStreetMap/node/12051780613","sourceUpdatedAt":null,"verifiedAt":null}},{"type":"Feature","geometry":{"type":"Point","coordinates":[16.6160417,49.1657909]},"properties":{"id":"bikerack:e0322fb0-37bb-4338-bd8e-3b8511050397","kind":"bikerack","longitude":16.6160417,"latitude":49.1657909,"name":"Bicycle Parking","city":"Brno","address":null,"covered":false,"access":null,"website":null,"phone":null,"source":"OpenStreetMap/node/6021478763","sourceUpdatedAt":null,"verifiedAt":null}},{"type":"Feature","geometry":{"type":"Point","coordinates":[16.6232009,49.180565]},"properties":{"id":"bikerack:e2c2c073-913e-4a9a-9e5b-a6fedc2e914e","kind":"bikerack","longitude":16.6232009,"latitude":49.180565,"name":"Bicycle Parking","city":"Brno","address":null,"covered":false,"access":null,"website":null,"phone":null,"source":"OpenStreetMap/node/7261070186","sourceUpdatedAt":null,"verifiedAt":null}},{"type":"Feature","geometry":{"type":"Point","coordinates":[16.6182647,49.1710022]},"properties":{"id":"bikerack:e622c3b5-70a6-46f5-89e5-c4165134ac2f","kind":"bikerack","longitude":16.6182647,"latitude":49.1710022,"name":"Bicycle Parking","city":"Brno","address":null,"covered":false,"access":null,"website":null,"phone":null,"source":"OpenStreetMap/node/13604897134","sourceUpdatedAt":null,"verifiedAt":null}},{"type":"Feature","geometry":{"type":"Point","coordinates":[16.6281214,49.1547257]},"properties":{"id":"bikerack:e7cd1c85-0c24-4603-b5b9-0e3987d42932","kind":"bikerack","longitude":16.6281214,"latitude":49.1547257,"name":"Bicycle Parking","city":"Modrice","address":null,"covered":true,"access":null,"website":null,"phone":null,"source":"OpenStreetMap/node/7643924045","sourceUpdatedAt":null,"verifiedAt":null}},{"type":"Feature","geometry":{"type":"Point","coordinates":[16.6237398,49.175614]},"properties":{"id":"bikerack:ed1c2e58-ec0a-47f1-8854-b134c75acc1c","kind":"bikerack","longitude":16.6237398,"latitude":49.175614,"name":"Bicycle Parking","city":"Brno","address":null,"covered":false,"access":null,"website":null,"phone":null,"source":"OpenStreetMap/node/10106246230","sourceUpdatedAt":null,"verifiedAt":null}},{"type":"Feature","geometry":{"type":"Point","coordinates":[16.627212,49.1664931]},"properties":{"id":"bikerack:f61ea415-a263-4d4e-888e-0df7b0e8c9dc","kind":"bikerack","longitude":16.627212,"latitude":49.1664931,"name":"Bicycle Parking","city":"Brno","address":null,"covered":false,"access":null,"website":null,"phone":null,"source":"OpenStreetMap/node/11613007993","sourceUpdatedAt":null,"verifiedAt":null}},{"type":"Feature","geometry":{"type":"Point","coordinates":[16.6261923,49.1559426]},"properties":{"id":"repair:2c06ea02-51e0-4a43-86bb-44f67f163f91","kind":"repair","longitude":16.6261923,"latitude":49.1559426,"name":"Bicycle Repair Station","city":"Modrice","address":null,"covered":false,"access":null,"website":null,"phone":null,"source":"OpenStreetMap/node/8697312935","sourceUpdatedAt":null,"verifiedAt":null}},{"type":"Feature","geometry":{"type":"Point","coordinates":[16.6232935,49.1686947]},"properties":{"id":"repair:45227aaf-c849-4f6d-a0cd-c5779e4ea640","kind":"repair","longitude":16.6232935,"latitude":49.1686947,"name":"Bicycle Repair Station","city":"Brno","address":null,"covered":false,"access":null,"website":null,"phone":null,"source":"OpenStreetMap/node/8393801430","sourceUpdatedAt":null,"verifiedAt":null}},{"type":"Feature","geometry":{"type":"Point","coordinates":[16.6182607,49.1710198]},"properties":{"id":"repair:d3af1142-e519-4dac-9b23-a930054f57a7","kind":"repair","longitude":16.6182607,"latitude":49.1710198,"name":"Bicycle Repair Station","city":"Brno","address":null,"covered":false,"access":null,"website":null,"phone":null,"source":"OpenStreetMap/node/9027867603","sourceUpdatedAt":null,"verifiedAt":null}},{"type":"Feature","geometry":{"type":"Point","coordinates":[16.6414291,49.1588353]},"properties":{"id":"service:0446adf0-b372-4392-baed-1b9ceb4e1a69","kind":"service","longitude":16.6414291,"latitude":49.1588353,"name":"BARNEX SPORT","city":"Brno","address":null,"covered":null,"access":null,"website":null,"phone":null,"source":"OpenStreetMap/node/2939669761","sourceUpdatedAt":null,"verifiedAt":null}},{"type":"Feature","geometry":{"type":"Point","coordinates":[16.6224881,49.1741226]},"properties":{"id":"service:2dad757c-7009-40be-9268-27c30863cf43","kind":"service","longitude":16.6224881,"latitude":49.1741226,"name":"Koloshop","city":"Brno","address":null,"covered":null,"access":null,"website":null,"phone":null,"source":"OpenStreetMap/node/12712428374","sourceUpdatedAt":null,"verifiedAt":null}},{"type":"Feature","geometry":{"type":"Point","coordinates":[16.620523,49.1808177]},"properties":{"id":"service:3d5d19c0-af6d-4444-8a25-3b06ca71b286","kind":"service","longitude":16.620523,"latitude":49.1808177,"name":"Cargo Bikes Czechoslovakia","city":"Brno","address":null,"covered":null,"access":null,"website":null,"phone":null,"source":"OpenStreetMap/node/13436067412","sourceUpdatedAt":null,"verifiedAt":null}},{"type":"Feature","geometry":{"type":"Point","coordinates":[16.6185479,49.1797073]},"properties":{"id":"service:41ceec79-7d07-4e56-a77b-649b20030595","kind":"service","longitude":16.6185479,"latitude":49.1797073,"name":"4 kluci od kol","city":"Brno","address":null,"covered":null,"access":null,"website":null,"phone":null,"source":"OpenStreetMap/node/7559416809","sourceUpdatedAt":null,"verifiedAt":null}},{"type":"Feature","geometry":{"type":"Point","coordinates":[16.6521023,49.1531043]},"properties":{"id":"service:52fc9089-ae5d-4254-be61-38dbb33441c3","kind":"service","longitude":16.6521023,"latitude":49.1531043,"name":"Cyklosport","city":"Modrice","address":null,"covered":null,"access":null,"website":null,"phone":null,"source":"OpenStreetMap/node/1468826889","sourceUpdatedAt":null,"verifiedAt":null}},{"type":"Feature","geometry":{"type":"Point","coordinates":[16.6135048,49.1713214]},"properties":{"id":"service:db28f6f5-c84e-4ce2-92cf-35ec055f8593","kind":"service","longitude":16.6135048,"latitude":49.1713214,"name":"TBB Bike","city":"Brno","address":null,"covered":null,"access":null,"website":null,"phone":null,"source":"OpenStreetMap/node/1394738486","sourceUpdatedAt":null,"verifiedAt":null}},{"type":"Feature","geometry":{"type":"Point","coordinates":[16.6242954,49.1792902]},"properties":{"id":"water:165c0b24-73f1-405a-b6e4-8bf4d0624205","kind":"water","longitude":16.6242954,"latitude":49.1792902,"name":"Drinking Fountain","city":"Brno","address":null,"covered":null,"access":null,"website":null,"phone":null,"source":"OpenStreetMap/node/10106222517","sourceUpdatedAt":null,"verifiedAt":null}},{"type":"Feature","geometry":{"type":"Point","coordinates":[16.6421183,49.158148]},"properties":{"id":"water:3c27aa4a-db1f-4636-9821-d5c78daa794f","kind":"water","longitude":16.6421183,"latitude":49.158148,"name":"Drinking Fountain","city":"Brno","address":null,"covered":null,"access":null,"website":null,"phone":null,"source":"OpenStreetMap/node/1790671679","sourceUpdatedAt":null,"verifiedAt":null}}]}