{"type":"FeatureCollection","features":[{"type":"Feature","geometry":{"type":"Point","coordinates":[16.6392198,48.8146325]},"properties":{"id":"bikerack:2bb9913c-b9a6-4c05-aa49-bb2d292743c0","kind":"bikerack","longitude":16.6392198,"latitude":48.8146325,"name":"Bicycle Parking","city":"Mikulov","address":null,"covered":false,"access":null,"website":null,"phone":null,"source":"OpenStreetMap/node/12770137181","sourceUpdatedAt":null,"verifiedAt":null}},{"type":"Feature","geometry":{"type":"Point","coordinates":[16.6366882,48.80701]},"properties":{"id":"bikerack:4aff16b0-d107-47f6-8f1e-e3b6a3de5803","kind":"bikerack","longitude":16.6366882,"latitude":48.80701,"name":"Bicycle Parking","city":"Mikulov","address":null,"covered":false,"access":null,"website":null,"phone":null,"source":"OpenStreetMap/node/3667914647","sourceUpdatedAt":null,"verifiedAt":null}},{"type":"Feature","geometry":{"type":"Point","coordinates":[16.6382302,48.8076082]},"properties":{"id":"bikerack:fee2ffa0-756f-44de-874d-5f98103d8ca9","kind":"bikerack","longitude":16.6382302,"latitude":48.8076082,"name":"Bicycle Parking","city":"Mikulov","address":null,"covered":false,"access":null,"website":null,"phone":null,"source":"OpenStreetMap/node/12895023957","sourceUpdatedAt":null,"verifiedAt":null}},{"type":"Feature","geometry":{"type":"Point","coordinates":[16.6384027,48.8070281]},"properties":{"id":"water:05c295f9-4118-4752-ae30-ebec8342bd99","kind":"water","longitude":16.6384027,"latitude":48.8070281,"name":"Drinking Fountain","city":"Mikulov","address":null,"covered":null,"access":null,"website":null,"phone":null,"source":"OpenStreetMap/node/9197954759","sourceUpdatedAt":null,"verifiedAt":null}}]}