{"type":"FeatureCollection","features":[{"type":"Feature","geometry":{"type":"Point","coordinates":[10.8961021,52.7938566]},"properties":{"id":"bikerack:54fd3627-3b73-4235-81c9-0a5cd10cd51e","kind":"bikerack","longitude":10.8961021,"latitude":52.7938566,"name":"Fahrradabstellplatz","city":"Dahre","address":null,"covered":false,"access":null,"website":null,"phone":null,"source":"OpenStreetMap/node/3073827614","sourceUpdatedAt":null,"verifiedAt":null}},{"type":"Feature","geometry":{"type":"Point","coordinates":[10.8854002,52.7936881]},"properties":{"id":"bikerack:acfabf33-9b94-4016-9424-dd5cfe80aab5","kind":"bikerack","longitude":10.8854002,"latitude":52.7936881,"name":"Fahrradabstellplatz","city":"Dahre","address":null,"covered":false,"access":null,"website":null,"phone":null,"source":"OpenStreetMap/node/3073846311","sourceUpdatedAt":null,"verifiedAt":null}}]}