{"type":"FeatureCollection","features":[{"type":"Feature","geometry":{"type":"Point","coordinates":[10.8637601,50.2318757]},"properties":{"id":"bikerack:41a2dc6b-034f-48e4-b641-aa361bb93951","kind":"bikerack","longitude":10.8637601,"latitude":50.2318757,"name":"Fahrradabstellplatz","city":"Weitramsdorf","address":null,"covered":false,"access":null,"website":null,"phone":null,"source":"OpenStreetMap/node/3931768703","sourceUpdatedAt":null,"verifiedAt":null}},{"type":"Feature","geometry":{"type":"Point","coordinates":[10.8660218,50.2312066]},"properties":{"id":"water:cb3904de-b9e4-4b31-b3ef-70645fb3493e","kind":"water","longitude":10.8660218,"latitude":50.2312066,"name":"Trinkwasser","city":"Weitramsdorf","address":null,"covered":null,"access":null,"website":null,"phone":null,"source":"OpenStreetMap/node/12795122347","sourceUpdatedAt":null,"verifiedAt":null}}]}