{"type":"FeatureCollection","features":[{"type":"Feature","geometry":{"type":"Point","coordinates":[10.8785391,49.7021929]},"properties":{"id":"bikerack:0ddcb1c0-228a-4ec7-908c-b55276398013","kind":"bikerack","longitude":10.8785391,"latitude":49.7021929,"name":"Fahrradabstellplatz","city":"Adelsdorf","address":null,"covered":false,"access":null,"website":null,"phone":null,"source":"OpenStreetMap/way/1451346762","sourceUpdatedAt":null,"verifiedAt":null}},{"type":"Feature","geometry":{"type":"Point","coordinates":[10.8788136,49.7026257]},"properties":{"id":"bikerack:21860f4f-0ce8-4eeb-9ca2-4c002a7bb002","kind":"bikerack","longitude":10.8788136,"latitude":49.7026257,"name":"Fahrradabstellplatz","city":"Adelsdorf","address":null,"covered":false,"access":null,"website":null,"phone":null,"source":"OpenStreetMap/way/1286794493","sourceUpdatedAt":null,"verifiedAt":null}},{"type":"Feature","geometry":{"type":"Point","coordinates":[10.8788408,49.7024993]},"properties":{"id":"bikerack:67df3bcd-a335-4463-a3ea-0eddebb16a46","kind":"bikerack","longitude":10.8788408,"latitude":49.7024993,"name":"Fahrradabstellplatz","city":"Adelsdorf","address":null,"covered":true,"access":null,"website":null,"phone":null,"source":"OpenStreetMap/node/11934820461","sourceUpdatedAt":null,"verifiedAt":null}},{"type":"Feature","geometry":{"type":"Point","coordinates":[10.878451,49.7229395]},"properties":{"id":"bikerack:bd11e0df-c648-4ddc-ae57-db3b115dde7b","kind":"bikerack","longitude":10.878451,"latitude":49.7229395,"name":"Fahrradabstellplatz","city":"Adelsdorf","address":null,"covered":false,"access":null,"website":null,"phone":null,"source":"OpenStreetMap/node/13043261315","sourceUpdatedAt":null,"verifiedAt":null}},{"type":"Feature","geometry":{"type":"Point","coordinates":[10.8876923,49.7197982]},"properties":{"id":"bikerack:c4a63d6f-26a6-4213-ad04-200803456e1d","kind":"bikerack","longitude":10.8876923,"latitude":49.7197982,"name":"Fahrradabstellplatz","city":"Adelsdorf","address":null,"covered":false,"access":null,"website":null,"phone":null,"source":"OpenStreetMap/way/1377251462","sourceUpdatedAt":null,"verifiedAt":null}},{"type":"Feature","geometry":{"type":"Point","coordinates":[10.8886863,49.7108606]},"properties":{"id":"bikerack:f8dced9f-2d1f-4d05-a60a-8d7c24c0c461","kind":"bikerack","longitude":10.8886863,"latitude":49.7108606,"name":"Fahrradabstellplatz","city":"Adelsdorf","address":null,"covered":false,"access":null,"website":null,"phone":null,"source":"OpenStreetMap/node/5340890433","sourceUpdatedAt":null,"verifiedAt":null}},{"type":"Feature","geometry":{"type":"Point","coordinates":[10.8908639,49.7213945]},"properties":{"id":"bikerack:fc01e056-eed9-4c7e-8818-e75681182156","kind":"bikerack","longitude":10.8908639,"latitude":49.7213945,"name":"Fahrradabstellplatz","city":"Adelsdorf","address":null,"covered":false,"access":null,"website":null,"phone":null,"source":"OpenStreetMap/way/1342084833","sourceUpdatedAt":null,"verifiedAt":null}},{"type":"Feature","geometry":{"type":"Point","coordinates":[10.8834732,49.7088512]},"properties":{"id":"service:274f67ed-3695-477b-b507-cf0119bb6bcc","kind":"service","longitude":10.8834732,"latitude":49.7088512,"name":"e-motion e-Bike Welt Adelsdorf","city":"Adelsdorf","address":null,"covered":null,"access":null,"website":null,"phone":null,"source":"OpenStreetMap/node/13599050259","sourceUpdatedAt":null,"verifiedAt":null}},{"type":"Feature","geometry":{"type":"Point","coordinates":[10.8947851,49.714337]},"properties":{"id":"water:f9325273-dfdc-4e18-95d5-9bd7449daf8a","kind":"water","longitude":10.8947851,"latitude":49.714337,"name":"Trinkwasser","city":"Adelsdorf","address":null,"covered":null,"access":null,"website":null,"phone":null,"source":"OpenStreetMap/node/12345870922","sourceUpdatedAt":null,"verifiedAt":null}}]}