{"type":"FeatureCollection","features":[{"type":"Feature","geometry":{"type":"Point","coordinates":[17.6871105,52.1661019]},"properties":{"id":"bikerack:636d0584-53f7-432b-bed5-fe4db50233a1","kind":"bikerack","longitude":17.6871105,"latitude":52.1661019,"name":"Biciklitároló","city":"Pyzdry","address":null,"covered":false,"access":null,"website":null,"phone":null,"source":"OpenStreetMap/node/9447410897","sourceUpdatedAt":null,"verifiedAt":null}},{"type":"Feature","geometry":{"type":"Point","coordinates":[17.6873558,52.1729411]},"properties":{"id":"bikerack:8833e2e9-a6fb-4ce5-8606-0a3e655f82a0","kind":"bikerack","longitude":17.6873558,"latitude":52.1729411,"name":"Biciklitároló","city":"Pyzdry","address":null,"covered":false,"access":null,"website":null,"phone":null,"source":"OpenStreetMap/node/13278425137","sourceUpdatedAt":null,"verifiedAt":null}},{"type":"Feature","geometry":{"type":"Point","coordinates":[17.6856124,52.1752128]},"properties":{"id":"bikerack:899c994f-d227-4217-8b58-03ca66d95bac","kind":"bikerack","longitude":17.6856124,"latitude":52.1752128,"name":"Biciklitároló","city":"Pyzdry","address":null,"covered":false,"access":null,"website":null,"phone":null,"source":"OpenStreetMap/node/13290605769","sourceUpdatedAt":null,"verifiedAt":null}},{"type":"Feature","geometry":{"type":"Point","coordinates":[17.685624,52.1752325]},"properties":{"id":"bikerack:a8c30b08-baad-4fb4-906a-82a7e484ac46","kind":"bikerack","longitude":17.685624,"latitude":52.1752325,"name":"Biciklitároló","city":"Pyzdry","address":null,"covered":false,"access":null,"website":null,"phone":null,"source":"OpenStreetMap/node/13290605768","sourceUpdatedAt":null,"verifiedAt":null}}]}