{"type":"FeatureCollection","features":[{"type":"Feature","geometry":{"type":"Point","coordinates":[17.6833629,47.1787404]},"properties":{"id":"water:50244595-8c93-4b3c-96ca-00a68fd6cbb3","kind":"water","longitude":17.6833629,"latitude":47.1787404,"name":"Ivókút","city":null,"address":null,"covered":null,"access":null,"website":null,"phone":null,"source":"OpenStreetMap","sourceUpdatedAt":null,"verifiedAt":null}},{"type":"Feature","geometry":{"type":"Point","coordinates":[17.6803128,47.1729954]},"properties":{"id":"water:6efc9b67-060d-4c07-bf2c-e90798638fa1","kind":"water","longitude":17.6803128,"latitude":47.1729954,"name":"Ivókút","city":null,"address":null,"covered":null,"access":null,"website":null,"phone":null,"source":"OpenStreetMap","sourceUpdatedAt":null,"verifiedAt":null}}]}