{"type":"FeatureCollection","features":[{"type":"Feature","geometry":{"type":"Point","coordinates":[22.68625,47.89871]},"properties":{"id":"water:4838e640-1f7a-46fd-8bf2-1567423e49b2","kind":"water","longitude":22.68625,"latitude":47.89871,"name":"Ivókút","city":null,"address":null,"covered":null,"access":null,"website":null,"phone":null,"source":"OpenStreetMap","sourceUpdatedAt":null,"verifiedAt":null}},{"type":"Feature","geometry":{"type":"Point","coordinates":[22.68803,47.90008]},"properties":{"id":"water:d9e814da-868c-4eb6-a6ce-de3344c1be39","kind":"water","longitude":22.68803,"latitude":47.90008,"name":"Ivókút","city":null,"address":null,"covered":null,"access":null,"website":null,"phone":null,"source":"OpenStreetMap","sourceUpdatedAt":null,"verifiedAt":null}}]}