{"type":"FeatureCollection","features":[{"type":"Feature","geometry":{"type":"Point","coordinates":[18.8012393,50.3634397]},"properties":{"id":"bikerack:5dd0d6fc-5a83-48bf-aa13-52577329f949","kind":"bikerack","longitude":18.8012393,"latitude":50.3634397,"name":"Biciklitároló","city":"Zabrze","address":null,"covered":true,"access":null,"website":null,"phone":null,"source":"OpenStreetMap/node/11608430881","sourceUpdatedAt":null,"verifiedAt":null}},{"type":"Feature","geometry":{"type":"Point","coordinates":[18.7915483,50.3667125]},"properties":{"id":"bikerack:683c969d-04ad-4697-83af-e0b3dcf43066","kind":"bikerack","longitude":18.7915483,"latitude":50.3667125,"name":"Biciklitároló","city":"Wieszowa","address":null,"covered":false,"access":null,"website":null,"phone":null,"source":"OpenStreetMap/node/7383061587","sourceUpdatedAt":null,"verifiedAt":null}},{"type":"Feature","geometry":{"type":"Point","coordinates":[18.7917536,50.3668019]},"properties":{"id":"bikerack:88249d5d-583e-436e-8784-fd4b15993923","kind":"bikerack","longitude":18.7917536,"latitude":50.3668019,"name":"Biciklitároló","city":"Wieszowa","address":null,"covered":false,"access":null,"website":null,"phone":null,"source":"OpenStreetMap/node/7383061586","sourceUpdatedAt":null,"verifiedAt":null}},{"type":"Feature","geometry":{"type":"Point","coordinates":[18.7668474,50.3601297]},"properties":{"id":"bikerack:c49895c8-1b7d-4c10-9415-fe8477359875","kind":"bikerack","longitude":18.7668474,"latitude":50.3601297,"name":"Biciklitároló","city":"Wieszowa","address":null,"covered":false,"access":null,"website":null,"phone":null,"source":"OpenStreetMap/node/13027400562","sourceUpdatedAt":null,"verifiedAt":null}},{"type":"Feature","geometry":{"type":"Point","coordinates":[18.8002503,50.3638233]},"properties":{"id":"bikerack:ce421a23-c0a0-4f27-93d0-adcac3b4cc37","kind":"bikerack","longitude":18.8002503,"latitude":50.3638233,"name":"Biciklitároló","city":"Zabrze","address":null,"covered":false,"access":null,"website":null,"phone":null,"source":"OpenStreetMap/node/7383074460","sourceUpdatedAt":null,"verifiedAt":null}},{"type":"Feature","geometry":{"type":"Point","coordinates":[18.8011726,50.3634438]},"properties":{"id":"repair:8cc9cc39-4ace-48b8-85ed-54eeca44f1f0","kind":"repair","longitude":18.8011726,"latitude":50.3634438,"name":"Kerékpár szervizállomás","city":"Zabrze","address":null,"covered":false,"access":null,"website":null,"phone":null,"source":"OpenStreetMap/node/11627671200","sourceUpdatedAt":null,"verifiedAt":null}},{"type":"Feature","geometry":{"type":"Point","coordinates":[18.8001627,50.3638371]},"properties":{"id":"service:379ef25b-d448-4438-afa5-b63e98e1dfa4","kind":"service","longitude":18.8001627,"latitude":50.3638371,"name":"Galeria Rowerowa","city":"Zabrze","address":null,"covered":null,"access":null,"website":null,"phone":null,"source":"OpenStreetMap/node/4820026873","sourceUpdatedAt":null,"verifiedAt":null}}]}