{"type":"FeatureCollection","features":[{"type":"Feature","geometry":{"type":"Point","coordinates":[18.7945346,49.7644698]},"properties":{"id":"bikerack:2356c119-232d-4bc0-9bdf-99a5826f0fc9","kind":"bikerack","longitude":18.7945346,"latitude":49.7644698,"name":"Biciklitároló","city":"Skoczow","address":null,"covered":false,"access":null,"website":null,"phone":null,"source":"OpenStreetMap/node/6225521171","sourceUpdatedAt":null,"verifiedAt":null}},{"type":"Feature","geometry":{"type":"Point","coordinates":[18.7859408,49.7706878]},"properties":{"id":"bikerack:65c30f7f-2b92-4550-b98e-383d183bf513","kind":"bikerack","longitude":18.7859408,"latitude":49.7706878,"name":"Biciklitároló","city":"Skoczow","address":null,"covered":false,"access":null,"website":null,"phone":null,"source":"OpenStreetMap/node/12356592073","sourceUpdatedAt":null,"verifiedAt":null}},{"type":"Feature","geometry":{"type":"Point","coordinates":[18.8036947,49.7589773]},"properties":{"id":"bikerack:6c7d4c76-5967-42e4-8aad-89c590b2876c","kind":"bikerack","longitude":18.8036947,"latitude":49.7589773,"name":"Biciklitároló","city":"Gorki Wielkie","address":null,"covered":false,"access":null,"website":null,"phone":null,"source":"OpenStreetMap/node/13022654308","sourceUpdatedAt":null,"verifiedAt":null}},{"type":"Feature","geometry":{"type":"Point","coordinates":[18.7813952,49.7789979]},"properties":{"id":"bikerack:6d493a97-aa8c-40e0-9356-fb012fb5e067","kind":"bikerack","longitude":18.7813952,"latitude":49.7789979,"name":"Biciklitároló","city":"Skoczow","address":null,"covered":false,"access":null,"website":null,"phone":null,"source":"OpenStreetMap/node/12150927378","sourceUpdatedAt":null,"verifiedAt":null}},{"type":"Feature","geometry":{"type":"Point","coordinates":[18.8005776,49.7588543]},"properties":{"id":"bikerack:a343ae25-3a24-49ab-ba0b-4d670f0ed866","kind":"bikerack","longitude":18.8005776,"latitude":49.7588543,"name":"Biciklitároló","city":"Gorki Wielkie","address":null,"covered":false,"access":null,"website":null,"phone":null,"source":"OpenStreetMap/node/12960547166","sourceUpdatedAt":null,"verifiedAt":null}}]}