{"type":"FeatureCollection","features":[{"type":"Feature","geometry":{"type":"Point","coordinates":[18.8007389,45.6122856]},"properties":{"id":"bikerack:a70d13fe-76a8-432c-80fa-6299723ae2e0","kind":"bikerack","longitude":18.8007389,"latitude":45.6122856,"name":"Biciklitároló","city":"Bilje","address":null,"covered":false,"access":null,"website":null,"phone":null,"source":"OpenStreetMap/node/13037408634","sourceUpdatedAt":null,"verifiedAt":null}},{"type":"Feature","geometry":{"type":"Point","coordinates":[18.7889197,45.6077489]},"properties":{"id":"bikerack:ff4b3126-ed51-43fa-86e2-0c56ea53758d","kind":"bikerack","longitude":18.7889197,"latitude":45.6077489,"name":"Biciklitároló","city":"Bilje","address":null,"covered":false,"access":null,"website":null,"phone":null,"source":"OpenStreetMap/node/13037220680","sourceUpdatedAt":null,"verifiedAt":null}},{"type":"Feature","geometry":{"type":"Point","coordinates":[18.7889537,45.607797]},"properties":{"id":"repair:3064ad48-00d0-4994-ab2a-591ee6d48738","kind":"repair","longitude":18.7889537,"latitude":45.607797,"name":"Kerékpár szervizállomás","city":"Bilje","address":null,"covered":false,"access":null,"website":null,"phone":null,"source":"OpenStreetMap/node/13037332152","sourceUpdatedAt":null,"verifiedAt":null}},{"type":"Feature","geometry":{"type":"Point","coordinates":[18.7889414,45.6077748]},"properties":{"id":"repair:3595cbc5-f215-4de2-8e13-8dc9770c1c35","kind":"repair","longitude":18.7889414,"latitude":45.6077748,"name":"Kerékpár szervizállomás","city":"Bilje","address":null,"covered":false,"access":null,"website":null,"phone":null,"source":"OpenStreetMap/node/13037307969","sourceUpdatedAt":null,"verifiedAt":null}},{"type":"Feature","geometry":{"type":"Point","coordinates":[18.7889331,45.6077587]},"properties":{"id":"repair:cb8f60a2-9e64-468d-92a3-dfea598af184","kind":"repair","longitude":18.7889331,"latitude":45.6077587,"name":"Kerékpár szervizállomás","city":"Bilje","address":null,"covered":false,"access":null,"website":null,"phone":null,"source":"OpenStreetMap/node/13037313653","sourceUpdatedAt":null,"verifiedAt":null}}]}