{"type":"FeatureCollection","features":[{"type":"Feature","geometry":{"type":"Point","coordinates":[9.8841958,53.5886702]},"properties":{"id":"bikerack:00438597-5459-4212-ae96-5aa69190e132","kind":"bikerack","longitude":9.8841958,"latitude":53.5886702,"name":"Fahrradabstellplatz","city":"Eidelstedt","address":null,"covered":false,"access":null,"website":null,"phone":null,"source":"OpenStreetMap/node/1821314218","sourceUpdatedAt":null,"verifiedAt":null}},{"type":"Feature","geometry":{"type":"Point","coordinates":[9.8861106,53.577818]},"properties":{"id":"bikerack:03e9f9dc-1dcd-4d8d-9acd-ffb71eabe6c9","kind":"bikerack","longitude":9.8861106,"latitude":53.577818,"name":"Fahrradabstellplatz","city":"Eidelstedt","address":null,"covered":true,"access":null,"website":null,"phone":null,"source":"OpenStreetMap/node/12985154266","sourceUpdatedAt":null,"verifiedAt":null}},{"type":"Feature","geometry":{"type":"Point","coordinates":[9.8822452,53.5783969]},"properties":{"id":"bikerack:06388546-fa68-41ec-b2c2-2c1990062d64","kind":"bikerack","longitude":9.8822452,"latitude":53.5783969,"name":"Fahrradabstellplatz","city":"Eidelstedt","address":null,"covered":true,"access":null,"website":null,"phone":null,"source":"OpenStreetMap/way/171032769","sourceUpdatedAt":null,"verifiedAt":null}},{"type":"Feature","geometry":{"type":"Point","coordinates":[9.8815468,53.5732987]},"properties":{"id":"bikerack:072fc7bb-eece-4c02-aa1a-86c10df1b858","kind":"bikerack","longitude":9.8815468,"latitude":53.5732987,"name":"Fahrradabstellplatz","city":"Eidelstedt","address":null,"covered":true,"access":null,"website":null,"phone":null,"source":"OpenStreetMap/node/12985205330","sourceUpdatedAt":null,"verifiedAt":null}},{"type":"Feature","geometry":{"type":"Point","coordinates":[9.8824737,53.575809]},"properties":{"id":"bikerack:0945a086-8523-4ae7-9a9d-8d837bfafcd9","kind":"bikerack","longitude":9.8824737,"latitude":53.575809,"name":"Fahrradabstellplatz","city":"Eidelstedt","address":null,"covered":false,"access":null,"website":null,"phone":null,"source":"OpenStreetMap/node/12985173583","sourceUpdatedAt":null,"verifiedAt":null}},{"type":"Feature","geometry":{"type":"Point","coordinates":[9.8775715,53.5769305]},"properties":{"id":"bikerack:0b09411f-6e42-4328-a49f-3e4fe9829138","kind":"bikerack","longitude":9.8775715,"latitude":53.5769305,"name":"Fahrradabstellplatz","city":"Eidelstedt","address":null,"covered":true,"access":null,"website":null,"phone":null,"source":"OpenStreetMap/way/171427779","sourceUpdatedAt":null,"verifiedAt":null}},{"type":"Feature","geometry":{"type":"Point","coordinates":[9.8823017,53.5776256]},"properties":{"id":"bikerack:114d9112-752c-4428-b233-aee2de20d695","kind":"bikerack","longitude":9.8823017,"latitude":53.5776256,"name":"Fahrradabstellplatz","city":"Eidelstedt","address":null,"covered":true,"access":null,"website":null,"phone":null,"source":"OpenStreetMap/way/171032794","sourceUpdatedAt":null,"verifiedAt":null}},{"type":"Feature","geometry":{"type":"Point","coordinates":[9.8840373,53.5793525]},"properties":{"id":"bikerack:1170c11c-c07f-4f01-b8f7-4f4b69635ea9","kind":"bikerack","longitude":9.8840373,"latitude":53.5793525,"name":"Fahrradabstellplatz","city":"Eidelstedt","address":null,"covered":true,"access":null,"website":null,"phone":null,"source":"OpenStreetMap/way/545730082","sourceUpdatedAt":null,"verifiedAt":null}},{"type":"Feature","geometry":{"type":"Point","coordinates":[9.8876133,53.5740034]},"properties":{"id":"bikerack:12cd126d-e856-4851-803d-dbcc285c1fde","kind":"bikerack","longitude":9.8876133,"latitude":53.5740034,"name":"Fahrradabstellplatz","city":"Eidelstedt","address":null,"covered":false,"access":null,"website":null,"phone":null,"source":"OpenStreetMap/node/12017473334","sourceUpdatedAt":null,"verifiedAt":null}},{"type":"Feature","geometry":{"type":"Point","coordinates":[9.8769558,53.5747189]},"properties":{"id":"bikerack:19336b96-7437-4366-a624-db05eae113fb","kind":"bikerack","longitude":9.8769558,"latitude":53.5747189,"name":"Fahrradabstellplatz","city":"Eidelstedt","address":null,"covered":false,"access":null,"website":null,"phone":null,"source":"OpenStreetMap/node/1821312491","sourceUpdatedAt":null,"verifiedAt":null}},{"type":"Feature","geometry":{"type":"Point","coordinates":[9.8803251,53.5743926]},"properties":{"id":"bikerack:1a125728-13eb-4ce4-9e72-2531aca82d50","kind":"bikerack","longitude":9.8803251,"latitude":53.5743926,"name":"Fahrradabstellplatz","city":"Eidelstedt","address":null,"covered":true,"access":null,"website":null,"phone":null,"source":"OpenStreetMap/way/171387860","sourceUpdatedAt":null,"verifiedAt":null}},{"type":"Feature","geometry":{"type":"Point","coordinates":[9.8816028,53.5771637]},"properties":{"id":"bikerack:1b0c2268-797c-4346-abea-0425fbc53764","kind":"bikerack","longitude":9.8816028,"latitude":53.5771637,"name":"Fahrradabstellplatz","city":"Eidelstedt","address":null,"covered":true,"access":null,"website":null,"phone":null,"source":"OpenStreetMap/way/171203261","sourceUpdatedAt":null,"verifiedAt":null}},{"type":"Feature","geometry":{"type":"Point","coordinates":[9.880588,53.5690589]},"properties":{"id":"bikerack:1ba09c89-164d-45ab-871e-e61414dbc704","kind":"bikerack","longitude":9.880588,"latitude":53.5690589,"name":"Fahrradabstellplatz","city":"Eidelstedt","address":null,"covered":false,"access":null,"website":null,"phone":null,"source":"OpenStreetMap/node/12985104001","sourceUpdatedAt":null,"verifiedAt":null}},{"type":"Feature","geometry":{"type":"Point","coordinates":[9.8727681,53.5859565]},"properties":{"id":"bikerack:1f6c2a82-71b7-4e8d-9fb0-6ab3b3b7d414","kind":"bikerack","longitude":9.8727681,"latitude":53.5859565,"name":"Fahrradabstellplatz","city":"Eidelstedt","address":null,"covered":true,"access":null,"website":null,"phone":null,"source":"OpenStreetMap/node/10902312079","sourceUpdatedAt":null,"verifiedAt":null}},{"type":"Feature","geometry":{"type":"Point","coordinates":[9.8850297,53.5783455]},"properties":{"id":"bikerack:1f9e2216-e6b5-4263-a2b7-5be327fd91d3","kind":"bikerack","longitude":9.8850297,"latitude":53.5783455,"name":"Fahrradabstellplatz","city":"Eidelstedt","address":null,"covered":false,"access":null,"website":null,"phone":null,"source":"OpenStreetMap/node/12985189819","sourceUpdatedAt":null,"verifiedAt":null}},{"type":"Feature","geometry":{"type":"Point","coordinates":[9.8622307,53.5720607]},"properties":{"id":"bikerack:2091e9af-da40-49d7-82ed-d283f20e6d71","kind":"bikerack","longitude":9.8622307,"latitude":53.5720607,"name":"Fahrradabstellplatz","city":"Eidelstedt","address":null,"covered":false,"access":null,"website":null,"phone":null,"source":"OpenStreetMap/way/1215646936","sourceUpdatedAt":null,"verifiedAt":null}},{"type":"Feature","geometry":{"type":"Point","coordinates":[9.8725551,53.5861608]},"properties":{"id":"bikerack:226584dd-9f19-47cb-ac17-b3a5d36ae25d","kind":"bikerack","longitude":9.8725551,"latitude":53.5861608,"name":"Fahrradabstellplatz","city":"Eidelstedt","address":null,"covered":false,"access":null,"website":null,"phone":null,"source":"OpenStreetMap/node/10902322056","sourceUpdatedAt":null,"verifiedAt":null}},{"type":"Feature","geometry":{"type":"Point","coordinates":[9.8809144,53.5873951]},"properties":{"id":"bikerack:28e8a97b-3380-420c-ac62-048f3c746e0d","kind":"bikerack","longitude":9.8809144,"latitude":53.5873951,"name":"Fahrradabstellplatz","city":"Eidelstedt","address":null,"covered":false,"access":null,"website":null,"phone":null,"source":"OpenStreetMap/node/12087618049","sourceUpdatedAt":null,"verifiedAt":null}},{"type":"Feature","geometry":{"type":"Point","coordinates":[9.8797836,53.5691785]},"properties":{"id":"bikerack:2ae296b7-9f4b-45ab-9c12-32d1ebed8723","kind":"bikerack","longitude":9.8797836,"latitude":53.5691785,"name":"Fahrradabstellplatz","city":"Eidelstedt","address":null,"covered":false,"access":null,"website":null,"phone":null,"source":"OpenStreetMap/node/12985099012","sourceUpdatedAt":null,"verifiedAt":null}},{"type":"Feature","geometry":{"type":"Point","coordinates":[9.8702604,53.5911454]},"properties":{"id":"bikerack:2c844d59-a4a4-48be-a694-607461d21e72","kind":"bikerack","longitude":9.8702604,"latitude":53.5911454,"name":"Fahrradabstellplatz","city":"Eidelstedt","address":null,"covered":false,"access":null,"website":null,"phone":null,"source":"OpenStreetMap/way/948194952","sourceUpdatedAt":null,"verifiedAt":null}},{"type":"Feature","geometry":{"type":"Point","coordinates":[9.8767959,53.577118]},"properties":{"id":"bikerack:337dd3cc-e529-4a44-9621-4373713d38a1","kind":"bikerack","longitude":9.8767959,"latitude":53.577118,"name":"Fahrradabstellplatz","city":"Eidelstedt","address":null,"covered":true,"access":null,"website":null,"phone":null,"source":"OpenStreetMap/way/172010905","sourceUpdatedAt":null,"verifiedAt":null}},{"type":"Feature","geometry":{"type":"Point","coordinates":[9.8820886,53.5786399]},"properties":{"id":"bikerack:342b1541-6b51-47da-ab58-103d510b3446","kind":"bikerack","longitude":9.8820886,"latitude":53.5786399,"name":"30d","city":"Eidelstedt","address":null,"covered":true,"access":null,"website":null,"phone":null,"source":"OpenStreetMap/way/171203235","sourceUpdatedAt":null,"verifiedAt":null}},{"type":"Feature","geometry":{"type":"Point","coordinates":[9.8712001,53.5906351]},"properties":{"id":"bikerack:368d0431-ed6c-4cd7-9f58-91fc79acb513","kind":"bikerack","longitude":9.8712001,"latitude":53.5906351,"name":"Fahrradabstellplatz","city":"Eidelstedt","address":null,"covered":false,"access":null,"website":null,"phone":null,"source":"OpenStreetMap/node/8776903416","sourceUpdatedAt":null,"verifiedAt":null}},{"type":"Feature","geometry":{"type":"Point","coordinates":[9.8847636,53.5772321]},"properties":{"id":"bikerack:3902b5f6-0593-4998-a48c-4be4f4a4e97a","kind":"bikerack","longitude":9.8847636,"latitude":53.5772321,"name":"Fahrradabstellplatz","city":"Eidelstedt","address":null,"covered":false,"access":null,"website":null,"phone":null,"source":"OpenStreetMap/node/12985193021","sourceUpdatedAt":null,"verifiedAt":null}},{"type":"Feature","geometry":{"type":"Point","coordinates":[9.8876323,53.5735891]},"properties":{"id":"bikerack:407eb85a-acc9-4320-84f5-10c4bce8b174","kind":"bikerack","longitude":9.8876323,"latitude":53.5735891,"name":"Fahrradabstellplatz","city":"Eidelstedt","address":null,"covered":false,"access":null,"website":null,"phone":null,"source":"OpenStreetMap/node/12017473329","sourceUpdatedAt":null,"verifiedAt":null}},{"type":"Feature","geometry":{"type":"Point","coordinates":[9.8561071,53.572153]},"properties":{"id":"bikerack:4151112f-ce8c-4f76-9544-77080e83f85b","kind":"bikerack","longitude":9.8561071,"latitude":53.572153,"name":"Fahrradabstellplatz","city":"Eidelstedt","address":null,"covered":false,"access":null,"website":null,"phone":null,"source":"OpenStreetMap/node/12752723292","sourceUpdatedAt":null,"verifiedAt":null}},{"type":"Feature","geometry":{"type":"Point","coordinates":[9.8768519,53.5772305]},"properties":{"id":"bikerack:42ba3b77-f7d7-400c-bb20-fa6e3a0af527","kind":"bikerack","longitude":9.8768519,"latitude":53.5772305,"name":"Fahrradabstellplatz","city":"Eidelstedt","address":null,"covered":true,"access":null,"website":null,"phone":null,"source":"OpenStreetMap/way/172010903","sourceUpdatedAt":null,"verifiedAt":null}},{"type":"Feature","geometry":{"type":"Point","coordinates":[9.8875309,53.5738481]},"properties":{"id":"bikerack:434766b4-2a6f-4da6-bcf7-981b9c9867c8","kind":"bikerack","longitude":9.8875309,"latitude":53.5738481,"name":"Fahrradabstellplatz","city":"Eidelstedt","address":null,"covered":false,"access":null,"website":null,"phone":null,"source":"OpenStreetMap/node/12017473326","sourceUpdatedAt":null,"verifiedAt":null}},{"type":"Feature","geometry":{"type":"Point","coordinates":[9.8855791,53.578016]},"properties":{"id":"bikerack:4562a5c2-c1f9-4944-9f9e-eedbff5955f9","kind":"bikerack","longitude":9.8855791,"latitude":53.578016,"name":"Fahrradabstellplatz","city":"Eidelstedt","address":null,"covered":true,"access":null,"website":null,"phone":null,"source":"OpenStreetMap/node/12985187487","sourceUpdatedAt":null,"verifiedAt":null}},{"type":"Feature","geometry":{"type":"Point","coordinates":[9.8785301,53.5692671]},"properties":{"id":"bikerack:4597261b-4e08-4055-8600-97784fc8ee08","kind":"bikerack","longitude":9.8785301,"latitude":53.5692671,"name":"Fahrradabstellplatz","city":"Eidelstedt","address":null,"covered":false,"access":null,"website":null,"phone":null,"source":"OpenStreetMap/way/1219485996","sourceUpdatedAt":null,"verifiedAt":null}},{"type":"Feature","geometry":{"type":"Point","coordinates":[9.8692432,53.5887913]},"properties":{"id":"bikerack:47131e08-ae2d-4046-9685-e747a324d085","kind":"bikerack","longitude":9.8692432,"latitude":53.5887913,"name":"Fahrradabstellplatz","city":"Eidelstedt","address":null,"covered":false,"access":null,"website":null,"phone":null,"source":"OpenStreetMap/node/11984925770","sourceUpdatedAt":null,"verifiedAt":null}},{"type":"Feature","geometry":{"type":"Point","coordinates":[9.8767592,53.5917808]},"properties":{"id":"bikerack:47b77ece-c4d0-4855-8caf-01614f6a2f67","kind":"bikerack","longitude":9.8767592,"latitude":53.5917808,"name":"Fahrradabstellplatz","city":"Eidelstedt","address":null,"covered":false,"access":null,"website":null,"phone":null,"source":"OpenStreetMap/node/11280210722","sourceUpdatedAt":null,"verifiedAt":null}},{"type":"Feature","geometry":{"type":"Point","coordinates":[9.8658716,53.5778759]},"properties":{"id":"bikerack:4a6f75ed-e162-459d-812a-5a8c29ad2480","kind":"bikerack","longitude":9.8658716,"latitude":53.5778759,"name":"Fahrradabstellplatz","city":"Eidelstedt","address":null,"covered":false,"access":null,"website":null,"phone":null,"source":"OpenStreetMap/node/8422524103","sourceUpdatedAt":null,"verifiedAt":null}},{"type":"Feature","geometry":{"type":"Point","coordinates":[9.8857116,53.5774395]},"properties":{"id":"bikerack:4a72f64b-e414-42f6-9b87-f748eca1097d","kind":"bikerack","longitude":9.8857116,"latitude":53.5774395,"name":"Fahrradabstellplatz","city":"Eidelstedt","address":null,"covered":true,"access":null,"website":null,"phone":null,"source":"OpenStreetMap/way/1039157693","sourceUpdatedAt":null,"verifiedAt":null}},{"type":"Feature","geometry":{"type":"Point","coordinates":[9.8848401,53.5768227]},"properties":{"id":"bikerack:4b3a8562-76b4-482d-9f07-427d37f5d71e","kind":"bikerack","longitude":9.8848401,"latitude":53.5768227,"name":"Fahrradabstellplatz","city":"Eidelstedt","address":null,"covered":false,"access":null,"website":null,"phone":null,"source":"OpenStreetMap/node/1821313162","sourceUpdatedAt":null,"verifiedAt":null}},{"type":"Feature","geometry":{"type":"Point","coordinates":[9.8787137,53.5694488]},"properties":{"id":"bikerack:4c53618a-9b6f-4167-b483-a53a40407fdf","kind":"bikerack","longitude":9.8787137,"latitude":53.5694488,"name":"Fahrradabstellplatz","city":"Eidelstedt","address":null,"covered":false,"access":null,"website":null,"phone":null,"source":"OpenStreetMap/way/1387609443","sourceUpdatedAt":null,"verifiedAt":null}},{"type":"Feature","geometry":{"type":"Point","coordinates":[9.8771373,53.5671856]},"properties":{"id":"bikerack:4d342836-f2e1-4e62-ac47-18272a623c45","kind":"bikerack","longitude":9.8771373,"latitude":53.5671856,"name":"Fahrradabstellplatz","city":"Eidelstedt","address":null,"covered":false,"access":null,"website":null,"phone":null,"source":"OpenStreetMap/node/12987219270","sourceUpdatedAt":null,"verifiedAt":null}},{"type":"Feature","geometry":{"type":"Point","coordinates":[9.8777904,53.5768631]},"properties":{"id":"bikerack:4f8134fa-ee6b-4cfe-b427-e79478419731","kind":"bikerack","longitude":9.8777904,"latitude":53.5768631,"name":"Fahrradabstellplatz","city":"Eidelstedt","address":null,"covered":true,"access":null,"website":null,"phone":null,"source":"OpenStreetMap/way/337265869","sourceUpdatedAt":null,"verifiedAt":null}},{"type":"Feature","geometry":{"type":"Point","coordinates":[9.8771949,53.5758954]},"properties":{"id":"bikerack:5033077f-fe3e-4415-b9f9-73672b00d70c","kind":"bikerack","longitude":9.8771949,"latitude":53.5758954,"name":"Fahrradabstellplatz","city":"Eidelstedt","address":null,"covered":true,"access":null,"website":null,"phone":null,"source":"OpenStreetMap/way/171032797","sourceUpdatedAt":null,"verifiedAt":null}},{"type":"Feature","geometry":{"type":"Point","coordinates":[9.8698788,53.5909545]},"properties":{"id":"bikerack:51142940-ca7b-48df-ba56-926ae38e5c79","kind":"bikerack","longitude":9.8698788,"latitude":53.5909545,"name":"Fahrradabstellplatz","city":"Eidelstedt","address":null,"covered":true,"access":null,"website":null,"phone":null,"source":"OpenStreetMap/node/8776870707","sourceUpdatedAt":null,"verifiedAt":null}},{"type":"Feature","geometry":{"type":"Point","coordinates":[9.8778274,53.5687359]},"properties":{"id":"bikerack:52a13ddc-51d0-4932-9d83-b07734ab811d","kind":"bikerack","longitude":9.8778274,"latitude":53.5687359,"name":"Fahrradabstellplatz","city":"Eidelstedt","address":null,"covered":false,"access":null,"website":null,"phone":null,"source":"OpenStreetMap/node/10742286197","sourceUpdatedAt":null,"verifiedAt":null}},{"type":"Feature","geometry":{"type":"Point","coordinates":[9.8739686,53.5909464]},"properties":{"id":"bikerack:52d142c5-1256-47b2-94d6-483f9bb3272d","kind":"bikerack","longitude":9.8739686,"latitude":53.5909464,"name":"Fahrradabstellplatz","city":"Eidelstedt","address":null,"covered":false,"access":null,"website":null,"phone":null,"source":"OpenStreetMap/node/11280210766","sourceUpdatedAt":null,"verifiedAt":null}},{"type":"Feature","geometry":{"type":"Point","coordinates":[9.884877,53.5775944]},"properties":{"id":"bikerack:55549bcb-2330-4cd6-82c1-cc2fc4a01906","kind":"bikerack","longitude":9.884877,"latitude":53.5775944,"name":"Fahrradabstellplatz","city":"Eidelstedt","address":null,"covered":true,"access":null,"website":null,"phone":null,"source":"OpenStreetMap/node/12985187488","sourceUpdatedAt":null,"verifiedAt":null}},{"type":"Feature","geometry":{"type":"Point","coordinates":[9.876916,53.5693018]},"properties":{"id":"bikerack:59da336b-6df5-431e-bd99-b148e5f6a22a","kind":"bikerack","longitude":9.876916,"latitude":53.5693018,"name":"Fahrradabstellplatz","city":"Eidelstedt","address":null,"covered":false,"access":null,"website":null,"phone":null,"source":"OpenStreetMap/node/10742286201","sourceUpdatedAt":null,"verifiedAt":null}},{"type":"Feature","geometry":{"type":"Point","coordinates":[9.8790304,53.5690347]},"properties":{"id":"bikerack:5b898425-6f75-4fe2-b693-39da735ba0a0","kind":"bikerack","longitude":9.8790304,"latitude":53.5690347,"name":"Fahrradabstellplatz","city":"Eidelstedt","address":null,"covered":false,"access":null,"website":null,"phone":null,"source":"OpenStreetMap/way/84074344","sourceUpdatedAt":null,"verifiedAt":null}},{"type":"Feature","geometry":{"type":"Point","coordinates":[9.8842416,53.5733875]},"properties":{"id":"bikerack:5dc104d2-64b3-4943-877f-6a28366418b1","kind":"bikerack","longitude":9.8842416,"latitude":53.5733875,"name":"Fahrradabstellplatz","city":"Eidelstedt","address":null,"covered":true,"access":null,"website":null,"phone":null,"source":"OpenStreetMap/node/2861833576","sourceUpdatedAt":null,"verifiedAt":null}},{"type":"Feature","geometry":{"type":"Point","coordinates":[9.8808061,53.5773419]},"properties":{"id":"bikerack:5de14ef7-e2da-4741-bde2-92028c8430bf","kind":"bikerack","longitude":9.8808061,"latitude":53.5773419,"name":"Fahrradabstellplatz","city":"Eidelstedt","address":null,"covered":true,"access":null,"website":null,"phone":null,"source":"OpenStreetMap/node/10853449988","sourceUpdatedAt":null,"verifiedAt":null}},{"type":"Feature","geometry":{"type":"Point","coordinates":[9.8849296,53.5783149]},"properties":{"id":"bikerack:5f22d386-7714-47fb-a0cc-d8912c6198c5","kind":"bikerack","longitude":9.8849296,"latitude":53.5783149,"name":"Fahrradabstellplatz","city":"Eidelstedt","address":null,"covered":false,"access":null,"website":null,"phone":null,"source":"OpenStreetMap/node/12985179993","sourceUpdatedAt":null,"verifiedAt":null}},{"type":"Feature","geometry":{"type":"Point","coordinates":[9.8563661,53.5829876]},"properties":{"id":"bikerack:6299298b-0d3b-4b47-9a08-005f89e1b70d","kind":"bikerack","longitude":9.8563661,"latitude":53.5829876,"name":"Fahrradabstellplatz","city":"Halstenbek","address":null,"covered":false,"access":null,"website":null,"phone":null,"source":"OpenStreetMap/node/10944820094","sourceUpdatedAt":null,"verifiedAt":null}},{"type":"Feature","geometry":{"type":"Point","coordinates":[9.885138,53.5724068]},"properties":{"id":"bikerack:642368dd-72bf-438f-af64-8061f296980b","kind":"bikerack","longitude":9.885138,"latitude":53.5724068,"name":"Fahrradabstellplatz","city":"Eidelstedt","address":null,"covered":false,"access":null,"website":null,"phone":null,"source":"OpenStreetMap/node/12987268344","sourceUpdatedAt":null,"verifiedAt":null}},{"type":"Feature","geometry":{"type":"Point","coordinates":[9.8617845,53.5698978]},"properties":{"id":"bikerack:66a8e233-90e8-4047-8587-6fdca1f6e80a","kind":"bikerack","longitude":9.8617845,"latitude":53.5698978,"name":"Fahrradabstellplatz","city":"Eidelstedt","address":null,"covered":true,"access":null,"website":null,"phone":null,"source":"OpenStreetMap/node/7549955311","sourceUpdatedAt":null,"verifiedAt":null}},{"type":"Feature","geometry":{"type":"Point","coordinates":[9.8823347,53.5785918]},"properties":{"id":"bikerack:6735d201-d6f7-4232-bf25-d1afb3203007","kind":"bikerack","longitude":9.8823347,"latitude":53.5785918,"name":"Fahrradabstellplatz","city":"Eidelstedt","address":null,"covered":true,"access":null,"website":null,"phone":null,"source":"OpenStreetMap/way/171032780","sourceUpdatedAt":null,"verifiedAt":null}},{"type":"Feature","geometry":{"type":"Point","coordinates":[9.8524184,53.5896244]},"properties":{"id":"bikerack:6f55afd5-5ec7-4c15-9b18-d3936478928c","kind":"bikerack","longitude":9.8524184,"latitude":53.5896244,"name":"Fahrradabstellplatz","city":"Halstenbek","address":null,"covered":false,"access":null,"website":null,"phone":null,"source":"OpenStreetMap/node/11281652182","sourceUpdatedAt":null,"verifiedAt":null}},{"type":"Feature","geometry":{"type":"Point","coordinates":[9.8731207,53.5857339]},"properties":{"id":"bikerack:70f1b0cc-000b-4f49-9f59-e9732c8643bd","kind":"bikerack","longitude":9.8731207,"latitude":53.5857339,"name":"Fahrradabstellplatz","city":"Eidelstedt","address":null,"covered":false,"access":null,"website":null,"phone":null,"source":"OpenStreetMap/node/12081683420","sourceUpdatedAt":null,"verifiedAt":null}},{"type":"Feature","geometry":{"type":"Point","coordinates":[9.8722098,53.5860546]},"properties":{"id":"bikerack:71c068de-bf1e-423f-b24d-49c5a157e2dc","kind":"bikerack","longitude":9.8722098,"latitude":53.5860546,"name":"Fahrradabstellplatz","city":"Eidelstedt","address":null,"covered":false,"access":null,"website":null,"phone":null,"source":"OpenStreetMap/node/10902322057","sourceUpdatedAt":null,"verifiedAt":null}},{"type":"Feature","geometry":{"type":"Point","coordinates":[9.8577337,53.58246]},"properties":{"id":"bikerack:73a4c619-119c-441c-b074-933478d06c43","kind":"bikerack","longitude":9.8577337,"latitude":53.58246,"name":"Fahrradabstellplatz","city":"Halstenbek","address":null,"covered":false,"access":null,"website":null,"phone":null,"source":"OpenStreetMap/node/10212682961","sourceUpdatedAt":null,"verifiedAt":null}},{"type":"Feature","geometry":{"type":"Point","coordinates":[9.8559599,53.5730228]},"properties":{"id":"bikerack:7569a997-ac3e-4e5f-a446-faded776ee72","kind":"bikerack","longitude":9.8559599,"latitude":53.5730228,"name":"Fahrradabstellplatz","city":"Eidelstedt","address":null,"covered":false,"access":null,"website":null,"phone":null,"source":"OpenStreetMap/way/561283690","sourceUpdatedAt":null,"verifiedAt":null}},{"type":"Feature","geometry":{"type":"Point","coordinates":[9.8837374,53.5800148]},"properties":{"id":"bikerack:77d753f3-e7f3-4646-8178-c0effc25e3b4","kind":"bikerack","longitude":9.8837374,"latitude":53.5800148,"name":"Fahrradabstellplatz","city":"Eidelstedt","address":null,"covered":true,"access":null,"website":null,"phone":null,"source":"OpenStreetMap/way/1039281049","sourceUpdatedAt":null,"verifiedAt":null}},{"type":"Feature","geometry":{"type":"Point","coordinates":[9.8608378,53.5716351]},"properties":{"id":"bikerack:782a6195-1d4c-4319-8d98-e2ec6f7dc9cb","kind":"bikerack","longitude":9.8608378,"latitude":53.5716351,"name":"Fahrradabstellplatz","city":"Eidelstedt","address":null,"covered":false,"access":null,"website":null,"phone":null,"source":"OpenStreetMap/node/9229909018","sourceUpdatedAt":null,"verifiedAt":null}},{"type":"Feature","geometry":{"type":"Point","coordinates":[9.8594895,53.5743887]},"properties":{"id":"bikerack:78c5dc72-4862-4563-bc6f-58ce6da4e73a","kind":"bikerack","longitude":9.8594895,"latitude":53.5743887,"name":"Fahrradabstellplatz","city":"Eidelstedt","address":null,"covered":false,"access":null,"website":null,"phone":null,"source":"OpenStreetMap/node/10678757781","sourceUpdatedAt":null,"verifiedAt":null}},{"type":"Feature","geometry":{"type":"Point","coordinates":[9.8815108,53.5750513]},"properties":{"id":"bikerack:7d0738e1-e923-472b-a4ed-626936cc7700","kind":"bikerack","longitude":9.8815108,"latitude":53.5750513,"name":"Fahrradabstellplatz","city":"Eidelstedt","address":null,"covered":true,"access":null,"website":null,"phone":null,"source":"OpenStreetMap/way/171647878","sourceUpdatedAt":null,"verifiedAt":null}},{"type":"Feature","geometry":{"type":"Point","coordinates":[9.8806575,53.5748557]},"properties":{"id":"bikerack:880d5b5b-d816-4a9b-9145-b5e81ba5065a","kind":"bikerack","longitude":9.8806575,"latitude":53.5748557,"name":"Fahrradabstellplatz","city":"Eidelstedt","address":null,"covered":false,"access":null,"website":null,"phone":null,"source":"OpenStreetMap/node/12985201035","sourceUpdatedAt":null,"verifiedAt":null}},{"type":"Feature","geometry":{"type":"Point","coordinates":[9.8842203,53.5756525]},"properties":{"id":"bikerack:8a3c37f2-365f-4652-9362-272fa7924c6e","kind":"bikerack","longitude":9.8842203,"latitude":53.5756525,"name":"Fahrradabstellplatz","city":"Eidelstedt","address":null,"covered":true,"access":null,"website":null,"phone":null,"source":"OpenStreetMap/node/12985192856","sourceUpdatedAt":null,"verifiedAt":null}},{"type":"Feature","geometry":{"type":"Point","coordinates":[9.8813898,53.573191]},"properties":{"id":"bikerack:8a69c796-bcf6-4423-bb6e-cb1358651fab","kind":"bikerack","longitude":9.8813898,"latitude":53.573191,"name":"Fahrradabstellplatz","city":"Eidelstedt","address":null,"covered":true,"access":null,"website":null,"phone":null,"source":"OpenStreetMap/node/12985188027","sourceUpdatedAt":null,"verifiedAt":null}},{"type":"Feature","geometry":{"type":"Point","coordinates":[9.884687,53.5765186]},"properties":{"id":"bikerack:8b47d1e6-1933-4282-9187-20427683d252","kind":"bikerack","longitude":9.884687,"latitude":53.5765186,"name":"Fahrradabstellplatz","city":"Eidelstedt","address":null,"covered":true,"access":null,"website":null,"phone":null,"source":"OpenStreetMap/way/171032781","sourceUpdatedAt":null,"verifiedAt":null}},{"type":"Feature","geometry":{"type":"Point","coordinates":[9.8498205,53.5764043]},"properties":{"id":"bikerack:903a3611-022b-4a84-97d6-e8436c765cf7","kind":"bikerack","longitude":9.8498205,"latitude":53.5764043,"name":"Fahrradabstellplatz","city":"Halstenbek","address":null,"covered":true,"access":null,"website":null,"phone":null,"source":"OpenStreetMap/node/9724677377","sourceUpdatedAt":null,"verifiedAt":null}},{"type":"Feature","geometry":{"type":"Point","coordinates":[9.8626382,53.5714579]},"properties":{"id":"bikerack:91f7ee06-026c-46f9-a64c-c3dc819df3d6","kind":"bikerack","longitude":9.8626382,"latitude":53.5714579,"name":"Fahrradabstellplatz","city":"Eidelstedt","address":null,"covered":false,"access":null,"website":null,"phone":null,"source":"OpenStreetMap/way/48249756","sourceUpdatedAt":null,"verifiedAt":null}},{"type":"Feature","geometry":{"type":"Point","coordinates":[9.8788434,53.5684794]},"properties":{"id":"bikerack:9385a754-6bbd-454c-a926-81aca1d9d8da","kind":"bikerack","longitude":9.8788434,"latitude":53.5684794,"name":"Fahrradabstellplatz","city":"Eidelstedt","address":null,"covered":false,"access":null,"website":null,"phone":null,"source":"OpenStreetMap/node/10742286198","sourceUpdatedAt":null,"verifiedAt":null}},{"type":"Feature","geometry":{"type":"Point","coordinates":[9.8694309,53.5715876]},"properties":{"id":"bikerack:93a270d7-0d42-4807-8ea7-899631523266","kind":"bikerack","longitude":9.8694309,"latitude":53.5715876,"name":"Fahrradabstellplatz","city":"Eidelstedt","address":null,"covered":false,"access":null,"website":null,"phone":null,"source":"OpenStreetMap/node/9380110300","sourceUpdatedAt":null,"verifiedAt":null}},{"type":"Feature","geometry":{"type":"Point","coordinates":[9.8806576,53.5734926]},"properties":{"id":"bikerack:95c539ca-9629-4d4b-8812-18dfc5e811a4","kind":"bikerack","longitude":9.8806576,"latitude":53.5734926,"name":"Fahrradabstellplatz","city":"Eidelstedt","address":null,"covered":false,"access":null,"website":null,"phone":null,"source":"OpenStreetMap/node/12987280606","sourceUpdatedAt":null,"verifiedAt":null}},{"type":"Feature","geometry":{"type":"Point","coordinates":[9.878566,53.5780177]},"properties":{"id":"bikerack:98a64668-a287-45c8-8260-403984aab809","kind":"bikerack","longitude":9.878566,"latitude":53.5780177,"name":"Fahrradabstellplatz","city":"Eidelstedt","address":null,"covered":true,"access":null,"website":null,"phone":null,"source":"OpenStreetMap/way/629916169","sourceUpdatedAt":null,"verifiedAt":null}},{"type":"Feature","geometry":{"type":"Point","coordinates":[9.8691135,53.5887231]},"properties":{"id":"bikerack:9b18b694-44a2-43d2-bfb2-33df34e232c0","kind":"bikerack","longitude":9.8691135,"latitude":53.5887231,"name":"Fahrradabstellplatz","city":"Eidelstedt","address":null,"covered":false,"access":null,"website":null,"phone":null,"source":"OpenStreetMap/node/11984925769","sourceUpdatedAt":null,"verifiedAt":null}},{"type":"Feature","geometry":{"type":"Point","coordinates":[9.8833525,53.5736813]},"properties":{"id":"bikerack:9cbac253-5503-4019-b0ba-36d438dad93d","kind":"bikerack","longitude":9.8833525,"latitude":53.5736813,"name":"Fahrradabstellplatz","city":"Eidelstedt","address":null,"covered":true,"access":null,"website":null,"phone":null,"source":"OpenStreetMap/way/337265864","sourceUpdatedAt":null,"verifiedAt":null}},{"type":"Feature","geometry":{"type":"Point","coordinates":[9.8632359,53.5706629]},"properties":{"id":"bikerack:9f16b0f2-6bda-40cb-8043-7fce16d0e64d","kind":"bikerack","longitude":9.8632359,"latitude":53.5706629,"name":"Fahrradabstellplatz","city":"Eidelstedt","address":null,"covered":false,"access":null,"website":null,"phone":null,"source":"OpenStreetMap/node/6008040140","sourceUpdatedAt":null,"verifiedAt":null}},{"type":"Feature","geometry":{"type":"Point","coordinates":[9.8837484,53.5764333]},"properties":{"id":"bikerack:a2208b1d-793f-4af7-814f-264ad82ae72b","kind":"bikerack","longitude":9.8837484,"latitude":53.5764333,"name":"Fahrradabstellplatz","city":"Eidelstedt","address":null,"covered":true,"access":null,"website":null,"phone":null,"source":"OpenStreetMap/node/10853449978","sourceUpdatedAt":null,"verifiedAt":null}},{"type":"Feature","geometry":{"type":"Point","coordinates":[9.873098,53.5922744]},"properties":{"id":"bikerack:a386084f-fef7-46b0-8450-d9f1313c3b05","kind":"bikerack","longitude":9.873098,"latitude":53.5922744,"name":"Fahrradabstellplatz","city":"Eidelstedt","address":null,"covered":false,"access":null,"website":null,"phone":null,"source":"OpenStreetMap/way/1061183384","sourceUpdatedAt":null,"verifiedAt":null}},{"type":"Feature","geometry":{"type":"Point","coordinates":[9.8840792,53.5793023]},"properties":{"id":"bikerack:a53d449d-f666-473e-9064-5fefa47f16fb","kind":"bikerack","longitude":9.8840792,"latitude":53.5793023,"name":"Fahrradabstellplatz","city":"Eidelstedt","address":null,"covered":true,"access":null,"website":null,"phone":null,"source":"OpenStreetMap/way/545730083","sourceUpdatedAt":null,"verifiedAt":null}},{"type":"Feature","geometry":{"type":"Point","coordinates":[9.8719553,53.5736133]},"properties":{"id":"bikerack:a6bb57fd-a69a-4570-b2e4-6a10bbaad5e3","kind":"bikerack","longitude":9.8719553,"latitude":53.5736133,"name":"Fahrradabstellplatz","city":"Eidelstedt","address":null,"covered":false,"access":null,"website":null,"phone":null,"source":"OpenStreetMap/node/13714004152","sourceUpdatedAt":null,"verifiedAt":null}},{"type":"Feature","geometry":{"type":"Point","coordinates":[9.8876251,53.577038]},"properties":{"id":"bikerack:aa4c61dc-c316-4961-92bb-4a548139cfab","kind":"bikerack","longitude":9.8876251,"latitude":53.577038,"name":"Fahrradabstellplatz","city":"Eidelstedt","address":null,"covered":false,"access":null,"website":null,"phone":null,"source":"OpenStreetMap/way/171203260","sourceUpdatedAt":null,"verifiedAt":null}},{"type":"Feature","geometry":{"type":"Point","coordinates":[9.8876621,53.5769811]},"properties":{"id":"bikerack:ac621066-d3db-4bb4-a292-bb700384fe73","kind":"bikerack","longitude":9.8876621,"latitude":53.5769811,"name":"Fahrradabstellplatz","city":"Eidelstedt","address":null,"covered":true,"access":null,"website":null,"phone":null,"source":"OpenStreetMap/way/171203259","sourceUpdatedAt":null,"verifiedAt":null}},{"type":"Feature","geometry":{"type":"Point","coordinates":[9.8624558,53.5699643]},"properties":{"id":"bikerack:b1041001-5211-44e5-9b56-f57fb2c5fae0","kind":"bikerack","longitude":9.8624558,"latitude":53.5699643,"name":"Fahrradabstellplatz","city":"Eidelstedt","address":null,"covered":false,"access":null,"website":null,"phone":null,"source":"OpenStreetMap/node/10878033464","sourceUpdatedAt":null,"verifiedAt":null}},{"type":"Feature","geometry":{"type":"Point","coordinates":[9.8454,53.5709624]},"properties":{"id":"bikerack:b8b626cf-6289-4ca3-a90c-472172a2c99c","kind":"bikerack","longitude":9.8454,"latitude":53.5709624,"name":"Fahrradabstellplatz","city":"Halstenbek","address":null,"covered":false,"access":null,"website":null,"phone":null,"source":"OpenStreetMap/node/12056167859","sourceUpdatedAt":null,"verifiedAt":null}},{"type":"Feature","geometry":{"type":"Point","coordinates":[9.8707786,53.5882633]},"properties":{"id":"bikerack:c05bab5a-0dec-472f-a75e-ab1d9c7938fe","kind":"bikerack","longitude":9.8707786,"latitude":53.5882633,"name":"Fahrradabstellplatz","city":"Eidelstedt","address":null,"covered":false,"access":null,"website":null,"phone":null,"source":"OpenStreetMap/node/11413501197","sourceUpdatedAt":null,"verifiedAt":null}},{"type":"Feature","geometry":{"type":"Point","coordinates":[9.8770992,53.5745708]},"properties":{"id":"bikerack:c06d4a23-7591-43f2-8d39-9cea9e581578","kind":"bikerack","longitude":9.8770992,"latitude":53.5745708,"name":"Fahrradabstellplatz","city":"Eidelstedt","address":null,"covered":false,"access":null,"website":null,"phone":null,"source":"OpenStreetMap/node/6005728730","sourceUpdatedAt":null,"verifiedAt":null}},{"type":"Feature","geometry":{"type":"Point","coordinates":[9.8735421,53.5912335]},"properties":{"id":"bikerack:c1f5cb4d-2dd9-4f37-8965-b1f022544270","kind":"bikerack","longitude":9.8735421,"latitude":53.5912335,"name":"Fahrradabstellplatz","city":"Eidelstedt","address":null,"covered":false,"access":null,"website":null,"phone":null,"source":"OpenStreetMap/way/1065199315","sourceUpdatedAt":null,"verifiedAt":null}},{"type":"Feature","geometry":{"type":"Point","coordinates":[9.8601425,53.5706867]},"properties":{"id":"bikerack:c615dd00-96f9-47fa-920d-695c9d722a30","kind":"bikerack","longitude":9.8601425,"latitude":53.5706867,"name":"Fahrradabstellplatz","city":"Eidelstedt","address":null,"covered":false,"access":null,"website":null,"phone":null,"source":"OpenStreetMap/node/6008040141","sourceUpdatedAt":null,"verifiedAt":null}},{"type":"Feature","geometry":{"type":"Point","coordinates":[9.8737707,53.5911094]},"properties":{"id":"bikerack:c6a529c2-e762-4d03-bfce-8a7cb23a97dc","kind":"bikerack","longitude":9.8737707,"latitude":53.5911094,"name":"Fahrradabstellplatz","city":"Eidelstedt","address":null,"covered":false,"access":null,"website":null,"phone":null,"source":"OpenStreetMap/node/297782171","sourceUpdatedAt":null,"verifiedAt":null}},{"type":"Feature","geometry":{"type":"Point","coordinates":[9.8864849,53.5757208]},"properties":{"id":"bikerack:c74df247-d3ec-4c55-8c9e-217fa39f3efb","kind":"bikerack","longitude":9.8864849,"latitude":53.5757208,"name":"Fahrradabstellplatz","city":"Eidelstedt","address":null,"covered":false,"access":null,"website":null,"phone":null,"source":"OpenStreetMap/node/1821312809","sourceUpdatedAt":null,"verifiedAt":null}},{"type":"Feature","geometry":{"type":"Point","coordinates":[9.8858796,53.5680475]},"properties":{"id":"bikerack:cc1f7ed6-897d-4fc4-b619-5841efea27de","kind":"bikerack","longitude":9.8858796,"latitude":53.5680475,"name":"Fahrradabstellplatz","city":"Eidelstedt","address":null,"covered":false,"access":null,"website":null,"phone":null,"source":"OpenStreetMap/way/739587747","sourceUpdatedAt":null,"verifiedAt":null}},{"type":"Feature","geometry":{"type":"Point","coordinates":[9.8846067,53.5768089]},"properties":{"id":"bikerack:cdc9938b-b4c8-43ae-8827-4015e86171b6","kind":"bikerack","longitude":9.8846067,"latitude":53.5768089,"name":"Fahrradabstellplatz","city":"Eidelstedt","address":null,"covered":false,"access":null,"website":null,"phone":null,"source":"OpenStreetMap/node/12985191638","sourceUpdatedAt":null,"verifiedAt":null}},{"type":"Feature","geometry":{"type":"Point","coordinates":[9.8823038,53.5783854]},"properties":{"id":"bikerack:cf265667-340a-45fa-abf7-6963bf44a1d9","kind":"bikerack","longitude":9.8823038,"latitude":53.5783854,"name":"Fahrradabstellplatz","city":"Eidelstedt","address":null,"covered":true,"access":null,"website":null,"phone":null,"source":"OpenStreetMap/way/171647879","sourceUpdatedAt":null,"verifiedAt":null}},{"type":"Feature","geometry":{"type":"Point","coordinates":[9.8595052,53.5745376]},"properties":{"id":"bikerack:cf57c1ca-26b4-455f-90f8-109dca1e1a69","kind":"bikerack","longitude":9.8595052,"latitude":53.5745376,"name":"Fahrradabstellplatz","city":"Eidelstedt","address":null,"covered":false,"access":null,"website":null,"phone":null,"source":"OpenStreetMap/node/10678757780","sourceUpdatedAt":null,"verifiedAt":null}},{"type":"Feature","geometry":{"type":"Point","coordinates":[9.8622326,53.5700583]},"properties":{"id":"bikerack:d0cb5302-bc18-451a-b367-0a81d0071d66","kind":"bikerack","longitude":9.8622326,"latitude":53.5700583,"name":"Fahrradabstellplatz","city":"Eidelstedt","address":null,"covered":false,"access":null,"website":null,"phone":null,"source":"OpenStreetMap/node/1177775591","sourceUpdatedAt":null,"verifiedAt":null}},{"type":"Feature","geometry":{"type":"Point","coordinates":[9.8719006,53.5922182]},"properties":{"id":"bikerack:d15057a9-0062-44c3-a43a-ec25ab306060","kind":"bikerack","longitude":9.8719006,"latitude":53.5922182,"name":"Fahrradabstellplatz","city":"Eidelstedt","address":null,"covered":false,"access":null,"website":null,"phone":null,"source":"OpenStreetMap/node/13006546434","sourceUpdatedAt":null,"verifiedAt":null}},{"type":"Feature","geometry":{"type":"Point","coordinates":[9.8792673,53.5802441]},"properties":{"id":"bikerack:d2031db9-28cb-4d0f-bd52-bdd4d2653723","kind":"bikerack","longitude":9.8792673,"latitude":53.5802441,"name":"Fahrradabstellplatz","city":"Eidelstedt","address":null,"covered":true,"access":null,"website":null,"phone":null,"source":"OpenStreetMap/way/172010897","sourceUpdatedAt":null,"verifiedAt":null}},{"type":"Feature","geometry":{"type":"Point","coordinates":[9.8825787,53.5781743]},"properties":{"id":"bikerack:d52e2dca-15d4-4383-8a8d-72a012bd24d4","kind":"bikerack","longitude":9.8825787,"latitude":53.5781743,"name":"Fahrradabstellplatz","city":"Eidelstedt","address":null,"covered":true,"access":null,"website":null,"phone":null,"source":"OpenStreetMap/way/171203254","sourceUpdatedAt":null,"verifiedAt":null}},{"type":"Feature","geometry":{"type":"Point","coordinates":[9.8773668,53.5766272]},"properties":{"id":"bikerack:d6ceea97-3809-4991-b0db-c72449553d0c","kind":"bikerack","longitude":9.8773668,"latitude":53.5766272,"name":"Fahrradabstellplatz","city":"Eidelstedt","address":null,"covered":true,"access":null,"website":null,"phone":null,"source":"OpenStreetMap/way/171427778","sourceUpdatedAt":null,"verifiedAt":null}},{"type":"Feature","geometry":{"type":"Point","coordinates":[9.8806932,53.5734445]},"properties":{"id":"bikerack:d80b295d-208b-411d-ae73-27d25f22cefc","kind":"bikerack","longitude":9.8806932,"latitude":53.5734445,"name":"Fahrradabstellplatz","city":"Eidelstedt","address":null,"covered":false,"access":null,"website":null,"phone":null,"source":"OpenStreetMap/node/12987268346","sourceUpdatedAt":null,"verifiedAt":null}},{"type":"Feature","geometry":{"type":"Point","coordinates":[9.887459,53.5739805]},"properties":{"id":"bikerack:db528d95-efdb-4c35-a84f-c4e5aaf0f8be","kind":"bikerack","longitude":9.887459,"latitude":53.5739805,"name":"Fahrradabstellplatz","city":"Eidelstedt","address":null,"covered":false,"access":null,"website":null,"phone":null,"source":"OpenStreetMap/node/12017473332","sourceUpdatedAt":null,"verifiedAt":null}},{"type":"Feature","geometry":{"type":"Point","coordinates":[9.8826545,53.5731273]},"properties":{"id":"bikerack:dea20695-7e7b-494f-85eb-c21b69b6c74a","kind":"bikerack","longitude":9.8826545,"latitude":53.5731273,"name":"Fahrradabstellplatz","city":"Eidelstedt","address":null,"covered":true,"access":null,"website":null,"phone":null,"source":"OpenStreetMap/node/12985195567","sourceUpdatedAt":null,"verifiedAt":null}},{"type":"Feature","geometry":{"type":"Point","coordinates":[9.8515698,53.5876477]},"properties":{"id":"bikerack:ded3624c-c682-4147-a1b6-137ba099dc3c","kind":"bikerack","longitude":9.8515698,"latitude":53.5876477,"name":"Fahrradabstellplatz","city":"Halstenbek","address":null,"covered":false,"access":null,"website":null,"phone":null,"source":"OpenStreetMap/node/11281652191","sourceUpdatedAt":null,"verifiedAt":null}},{"type":"Feature","geometry":{"type":"Point","coordinates":[9.8857364,53.5778369]},"properties":{"id":"bikerack:e223da45-adfb-4955-b13b-3c44562a2d73","kind":"bikerack","longitude":9.8857364,"latitude":53.5778369,"name":"Fahrradabstellplatz","city":"Eidelstedt","address":null,"covered":true,"access":null,"website":null,"phone":null,"source":"OpenStreetMap/node/12985183735","sourceUpdatedAt":null,"verifiedAt":null}},{"type":"Feature","geometry":{"type":"Point","coordinates":[9.8601696,53.5697996]},"properties":{"id":"bikerack:e46d8f4b-11d0-4611-9583-615a90b13f59","kind":"bikerack","longitude":9.8601696,"latitude":53.5697996,"name":"Fahrradabstellplatz","city":"Eidelstedt","address":null,"covered":false,"access":null,"website":null,"phone":null,"source":"OpenStreetMap/way/97122373","sourceUpdatedAt":null,"verifiedAt":null}},{"type":"Feature","geometry":{"type":"Point","coordinates":[9.8819192,53.5770582]},"properties":{"id":"bikerack:e6fb5f65-d075-46cf-b5be-5841b65207fa","kind":"bikerack","longitude":9.8819192,"latitude":53.5770582,"name":"Fahrradabstellplatz","city":"Eidelstedt","address":null,"covered":true,"access":null,"website":null,"phone":null,"source":"OpenStreetMap/way/171203258","sourceUpdatedAt":null,"verifiedAt":null}},{"type":"Feature","geometry":{"type":"Point","coordinates":[9.8534998,53.584108]},"properties":{"id":"bikerack:f18e0471-5c68-46e0-bb51-3a0da6aa4ea9","kind":"bikerack","longitude":9.8534998,"latitude":53.584108,"name":"Fahrradabstellplatz","city":"Halstenbek","address":null,"covered":false,"access":null,"website":null,"phone":null,"source":"OpenStreetMap/node/11038050135","sourceUpdatedAt":null,"verifiedAt":null}},{"type":"Feature","geometry":{"type":"Point","coordinates":[9.8783965,53.5776477]},"properties":{"id":"bikerack:f4bb72db-f09d-4eee-84e5-60703047b68a","kind":"bikerack","longitude":9.8783965,"latitude":53.5776477,"name":"Fahrradabstellplatz","city":"Eidelstedt","address":null,"covered":true,"access":null,"website":null,"phone":null,"source":"OpenStreetMap/way/629916170","sourceUpdatedAt":null,"verifiedAt":null}},{"type":"Feature","geometry":{"type":"Point","coordinates":[9.8875986,53.5737248]},"properties":{"id":"bikerack:f5e9a004-370c-4f85-980f-23a4bc149628","kind":"bikerack","longitude":9.8875986,"latitude":53.5737248,"name":"Fahrradabstellplatz","city":"Eidelstedt","address":null,"covered":false,"access":null,"website":null,"phone":null,"source":"OpenStreetMap/node/12017473327","sourceUpdatedAt":null,"verifiedAt":null}},{"type":"Feature","geometry":{"type":"Point","coordinates":[9.887393,53.5741031]},"properties":{"id":"bikerack:f920484b-b090-4a7e-817b-2210e1071ac9","kind":"bikerack","longitude":9.887393,"latitude":53.5741031,"name":"Fahrradabstellplatz","city":"Eidelstedt","address":null,"covered":false,"access":null,"website":null,"phone":null,"source":"OpenStreetMap/node/12017473333","sourceUpdatedAt":null,"verifiedAt":null}},{"type":"Feature","geometry":{"type":"Point","coordinates":[9.8473974,53.5730762]},"properties":{"id":"bikerack:fa291171-f090-4d9f-8a51-e6d87cab2e36","kind":"bikerack","longitude":9.8473974,"latitude":53.5730762,"name":"Fahrradabstellplatz","city":"Halstenbek","address":null,"covered":false,"access":null,"website":null,"phone":null,"source":"OpenStreetMap/node/12496221973","sourceUpdatedAt":null,"verifiedAt":null}},{"type":"Feature","geometry":{"type":"Point","coordinates":[9.8824996,53.5779133]},"properties":{"id":"bikerack:fa3dcc92-de35-4879-a931-c2178f62bdef","kind":"bikerack","longitude":9.8824996,"latitude":53.5779133,"name":"Fahrradabstellplatz","city":"Eidelstedt","address":null,"covered":true,"access":null,"website":null,"phone":null,"source":"OpenStreetMap/way/884219697","sourceUpdatedAt":null,"verifiedAt":null}},{"type":"Feature","geometry":{"type":"Point","coordinates":[9.8818692,53.5911877]},"properties":{"id":"bikerack:fe2d810b-f6a9-4755-b838-a9f351817b46","kind":"bikerack","longitude":9.8818692,"latitude":53.5911877,"name":"Fahrradabstellplatz","city":"Eidelstedt","address":null,"covered":false,"access":null,"website":null,"phone":null,"source":"OpenStreetMap/node/12099340911","sourceUpdatedAt":null,"verifiedAt":null}},{"type":"Feature","geometry":{"type":"Point","coordinates":[9.8772309,53.5672108]},"properties":{"id":"bikerack:ff5f338d-d96b-46f5-ba03-31ff83a09c60","kind":"bikerack","longitude":9.8772309,"latitude":53.5672108,"name":"Fahrradabstellplatz","city":"Eidelstedt","address":null,"covered":false,"access":null,"website":null,"phone":null,"source":"OpenStreetMap/node/12987173565","sourceUpdatedAt":null,"verifiedAt":null}},{"type":"Feature","geometry":{"type":"Point","coordinates":[9.8561115,53.5838432]},"properties":{"id":"bikerack:ffdfed26-a5f0-421d-a288-c7eb1383022e","kind":"bikerack","longitude":9.8561115,"latitude":53.5838432,"name":"Fahrradabstellplatz","city":"Halstenbek","address":null,"covered":false,"access":null,"website":null,"phone":null,"source":"OpenStreetMap/way/561283692","sourceUpdatedAt":null,"verifiedAt":null}},{"type":"Feature","geometry":{"type":"Point","coordinates":[9.8789514,53.5749658]},"properties":{"id":"repair:093c0050-ebce-47fe-a015-84c7386056f0","kind":"repair","longitude":9.8789514,"latitude":53.5749658,"name":"Fahrradreparaturstation","city":"Eidelstedt","address":null,"covered":false,"access":null,"website":null,"phone":null,"source":"OpenStreetMap/node/10760125776","sourceUpdatedAt":null,"verifiedAt":null}},{"type":"Feature","geometry":{"type":"Point","coordinates":[9.8829646,53.5785918]},"properties":{"id":"repair:4e7ad745-f2a5-4acf-9975-f6a3ff95587b","kind":"repair","longitude":9.8829646,"latitude":53.5785918,"name":"Fahrradreparaturstation","city":"Eidelstedt","address":null,"covered":false,"access":null,"website":null,"phone":null,"source":"OpenStreetMap/node/10760125775","sourceUpdatedAt":null,"verifiedAt":null}},{"type":"Feature","geometry":{"type":"Point","coordinates":[9.8848052,53.5764158]},"properties":{"id":"repair:d602a811-ae27-471b-b439-6547f39f1643","kind":"repair","longitude":9.8848052,"latitude":53.5764158,"name":"Fahrradreparaturstation","city":"Eidelstedt","address":null,"covered":false,"access":null,"website":null,"phone":null,"source":"OpenStreetMap/node/12844810292","sourceUpdatedAt":null,"verifiedAt":null}},{"type":"Feature","geometry":{"type":"Point","coordinates":[9.8802988,53.56917]},"properties":{"id":"service:1934564f-5329-4d2e-8a23-18a3a57eca7d","kind":"service","longitude":9.8802988,"latitude":53.56917,"name":"Schuppe & Speiche","city":"Eidelstedt","address":null,"covered":null,"access":null,"website":null,"phone":null,"source":"OpenStreetMap/node/9815469467","sourceUpdatedAt":null,"verifiedAt":null}},{"type":"Feature","geometry":{"type":"Point","coordinates":[9.8482,53.5730509]},"properties":{"id":"service:3e5efb73-61e2-4d33-9787-6f1ba5f6480b","kind":"service","longitude":9.8482,"latitude":53.5730509,"name":"Zweiradshop Lieb","city":"Halstenbek","address":null,"covered":null,"access":null,"website":null,"phone":null,"source":"OpenStreetMap/node/698328382","sourceUpdatedAt":null,"verifiedAt":null}},{"type":"Feature","geometry":{"type":"Point","coordinates":[9.8448549,53.5724876]},"properties":{"id":"service:7fd65d14-6022-437c-bfbc-5019754fe7b4","kind":"service","longitude":9.8448549,"latitude":53.5724876,"name":"Langendorf Cycles Osdorf","city":"Hamburg","address":null,"covered":null,"access":null,"website":null,"phone":null,"source":"OpenStreetMap/node/10872882989","sourceUpdatedAt":null,"verifiedAt":null}}]}