{"type":"FeatureCollection","features":[{"type":"Feature","geometry":{"type":"Point","coordinates":[9.8858171,53.4420147]},"properties":{"id":"bikerack:05eaa926-3162-47f8-8b98-41c25777fcde","kind":"bikerack","longitude":9.8858171,"latitude":53.4420147,"name":"Fahrradabstellplatz","city":"Neu Wulmstorf","address":null,"covered":true,"access":null,"website":null,"phone":null,"source":"OpenStreetMap/node/9706602535","sourceUpdatedAt":null,"verifiedAt":null}},{"type":"Feature","geometry":{"type":"Point","coordinates":[9.8487059,53.4522484]},"properties":{"id":"bikerack:c04985f4-1306-4d23-9d7f-382103746dbe","kind":"bikerack","longitude":9.8487059,"latitude":53.4522484,"name":"Fahrradabstellplatz","city":"Neu Wulmstorf","address":null,"covered":false,"access":null,"website":null,"phone":null,"source":"OpenStreetMap/way/927301518","sourceUpdatedAt":null,"verifiedAt":null}},{"type":"Feature","geometry":{"type":"Point","coordinates":[9.8701669,53.4488963]},"properties":{"id":"water:814aff59-bc03-422d-adbe-7abc8395e8fe","kind":"water","longitude":9.8701669,"latitude":53.4488963,"name":"Trinkwasser","city":"Neu Wulmstorf","address":null,"covered":null,"access":null,"website":null,"phone":null,"source":"OpenStreetMap/node/10036239042","sourceUpdatedAt":null,"verifiedAt":null}},{"type":"Feature","geometry":{"type":"Point","coordinates":[9.8858161,53.44208]},"properties":{"id":"water:fc56ca8c-d556-4682-a81b-3b418f6bfdac","kind":"water","longitude":9.8858161,"latitude":53.44208,"name":"Trinkwasser","city":"Neu Wulmstorf","address":null,"covered":null,"access":null,"website":null,"phone":null,"source":"OpenStreetMap/node/4418144289","sourceUpdatedAt":null,"verifiedAt":null}}]}