{"type":"FeatureCollection","features":[{"type":"Feature","geometry":{"type":"Point","coordinates":[9.8693726,51.6934089]},"properties":{"id":"bikerack:9c05126b-d18c-492d-bd95-fa0fcb84606e","kind":"bikerack","longitude":9.8693726,"latitude":51.6934089,"name":"Fahrradabstellplatz","city":"Moringen","address":null,"covered":false,"access":null,"website":null,"phone":null,"source":"OpenStreetMap/node/13440056338","sourceUpdatedAt":null,"verifiedAt":null}},{"type":"Feature","geometry":{"type":"Point","coordinates":[9.8702469,51.6985152]},"properties":{"id":"bikerack:b402a3e8-a118-456c-ac1a-bea78ad4f0e8","kind":"bikerack","longitude":9.8702469,"latitude":51.6985152,"name":"Fahrradabstellplatz","city":"Moringen","address":null,"covered":false,"access":null,"website":null,"phone":null,"source":"OpenStreetMap/node/9386220863","sourceUpdatedAt":null,"verifiedAt":null}}]}