{"type":"FeatureCollection","features":[{"type":"Feature","geometry":{"type":"Point","coordinates":[9.8640816,50.9470007]},"properties":{"id":"bikerack:8a4895c6-9e98-4268-8724-06bf717a1900","kind":"bikerack","longitude":9.8640816,"latitude":50.9470007,"name":"Fahrradabstellplatz","city":"Ronshausen","address":null,"covered":false,"access":null,"website":null,"phone":null,"source":"OpenStreetMap/node/13429233617","sourceUpdatedAt":null,"verifiedAt":null}},{"type":"Feature","geometry":{"type":"Point","coordinates":[9.8585723,50.9478998]},"properties":{"id":"bikerack:aaf98da6-43bb-4220-90e3-79e9d17f3aac","kind":"bikerack","longitude":9.8585723,"latitude":50.9478998,"name":"Fahrradabstellplatz","city":"Ronshausen","address":null,"covered":false,"access":null,"website":null,"phone":null,"source":"OpenStreetMap/node/13006717331","sourceUpdatedAt":null,"verifiedAt":null}},{"type":"Feature","geometry":{"type":"Point","coordinates":[9.8726883,50.9472292]},"properties":{"id":"bikerack:ad10cb8b-bd76-456e-9f29-d3fe8a750e84","kind":"bikerack","longitude":9.8726883,"latitude":50.9472292,"name":"Fahrradabstellplatz","city":"Ronshausen","address":null,"covered":false,"access":null,"website":null,"phone":null,"source":"OpenStreetMap/node/13006882931","sourceUpdatedAt":null,"verifiedAt":null}},{"type":"Feature","geometry":{"type":"Point","coordinates":[9.8776947,50.9444728]},"properties":{"id":"bikerack:b676c4ba-8386-4a4b-996a-5b30c9bfbc3a","kind":"bikerack","longitude":9.8776947,"latitude":50.9444728,"name":"Fahrradabstellplatz","city":"Ronshausen","address":null,"covered":false,"access":null,"website":null,"phone":null,"source":"OpenStreetMap/way/1011087307","sourceUpdatedAt":null,"verifiedAt":null}},{"type":"Feature","geometry":{"type":"Point","coordinates":[9.8557775,50.9486387]},"properties":{"id":"bikerack:c6cf8f3d-7e16-4529-831f-56ae3f1c6b58","kind":"bikerack","longitude":9.8557775,"latitude":50.9486387,"name":"Fahrradabstellplatz","city":"Ronshausen","address":null,"covered":false,"access":null,"website":null,"phone":null,"source":"OpenStreetMap/node/13427485707","sourceUpdatedAt":null,"verifiedAt":null}},{"type":"Feature","geometry":{"type":"Point","coordinates":[9.8592328,50.9479287]},"properties":{"id":"bikerack:d16b56bb-a3cd-40b9-a2df-3e3344173684","kind":"bikerack","longitude":9.8592328,"latitude":50.9479287,"name":"Fahrradabstellplatz","city":"Ronshausen","address":null,"covered":false,"access":null,"website":null,"phone":null,"source":"OpenStreetMap/node/13006717342","sourceUpdatedAt":null,"verifiedAt":null}}]}