{"type":"FeatureCollection","features":[{"type":"Feature","geometry":{"type":"Point","coordinates":[9.8517731,45.216727]},"properties":{"id":"water:006cac0d-7947-4600-9071-543c0401b2f3","kind":"water","longitude":9.8517731,"latitude":45.216727,"name":"Fontanella","city":"Grumello Cremonese","address":null,"covered":null,"access":null,"website":null,"phone":null,"source":"OpenStreetMap/node/481302409","sourceUpdatedAt":null,"verifiedAt":null}},{"type":"Feature","geometry":{"type":"Point","coordinates":[9.8740451,45.2237369]},"properties":{"id":"water:cae5c536-34a8-442c-b575-e2a1004821e4","kind":"water","longitude":9.8740451,"latitude":45.2237369,"name":"Fontanella","city":"Annicco","address":null,"covered":null,"access":null,"website":null,"phone":null,"source":"OpenStreetMap/node/13011217801","sourceUpdatedAt":null,"verifiedAt":null}}]}