{"type":"FeatureCollection","features":[{"type":"Feature","geometry":{"type":"Point","coordinates":[21.5155005,48.3569472]},"properties":{"id":"water:8ee79e7c-9601-4287-8faa-d9a5a1ff9863","kind":"water","longitude":21.5155005,"latitude":48.3569472,"name":"Ivókút","city":null,"address":null,"covered":null,"access":null,"website":null,"phone":null,"source":"OpenStreetMap","sourceUpdatedAt":null,"verifiedAt":null}},{"type":"Feature","geometry":{"type":"Point","coordinates":[21.5135687,48.360963]},"properties":{"id":"water:de9ceb52-8a6f-4932-80c4-c9ad9c6cce3b","kind":"water","longitude":21.5135687,"latitude":48.360963,"name":"Ivókút","city":null,"address":null,"covered":null,"access":null,"website":null,"phone":null,"source":"OpenStreetMap","sourceUpdatedAt":null,"verifiedAt":null}},{"type":"Feature","geometry":{"type":"Point","coordinates":[21.518667,48.3569888]},"properties":{"id":"water:ec23e1c6-f623-4a1d-93f5-f5cd7324b77d","kind":"water","longitude":21.518667,"latitude":48.3569888,"name":"Ivókút","city":null,"address":null,"covered":null,"access":null,"website":null,"phone":null,"source":"OpenStreetMap","sourceUpdatedAt":null,"verifiedAt":null}}]}