{"type":"FeatureCollection","features":[{"type":"Feature","geometry":{"type":"Point","coordinates":[9.3822581,49.2234138]},"properties":{"id":"bikerack:5248e7bd-4f25-4faf-b317-a48108044a18","kind":"bikerack","longitude":9.3822581,"latitude":49.2234138,"name":"Fahrradabstellplatz","city":"Neuenstadt am Kocher","address":null,"covered":false,"access":null,"website":null,"phone":null,"source":"OpenStreetMap/node/8838394070","sourceUpdatedAt":null,"verifiedAt":null}},{"type":"Feature","geometry":{"type":"Point","coordinates":[9.3615666,49.2391173]},"properties":{"id":"bikerack:5cc16eef-528d-41c3-845c-3f39e6917126","kind":"bikerack","longitude":9.3615666,"latitude":49.2391173,"name":"Fahrradabstellplatz","city":"Neuenstadt am Kocher","address":null,"covered":false,"access":null,"website":null,"phone":null,"source":"OpenStreetMap/node/12195593338","sourceUpdatedAt":null,"verifiedAt":null}}]}