{"type":"FeatureCollection","features":[{"type":"Feature","geometry":{"type":"Point","coordinates":[9.3716274,49.1350041]},"properties":{"id":"bikerack:29401643-0462-48d2-8ae6-88ebe566eb05","kind":"bikerack","longitude":9.3716274,"latitude":49.1350041,"name":"Fahrradabstellplatz","city":"Lehrensteinsfeld","address":null,"covered":false,"access":null,"website":null,"phone":null,"source":"OpenStreetMap/node/2331567234","sourceUpdatedAt":null,"verifiedAt":null}},{"type":"Feature","geometry":{"type":"Point","coordinates":[9.362988,49.126967]},"properties":{"id":"bikerack:537b1142-6ea8-4ed2-ab2b-a3feec728377","kind":"bikerack","longitude":9.362988,"latitude":49.126967,"name":"Fahrradabstellplatz","city":"Lehrensteinsfeld","address":null,"covered":false,"access":null,"website":null,"phone":null,"source":"OpenStreetMap/way/430804352","sourceUpdatedAt":null,"verifiedAt":null}},{"type":"Feature","geometry":{"type":"Point","coordinates":[9.4031734,49.1437555]},"properties":{"id":"bikerack:55a4ea78-0344-41c7-94ca-70c4ed7ace52","kind":"bikerack","longitude":9.4031734,"latitude":49.1437555,"name":"Fahrradabstellplatz","city":"Bretzfeld","address":null,"covered":true,"access":null,"website":null,"phone":null,"source":"OpenStreetMap/way/1410929135","sourceUpdatedAt":null,"verifiedAt":null}},{"type":"Feature","geometry":{"type":"Point","coordinates":[9.3800777,49.138102]},"properties":{"id":"bikerack:6fa461ad-8947-4d9f-981d-674dc363e5d0","kind":"bikerack","longitude":9.3800777,"latitude":49.138102,"name":"Fahrradabstellplatz","city":"Lowenstein","address":null,"covered":true,"access":null,"website":null,"phone":null,"source":"OpenStreetMap/way/1394180591","sourceUpdatedAt":null,"verifiedAt":null}},{"type":"Feature","geometry":{"type":"Point","coordinates":[9.403462,49.1396889]},"properties":{"id":"bikerack:a5a07b31-37fe-4e5e-b48e-a577b125271f","kind":"bikerack","longitude":9.403462,"latitude":49.1396889,"name":"Fahrradabstellplatz","city":"Lowenstein","address":null,"covered":false,"access":null,"website":null,"phone":null,"source":"OpenStreetMap/node/6306255745","sourceUpdatedAt":null,"verifiedAt":null}},{"type":"Feature","geometry":{"type":"Point","coordinates":[9.3791178,49.1379235]},"properties":{"id":"bikerack:ab6d4866-1aa6-4bbd-a523-818170cc49f3","kind":"bikerack","longitude":9.3791178,"latitude":49.1379235,"name":"Fahrradabstellplatz","city":"Lehrensteinsfeld","address":null,"covered":true,"access":null,"website":null,"phone":null,"source":"OpenStreetMap/way/1394180598","sourceUpdatedAt":null,"verifiedAt":null}},{"type":"Feature","geometry":{"type":"Point","coordinates":[9.371284,49.1348544]},"properties":{"id":"bikerack:d8975ff4-c3c8-4de9-ae25-95e5dc143c74","kind":"bikerack","longitude":9.371284,"latitude":49.1348544,"name":"Fahrradabstellplatz","city":"Lehrensteinsfeld","address":null,"covered":false,"access":null,"website":null,"phone":null,"source":"OpenStreetMap/node/2331567227","sourceUpdatedAt":null,"verifiedAt":null}},{"type":"Feature","geometry":{"type":"Point","coordinates":[9.3770859,49.1328054]},"properties":{"id":"repair:3f22632b-4518-4f0e-b8c7-563ebe5003e0","kind":"repair","longitude":9.3770859,"latitude":49.1328054,"name":"RadService-Punkt Obersulm Rathaus","city":"Lowenstein","address":null,"covered":false,"access":null,"website":null,"phone":null,"source":"OpenStreetMap/node/12604014280","sourceUpdatedAt":null,"verifiedAt":null}}]}