{"type":"FeatureCollection","features":[{"type":"Feature","geometry":{"type":"Point","coordinates":[9.3827047,48.8645051]},"properties":{"id":"bikerack:07adc412-f0c9-436e-9953-e3d0f7b1e662","kind":"bikerack","longitude":9.3827047,"latitude":48.8645051,"name":"Fahrradabstellplatz","city":"Winnenden","address":null,"covered":false,"access":null,"website":null,"phone":null,"source":"OpenStreetMap/node/8300512978","sourceUpdatedAt":null,"verifiedAt":null}},{"type":"Feature","geometry":{"type":"Point","coordinates":[9.3781879,48.8496875]},"properties":{"id":"bikerack:2422455e-1e86-44ba-acdd-857058ba485c","kind":"bikerack","longitude":9.3781879,"latitude":48.8496875,"name":"Fahrradabstellplatz","city":"Korb","address":null,"covered":false,"access":null,"website":null,"phone":null,"source":"OpenStreetMap/node/12734540287","sourceUpdatedAt":null,"verifiedAt":null}},{"type":"Feature","geometry":{"type":"Point","coordinates":[9.3894579,48.8624313]},"properties":{"id":"bikerack:6f3c226f-7858-4321-8abf-036f4e39d67e","kind":"bikerack","longitude":9.3894579,"latitude":48.8624313,"name":"Fahrradabstellplatz","city":"Winnenden","address":null,"covered":false,"access":null,"website":null,"phone":null,"source":"OpenStreetMap/node/12532131282","sourceUpdatedAt":null,"verifiedAt":null}},{"type":"Feature","geometry":{"type":"Point","coordinates":[9.3776031,48.8469366]},"properties":{"id":"bikerack:869dc87e-a68b-44e6-8cd5-45288689dc30","kind":"bikerack","longitude":9.3776031,"latitude":48.8469366,"name":"Fahrradabstellplatz","city":"Korb","address":null,"covered":false,"access":null,"website":null,"phone":null,"source":"OpenStreetMap/node/11084019092","sourceUpdatedAt":null,"verifiedAt":null}},{"type":"Feature","geometry":{"type":"Point","coordinates":[9.3935955,48.8640505]},"properties":{"id":"bikerack:9758e47a-6964-4c31-b6cc-907433415942","kind":"bikerack","longitude":9.3935955,"latitude":48.8640505,"name":"Fahrradabstellplatz","city":"Winnenden","address":null,"covered":false,"access":null,"website":null,"phone":null,"source":"OpenStreetMap/node/1213620515","sourceUpdatedAt":null,"verifiedAt":null}},{"type":"Feature","geometry":{"type":"Point","coordinates":[9.3608769,48.8423416]},"properties":{"id":"bikerack:9f51383b-cd21-48ac-92d2-4ba4bda45b1a","kind":"bikerack","longitude":9.3608769,"latitude":48.8423416,"name":"Fahrradabstellplatz","city":"Korb","address":null,"covered":false,"access":null,"website":null,"phone":null,"source":"OpenStreetMap/node/12636111488","sourceUpdatedAt":null,"verifiedAt":null}},{"type":"Feature","geometry":{"type":"Point","coordinates":[9.3674477,48.8364994]},"properties":{"id":"bikerack:a5c28e44-0edb-4fcc-8c6f-fafdfb259cf5","kind":"bikerack","longitude":9.3674477,"latitude":48.8364994,"name":"Fahrradabstellplatz","city":"Korb","address":null,"covered":false,"access":null,"website":null,"phone":null,"source":"OpenStreetMap/node/12094017744","sourceUpdatedAt":null,"verifiedAt":null}},{"type":"Feature","geometry":{"type":"Point","coordinates":[9.3877987,48.8601876]},"properties":{"id":"bikerack:ef1ac1cc-d01c-43f4-96e4-0e9008a92678","kind":"bikerack","longitude":9.3877987,"latitude":48.8601876,"name":"Fahrradabstellplatz","city":"Winnenden","address":null,"covered":false,"access":null,"website":null,"phone":null,"source":"OpenStreetMap/node/5916131111","sourceUpdatedAt":null,"verifiedAt":null}},{"type":"Feature","geometry":{"type":"Point","coordinates":[9.3631094,48.8399275]},"properties":{"id":"repair:08181653-5739-4860-a93f-b9b5aee7ebbd","kind":"repair","longitude":9.3631094,"latitude":48.8399275,"name":"RadService-Punkt Beinstein Korber Bädle am Fahrradparkplatz","city":"Korb","address":null,"covered":false,"access":null,"website":null,"phone":null,"source":"OpenStreetMap/node/8839259748","sourceUpdatedAt":null,"verifiedAt":null}},{"type":"Feature","geometry":{"type":"Point","coordinates":[9.378208,48.8497005]},"properties":{"id":"repair:c87459b2-b5ba-4dd4-843c-f9788a396669","kind":"repair","longitude":9.378208,"latitude":48.8497005,"name":"RadService-Punkt Parkplatz an der Nordostseite der Infohütte","city":"Korb","address":null,"covered":false,"access":null,"website":null,"phone":null,"source":"OpenStreetMap/node/8839259747","sourceUpdatedAt":null,"verifiedAt":null}},{"type":"Feature","geometry":{"type":"Point","coordinates":[9.3670563,48.8438403]},"properties":{"id":"service:3fb3241e-c32e-4fdc-845f-d7e9f27bfd12","kind":"service","longitude":9.3670563,"latitude":48.8438403,"name":"Brenner Rad & Tat","city":"Korb","address":null,"covered":null,"access":null,"website":null,"phone":null,"source":"OpenStreetMap/node/4431068812","sourceUpdatedAt":null,"verifiedAt":null}},{"type":"Feature","geometry":{"type":"Point","coordinates":[9.3871026,48.8535237]},"properties":{"id":"service:6ef61a15-8b4b-42d6-b45b-43b5fbd50390","kind":"service","longitude":9.3871026,"latitude":48.8535237,"name":"Envy Cycles","city":"Winnenden","address":null,"covered":null,"access":null,"website":null,"phone":null,"source":"OpenStreetMap/node/8309062709","sourceUpdatedAt":null,"verifiedAt":null}},{"type":"Feature","geometry":{"type":"Point","coordinates":[9.3877343,48.8582903]},"properties":{"id":"water:01ccb6bc-62c7-4122-b0d0-3e8e51d5d492","kind":"water","longitude":9.3877343,"latitude":48.8582903,"name":"Trinkwasser","city":"Winnenden","address":null,"covered":null,"access":null,"website":null,"phone":null,"source":"OpenStreetMap/node/3995522605","sourceUpdatedAt":null,"verifiedAt":null}},{"type":"Feature","geometry":{"type":"Point","coordinates":[9.3878154,48.8591905]},"properties":{"id":"water:2fd59398-9d10-49c7-b900-a63a853d5b05","kind":"water","longitude":9.3878154,"latitude":48.8591905,"name":"Trinkwasser","city":"Winnenden","address":null,"covered":null,"access":null,"website":null,"phone":null,"source":"OpenStreetMap/node/3995522604","sourceUpdatedAt":null,"verifiedAt":null}},{"type":"Feature","geometry":{"type":"Point","coordinates":[9.3883334,48.8595846]},"properties":{"id":"water:63c72d2e-787b-43ed-9a05-c574ad23dd0d","kind":"water","longitude":9.3883334,"latitude":48.8595846,"name":"Trinkwasser","city":"Winnenden","address":null,"covered":null,"access":null,"website":null,"phone":null,"source":"OpenStreetMap/node/3995522617","sourceUpdatedAt":null,"verifiedAt":null}},{"type":"Feature","geometry":{"type":"Point","coordinates":[9.3887704,48.858704]},"properties":{"id":"water:65a7c6e4-488d-4f90-8ad2-57b117f212ae","kind":"water","longitude":9.3887704,"latitude":48.858704,"name":"Trinkwasser","city":"Winnenden","address":null,"covered":null,"access":null,"website":null,"phone":null,"source":"OpenStreetMap/node/3995522612","sourceUpdatedAt":null,"verifiedAt":null}},{"type":"Feature","geometry":{"type":"Point","coordinates":[9.3883828,48.8589876]},"properties":{"id":"water:854627e6-4903-484c-a118-14c16a68703c","kind":"water","longitude":9.3883828,"latitude":48.8589876,"name":"Trinkwasser","city":"Winnenden","address":null,"covered":null,"access":null,"website":null,"phone":null,"source":"OpenStreetMap/node/3995522615","sourceUpdatedAt":null,"verifiedAt":null}},{"type":"Feature","geometry":{"type":"Point","coordinates":[9.388025,48.858012]},"properties":{"id":"water:9d4866d2-f357-41c0-9589-07e9dabacae9","kind":"water","longitude":9.388025,"latitude":48.858012,"name":"Trinkwasser","city":"Winnenden","address":null,"covered":null,"access":null,"website":null,"phone":null,"source":"OpenStreetMap/node/3995522609","sourceUpdatedAt":null,"verifiedAt":null}},{"type":"Feature","geometry":{"type":"Point","coordinates":[9.3887723,48.8592529]},"properties":{"id":"water:a559e480-fcc0-46c3-bc1c-4f6ae73f0dd6","kind":"water","longitude":9.3887723,"latitude":48.8592529,"name":"Trinkwasser","city":"Winnenden","address":null,"covered":null,"access":null,"website":null,"phone":null,"source":"OpenStreetMap/node/3995522618","sourceUpdatedAt":null,"verifiedAt":null}},{"type":"Feature","geometry":{"type":"Point","coordinates":[9.3880388,48.8586897]},"properties":{"id":"water:b041f81a-b859-47a3-a37e-7dca1cf9692d","kind":"water","longitude":9.3880388,"latitude":48.8586897,"name":"Trinkwasser","city":"Winnenden","address":null,"covered":null,"access":null,"website":null,"phone":null,"source":"OpenStreetMap/node/3995522606","sourceUpdatedAt":null,"verifiedAt":null}},{"type":"Feature","geometry":{"type":"Point","coordinates":[9.3885628,48.8582695]},"properties":{"id":"water:cfb9f565-3589-4273-9d35-0bbb9b3db766","kind":"water","longitude":9.3885628,"latitude":48.8582695,"name":"Trinkwasser","city":"Winnenden","address":null,"covered":null,"access":null,"website":null,"phone":null,"source":"OpenStreetMap/node/3995522611","sourceUpdatedAt":null,"verifiedAt":null}},{"type":"Feature","geometry":{"type":"Point","coordinates":[9.3889068,48.8590279]},"properties":{"id":"water:f210ea41-22cc-4576-966a-9ccf15c1e4e0","kind":"water","longitude":9.3889068,"latitude":48.8590279,"name":"Trinkwasser","city":"Winnenden","address":null,"covered":null,"access":null,"website":null,"phone":null,"source":"OpenStreetMap/node/3995522614","sourceUpdatedAt":null,"verifiedAt":null}},{"type":"Feature","geometry":{"type":"Point","coordinates":[9.3878688,48.8595287]},"properties":{"id":"water:feb1a56e-22fb-4ed4-a8ba-1ba8a1c9742b","kind":"water","longitude":9.3878688,"latitude":48.8595287,"name":"Trinkwasser","city":"Winnenden","address":null,"covered":null,"access":null,"website":null,"phone":null,"source":"OpenStreetMap/node/3995522603","sourceUpdatedAt":null,"verifiedAt":null}}]}