{"type":"FeatureCollection","features":[{"type":"Feature","geometry":{"type":"Point","coordinates":[9.3808532,47.5419921]},"properties":{"id":"bikerack:0ee19e8e-90a6-4937-b5cc-cd54ad84d2bb","kind":"bikerack","longitude":9.3808532,"latitude":47.5419921,"name":"Bicycle Parking","city":"Egnach","address":null,"covered":false,"access":null,"website":null,"phone":null,"source":"OpenStreetMap/way/392998911","sourceUpdatedAt":null,"verifiedAt":null}},{"type":"Feature","geometry":{"type":"Point","coordinates":[9.3823897,47.5442029]},"properties":{"id":"bikerack:3605bf64-a2b4-49a0-b4d4-f1697a1e5d1f","kind":"bikerack","longitude":9.3823897,"latitude":47.5442029,"name":"Bicycle Parking","city":"Egnach","address":null,"covered":false,"access":null,"website":null,"phone":null,"source":"OpenStreetMap/way/1065498183","sourceUpdatedAt":null,"verifiedAt":null}},{"type":"Feature","geometry":{"type":"Point","coordinates":[9.3691218,47.5267958]},"properties":{"id":"bikerack:49b8396d-bebe-42d7-b4c0-d2335da456ab","kind":"bikerack","longitude":9.3691218,"latitude":47.5267958,"name":"Bicycle Parking","city":"Egnach","address":null,"covered":true,"access":null,"website":null,"phone":null,"source":"OpenStreetMap/way/1459472321","sourceUpdatedAt":null,"verifiedAt":null}},{"type":"Feature","geometry":{"type":"Point","coordinates":[9.4014617,47.536321]},"properties":{"id":"bikerack:54c5e365-6853-4672-885a-0b6b3f30ae6d","kind":"bikerack","longitude":9.4014617,"latitude":47.536321,"name":"Bicycle Parking","city":"Egnach","address":null,"covered":false,"access":null,"website":null,"phone":null,"source":"OpenStreetMap/way/237057479","sourceUpdatedAt":null,"verifiedAt":null}},{"type":"Feature","geometry":{"type":"Point","coordinates":[9.3823195,47.5442314]},"properties":{"id":"bikerack:8d6d64be-16a0-41f5-8ed2-5588ef4bea0e","kind":"bikerack","longitude":9.3823195,"latitude":47.5442314,"name":"Bicycle Parking","city":"Egnach","address":null,"covered":false,"access":null,"website":null,"phone":null,"source":"OpenStreetMap/way/1065498184","sourceUpdatedAt":null,"verifiedAt":null}},{"type":"Feature","geometry":{"type":"Point","coordinates":[9.3758669,47.5385657]},"properties":{"id":"bikerack:c86520a2-6ef4-4d43-8c82-522c86b1e50f","kind":"bikerack","longitude":9.3758669,"latitude":47.5385657,"name":"Bicycle Parking","city":"Egnach","address":null,"covered":true,"access":null,"website":null,"phone":null,"source":"OpenStreetMap/node/10729748204","sourceUpdatedAt":null,"verifiedAt":null}},{"type":"Feature","geometry":{"type":"Point","coordinates":[9.3821189,47.5443186]},"properties":{"id":"service:0de23b84-947c-4e74-91ea-6a8397f431a1","kind":"service","longitude":9.3821189,"latitude":47.5443186,"name":"Egnacher-2Rad-Center","city":"Egnach","address":null,"covered":null,"access":null,"website":null,"phone":null,"source":"OpenStreetMap/node/4770456722","sourceUpdatedAt":null,"verifiedAt":null}},{"type":"Feature","geometry":{"type":"Point","coordinates":[9.3832652,47.5439107]},"properties":{"id":"water:9035a860-f04a-4762-8fc3-f620228ae68c","kind":"water","longitude":9.3832652,"latitude":47.5439107,"name":"Drinking Fountain","city":"Egnach","address":null,"covered":null,"access":null,"website":null,"phone":null,"source":"OpenStreetMap/node/2377007371","sourceUpdatedAt":null,"verifiedAt":null}}]}