{"type":"FeatureCollection","features":[{"type":"Feature","geometry":{"type":"Point","coordinates":[9.3915239,46.1054208]},"properties":{"id":"water:04eb84bb-7d0b-4e49-bd81-cef8cd893309","kind":"water","longitude":9.3915239,"latitude":46.1054208,"name":"Fontanella","city":"Colico Piano","address":null,"covered":null,"access":null,"website":null,"phone":null,"source":"OpenStreetMap/node/4969174605","sourceUpdatedAt":null,"verifiedAt":null}},{"type":"Feature","geometry":{"type":"Point","coordinates":[9.4011852,46.120438]},"properties":{"id":"water:316b0a87-8b89-491e-b677-d593f13468dc","kind":"water","longitude":9.4011852,"latitude":46.120438,"name":"Fontanella","city":"Colico Piano","address":null,"covered":null,"access":null,"website":null,"phone":null,"source":"OpenStreetMap/node/9894625221","sourceUpdatedAt":null,"verifiedAt":null}},{"type":"Feature","geometry":{"type":"Point","coordinates":[9.3780626,46.1184122]},"properties":{"id":"water:7b3fc258-cf29-4b32-9d90-7d432ef84539","kind":"water","longitude":9.3780626,"latitude":46.1184122,"name":"Fontanella","city":"Colico Piano","address":null,"covered":null,"access":null,"website":null,"phone":null,"source":"OpenStreetMap/node/4972657618","sourceUpdatedAt":null,"verifiedAt":null}},{"type":"Feature","geometry":{"type":"Point","coordinates":[9.3790964,46.1278591]},"properties":{"id":"water:7fdf5ca1-57b4-4c7e-bb01-c4510bdb7347","kind":"water","longitude":9.3790964,"latitude":46.1278591,"name":"Fontanella","city":"Colico Piano","address":null,"covered":null,"access":null,"website":null,"phone":null,"source":"OpenStreetMap/node/10074250843","sourceUpdatedAt":null,"verifiedAt":null}},{"type":"Feature","geometry":{"type":"Point","coordinates":[9.4006864,46.1324875]},"properties":{"id":"water:8cd55c00-1e7e-4906-8adb-17a9dd1e6e23","kind":"water","longitude":9.4006864,"latitude":46.1324875,"name":"Fontanella","city":"Colico Piano","address":null,"covered":null,"access":null,"website":null,"phone":null,"source":"OpenStreetMap/node/2804036568","sourceUpdatedAt":null,"verifiedAt":null}},{"type":"Feature","geometry":{"type":"Point","coordinates":[9.3936578,46.1240945]},"properties":{"id":"water:b6243dcf-a3bd-4643-b778-3bd746139c5a","kind":"water","longitude":9.3936578,"latitude":46.1240945,"name":"Fontanella","city":"Colico Piano","address":null,"covered":null,"access":null,"website":null,"phone":null,"source":"OpenStreetMap/node/5812413773","sourceUpdatedAt":null,"verifiedAt":null}},{"type":"Feature","geometry":{"type":"Point","coordinates":[9.3945197,46.1217588]},"properties":{"id":"water:b96f3696-2d35-4c12-814c-0f7f02ca03f5","kind":"water","longitude":9.3945197,"latitude":46.1217588,"name":"Fontana","city":"Colico Piano","address":null,"covered":null,"access":null,"website":null,"phone":null,"source":"OpenStreetMap/node/11860371352","sourceUpdatedAt":null,"verifiedAt":null}},{"type":"Feature","geometry":{"type":"Point","coordinates":[9.3890727,46.1112122]},"properties":{"id":"water:ba18c0ea-bc5d-4df3-805c-10c7b19ebe9c","kind":"water","longitude":9.3890727,"latitude":46.1112122,"name":"Fontanella","city":"Colico Piano","address":null,"covered":null,"access":null,"website":null,"phone":null,"source":"OpenStreetMap/node/13009448558","sourceUpdatedAt":null,"verifiedAt":null}},{"type":"Feature","geometry":{"type":"Point","coordinates":[9.4021435,46.1153175]},"properties":{"id":"water:c0c5d0a5-9345-4e7b-9437-1421d39c2143","kind":"water","longitude":9.4021435,"latitude":46.1153175,"name":"Fontanella","city":"Colico Piano","address":null,"covered":null,"access":null,"website":null,"phone":null,"source":"OpenStreetMap/node/9894642405","sourceUpdatedAt":null,"verifiedAt":null}},{"type":"Feature","geometry":{"type":"Point","coordinates":[9.3761178,46.1284972]},"properties":{"id":"water:ce568068-6f07-4c7b-b24c-770184bc06b6","kind":"water","longitude":9.3761178,"latitude":46.1284972,"name":"Fontanella","city":"Colico Piano","address":null,"covered":null,"access":null,"website":null,"phone":null,"source":"OpenStreetMap/node/5179953234","sourceUpdatedAt":null,"verifiedAt":null}}]}