{"type":"FeatureCollection","features":[{"type":"Feature","geometry":{"type":"Point","coordinates":[9.3755901,45.5254011]},"properties":{"id":"bikerack:099b2aeb-e747-4773-b49d-5db5a10c4947","kind":"bikerack","longitude":9.3755901,"latitude":45.5254011,"name":"Parcheggio bici","city":"Sant'Agata Martesana","address":null,"covered":true,"access":null,"website":null,"phone":null,"source":"OpenStreetMap/node/6128654363","sourceUpdatedAt":null,"verifiedAt":null}},{"type":"Feature","geometry":{"type":"Point","coordinates":[9.374138,45.5328502]},"properties":{"id":"bikerack:0d0bc125-4d29-4823-848c-5a2b9b4a85f6","kind":"bikerack","longitude":9.374138,"latitude":45.5328502,"name":"Parcheggio bici","city":"Bussero","address":null,"covered":false,"access":null,"website":null,"phone":null,"source":"OpenStreetMap/node/1607858780","sourceUpdatedAt":null,"verifiedAt":null}},{"type":"Feature","geometry":{"type":"Point","coordinates":[9.3742751,45.5328889]},"properties":{"id":"bikerack:0d413d5b-266f-4c22-bc9c-ce7829358dfa","kind":"bikerack","longitude":9.3742751,"latitude":45.5328889,"name":"Parcheggio bici","city":"Bussero","address":null,"covered":false,"access":null,"website":null,"phone":null,"source":"OpenStreetMap/node/2228857716","sourceUpdatedAt":null,"verifiedAt":null}},{"type":"Feature","geometry":{"type":"Point","coordinates":[9.3783117,45.5290207]},"properties":{"id":"bikerack:10b488e6-6715-4750-a9f9-4b4e64e7524f","kind":"bikerack","longitude":9.3783117,"latitude":45.5290207,"name":"Parcheggio bici","city":"Bussero","address":null,"covered":false,"access":null,"website":null,"phone":null,"source":"OpenStreetMap/node/1607858717","sourceUpdatedAt":null,"verifiedAt":null}},{"type":"Feature","geometry":{"type":"Point","coordinates":[9.373999,45.5297533]},"properties":{"id":"bikerack:144632d6-3873-4443-ba70-e5870e70c1ff","kind":"bikerack","longitude":9.373999,"latitude":45.5297533,"name":"Parcheggio bici","city":"Bussero","address":null,"covered":false,"access":null,"website":null,"phone":null,"source":"OpenStreetMap/node/1607858778","sourceUpdatedAt":null,"verifiedAt":null}},{"type":"Feature","geometry":{"type":"Point","coordinates":[9.3738535,45.5385421]},"properties":{"id":"bikerack:151e96d5-9519-4582-9c81-1ead26aed494","kind":"bikerack","longitude":9.3738535,"latitude":45.5385421,"name":"Parcheggio bici","city":"Bussero","address":null,"covered":false,"access":null,"website":null,"phone":null,"source":"OpenStreetMap/node/1629527661","sourceUpdatedAt":null,"verifiedAt":null}},{"type":"Feature","geometry":{"type":"Point","coordinates":[9.3736727,45.5310828]},"properties":{"id":"bikerack:2500a37f-dd66-4a1e-bdef-7eff469dc5fc","kind":"bikerack","longitude":9.3736727,"latitude":45.5310828,"name":"Parcheggio bici","city":"Bussero","address":null,"covered":false,"access":null,"website":null,"phone":null,"source":"OpenStreetMap/node/1918565740","sourceUpdatedAt":null,"verifiedAt":null}},{"type":"Feature","geometry":{"type":"Point","coordinates":[9.373304,45.5385018]},"properties":{"id":"bikerack:2d9a3171-5b89-4ef6-ac86-37d6bb9651d6","kind":"bikerack","longitude":9.373304,"latitude":45.5385018,"name":"Parcheggio bici","city":"Bussero","address":null,"covered":false,"access":null,"website":null,"phone":null,"source":"OpenStreetMap/node/1607858711","sourceUpdatedAt":null,"verifiedAt":null}},{"type":"Feature","geometry":{"type":"Point","coordinates":[9.3753341,45.5254531]},"properties":{"id":"bikerack:4085f688-7703-499f-97b4-722919868ad3","kind":"bikerack","longitude":9.3753341,"latitude":45.5254531,"name":"Ciclofficina","city":"Sant'Agata Martesana","address":null,"covered":true,"access":null,"website":null,"phone":null,"source":"OpenStreetMap/way/653994584","sourceUpdatedAt":null,"verifiedAt":null}},{"type":"Feature","geometry":{"type":"Point","coordinates":[9.3853462,45.52767]},"properties":{"id":"bikerack:4230ecaf-b537-4b2b-853b-1e15a387e63b","kind":"bikerack","longitude":9.3853462,"latitude":45.52767,"name":"Parcheggio bici","city":"Sant'Agata Martesana","address":null,"covered":true,"access":null,"website":null,"phone":null,"source":"OpenStreetMap/way/218060202","sourceUpdatedAt":null,"verifiedAt":null}},{"type":"Feature","geometry":{"type":"Point","coordinates":[9.3764361,45.5256212]},"properties":{"id":"bikerack:429a2ec6-bb7a-4885-8a82-707f720876cf","kind":"bikerack","longitude":9.3764361,"latitude":45.5256212,"name":"Parcheggio bici","city":"Sant'Agata Martesana","address":null,"covered":false,"access":null,"website":null,"phone":null,"source":"OpenStreetMap/node/2228843695","sourceUpdatedAt":null,"verifiedAt":null}},{"type":"Feature","geometry":{"type":"Point","coordinates":[9.3736309,45.5311722]},"properties":{"id":"bikerack:437d0acf-a58d-41a5-a2fe-d0bf8990ef0e","kind":"bikerack","longitude":9.3736309,"latitude":45.5311722,"name":"Parcheggio bici","city":"Bussero","address":null,"covered":false,"access":null,"website":null,"phone":null,"source":"OpenStreetMap/node/1918565753","sourceUpdatedAt":null,"verifiedAt":null}},{"type":"Feature","geometry":{"type":"Point","coordinates":[9.372373,45.5366559]},"properties":{"id":"bikerack:47c4817b-07c6-4ca6-a394-8b2710cb4038","kind":"bikerack","longitude":9.372373,"latitude":45.5366559,"name":"Parcheggio bici","city":"Bussero","address":null,"covered":false,"access":null,"website":null,"phone":null,"source":"OpenStreetMap/node/1605258266","sourceUpdatedAt":null,"verifiedAt":null}},{"type":"Feature","geometry":{"type":"Point","coordinates":[9.3712183,45.5311212]},"properties":{"id":"bikerack:48649995-c018-4d34-b47b-3bed98d238d3","kind":"bikerack","longitude":9.3712183,"latitude":45.5311212,"name":"Parcheggio bici","city":"Bussero","address":null,"covered":false,"access":null,"website":null,"phone":null,"source":"OpenStreetMap/node/2325417585","sourceUpdatedAt":null,"verifiedAt":null}},{"type":"Feature","geometry":{"type":"Point","coordinates":[9.3702302,45.5372966]},"properties":{"id":"bikerack:4d1bc334-4d36-4dc4-a171-69bf635f253a","kind":"bikerack","longitude":9.3702302,"latitude":45.5372966,"name":"Parcheggio bici","city":"Bussero","address":null,"covered":false,"access":null,"website":null,"phone":null,"source":"OpenStreetMap/node/1605258279","sourceUpdatedAt":null,"verifiedAt":null}},{"type":"Feature","geometry":{"type":"Point","coordinates":[9.3656773,45.5242686]},"properties":{"id":"bikerack:545a1bf2-c26d-48ab-9cf6-c419159e4ceb","kind":"bikerack","longitude":9.3656773,"latitude":45.5242686,"name":"Parcheggio bici","city":"Ronco","address":null,"covered":false,"access":null,"website":null,"phone":null,"source":"OpenStreetMap/node/2325412786","sourceUpdatedAt":null,"verifiedAt":null}},{"type":"Feature","geometry":{"type":"Point","coordinates":[9.3762353,45.5319052]},"properties":{"id":"bikerack:55c2e1b3-1654-4942-a901-50d11401985f","kind":"bikerack","longitude":9.3762353,"latitude":45.5319052,"name":"Parcheggio bici","city":"Bussero","address":null,"covered":true,"access":null,"website":null,"phone":null,"source":"OpenStreetMap/way/753356328","sourceUpdatedAt":null,"verifiedAt":null}},{"type":"Feature","geometry":{"type":"Point","coordinates":[9.3989088,45.5232273]},"properties":{"id":"bikerack:5640ee04-d742-4029-8765-e7445f313428","kind":"bikerack","longitude":9.3989088,"latitude":45.5232273,"name":"Parcheggio bici","city":"Gorgonzola","address":null,"covered":true,"access":null,"website":null,"phone":null,"source":"OpenStreetMap/way/1430298093","sourceUpdatedAt":null,"verifiedAt":null}},{"type":"Feature","geometry":{"type":"Point","coordinates":[9.3762615,45.5255415]},"properties":{"id":"bikerack:56f83796-d7cb-4aa2-a56d-6a9c65789b38","kind":"bikerack","longitude":9.3762615,"latitude":45.5255415,"name":"Parcheggio bici","city":"Sant'Agata Martesana","address":null,"covered":false,"access":null,"website":null,"phone":null,"source":"OpenStreetMap/node/2228843692","sourceUpdatedAt":null,"verifiedAt":null}},{"type":"Feature","geometry":{"type":"Point","coordinates":[9.3712148,45.5312685]},"properties":{"id":"bikerack:59516857-9375-4e44-9e14-d10adc40b01a","kind":"bikerack","longitude":9.3712148,"latitude":45.5312685,"name":"Parcheggio bici","city":"Bussero","address":null,"covered":false,"access":null,"website":null,"phone":null,"source":"OpenStreetMap/node/1607862106","sourceUpdatedAt":null,"verifiedAt":null}},{"type":"Feature","geometry":{"type":"Point","coordinates":[9.3733226,45.5374383]},"properties":{"id":"bikerack:5e4201ca-93f1-4428-b0fc-d3762d3a0dd7","kind":"bikerack","longitude":9.3733226,"latitude":45.5374383,"name":"Parcheggio bici","city":"Bussero","address":null,"covered":false,"access":null,"website":null,"phone":null,"source":"OpenStreetMap/node/1607858759","sourceUpdatedAt":null,"verifiedAt":null}},{"type":"Feature","geometry":{"type":"Point","coordinates":[9.3762972,45.5255529]},"properties":{"id":"bikerack:631de337-8e03-44e1-81da-bd3b75cfa00d","kind":"bikerack","longitude":9.3762972,"latitude":45.5255529,"name":"Parcheggio bici","city":"Sant'Agata Martesana","address":null,"covered":false,"access":null,"website":null,"phone":null,"source":"OpenStreetMap/node/2298147442","sourceUpdatedAt":null,"verifiedAt":null}},{"type":"Feature","geometry":{"type":"Point","coordinates":[9.3702746,45.5320037]},"properties":{"id":"bikerack:658922c6-de08-4565-942e-75eaedfa4762","kind":"bikerack","longitude":9.3702746,"latitude":45.5320037,"name":"Parcheggio bici","city":"Bussero","address":null,"covered":false,"access":null,"website":null,"phone":null,"source":"OpenStreetMap/node/2328373442","sourceUpdatedAt":null,"verifiedAt":null}},{"type":"Feature","geometry":{"type":"Point","coordinates":[9.3718795,45.5345543]},"properties":{"id":"bikerack:683689c7-a338-4db8-ba06-e83fbd72cd3d","kind":"bikerack","longitude":9.3718795,"latitude":45.5345543,"name":"Parcheggio bici","city":"Bussero","address":null,"covered":false,"access":null,"website":null,"phone":null,"source":"OpenStreetMap/node/1605258264","sourceUpdatedAt":null,"verifiedAt":null}},{"type":"Feature","geometry":{"type":"Point","coordinates":[9.3723532,45.5350405]},"properties":{"id":"bikerack:6de7f85d-c04a-401d-89f3-9b0624eb5060","kind":"bikerack","longitude":9.3723532,"latitude":45.5350405,"name":"Parcheggio bici","city":"Bussero","address":null,"covered":false,"access":null,"website":null,"phone":null,"source":"OpenStreetMap/node/1607858690","sourceUpdatedAt":null,"verifiedAt":null}},{"type":"Feature","geometry":{"type":"Point","coordinates":[9.4032367,45.536437]},"properties":{"id":"bikerack:807519f2-da80-4bd3-8cb4-8fe3638d031b","kind":"bikerack","longitude":9.4032367,"latitude":45.536437,"name":"Velostazione Gorgonzola","city":"Gorgonzola","address":null,"covered":true,"access":null,"website":null,"phone":null,"source":"OpenStreetMap/way/208557994","sourceUpdatedAt":null,"verifiedAt":null}},{"type":"Feature","geometry":{"type":"Point","coordinates":[9.3945403,45.5283564]},"properties":{"id":"bikerack:8b14e5e6-7f77-4111-88cf-4ab208944dc3","kind":"bikerack","longitude":9.3945403,"latitude":45.5283564,"name":"Parcheggio bici","city":"Gorgonzola","address":null,"covered":false,"access":null,"website":null,"phone":null,"source":"OpenStreetMap/way/1200834468","sourceUpdatedAt":null,"verifiedAt":null}},{"type":"Feature","geometry":{"type":"Point","coordinates":[9.3746227,45.538975]},"properties":{"id":"bikerack:abcfe534-7574-4569-9c24-ace64b1e09ed","kind":"bikerack","longitude":9.3746227,"latitude":45.538975,"name":"Parcheggio bici","city":"Bussero","address":null,"covered":false,"access":null,"website":null,"phone":null,"source":"OpenStreetMap/node/1607858774","sourceUpdatedAt":null,"verifiedAt":null}},{"type":"Feature","geometry":{"type":"Point","coordinates":[9.3744651,45.5323884]},"properties":{"id":"bikerack:b2d60777-05ed-4f44-8b02-6b3f43aa3c17","kind":"bikerack","longitude":9.3744651,"latitude":45.5323884,"name":"Parcheggio bici","city":"Bussero","address":null,"covered":true,"access":null,"website":null,"phone":null,"source":"OpenStreetMap/way/167593277","sourceUpdatedAt":null,"verifiedAt":null}},{"type":"Feature","geometry":{"type":"Point","coordinates":[9.3703216,45.5318406]},"properties":{"id":"bikerack:b873a317-a716-493b-bdaf-4d85a12f2ba5","kind":"bikerack","longitude":9.3703216,"latitude":45.5318406,"name":"Parcheggio bici","city":"Bussero","address":null,"covered":false,"access":null,"website":null,"phone":null,"source":"OpenStreetMap/node/2328373440","sourceUpdatedAt":null,"verifiedAt":null}},{"type":"Feature","geometry":{"type":"Point","coordinates":[9.3766137,45.5331617]},"properties":{"id":"bikerack:b9692a9a-92a7-4f15-836d-d0a49e20efaa","kind":"bikerack","longitude":9.3766137,"latitude":45.5331617,"name":"Parcheggio bici","city":"Bussero","address":null,"covered":false,"access":null,"website":null,"phone":null,"source":"OpenStreetMap/node/1607858736","sourceUpdatedAt":null,"verifiedAt":null}},{"type":"Feature","geometry":{"type":"Point","coordinates":[9.3764287,45.5315403]},"properties":{"id":"bikerack:c4726251-11a5-4172-b7e3-6e748722cb7f","kind":"bikerack","longitude":9.3764287,"latitude":45.5315403,"name":"Parcheggio bici","city":"Bussero","address":null,"covered":false,"access":null,"website":null,"phone":null,"source":"OpenStreetMap/node/2228857713","sourceUpdatedAt":null,"verifiedAt":null}},{"type":"Feature","geometry":{"type":"Point","coordinates":[9.3730554,45.5318569]},"properties":{"id":"bikerack:c7010a61-0d32-4e34-933d-0495eb25dc32","kind":"bikerack","longitude":9.3730554,"latitude":45.5318569,"name":"Parcheggio bici","city":"Bussero","address":null,"covered":false,"access":null,"website":null,"phone":null,"source":"OpenStreetMap/node/2228857715","sourceUpdatedAt":null,"verifiedAt":null}},{"type":"Feature","geometry":{"type":"Point","coordinates":[9.3776706,45.5323093]},"properties":{"id":"bikerack:ca451dbc-26c0-4281-bbaa-d4287653e894","kind":"bikerack","longitude":9.3776706,"latitude":45.5323093,"name":"Parcheggio bici","city":"Bussero","address":null,"covered":false,"access":null,"website":null,"phone":null,"source":"OpenStreetMap/node/1957267370","sourceUpdatedAt":null,"verifiedAt":null}},{"type":"Feature","geometry":{"type":"Point","coordinates":[9.3721542,45.5379829]},"properties":{"id":"bikerack:ca5546c8-15d4-4a9f-881e-4317670a8a01","kind":"bikerack","longitude":9.3721542,"latitude":45.5379829,"name":"Parcheggio bici","city":"Bussero","address":null,"covered":false,"access":null,"website":null,"phone":null,"source":"OpenStreetMap/node/1607858753","sourceUpdatedAt":null,"verifiedAt":null}},{"type":"Feature","geometry":{"type":"Point","coordinates":[9.3753224,45.5282478]},"properties":{"id":"bikerack:e335b706-ee3f-49ef-b7f1-dffa1967823b","kind":"bikerack","longitude":9.3753224,"latitude":45.5282478,"name":"Parcheggio bici","city":"Bussero","address":null,"covered":false,"access":null,"website":null,"phone":null,"source":"OpenStreetMap/node/1782509456","sourceUpdatedAt":null,"verifiedAt":null}},{"type":"Feature","geometry":{"type":"Point","coordinates":[9.3758845,45.5392806]},"properties":{"id":"bikerack:e558d6e4-0eed-42e4-98a7-6b7e776f8975","kind":"bikerack","longitude":9.3758845,"latitude":45.5392806,"name":"Parcheggio bici","city":"Bussero","address":null,"covered":false,"access":null,"website":null,"phone":null,"source":"OpenStreetMap/node/1607858742","sourceUpdatedAt":null,"verifiedAt":null}},{"type":"Feature","geometry":{"type":"Point","coordinates":[9.3767115,45.532004]},"properties":{"id":"bikerack:e562acf5-c1a7-43fb-a5e9-329888e710da","kind":"bikerack","longitude":9.3767115,"latitude":45.532004,"name":"Parcheggio bici","city":"Bussero","address":null,"covered":true,"access":null,"website":null,"phone":null,"source":"OpenStreetMap/way/753356329","sourceUpdatedAt":null,"verifiedAt":null}},{"type":"Feature","geometry":{"type":"Point","coordinates":[9.3729867,45.5326347]},"properties":{"id":"bikerack:e6babd5b-88a6-453f-9900-c35794e71123","kind":"bikerack","longitude":9.3729867,"latitude":45.5326347,"name":"Parcheggio bici","city":"Bussero","address":null,"covered":false,"access":null,"website":null,"phone":null,"source":"OpenStreetMap/node/2228857714","sourceUpdatedAt":null,"verifiedAt":null}},{"type":"Feature","geometry":{"type":"Point","coordinates":[9.3779693,45.5316562]},"properties":{"id":"bikerack:e95f3fc4-5405-4d1b-91b0-70823f9fcf8c","kind":"bikerack","longitude":9.3779693,"latitude":45.5316562,"name":"Parcheggio bici","city":"Bussero","address":null,"covered":false,"access":null,"website":null,"phone":null,"source":"OpenStreetMap/node/1957267402","sourceUpdatedAt":null,"verifiedAt":null}},{"type":"Feature","geometry":{"type":"Point","coordinates":[9.3757524,45.5256436]},"properties":{"id":"bikerack:eec6312d-6c6b-4b31-a72e-3581187ae4c3","kind":"bikerack","longitude":9.3757524,"latitude":45.5256436,"name":"Parcheggio bici","city":"Sant'Agata Martesana","address":null,"covered":false,"access":null,"website":null,"phone":null,"source":"OpenStreetMap/way/448709393","sourceUpdatedAt":null,"verifiedAt":null}},{"type":"Feature","geometry":{"type":"Point","coordinates":[9.4040645,45.5365694]},"properties":{"id":"bikerack:f8d4427c-bb04-4978-85f7-f5e28101aefe","kind":"bikerack","longitude":9.4040645,"latitude":45.5365694,"name":"Parcheggio bici","city":"Gorgonzola","address":null,"covered":true,"access":null,"website":null,"phone":null,"source":"OpenStreetMap/way/208557993","sourceUpdatedAt":null,"verifiedAt":null}},{"type":"Feature","geometry":{"type":"Point","coordinates":[9.3715659,45.5362699]},"properties":{"id":"service:7bd84325-fd3c-4414-9a10-57caa66121d7","kind":"service","longitude":9.3715659,"latitude":45.5362699,"name":"Negozio di biciclette","city":"Bussero","address":null,"covered":null,"access":null,"website":null,"phone":null,"source":"OpenStreetMap/node/1742692003","sourceUpdatedAt":null,"verifiedAt":null}},{"type":"Feature","geometry":{"type":"Point","coordinates":[9.3705731,45.531752]},"properties":{"id":"water:15f74efc-18c0-4f4f-ac49-e06b5215e651","kind":"water","longitude":9.3705731,"latitude":45.531752,"name":"Fontanella","city":"Bussero","address":null,"covered":null,"access":null,"website":null,"phone":null,"source":"OpenStreetMap/node/2551401004","sourceUpdatedAt":null,"verifiedAt":null}},{"type":"Feature","geometry":{"type":"Point","coordinates":[9.3706196,45.530976]},"properties":{"id":"water:186ebd0f-3d4f-4c9f-823a-342cee0c79ee","kind":"water","longitude":9.3706196,"latitude":45.530976,"name":"Fontanella","city":"Bussero","address":null,"covered":null,"access":null,"website":null,"phone":null,"source":"OpenStreetMap/node/2551400994","sourceUpdatedAt":null,"verifiedAt":null}},{"type":"Feature","geometry":{"type":"Point","coordinates":[9.3710982,45.5309412]},"properties":{"id":"water:1afffcac-ec53-4b8b-8f1f-bd452245d1c2","kind":"water","longitude":9.3710982,"latitude":45.5309412,"name":"Fontanella","city":"Bussero","address":null,"covered":null,"access":null,"website":null,"phone":null,"source":"OpenStreetMap/node/2551400988","sourceUpdatedAt":null,"verifiedAt":null}},{"type":"Feature","geometry":{"type":"Point","coordinates":[9.3716408,45.5367213]},"properties":{"id":"water:20b10536-5fb2-442f-9554-c0401487ab48","kind":"water","longitude":9.3716408,"latitude":45.5367213,"name":"Fontanella","city":"Bussero","address":null,"covered":null,"access":null,"website":null,"phone":null,"source":"OpenStreetMap/node/1564172318","sourceUpdatedAt":null,"verifiedAt":null}},{"type":"Feature","geometry":{"type":"Point","coordinates":[9.3704627,45.5312922]},"properties":{"id":"water:39676e13-a326-4854-8f2a-7069356e3652","kind":"water","longitude":9.3704627,"latitude":45.5312922,"name":"Fontanella","city":"Bussero","address":null,"covered":null,"access":null,"website":null,"phone":null,"source":"OpenStreetMap/node/2551400997","sourceUpdatedAt":null,"verifiedAt":null}},{"type":"Feature","geometry":{"type":"Point","coordinates":[9.3713801,45.5380509]},"properties":{"id":"water:4631bb6b-eb0b-425c-8f63-37de5f774e77","kind":"water","longitude":9.3713801,"latitude":45.5380509,"name":"Fontanella","city":"Bussero","address":null,"covered":null,"access":null,"website":null,"phone":null,"source":"OpenStreetMap/node/4864034441","sourceUpdatedAt":null,"verifiedAt":null}},{"type":"Feature","geometry":{"type":"Point","coordinates":[9.3661585,45.5229477]},"properties":{"id":"water:4a8fb496-2da5-401f-bd52-0844cb7e92d1","kind":"water","longitude":9.3661585,"latitude":45.5229477,"name":"Fontanella","city":"Ronco","address":null,"covered":null,"access":null,"website":null,"phone":null,"source":"OpenStreetMap/node/2321848542","sourceUpdatedAt":null,"verifiedAt":null}},{"type":"Feature","geometry":{"type":"Point","coordinates":[9.3711874,45.5372272]},"properties":{"id":"water:586879e2-27ee-4a85-96e3-b8e575507ed4","kind":"water","longitude":9.3711874,"latitude":45.5372272,"name":"Fontanella","city":"Bussero","address":null,"covered":null,"access":null,"website":null,"phone":null,"source":"OpenStreetMap/node/1707058865","sourceUpdatedAt":null,"verifiedAt":null}},{"type":"Feature","geometry":{"type":"Point","coordinates":[9.3885794,45.5272829]},"properties":{"id":"water:58a14554-a169-489d-9760-bcecdd993dd7","kind":"water","longitude":9.3885794,"latitude":45.5272829,"name":"Fontanella","city":"Sant'Agata Martesana","address":null,"covered":null,"access":null,"website":null,"phone":null,"source":"OpenStreetMap/node/11319859119","sourceUpdatedAt":null,"verifiedAt":null}},{"type":"Feature","geometry":{"type":"Point","coordinates":[9.4038504,45.5361813]},"properties":{"id":"water:5f7678f3-d3c7-47f6-b029-d265ddb7413b","kind":"water","longitude":9.4038504,"latitude":45.5361813,"name":"Casa dell'Acqua","city":"Gorgonzola","address":null,"covered":null,"access":null,"website":null,"phone":null,"source":"OpenStreetMap/node/2188432095","sourceUpdatedAt":null,"verifiedAt":null}},{"type":"Feature","geometry":{"type":"Point","coordinates":[9.3707718,45.535409]},"properties":{"id":"water:5faa9f55-afed-4860-8300-50e57f9b6e81","kind":"water","longitude":9.3707718,"latitude":45.535409,"name":"Fontanella","city":"Bussero","address":null,"covered":null,"access":null,"website":null,"phone":null,"source":"OpenStreetMap/node/1564137980","sourceUpdatedAt":null,"verifiedAt":null}},{"type":"Feature","geometry":{"type":"Point","coordinates":[9.3705126,45.5318731]},"properties":{"id":"water:6ec16e44-a1d8-4d4e-832d-0b8f4a4ecb80","kind":"water","longitude":9.3705126,"latitude":45.5318731,"name":"Fontanella","city":"Bussero","address":null,"covered":null,"access":null,"website":null,"phone":null,"source":"OpenStreetMap/node/2321842363","sourceUpdatedAt":null,"verifiedAt":null}},{"type":"Feature","geometry":{"type":"Point","coordinates":[9.3696623,45.5311487]},"properties":{"id":"water:6f4781f2-9ca3-4248-aaa4-4fb794756018","kind":"water","longitude":9.3696623,"latitude":45.5311487,"name":"Fontanella","city":"Bussero","address":null,"covered":null,"access":null,"website":null,"phone":null,"source":"OpenStreetMap/node/2551402519","sourceUpdatedAt":null,"verifiedAt":null}},{"type":"Feature","geometry":{"type":"Point","coordinates":[9.3702746,45.5369181]},"properties":{"id":"water:78ccc706-6b17-4042-8222-269525124dcd","kind":"water","longitude":9.3702746,"latitude":45.5369181,"name":"Fontanella","city":"Bussero","address":null,"covered":null,"access":null,"website":null,"phone":null,"source":"OpenStreetMap/node/4864034440","sourceUpdatedAt":null,"verifiedAt":null}},{"type":"Feature","geometry":{"type":"Point","coordinates":[9.3702313,45.530683]},"properties":{"id":"water:8cda4af8-3c7a-45d7-acc2-4b63f6f60d7f","kind":"water","longitude":9.3702313,"latitude":45.530683,"name":"Fontanella","city":"Bussero","address":null,"covered":null,"access":null,"website":null,"phone":null,"source":"OpenStreetMap/node/2551400977","sourceUpdatedAt":null,"verifiedAt":null}},{"type":"Feature","geometry":{"type":"Point","coordinates":[9.3694981,45.5362799]},"properties":{"id":"water:91363620-d5ef-4f91-af76-4c0379154d0d","kind":"water","longitude":9.3694981,"latitude":45.5362799,"name":"Fontanella","city":"Bussero","address":null,"covered":null,"access":null,"website":null,"phone":null,"source":"OpenStreetMap/node/4864034439","sourceUpdatedAt":null,"verifiedAt":null}},{"type":"Feature","geometry":{"type":"Point","coordinates":[9.3752172,45.5284087]},"properties":{"id":"water:97d85c67-ac37-4e9a-9e42-2f2ee73fc575","kind":"water","longitude":9.3752172,"latitude":45.5284087,"name":"Fontanella","city":"Bussero","address":null,"covered":null,"access":null,"website":null,"phone":null,"source":"OpenStreetMap/node/4864034436","sourceUpdatedAt":null,"verifiedAt":null}},{"type":"Feature","geometry":{"type":"Point","coordinates":[9.373067,45.5319405]},"properties":{"id":"water:a4a0fd79-829c-41be-9328-d54e801c28f5","kind":"water","longitude":9.373067,"latitude":45.5319405,"name":"Casa dell'Acqua","city":"Bussero","address":null,"covered":null,"access":null,"website":null,"phone":null,"source":"OpenStreetMap/node/7962042317","sourceUpdatedAt":null,"verifiedAt":null}},{"type":"Feature","geometry":{"type":"Point","coordinates":[9.3752068,45.5313084]},"properties":{"id":"water:b2539859-a642-4264-9466-9347da9f4c47","kind":"water","longitude":9.3752068,"latitude":45.5313084,"name":"Fontanella","city":"Bussero","address":null,"covered":null,"access":null,"website":null,"phone":null,"source":"OpenStreetMap/node/1564172295","sourceUpdatedAt":null,"verifiedAt":null}},{"type":"Feature","geometry":{"type":"Point","coordinates":[9.3765624,45.529443]},"properties":{"id":"water:b5d32a9c-61c5-4f66-8a76-0dc8a9ebda47","kind":"water","longitude":9.3765624,"latitude":45.529443,"name":"Fontanella","city":"Bussero","address":null,"covered":null,"access":null,"website":null,"phone":null,"source":"OpenStreetMap/node/1564172325","sourceUpdatedAt":null,"verifiedAt":null}},{"type":"Feature","geometry":{"type":"Point","coordinates":[9.3718513,45.5370863]},"properties":{"id":"water:be8cd2ef-5069-4219-a1be-17e1817bdb11","kind":"water","longitude":9.3718513,"latitude":45.5370863,"name":"Fontanella","city":"Bussero","address":null,"covered":null,"access":null,"website":null,"phone":null,"source":"OpenStreetMap/node/4881316517","sourceUpdatedAt":null,"verifiedAt":null}},{"type":"Feature","geometry":{"type":"Point","coordinates":[9.3809597,45.5472747]},"properties":{"id":"water:c0567526-9202-425a-b21a-f69ee16b837a","kind":"water","longitude":9.3809597,"latitude":45.5472747,"name":"Fontanella","city":"Pessano Con Bornago","address":null,"covered":null,"access":null,"website":null,"phone":null,"source":"OpenStreetMap/node/1843772128","sourceUpdatedAt":null,"verifiedAt":null}},{"type":"Feature","geometry":{"type":"Point","coordinates":[9.3641791,45.5226821]},"properties":{"id":"water:c39593a6-c55a-4fdf-8ecf-2f5cd136a360","kind":"water","longitude":9.3641791,"latitude":45.5226821,"name":"Fontanella","city":"Ronco","address":null,"covered":null,"access":null,"website":null,"phone":null,"source":"OpenStreetMap/node/4308213153","sourceUpdatedAt":null,"verifiedAt":null}},{"type":"Feature","geometry":{"type":"Point","coordinates":[9.3676526,45.5233995]},"properties":{"id":"water:c4610fe8-8c05-48b3-863c-9e469b5ecd4c","kind":"water","longitude":9.3676526,"latitude":45.5233995,"name":"Fontanella","city":"Ronco","address":null,"covered":null,"access":null,"website":null,"phone":null,"source":"OpenStreetMap/node/4308213158","sourceUpdatedAt":null,"verifiedAt":null}},{"type":"Feature","geometry":{"type":"Point","coordinates":[9.3684141,45.5236306]},"properties":{"id":"water:d45a76d4-931f-44cf-910d-fb11c4e2076f","kind":"water","longitude":9.3684141,"latitude":45.5236306,"name":"Fontanella","city":"Ronco","address":null,"covered":null,"access":null,"website":null,"phone":null,"source":"OpenStreetMap/node/2330911333","sourceUpdatedAt":null,"verifiedAt":null}},{"type":"Feature","geometry":{"type":"Point","coordinates":[9.4039404,45.5361813]},"properties":{"id":"water:e078413f-b475-4d14-80fe-fc85274f2547","kind":"water","longitude":9.4039404,"latitude":45.5361813,"name":"Fontanella","city":"Gorgonzola","address":null,"covered":null,"access":null,"website":null,"phone":null,"source":"OpenStreetMap/node/2188432100","sourceUpdatedAt":null,"verifiedAt":null}},{"type":"Feature","geometry":{"type":"Point","coordinates":[9.3764368,45.5257631]},"properties":{"id":"water:ee68e9ea-ed47-4daa-8028-e533f63bfd6c","kind":"water","longitude":9.3764368,"latitude":45.5257631,"name":"Fontanella","city":"Sant'Agata Martesana","address":null,"covered":null,"access":null,"website":null,"phone":null,"source":"OpenStreetMap/node/1564172256","sourceUpdatedAt":null,"verifiedAt":null}},{"type":"Feature","geometry":{"type":"Point","coordinates":[9.3737657,45.5311462]},"properties":{"id":"water:f03c8c57-ae7b-4609-ab5f-6005267f9b42","kind":"water","longitude":9.3737657,"latitude":45.5311462,"name":"Fontanella","city":"Bussero","address":null,"covered":null,"access":null,"website":null,"phone":null,"source":"OpenStreetMap/node/4864034437","sourceUpdatedAt":null,"verifiedAt":null}},{"type":"Feature","geometry":{"type":"Point","coordinates":[9.3780602,45.5319834]},"properties":{"id":"water:f30d159b-c4be-4921-aa23-1d33d60b0f30","kind":"water","longitude":9.3780602,"latitude":45.5319834,"name":"Fontanella","city":"Bussero","address":null,"covered":null,"access":null,"website":null,"phone":null,"source":"OpenStreetMap/node/1900273789","sourceUpdatedAt":null,"verifiedAt":null}}]}