{"type":"FeatureCollection","features":[{"type":"Feature","geometry":{"type":"Point","coordinates":[18.8797184,50.4517627]},"properties":{"id":"bikerack:143c1340-dad8-4c08-aefc-4eaa5044389f","kind":"bikerack","longitude":18.8797184,"latitude":50.4517627,"name":"Biciklitároló","city":"Tarnowskie Gory","address":null,"covered":false,"access":null,"website":null,"phone":null,"source":"OpenStreetMap/node/9445912362","sourceUpdatedAt":null,"verifiedAt":null}},{"type":"Feature","geometry":{"type":"Point","coordinates":[18.8583123,50.439538]},"properties":{"id":"bikerack:30535638-1f8d-4b67-8d59-5c138220f94f","kind":"bikerack","longitude":18.8583123,"latitude":50.439538,"name":"Biciklitároló","city":"Tarnowskie Gory","address":null,"covered":false,"access":null,"website":null,"phone":null,"source":"OpenStreetMap/node/12613471841","sourceUpdatedAt":null,"verifiedAt":null}},{"type":"Feature","geometry":{"type":"Point","coordinates":[18.8638184,50.4463162]},"properties":{"id":"bikerack:3a0a43a4-6ceb-45ec-8c68-e8ab80b537e5","kind":"bikerack","longitude":18.8638184,"latitude":50.4463162,"name":"Biciklitároló","city":"Tarnowskie Gory","address":null,"covered":true,"access":null,"website":null,"phone":null,"source":"OpenStreetMap/way/1236135760","sourceUpdatedAt":null,"verifiedAt":null}},{"type":"Feature","geometry":{"type":"Point","coordinates":[18.8814656,50.4466448]},"properties":{"id":"bikerack:51683408-1d86-4419-8c72-9d0d7a5ebc02","kind":"bikerack","longitude":18.8814656,"latitude":50.4466448,"name":"Biciklitároló","city":"Tarnowskie Gory","address":null,"covered":false,"access":null,"website":null,"phone":null,"source":"OpenStreetMap/node/7596974151","sourceUpdatedAt":null,"verifiedAt":null}},{"type":"Feature","geometry":{"type":"Point","coordinates":[18.8629931,50.447203]},"properties":{"id":"bikerack:54493a9f-05ed-45ec-b759-5b427f3a1a46","kind":"bikerack","longitude":18.8629931,"latitude":50.447203,"name":"Biciklitároló","city":"Tarnowskie Gory","address":null,"covered":false,"access":null,"website":null,"phone":null,"source":"OpenStreetMap/node/5641615601","sourceUpdatedAt":null,"verifiedAt":null}},{"type":"Feature","geometry":{"type":"Point","coordinates":[18.8640485,50.4476557]},"properties":{"id":"bikerack:5796e976-636c-4bf0-abc5-31735b322038","kind":"bikerack","longitude":18.8640485,"latitude":50.4476557,"name":"Biciklitároló","city":"Tarnowskie Gory","address":null,"covered":false,"access":null,"website":null,"phone":null,"source":"OpenStreetMap/node/11934894218","sourceUpdatedAt":null,"verifiedAt":null}},{"type":"Feature","geometry":{"type":"Point","coordinates":[18.8770701,50.4455734]},"properties":{"id":"bikerack:5db3a2cd-c0d5-4c7d-8e73-ac7ce4f65feb","kind":"bikerack","longitude":18.8770701,"latitude":50.4455734,"name":"Biciklitároló","city":"Tarnowskie Gory","address":null,"covered":false,"access":null,"website":null,"phone":null,"source":"OpenStreetMap/node/13030225022","sourceUpdatedAt":null,"verifiedAt":null}},{"type":"Feature","geometry":{"type":"Point","coordinates":[18.8645406,50.4467355]},"properties":{"id":"bikerack:5e07d5a6-4ec1-42d2-b76f-a107bc351481","kind":"bikerack","longitude":18.8645406,"latitude":50.4467355,"name":"Biciklitároló","city":"Tarnowskie Gory","address":null,"covered":true,"access":null,"website":null,"phone":null,"source":"OpenStreetMap/node/9957736173","sourceUpdatedAt":null,"verifiedAt":null}},{"type":"Feature","geometry":{"type":"Point","coordinates":[18.8793048,50.4517044]},"properties":{"id":"bikerack:5e0c5a8b-a973-476e-9997-ddd5aafcf54a","kind":"bikerack","longitude":18.8793048,"latitude":50.4517044,"name":"Biciklitároló","city":"Tarnowskie Gory","address":null,"covered":false,"access":null,"website":null,"phone":null,"source":"OpenStreetMap/node/9445912543","sourceUpdatedAt":null,"verifiedAt":null}},{"type":"Feature","geometry":{"type":"Point","coordinates":[18.8807224,50.4432759]},"properties":{"id":"bikerack:7287cf8a-f4ec-4cea-9adc-c6f223fd733d","kind":"bikerack","longitude":18.8807224,"latitude":50.4432759,"name":"Biciklitároló","city":"Tarnowskie Gory","address":null,"covered":false,"access":null,"website":null,"phone":null,"source":"OpenStreetMap/node/13256458260","sourceUpdatedAt":null,"verifiedAt":null}},{"type":"Feature","geometry":{"type":"Point","coordinates":[18.8848474,50.449215]},"properties":{"id":"bikerack:7295e253-63b5-4d6e-8229-b987b9372215","kind":"bikerack","longitude":18.8848474,"latitude":50.449215,"name":"Biciklitároló","city":"Tarnowskie Gory","address":null,"covered":false,"access":null,"website":null,"phone":null,"source":"OpenStreetMap/node/8867753221","sourceUpdatedAt":null,"verifiedAt":null}},{"type":"Feature","geometry":{"type":"Point","coordinates":[18.8582797,50.4523642]},"properties":{"id":"bikerack:873189eb-4217-449f-a62c-ffebfd18a40b","kind":"bikerack","longitude":18.8582797,"latitude":50.4523642,"name":"Biciklitároló","city":"Tarnowskie Gory","address":null,"covered":false,"access":null,"website":null,"phone":null,"source":"OpenStreetMap/node/9601810800","sourceUpdatedAt":null,"verifiedAt":null}},{"type":"Feature","geometry":{"type":"Point","coordinates":[18.8556576,50.4442483]},"properties":{"id":"bikerack:91eaf9a1-9ef6-4097-b419-560be7ac189a","kind":"bikerack","longitude":18.8556576,"latitude":50.4442483,"name":"Biciklitároló","city":"Tarnowskie Gory","address":null,"covered":false,"access":null,"website":null,"phone":null,"source":"OpenStreetMap/node/11105532939","sourceUpdatedAt":null,"verifiedAt":null}},{"type":"Feature","geometry":{"type":"Point","coordinates":[18.8643013,50.4468617]},"properties":{"id":"bikerack:92cffebf-855e-432f-ac59-07b5f1d2f2a6","kind":"bikerack","longitude":18.8643013,"latitude":50.4468617,"name":"Biciklitároló","city":"Tarnowskie Gory","address":null,"covered":false,"access":null,"website":null,"phone":null,"source":"OpenStreetMap/node/9962796096","sourceUpdatedAt":null,"verifiedAt":null}},{"type":"Feature","geometry":{"type":"Point","coordinates":[18.8559668,50.4444743]},"properties":{"id":"bikerack:95ea647c-487e-4ecd-81ef-2976c3ee8132","kind":"bikerack","longitude":18.8559668,"latitude":50.4444743,"name":"Biciklitároló","city":"Tarnowskie Gory","address":null,"covered":false,"access":null,"website":null,"phone":null,"source":"OpenStreetMap/node/8723713428","sourceUpdatedAt":null,"verifiedAt":null}},{"type":"Feature","geometry":{"type":"Point","coordinates":[18.8714859,50.4323072]},"properties":{"id":"bikerack:975e9a07-88c8-42ef-afe4-4e981b85c242","kind":"bikerack","longitude":18.8714859,"latitude":50.4323072,"name":"Biciklitároló","city":"Tarnowskie Gory","address":null,"covered":false,"access":null,"website":null,"phone":null,"source":"OpenStreetMap/node/11306130946","sourceUpdatedAt":null,"verifiedAt":null}},{"type":"Feature","geometry":{"type":"Point","coordinates":[18.860455,50.4455564]},"properties":{"id":"bikerack:9fe7d72a-7e55-48c8-9160-ee161a5310ef","kind":"bikerack","longitude":18.860455,"latitude":50.4455564,"name":"Biciklitároló","city":"Tarnowskie Gory","address":null,"covered":false,"access":null,"website":null,"phone":null,"source":"OpenStreetMap/node/11610093873","sourceUpdatedAt":null,"verifiedAt":null}},{"type":"Feature","geometry":{"type":"Point","coordinates":[18.8564727,50.4530971]},"properties":{"id":"bikerack:b7d7378d-728e-4106-b387-f101f30b3769","kind":"bikerack","longitude":18.8564727,"latitude":50.4530971,"name":"Biciklitároló","city":"Tarnowskie Gory","address":null,"covered":false,"access":null,"website":null,"phone":null,"source":"OpenStreetMap/node/11306130938","sourceUpdatedAt":null,"verifiedAt":null}},{"type":"Feature","geometry":{"type":"Point","coordinates":[18.8653942,50.4332277]},"properties":{"id":"bikerack:be6a4572-365d-4b5f-a063-815644a914d5","kind":"bikerack","longitude":18.8653942,"latitude":50.4332277,"name":"Biciklitároló","city":"Tarnowskie Gory","address":null,"covered":false,"access":null,"website":null,"phone":null,"source":"OpenStreetMap/node/12000829011","sourceUpdatedAt":null,"verifiedAt":null}},{"type":"Feature","geometry":{"type":"Point","coordinates":[18.880391,50.4434153]},"properties":{"id":"bikerack:be9f361b-8f02-4424-937d-4ef15d8fa1ad","kind":"bikerack","longitude":18.880391,"latitude":50.4434153,"name":"Biciklitároló","city":"Tarnowskie Gory","address":null,"covered":false,"access":null,"website":null,"phone":null,"source":"OpenStreetMap/node/13256458259","sourceUpdatedAt":null,"verifiedAt":null}},{"type":"Feature","geometry":{"type":"Point","coordinates":[18.8599443,50.445869]},"properties":{"id":"bikerack:c947bd77-5333-44fc-a16e-ead7819e78f2","kind":"bikerack","longitude":18.8599443,"latitude":50.445869,"name":"Biciklitároló","city":"Tarnowskie Gory","address":null,"covered":false,"access":null,"website":null,"phone":null,"source":"OpenStreetMap/node/12442169113","sourceUpdatedAt":null,"verifiedAt":null}},{"type":"Feature","geometry":{"type":"Point","coordinates":[18.8691917,50.4397004]},"properties":{"id":"bikerack:cf29fda0-d2e6-41da-b1d7-5bb8c15c9f6a","kind":"bikerack","longitude":18.8691917,"latitude":50.4397004,"name":"Biciklitároló","city":"Tarnowskie Gory","address":null,"covered":false,"access":null,"website":null,"phone":null,"source":"OpenStreetMap/node/9995701841","sourceUpdatedAt":null,"verifiedAt":null}},{"type":"Feature","geometry":{"type":"Point","coordinates":[18.8735484,50.4300642]},"properties":{"id":"bikerack:d35ad66c-2807-4fff-8460-2644e44adf89","kind":"bikerack","longitude":18.8735484,"latitude":50.4300642,"name":"Biciklitároló","city":"Tarnowskie Gory","address":null,"covered":false,"access":null,"website":null,"phone":null,"source":"OpenStreetMap/node/12090311979","sourceUpdatedAt":null,"verifiedAt":null}},{"type":"Feature","geometry":{"type":"Point","coordinates":[18.8638517,50.4463735]},"properties":{"id":"bikerack:d5e2b6d6-6b7f-474c-9d06-03debe16b353","kind":"bikerack","longitude":18.8638517,"latitude":50.4463735,"name":"Biciklitároló","city":"Tarnowskie Gory","address":null,"covered":true,"access":null,"website":null,"phone":null,"source":"OpenStreetMap/way/1236135761","sourceUpdatedAt":null,"verifiedAt":null}},{"type":"Feature","geometry":{"type":"Point","coordinates":[18.8722434,50.4524163]},"properties":{"id":"bikerack:d7025681-5104-4916-a8cd-2ddb55dc461e","kind":"bikerack","longitude":18.8722434,"latitude":50.4524163,"name":"Biciklitároló","city":"Tarnowskie Gory","address":null,"covered":false,"access":null,"website":null,"phone":null,"source":"OpenStreetMap/node/12475781293","sourceUpdatedAt":null,"verifiedAt":null}},{"type":"Feature","geometry":{"type":"Point","coordinates":[18.863152,50.4384914]},"properties":{"id":"bikerack:eff6ac35-59f4-4f31-8328-7182b9fb0cef","kind":"bikerack","longitude":18.863152,"latitude":50.4384914,"name":"Biciklitároló","city":"Tarnowskie Gory","address":null,"covered":false,"access":null,"website":null,"phone":null,"source":"OpenStreetMap/node/11002984714","sourceUpdatedAt":null,"verifiedAt":null}},{"type":"Feature","geometry":{"type":"Point","coordinates":[18.8692044,50.439563]},"properties":{"id":"repair:07e34fff-13bf-4269-9c7d-4441c8683b58","kind":"repair","longitude":18.8692044,"latitude":50.439563,"name":"Kerékpár szervizállomás","city":"Tarnowskie Gory","address":null,"covered":false,"access":null,"website":null,"phone":null,"source":"OpenStreetMap/node/11306130949","sourceUpdatedAt":null,"verifiedAt":null}},{"type":"Feature","geometry":{"type":"Point","coordinates":[18.880386,50.4433942]},"properties":{"id":"repair:128930eb-9bc5-44f4-ab88-bd1f7ac1af93","kind":"repair","longitude":18.880386,"latitude":50.4433942,"name":"Kerékpár szervizállomás","city":"Tarnowskie Gory","address":null,"covered":false,"access":null,"website":null,"phone":null,"source":"OpenStreetMap/node/13256458257","sourceUpdatedAt":null,"verifiedAt":null}},{"type":"Feature","geometry":{"type":"Point","coordinates":[18.859921,50.4458263]},"properties":{"id":"repair:85a27c23-3e3f-4eb9-bd2a-753cd92cbe69","kind":"repair","longitude":18.859921,"latitude":50.4458263,"name":"Kerékpár szervizállomás","city":"Tarnowskie Gory","address":null,"covered":false,"access":null,"website":null,"phone":null,"source":"OpenStreetMap/node/12442169114","sourceUpdatedAt":null,"verifiedAt":null}},{"type":"Feature","geometry":{"type":"Point","coordinates":[18.8564403,50.4530298]},"properties":{"id":"repair:b606465c-aac5-4ef0-951a-e0d309480c2c","kind":"repair","longitude":18.8564403,"latitude":50.4530298,"name":"Kerékpár szervizállomás","city":"Tarnowskie Gory","address":null,"covered":false,"access":null,"website":null,"phone":null,"source":"OpenStreetMap/node/11306130939","sourceUpdatedAt":null,"verifiedAt":null}},{"type":"Feature","geometry":{"type":"Point","coordinates":[18.8774304,50.4516761]},"properties":{"id":"service:42ff4805-abf2-4a35-a899-3df116334d89","kind":"service","longitude":18.8774304,"latitude":50.4516761,"name":"Romet","city":"Tarnowskie Góry","address":null,"covered":null,"access":null,"website":null,"phone":null,"source":"OpenStreetMap/node/12398583205","sourceUpdatedAt":null,"verifiedAt":null}},{"type":"Feature","geometry":{"type":"Point","coordinates":[18.8592486,50.443285]},"properties":{"id":"service:d31807d8-e329-4c73-a8bc-6bdba6930fa5","kind":"service","longitude":18.8592486,"latitude":50.443285,"name":"Adventure","city":"Tarnowskie Gory","address":null,"covered":null,"access":null,"website":null,"phone":null,"source":"OpenStreetMap/node/2443999498","sourceUpdatedAt":null,"verifiedAt":null}},{"type":"Feature","geometry":{"type":"Point","coordinates":[18.8590877,50.4435515]},"properties":{"id":"service:ef4ca35a-ec81-4dc0-8257-fcf320800a61","kind":"service","longitude":18.8590877,"latitude":50.4435515,"name":"Jednoślad","city":"Tarnowskie Gory","address":null,"covered":null,"access":null,"website":null,"phone":null,"source":"OpenStreetMap/node/2443999504","sourceUpdatedAt":null,"verifiedAt":null}},{"type":"Feature","geometry":{"type":"Point","coordinates":[18.8562002,50.4443528]},"properties":{"id":"water:2e8b9d71-501c-4a33-8ee9-18f954f868d7","kind":"water","longitude":18.8562002,"latitude":50.4443528,"name":"Ivókút","city":"Tarnowskie Gory","address":null,"covered":null,"access":null,"website":null,"phone":null,"source":"OpenStreetMap/node/12090158992","sourceUpdatedAt":null,"verifiedAt":null}},{"type":"Feature","geometry":{"type":"Point","coordinates":[18.8603601,50.4458338]},"properties":{"id":"water:9038d5b5-cd10-4be1-af56-a72d90067fb0","kind":"water","longitude":18.8603601,"latitude":50.4458338,"name":"Ivókút","city":"Tarnowskie Gory","address":null,"covered":null,"access":null,"website":null,"phone":null,"source":"OpenStreetMap/node/12442169129","sourceUpdatedAt":null,"verifiedAt":null}}]}