{"type":"FeatureCollection","features":[{"type":"Feature","geometry":{"type":"Point","coordinates":[18.8552797,50.3174262]},"properties":{"id":"bikerack:656d85ba-5168-4afe-b6b8-ddaf82c648d3","kind":"bikerack","longitude":18.8552797,"latitude":50.3174262,"name":"Biciklitároló","city":"Ruda Slaska","address":null,"covered":false,"access":null,"website":null,"phone":null,"source":"OpenStreetMap/node/9411947622","sourceUpdatedAt":null,"verifiedAt":null}},{"type":"Feature","geometry":{"type":"Point","coordinates":[18.8875748,50.3220598]},"properties":{"id":"bikerack:6efb3f80-442b-40e0-a099-55dac8fc32ea","kind":"bikerack","longitude":18.8875748,"latitude":50.3220598,"name":"Biciklitároló","city":"Swietochlowice","address":null,"covered":false,"access":null,"website":null,"phone":null,"source":"OpenStreetMap/node/13296898578","sourceUpdatedAt":null,"verifiedAt":null}},{"type":"Feature","geometry":{"type":"Point","coordinates":[18.8871139,50.3345336]},"properties":{"id":"bikerack:c941f4f3-4c7b-4c01-b8e5-5f6906da8570","kind":"bikerack","longitude":18.8871139,"latitude":50.3345336,"name":"Biciklitároló","city":"Bytom","address":null,"covered":false,"access":null,"website":null,"phone":null,"source":"OpenStreetMap/node/11967130840","sourceUpdatedAt":null,"verifiedAt":null}}]}