{"type":"FeatureCollection","features":[{"type":"Feature","geometry":{"type":"Point","coordinates":[18.8929401,47.6637661]},"properties":{"id":"water:7737fd48-780a-4d3d-9fd2-0aa092458f05","kind":"water","longitude":18.8929401,"latitude":47.6637661,"name":"Ivókút","city":null,"address":null,"covered":null,"access":null,"website":null,"phone":null,"source":"OpenStreetMap","sourceUpdatedAt":null,"verifiedAt":null}},{"type":"Feature","geometry":{"type":"Point","coordinates":[18.8549422,47.6363709]},"properties":{"id":"water:f8fef7a6-89e6-4571-98bf-41e95363962d","kind":"water","longitude":18.8549422,"latitude":47.6363709,"name":"Ivókút","city":null,"address":null,"covered":null,"access":null,"website":null,"phone":null,"source":"OpenStreetMap","sourceUpdatedAt":null,"verifiedAt":null}}]}