{"type":"FeatureCollection","features":[{"type":"Feature","geometry":{"type":"Point","coordinates":[18.8817294,47.5788672]},"properties":{"id":"bikerack:8d0f4c40-512d-4666-90c0-712feb45f34f","kind":"bikerack","longitude":18.8817294,"latitude":47.5788672,"name":"Biciklitároló","city":"Pilisszentivan","address":null,"covered":false,"access":null,"website":null,"phone":null,"source":"OpenStreetMap/node/8959072221","sourceUpdatedAt":null,"verifiedAt":null}},{"type":"Feature","geometry":{"type":"Point","coordinates":[18.8833369,47.5784807]},"properties":{"id":"bikerack:95e51754-8d80-48b6-b5f5-41eaa46a6b1b","kind":"bikerack","longitude":18.8833369,"latitude":47.5784807,"name":"Biciklitároló","city":"Pilisszentivan","address":null,"covered":false,"access":null,"website":null,"phone":null,"source":"OpenStreetMap/node/9562527094","sourceUpdatedAt":null,"verifiedAt":null}},{"type":"Feature","geometry":{"type":"Point","coordinates":[18.8827536,47.5784659]},"properties":{"id":"bikerack:d3bed090-e7f1-4483-82d4-0960b9a3618c","kind":"bikerack","longitude":18.8827536,"latitude":47.5784659,"name":"Biciklitároló","city":"Pilisszentivan","address":null,"covered":false,"access":null,"website":null,"phone":null,"source":"OpenStreetMap/node/9176651759","sourceUpdatedAt":null,"verifiedAt":null}},{"type":"Feature","geometry":{"type":"Point","coordinates":[18.8898396,47.5841255]},"properties":{"id":"water:46249a90-718e-4601-a763-ff61c99cb14e","kind":"water","longitude":18.8898396,"latitude":47.5841255,"name":"Ivókút","city":null,"address":null,"covered":null,"access":null,"website":null,"phone":null,"source":"OpenStreetMap","sourceUpdatedAt":null,"verifiedAt":null}},{"type":"Feature","geometry":{"type":"Point","coordinates":[18.8815413,47.5861264]},"properties":{"id":"water:cc2c6104-8b3c-4324-8b26-61b9b12b28a3","kind":"water","longitude":18.8815413,"latitude":47.5861264,"name":"Ivókút","city":null,"address":null,"covered":null,"access":null,"website":null,"phone":null,"source":"OpenStreetMap","sourceUpdatedAt":null,"verifiedAt":null}},{"type":"Feature","geometry":{"type":"Point","coordinates":[18.8832838,47.5785466]},"properties":{"id":"water:d8cd2e8e-2840-439e-8d34-a4208e2bca98","kind":"water","longitude":18.8832838,"latitude":47.5785466,"name":"Ivókút","city":null,"address":null,"covered":null,"access":null,"website":null,"phone":null,"source":"OpenStreetMap","sourceUpdatedAt":null,"verifiedAt":null}},{"type":"Feature","geometry":{"type":"Point","coordinates":[18.8805708,47.5774871]},"properties":{"id":"water:dfeaf59f-c8d2-408d-b0e7-326d17cf73a3","kind":"water","longitude":18.8805708,"latitude":47.5774871,"name":"Ivókút","city":null,"address":null,"covered":null,"access":null,"website":null,"phone":null,"source":"OpenStreetMap","sourceUpdatedAt":null,"verifiedAt":null}},{"type":"Feature","geometry":{"type":"Point","coordinates":[18.8730486,47.5772672]},"properties":{"id":"water:e2682cbc-420c-4d8e-bd2a-e28dfdddee29","kind":"water","longitude":18.8730486,"latitude":47.5772672,"name":"Ivókút","city":null,"address":null,"covered":null,"access":null,"website":null,"phone":null,"source":"OpenStreetMap","sourceUpdatedAt":null,"verifiedAt":null}},{"type":"Feature","geometry":{"type":"Point","coordinates":[18.8843025,47.5772927]},"properties":{"id":"water:ff77a35b-b1c4-44d1-8583-30790dd87b8f","kind":"water","longitude":18.8843025,"latitude":47.5772927,"name":"Ivókút","city":null,"address":null,"covered":null,"access":null,"website":null,"phone":null,"source":"OpenStreetMap","sourceUpdatedAt":null,"verifiedAt":null}}]}