{"type":"FeatureCollection","features":[{"type":"Feature","geometry":{"type":"Point","coordinates":[23.0397224,54.9559585]},"properties":{"id":"bikerack:4a94dc69-3f7f-4845-95b7-4f888c277d61","kind":"bikerack","longitude":23.0397224,"latitude":54.9559585,"name":"Bicycle Parking","city":"Sakiai","address":null,"covered":false,"access":null,"website":null,"phone":null,"source":"OpenStreetMap/node/3555322000","sourceUpdatedAt":null,"verifiedAt":null}},{"type":"Feature","geometry":{"type":"Point","coordinates":[23.040519,54.9560016]},"properties":{"id":"bikerack:92285bd4-8cd8-40ea-9fd5-11d5a75b7860","kind":"bikerack","longitude":23.040519,"latitude":54.9560016,"name":"Bicycle Parking","city":"Sakiai","address":null,"covered":false,"access":null,"website":null,"phone":null,"source":"OpenStreetMap/node/3555322002","sourceUpdatedAt":null,"verifiedAt":null}},{"type":"Feature","geometry":{"type":"Point","coordinates":[23.0385104,54.9559785]},"properties":{"id":"bikerack:967839cc-dbd4-420b-9a57-e670d269cf81","kind":"bikerack","longitude":23.0385104,"latitude":54.9559785,"name":"Bicycle Parking","city":"Sakiai","address":null,"covered":false,"access":null,"website":null,"phone":null,"source":"OpenStreetMap/node/3555321999","sourceUpdatedAt":null,"verifiedAt":null}},{"type":"Feature","geometry":{"type":"Point","coordinates":[23.0454726,54.9540501]},"properties":{"id":"bikerack:ef1466fb-a69b-4bf6-a60b-f29e055a64a9","kind":"bikerack","longitude":23.0454726,"latitude":54.9540501,"name":"Bicycle Parking","city":"Sakiai","address":null,"covered":false,"access":null,"website":null,"phone":null,"source":"OpenStreetMap/node/3555322003","sourceUpdatedAt":null,"verifiedAt":null}},{"type":"Feature","geometry":{"type":"Point","coordinates":[23.046998,54.9524108]},"properties":{"id":"service:241a8f42-cb7e-49a6-bf59-02f1261a82e8","kind":"service","longitude":23.046998,"latitude":54.9524108,"name":"MB Dviračiai","city":"Šakiai","address":null,"covered":null,"access":null,"website":null,"phone":null,"source":"OpenStreetMap/node/4289639489","sourceUpdatedAt":null,"verifiedAt":null}}]}