{"type":"FeatureCollection","features":[{"type":"Feature","geometry":{"type":"Point","coordinates":[23.0459299,52.0258804]},"properties":{"id":"bikerack:65ba18b7-7010-4508-b4f7-bb9f67265ab4","kind":"bikerack","longitude":23.0459299,"latitude":52.0258804,"name":"Biciklitároló","city":"Biala Podlaska","address":null,"covered":false,"access":null,"website":null,"phone":null,"source":"OpenStreetMap/node/7642448612","sourceUpdatedAt":null,"verifiedAt":null}},{"type":"Feature","geometry":{"type":"Point","coordinates":[23.0461408,52.0259994]},"properties":{"id":"bikerack:756ef657-22af-423d-b747-e7eec18b16ca","kind":"bikerack","longitude":23.0461408,"latitude":52.0259994,"name":"Biciklitároló","city":"Biala Podlaska","address":null,"covered":false,"access":null,"website":null,"phone":null,"source":"OpenStreetMap/node/7642448609","sourceUpdatedAt":null,"verifiedAt":null}}]}