{"type":"FeatureCollection","features":[{"type":"Feature","geometry":{"type":"Point","coordinates":[10.4177941,54.1643246]},"properties":{"id":"bikerack:3092992c-8753-4804-babd-1c43b29347d8","kind":"bikerack","longitude":10.4177941,"latitude":54.1643246,"name":"Fahrradabstellplatz","city":"Ploen","address":null,"covered":false,"access":null,"website":null,"phone":null,"source":"OpenStreetMap/way/717191707","sourceUpdatedAt":null,"verifiedAt":null}},{"type":"Feature","geometry":{"type":"Point","coordinates":[10.4172879,54.1642152]},"properties":{"id":"bikerack:71e8ded7-311f-49f7-b525-98447bfd0929","kind":"bikerack","longitude":10.4172879,"latitude":54.1642152,"name":"Fahrradabstellplatz","city":"Ploen","address":null,"covered":false,"access":null,"website":null,"phone":null,"source":"OpenStreetMap/way/717191706","sourceUpdatedAt":null,"verifiedAt":null}},{"type":"Feature","geometry":{"type":"Point","coordinates":[10.4177857,54.1643389]},"properties":{"id":"bikerack:b40003b2-ec11-4a5f-baa9-808a7d735c6f","kind":"bikerack","longitude":10.4177857,"latitude":54.1643389,"name":"Fahrradabstellplatz","city":"Ploen","address":null,"covered":false,"access":null,"website":null,"phone":null,"source":"OpenStreetMap/node/6485065474","sourceUpdatedAt":null,"verifiedAt":null}}]}