{"type":"FeatureCollection","features":[{"type":"Feature","geometry":{"type":"Point","coordinates":[10.4154803,53.2475635]},"properties":{"id":"bikerack:19b39a35-1d2d-4c53-9f91-0775fdc9ee57","kind":"bikerack","longitude":10.4154803,"latitude":53.2475635,"name":"Fahrradabstellplatz","city":"Lueneburg","address":null,"covered":false,"access":null,"website":null,"phone":null,"source":"OpenStreetMap/node/11037942471","sourceUpdatedAt":null,"verifiedAt":null}},{"type":"Feature","geometry":{"type":"Point","coordinates":[10.4424688,53.2405961]},"properties":{"id":"bikerack:23c48994-846b-4192-a2a1-911dc7e39c62","kind":"bikerack","longitude":10.4424688,"latitude":53.2405961,"name":"Fahrradabstellplatz","city":"Lueneburg","address":null,"covered":false,"access":null,"website":null,"phone":null,"source":"OpenStreetMap/way/1181301234","sourceUpdatedAt":null,"verifiedAt":null}},{"type":"Feature","geometry":{"type":"Point","coordinates":[10.4163135,53.2462983]},"properties":{"id":"bikerack:28b55b97-b55f-465a-b30e-1c57434a4e2a","kind":"bikerack","longitude":10.4163135,"latitude":53.2462983,"name":"Fahrradabstellplatz","city":"Lueneburg","address":null,"covered":false,"access":null,"website":null,"phone":null,"source":"OpenStreetMap/node/12723478882","sourceUpdatedAt":null,"verifiedAt":null}},{"type":"Feature","geometry":{"type":"Point","coordinates":[10.4218964,53.2491301]},"properties":{"id":"bikerack:292fce2e-c320-4cdb-9a77-1da05081cdc9","kind":"bikerack","longitude":10.4218964,"latitude":53.2491301,"name":"Fahrradabstellplatz","city":"Lueneburg","address":null,"covered":true,"access":null,"website":null,"phone":null,"source":"OpenStreetMap/node/1795389799","sourceUpdatedAt":null,"verifiedAt":null}},{"type":"Feature","geometry":{"type":"Point","coordinates":[10.4184833,53.2490527]},"properties":{"id":"bikerack:2b7d320a-5292-44dc-8de7-d4bd243b57d7","kind":"bikerack","longitude":10.4184833,"latitude":53.2490527,"name":"Fahrradabstellplatz","city":"Lueneburg","address":null,"covered":true,"access":null,"website":null,"phone":null,"source":"OpenStreetMap/way/209380151","sourceUpdatedAt":null,"verifiedAt":null}},{"type":"Feature","geometry":{"type":"Point","coordinates":[10.4415472,53.2405775]},"properties":{"id":"bikerack:375011df-6280-4a34-a917-4a740bef7b22","kind":"bikerack","longitude":10.4415472,"latitude":53.2405775,"name":"Fahrradabstellplatz","city":"Lueneburg","address":null,"covered":false,"access":null,"website":null,"phone":null,"source":"OpenStreetMap/node/10588839205","sourceUpdatedAt":null,"verifiedAt":null}},{"type":"Feature","geometry":{"type":"Point","coordinates":[10.4185545,53.2489955]},"properties":{"id":"bikerack:4317f5a9-71b8-4237-a95c-12f7a418246a","kind":"bikerack","longitude":10.4185545,"latitude":53.2489955,"name":"Fahrradabstellplatz","city":"Lueneburg","address":null,"covered":true,"access":null,"website":null,"phone":null,"source":"OpenStreetMap/node/11248716439","sourceUpdatedAt":null,"verifiedAt":null}},{"type":"Feature","geometry":{"type":"Point","coordinates":[10.4345767,53.2386784]},"properties":{"id":"bikerack:50f32373-cda8-4aa3-9bef-43229d0767af","kind":"bikerack","longitude":10.4345767,"latitude":53.2386784,"name":"Fahrradabstellplatz","city":"Lueneburg","address":null,"covered":false,"access":null,"website":null,"phone":null,"source":"OpenStreetMap/way/502000830","sourceUpdatedAt":null,"verifiedAt":null}},{"type":"Feature","geometry":{"type":"Point","coordinates":[10.4186029,53.248691]},"properties":{"id":"bikerack:534eb4da-a009-4669-8647-c7aa1a8c59e9","kind":"bikerack","longitude":10.4186029,"latitude":53.248691,"name":"Fahrradabstellplatz","city":"Lueneburg","address":null,"covered":false,"access":null,"website":null,"phone":null,"source":"OpenStreetMap/node/12759990233","sourceUpdatedAt":null,"verifiedAt":null}},{"type":"Feature","geometry":{"type":"Point","coordinates":[10.4183503,53.2493687]},"properties":{"id":"bikerack:6f1eb571-a5c8-488d-9eb3-0000ea6fee12","kind":"bikerack","longitude":10.4183503,"latitude":53.2493687,"name":"Fahrradabstellplatz","city":"Lueneburg","address":null,"covered":false,"access":null,"website":null,"phone":null,"source":"OpenStreetMap/node/12777833878","sourceUpdatedAt":null,"verifiedAt":null}},{"type":"Feature","geometry":{"type":"Point","coordinates":[10.438035,53.2398055]},"properties":{"id":"bikerack:6fac8813-6cdd-4b5f-aac4-75ccd0c10b50","kind":"bikerack","longitude":10.438035,"latitude":53.2398055,"name":"Fahrradabstellplatz","city":"Lueneburg","address":null,"covered":false,"access":null,"website":null,"phone":null,"source":"OpenStreetMap/node/10103470519","sourceUpdatedAt":null,"verifiedAt":null}},{"type":"Feature","geometry":{"type":"Point","coordinates":[10.4353934,53.2400851]},"properties":{"id":"bikerack:7b87cdea-509d-4b61-86c2-cf6e7977f768","kind":"bikerack","longitude":10.4353934,"latitude":53.2400851,"name":"Fahrradabstellplatz","city":"Lueneburg","address":null,"covered":false,"access":null,"website":null,"phone":null,"source":"OpenStreetMap/way/338339342","sourceUpdatedAt":null,"verifiedAt":null}},{"type":"Feature","geometry":{"type":"Point","coordinates":[10.4457628,53.2316548]},"properties":{"id":"bikerack:83b31f03-a366-40b2-bae5-455fc6315fb0","kind":"bikerack","longitude":10.4457628,"latitude":53.2316548,"name":"Fahrradabstellplatz","city":"Wendisch Evern","address":null,"covered":true,"access":null,"website":null,"phone":null,"source":"OpenStreetMap/node/1258823699","sourceUpdatedAt":null,"verifiedAt":null}},{"type":"Feature","geometry":{"type":"Point","coordinates":[10.4434721,53.2347149]},"properties":{"id":"bikerack:83e7a97a-2cd2-4462-85f0-ddfd431a6fee","kind":"bikerack","longitude":10.4434721,"latitude":53.2347149,"name":"Fahrradabstellplatz","city":"Wendisch Evern","address":null,"covered":false,"access":null,"website":null,"phone":null,"source":"OpenStreetMap/node/5378854673","sourceUpdatedAt":null,"verifiedAt":null}},{"type":"Feature","geometry":{"type":"Point","coordinates":[10.4374921,53.2400819]},"properties":{"id":"bikerack:84fdd457-c98f-431b-8171-2080c312e5eb","kind":"bikerack","longitude":10.4374921,"latitude":53.2400819,"name":"Fahrradabstellplatz","city":"Lueneburg","address":null,"covered":false,"access":null,"website":null,"phone":null,"source":"OpenStreetMap/node/10103470518","sourceUpdatedAt":null,"verifiedAt":null}},{"type":"Feature","geometry":{"type":"Point","coordinates":[10.4204529,53.2491417]},"properties":{"id":"bikerack:998599e9-2299-4e87-89e1-b8268a8be03a","kind":"bikerack","longitude":10.4204529,"latitude":53.2491417,"name":"Fahrradabstellplatz","city":"Lueneburg","address":null,"covered":false,"access":null,"website":null,"phone":null,"source":"OpenStreetMap/node/12988211930","sourceUpdatedAt":null,"verifiedAt":null}},{"type":"Feature","geometry":{"type":"Point","coordinates":[10.4371142,53.2404951]},"properties":{"id":"bikerack:a13a95e9-5bd6-4390-b976-1ba1d6827fc8","kind":"bikerack","longitude":10.4371142,"latitude":53.2404951,"name":"Fahrradabstellplatz","city":"Lueneburg","address":null,"covered":false,"access":null,"website":null,"phone":null,"source":"OpenStreetMap/node/10103438320","sourceUpdatedAt":null,"verifiedAt":null}},{"type":"Feature","geometry":{"type":"Point","coordinates":[10.4405571,53.2398045]},"properties":{"id":"bikerack:a18a457c-7bd9-423f-8598-fc3e76cefadd","kind":"bikerack","longitude":10.4405571,"latitude":53.2398045,"name":"Fahrradabstellplatz","city":"Lueneburg","address":null,"covered":false,"access":null,"website":null,"phone":null,"source":"OpenStreetMap/node/13152559425","sourceUpdatedAt":null,"verifiedAt":null}},{"type":"Feature","geometry":{"type":"Point","coordinates":[10.4160849,53.2463609]},"properties":{"id":"bikerack:a59d1c75-00fb-4aef-929d-92c5600a4596","kind":"bikerack","longitude":10.4160849,"latitude":53.2463609,"name":"Fahrradabstellplatz","city":"Lueneburg","address":null,"covered":false,"access":null,"website":null,"phone":null,"source":"OpenStreetMap/node/8660022621","sourceUpdatedAt":null,"verifiedAt":null}},{"type":"Feature","geometry":{"type":"Point","coordinates":[10.4215268,53.2272293]},"properties":{"id":"bikerack:a5c59c2e-8400-4e33-85df-063412236e06","kind":"bikerack","longitude":10.4215268,"latitude":53.2272293,"name":"Fahrradabstellplatz","city":"Lueneburg","address":null,"covered":false,"access":null,"website":null,"phone":null,"source":"OpenStreetMap/node/12471743949","sourceUpdatedAt":null,"verifiedAt":null}},{"type":"Feature","geometry":{"type":"Point","coordinates":[10.4194209,53.2506327]},"properties":{"id":"bikerack:a89fdb00-0f21-4a1a-b3c9-4089dee6105f","kind":"bikerack","longitude":10.4194209,"latitude":53.2506327,"name":"Radspeicher","city":"Lueneburg","address":null,"covered":true,"access":null,"website":null,"phone":null,"source":"OpenStreetMap/way/32855774","sourceUpdatedAt":null,"verifiedAt":null}},{"type":"Feature","geometry":{"type":"Point","coordinates":[10.4171642,53.2512229]},"properties":{"id":"bikerack:a8a86a01-0dc1-42e4-9f4d-319e4726dca2","kind":"bikerack","longitude":10.4171642,"latitude":53.2512229,"name":"Fahrradabstellplatz","city":"Lueneburg","address":null,"covered":false,"access":null,"website":null,"phone":null,"source":"OpenStreetMap/node/12149555852","sourceUpdatedAt":null,"verifiedAt":null}},{"type":"Feature","geometry":{"type":"Point","coordinates":[10.4150833,53.2505219]},"properties":{"id":"bikerack:b7cbc548-fe67-4ff2-a334-c5048b4aa66b","kind":"bikerack","longitude":10.4150833,"latitude":53.2505219,"name":"Fahrradabstellplatz","city":"Lueneburg","address":null,"covered":false,"access":null,"website":null,"phone":null,"source":"OpenStreetMap/node/5327465356","sourceUpdatedAt":null,"verifiedAt":null}},{"type":"Feature","geometry":{"type":"Point","coordinates":[10.4304542,53.2456526]},"properties":{"id":"bikerack:bc81db6c-5f45-41a2-94fc-6d5d314d4c58","kind":"bikerack","longitude":10.4304542,"latitude":53.2456526,"name":"Fahrradabstellplatz","city":"Lueneburg","address":null,"covered":false,"access":null,"website":null,"phone":null,"source":"OpenStreetMap/way/91853326","sourceUpdatedAt":null,"verifiedAt":null}},{"type":"Feature","geometry":{"type":"Point","coordinates":[10.4173771,53.2477653]},"properties":{"id":"bikerack:be5ae6c6-1608-462a-9165-aea374dcf987","kind":"bikerack","longitude":10.4173771,"latitude":53.2477653,"name":"Fahrradabstellplatz","city":"Lueneburg","address":null,"covered":false,"access":null,"website":null,"phone":null,"source":"OpenStreetMap/node/12722357457","sourceUpdatedAt":null,"verifiedAt":null}},{"type":"Feature","geometry":{"type":"Point","coordinates":[10.4173226,53.2481785]},"properties":{"id":"bikerack:c760da9e-5456-4af0-b33e-bdec451d0280","kind":"bikerack","longitude":10.4173226,"latitude":53.2481785,"name":"Fahrradabstellplatz","city":"Lueneburg","address":null,"covered":false,"access":null,"website":null,"phone":null,"source":"OpenStreetMap/node/13036987294","sourceUpdatedAt":null,"verifiedAt":null}},{"type":"Feature","geometry":{"type":"Point","coordinates":[10.4503966,53.2455292]},"properties":{"id":"bikerack:cbda9700-e46a-4ee6-8def-939403212a43","kind":"bikerack","longitude":10.4503966,"latitude":53.2455292,"name":"Fahrradabstellplatz","city":"Wendisch Evern","address":null,"covered":false,"access":null,"website":null,"phone":null,"source":"OpenStreetMap/node/11032424166","sourceUpdatedAt":null,"verifiedAt":null}},{"type":"Feature","geometry":{"type":"Point","coordinates":[10.4194392,53.2503505]},"properties":{"id":"bikerack:d569a4b1-b27d-4ffb-91f6-b25266a5915f","kind":"bikerack","longitude":10.4194392,"latitude":53.2503505,"name":"Radspeicher","city":"Lueneburg","address":null,"covered":true,"access":null,"website":null,"phone":null,"source":"OpenStreetMap/node/11248716342","sourceUpdatedAt":null,"verifiedAt":null}},{"type":"Feature","geometry":{"type":"Point","coordinates":[10.4311437,53.235399]},"properties":{"id":"bikerack:d5bda5ed-8108-48a7-a172-f6f6dabe98ce","kind":"bikerack","longitude":10.4311437,"latitude":53.235399,"name":"Fahrradabstellplatz","city":"Lueneburg","address":null,"covered":false,"access":null,"website":null,"phone":null,"source":"OpenStreetMap/node/9472404566","sourceUpdatedAt":null,"verifiedAt":null}},{"type":"Feature","geometry":{"type":"Point","coordinates":[10.4395896,53.2419459]},"properties":{"id":"bikerack:e3a380ae-cd97-455b-a01c-68a9986be173","kind":"bikerack","longitude":10.4395896,"latitude":53.2419459,"name":"Fahrradabstellplatz","city":"Lueneburg","address":null,"covered":false,"access":null,"website":null,"phone":null,"source":"OpenStreetMap/node/10604606905","sourceUpdatedAt":null,"verifiedAt":null}},{"type":"Feature","geometry":{"type":"Point","coordinates":[10.4404822,53.2472882]},"properties":{"id":"repair:d321a1de-b457-4f8d-9bcc-a721367d7a2d","kind":"repair","longitude":10.4404822,"latitude":53.2472882,"name":"Fahrradreparaturstation","city":"Lueneburg","address":null,"covered":false,"access":null,"website":null,"phone":null,"source":"OpenStreetMap/node/10918320991","sourceUpdatedAt":null,"verifiedAt":null}},{"type":"Feature","geometry":{"type":"Point","coordinates":[10.4356012,53.2384086]},"properties":{"id":"repair:fafcc1b6-a1c8-42f7-847a-516f99ab7c58","kind":"repair","longitude":10.4356012,"latitude":53.2384086,"name":"Fahrradreparaturstation","city":"Lueneburg","address":null,"covered":false,"access":null,"website":null,"phone":null,"source":"OpenStreetMap/node/12703554317","sourceUpdatedAt":null,"verifiedAt":null}},{"type":"Feature","geometry":{"type":"Point","coordinates":[10.4211208,53.2441429]},"properties":{"id":"service:00e6a884-1f1a-4d42-b6a8-dd7b5c0f011a","kind":"service","longitude":10.4211208,"latitude":53.2441429,"name":"Fahrrad-Selbsthilfe-Werkstatt (WerkStadt Lüneburg)","city":"Lüneburg","address":null,"covered":null,"access":null,"website":null,"phone":null,"source":"OpenStreetMap/node/12755488842","sourceUpdatedAt":null,"verifiedAt":null}},{"type":"Feature","geometry":{"type":"Point","coordinates":[10.4476715,53.2309504]},"properties":{"id":"service:20a42f87-023e-40eb-bc1b-528b861f04fe","kind":"service","longitude":10.4476715,"latitude":53.2309504,"name":"BikePark Timm","city":"Lüneburg","address":null,"covered":null,"access":null,"website":null,"phone":null,"source":"OpenStreetMap/node/9559936325","sourceUpdatedAt":null,"verifiedAt":null}},{"type":"Feature","geometry":{"type":"Point","coordinates":[10.4194377,53.2502584]},"properties":{"id":"service:92c9267a-ec15-4487-b487-188d4425875c","kind":"service","longitude":10.4194377,"latitude":53.2502584,"name":"Rad am Bahnhof","city":"Lueneburg","address":null,"covered":null,"access":null,"website":null,"phone":null,"source":"OpenStreetMap/node/3778470753","sourceUpdatedAt":null,"verifiedAt":null}},{"type":"Feature","geometry":{"type":"Point","coordinates":[10.4474414,53.2307811]},"properties":{"id":"service:f3883dfb-96d1-4ae6-ace2-a6bac72c42b9","kind":"service","longitude":10.4474414,"latitude":53.2307811,"name":"BikePark Timm","city":"Lüneburg","address":null,"covered":null,"access":null,"website":null,"phone":null,"source":"OpenStreetMap/way/117103254","sourceUpdatedAt":null,"verifiedAt":null}},{"type":"Feature","geometry":{"type":"Point","coordinates":[10.4349104,53.2386418]},"properties":{"id":"water:8529d82b-910a-44b0-9694-93eeb243363c","kind":"water","longitude":10.4349104,"latitude":53.2386418,"name":"Trinkwasser","city":"Lueneburg","address":null,"covered":null,"access":null,"website":null,"phone":null,"source":"OpenStreetMap/node/13140848352","sourceUpdatedAt":null,"verifiedAt":null}}]}