{"type":"FeatureCollection","features":[{"type":"Feature","geometry":{"type":"Point","coordinates":[10.4571865,51.2100969]},"properties":{"id":"bikerack:3c93157c-b1ea-4870-a13d-137c3f98f9e3","kind":"bikerack","longitude":10.4571865,"latitude":51.2100969,"name":"Fahrradabstellplatz","city":"Muehlhausen","address":null,"covered":false,"access":null,"website":null,"phone":null,"source":"OpenStreetMap/node/12207030546","sourceUpdatedAt":null,"verifiedAt":null}},{"type":"Feature","geometry":{"type":"Point","coordinates":[10.4589263,51.2074387]},"properties":{"id":"bikerack:41840c50-c6db-49e4-8f1d-c224e79181f9","kind":"bikerack","longitude":10.4589263,"latitude":51.2074387,"name":"Fahrradabstellplatz","city":"Muehlhausen","address":null,"covered":false,"access":null,"website":null,"phone":null,"source":"OpenStreetMap/node/13026934391","sourceUpdatedAt":null,"verifiedAt":null}},{"type":"Feature","geometry":{"type":"Point","coordinates":[10.4549769,51.2098068]},"properties":{"id":"bikerack:4412b378-5591-4196-9f15-d496cbb24f27","kind":"bikerack","longitude":10.4549769,"latitude":51.2098068,"name":"Fahrradabstellplatz","city":"Muehlhausen","address":null,"covered":false,"access":null,"website":null,"phone":null,"source":"OpenStreetMap/node/12207024886","sourceUpdatedAt":null,"verifiedAt":null}},{"type":"Feature","geometry":{"type":"Point","coordinates":[10.4505309,51.2079384]},"properties":{"id":"bikerack:528748c6-1645-4822-b22a-3175681b16e4","kind":"bikerack","longitude":10.4505309,"latitude":51.2079384,"name":"Fahrradabstellplatz","city":"Muehlhausen","address":null,"covered":false,"access":null,"website":null,"phone":null,"source":"OpenStreetMap/node/8646783402","sourceUpdatedAt":null,"verifiedAt":null}},{"type":"Feature","geometry":{"type":"Point","coordinates":[10.4527605,51.222945]},"properties":{"id":"bikerack:5a710df0-4e9a-420d-815d-6e0d52182843","kind":"bikerack","longitude":10.4527605,"latitude":51.222945,"name":"Fahrradabstellplatz","city":"Muehlhausen","address":null,"covered":false,"access":null,"website":null,"phone":null,"source":"OpenStreetMap/node/765300924","sourceUpdatedAt":null,"verifiedAt":null}},{"type":"Feature","geometry":{"type":"Point","coordinates":[10.4580078,51.2074432]},"properties":{"id":"bikerack:8be4e722-70df-4e52-ad31-ab9e83a11644","kind":"bikerack","longitude":10.4580078,"latitude":51.2074432,"name":"Fahrradabstellplatz","city":"Muehlhausen","address":null,"covered":false,"access":null,"website":null,"phone":null,"source":"OpenStreetMap/node/12206902458","sourceUpdatedAt":null,"verifiedAt":null}},{"type":"Feature","geometry":{"type":"Point","coordinates":[10.45593,51.2099969]},"properties":{"id":"bikerack:8e21384b-345c-40da-bcd6-43da83878c94","kind":"bikerack","longitude":10.45593,"latitude":51.2099969,"name":"Fahrradabstellplatz","city":"Muehlhausen","address":null,"covered":false,"access":null,"website":null,"phone":null,"source":"OpenStreetMap/node/12207050334","sourceUpdatedAt":null,"verifiedAt":null}},{"type":"Feature","geometry":{"type":"Point","coordinates":[10.4501978,51.2090323]},"properties":{"id":"bikerack:9d02f04a-9abf-4f1c-ae1f-b2b9c1539252","kind":"bikerack","longitude":10.4501978,"latitude":51.2090323,"name":"Fahrradabstellplatz","city":"Muehlhausen","address":null,"covered":false,"access":null,"website":null,"phone":null,"source":"OpenStreetMap/node/8646770639","sourceUpdatedAt":null,"verifiedAt":null}},{"type":"Feature","geometry":{"type":"Point","coordinates":[10.4547647,51.2100718]},"properties":{"id":"bikerack:b18bc7ca-3215-4447-884a-e192813fbcf1","kind":"bikerack","longitude":10.4547647,"latitude":51.2100718,"name":"Fahrradabstellplatz","city":"Muehlhausen","address":null,"covered":false,"access":null,"website":null,"phone":null,"source":"OpenStreetMap/node/12207061565","sourceUpdatedAt":null,"verifiedAt":null}},{"type":"Feature","geometry":{"type":"Point","coordinates":[10.4588603,51.2100622]},"properties":{"id":"bikerack:c928bd13-400a-4d70-9910-99794c5b2755","kind":"bikerack","longitude":10.4588603,"latitude":51.2100622,"name":"Fahrradabstellplatz","city":"Muehlhausen","address":null,"covered":false,"access":null,"website":null,"phone":null,"source":"OpenStreetMap/node/13026904045","sourceUpdatedAt":null,"verifiedAt":null}},{"type":"Feature","geometry":{"type":"Point","coordinates":[10.4550232,51.209808]},"properties":{"id":"bikerack:ee747121-f7db-48b2-adbd-5ecffeaadc71","kind":"bikerack","longitude":10.4550232,"latitude":51.209808,"name":"Fahrradabstellplatz","city":"Muehlhausen","address":null,"covered":false,"access":null,"website":null,"phone":null,"source":"OpenStreetMap/node/12207008122","sourceUpdatedAt":null,"verifiedAt":null}},{"type":"Feature","geometry":{"type":"Point","coordinates":[10.4576026,51.2084336]},"properties":{"id":"bikerack:f8e183eb-786d-4633-b4ab-cab5abab8139","kind":"bikerack","longitude":10.4576026,"latitude":51.2084336,"name":"Fahrradabstellplatz","city":"Muehlhausen","address":null,"covered":false,"access":null,"website":null,"phone":null,"source":"OpenStreetMap/node/12207017258","sourceUpdatedAt":null,"verifiedAt":null}},{"type":"Feature","geometry":{"type":"Point","coordinates":[10.4578494,51.2100669]},"properties":{"id":"water:1d280902-3184-4f5c-9bbd-4fa5a02beaef","kind":"water","longitude":10.4578494,"latitude":51.2100669,"name":"Trinkwasser","city":"Muehlhausen","address":null,"covered":null,"access":null,"website":null,"phone":null,"source":"OpenStreetMap/node/2012066586","sourceUpdatedAt":null,"verifiedAt":null}}]}