{"type":"FeatureCollection","features":[{"type":"Feature","geometry":{"type":"Point","coordinates":[10.4153612,49.5008081]},"properties":{"id":"bikerack:326fcffc-fef5-4427-850c-d0fa315d31f7","kind":"bikerack","longitude":10.4153612,"latitude":49.5008081,"name":"Fahrradabstellplatz","city":"Bad Windsheim","address":null,"covered":false,"access":null,"website":null,"phone":null,"source":"OpenStreetMap/node/678826721","sourceUpdatedAt":null,"verifiedAt":null}},{"type":"Feature","geometry":{"type":"Point","coordinates":[10.4233351,49.5024435]},"properties":{"id":"bikerack:6436244a-3a9a-4531-bef7-779c145f469a","kind":"bikerack","longitude":10.4233351,"latitude":49.5024435,"name":"Fahrradabstellplatz","city":"Bad Windsheim","address":null,"covered":false,"access":null,"website":null,"phone":null,"source":"OpenStreetMap/way/118146787","sourceUpdatedAt":null,"verifiedAt":null}},{"type":"Feature","geometry":{"type":"Point","coordinates":[10.4191113,49.4983809]},"properties":{"id":"bikerack:8b97dcf1-06be-444e-b283-8f5024c86283","kind":"bikerack","longitude":10.4191113,"latitude":49.4983809,"name":"Fahrradabstellplatz","city":"Bad Windsheim","address":null,"covered":false,"access":null,"website":null,"phone":null,"source":"OpenStreetMap/node/9019443298","sourceUpdatedAt":null,"verifiedAt":null}},{"type":"Feature","geometry":{"type":"Point","coordinates":[10.440225,49.5074237]},"properties":{"id":"service:c3257d55-8df4-408f-b6e2-1dc6458aacc4","kind":"service","longitude":10.440225,"latitude":49.5074237,"name":"Rupp’s Fahrradkiste","city":"Bad Windsheim","address":null,"covered":null,"access":null,"website":null,"phone":null,"source":"OpenStreetMap/node/11065521563","sourceUpdatedAt":null,"verifiedAt":null}},{"type":"Feature","geometry":{"type":"Point","coordinates":[10.4177525,49.502309]},"properties":{"id":"water:cdfdcf59-f13a-4b3c-a00a-537264782e81","kind":"water","longitude":10.4177525,"latitude":49.502309,"name":"Trinkwasser","city":"Bad Windsheim","address":null,"covered":null,"access":null,"website":null,"phone":null,"source":"OpenStreetMap/node/13156008815","sourceUpdatedAt":null,"verifiedAt":null}}]}