{"type":"FeatureCollection","features":[{"type":"Feature","geometry":{"type":"Point","coordinates":[10.4558795,46.7158876]},"properties":{"id":"water:168b4ec1-5b67-4936-a4bb-f493bd7127d6","kind":"water","longitude":10.4558795,"latitude":46.7158876,"name":"Fontanella","city":"Tubre","address":null,"covered":null,"access":null,"website":null,"phone":null,"source":"OpenStreetMap/node/4497127688","sourceUpdatedAt":null,"verifiedAt":null}},{"type":"Feature","geometry":{"type":"Point","coordinates":[10.4503268,46.7238453]},"properties":{"id":"water:171e2f23-9e03-45f7-a0be-d39861e1bfda","kind":"water","longitude":10.4503268,"latitude":46.7238453,"name":"Fontanella","city":"Tubre","address":null,"covered":null,"access":null,"website":null,"phone":null,"source":"OpenStreetMap/node/4372049660","sourceUpdatedAt":null,"verifiedAt":null}}]}