{"type":"FeatureCollection","features":[{"type":"Feature","geometry":{"type":"Point","coordinates":[9.466108,54.0473891]},"properties":{"id":"bikerack:ced1f257-2113-4dff-9818-919c1f863200","kind":"bikerack","longitude":9.466108,"latitude":54.0473891,"name":"Fahrradabstellplatz","city":"Hadenfeld","address":null,"covered":false,"access":null,"website":null,"phone":null,"source":"OpenStreetMap/node/9966640151","sourceUpdatedAt":null,"verifiedAt":null}},{"type":"Feature","geometry":{"type":"Point","coordinates":[9.4818693,54.0465329]},"properties":{"id":"repair:06cad2b7-3676-4d23-adad-4ec6632357b4","kind":"repair","longitude":9.4818693,"latitude":54.0465329,"name":"Fahrradreparaturstation","city":"Schenefeld","address":null,"covered":false,"access":null,"website":null,"phone":null,"source":"OpenStreetMap/node/10819257362","sourceUpdatedAt":null,"verifiedAt":null}},{"type":"Feature","geometry":{"type":"Point","coordinates":[9.4886399,54.0370702]},"properties":{"id":"repair:d1fec0b5-e63f-431f-9968-b63c91030bfa","kind":"repair","longitude":9.4886399,"latitude":54.0370702,"name":"Fahrradreparaturstation","city":"Poschendorf","address":null,"covered":false,"access":null,"website":null,"phone":null,"source":"OpenStreetMap/node/13630429933","sourceUpdatedAt":null,"verifiedAt":null}}]}