{"type":"FeatureCollection","features":[{"type":"Feature","geometry":{"type":"Point","coordinates":[9.4739123,49.6096228]},"properties":{"id":"bikerack:167761cf-8315-4a1d-8adb-cba7c75f7cf1","kind":"bikerack","longitude":9.4739123,"latitude":49.6096228,"name":"Fahrradabstellplatz","city":"Hardheim","address":null,"covered":false,"access":null,"website":null,"phone":null,"source":"OpenStreetMap/node/7255673630","sourceUpdatedAt":null,"verifiedAt":null}},{"type":"Feature","geometry":{"type":"Point","coordinates":[9.4742679,49.6088412]},"properties":{"id":"bikerack:1853c988-9da9-495a-830a-3c014dc91a88","kind":"bikerack","longitude":9.4742679,"latitude":49.6088412,"name":"Fahrradabstellplatz","city":"Hardheim","address":null,"covered":false,"access":null,"website":null,"phone":null,"source":"OpenStreetMap/node/12695478516","sourceUpdatedAt":null,"verifiedAt":null}},{"type":"Feature","geometry":{"type":"Point","coordinates":[9.4760336,49.6085553]},"properties":{"id":"bikerack:439db246-d46c-4d6f-8522-9f6e05b6d722","kind":"bikerack","longitude":9.4760336,"latitude":49.6085553,"name":"Fahrradabstellplatz","city":"Hardheim","address":null,"covered":false,"access":null,"website":null,"phone":null,"source":"OpenStreetMap/node/7253437683","sourceUpdatedAt":null,"verifiedAt":null}},{"type":"Feature","geometry":{"type":"Point","coordinates":[9.4742341,49.6082812]},"properties":{"id":"bikerack:9acd852e-add4-4ebd-b853-7d110bbc37ad","kind":"bikerack","longitude":9.4742341,"latitude":49.6082812,"name":"Fahrradabstellplatz","city":"Hardheim","address":null,"covered":false,"access":null,"website":null,"phone":null,"source":"OpenStreetMap/node/7255673644","sourceUpdatedAt":null,"verifiedAt":null}},{"type":"Feature","geometry":{"type":"Point","coordinates":[9.4710422,49.6100203]},"properties":{"id":"bikerack:f2a1cae1-0533-4360-911b-11af5bfa4b8a","kind":"bikerack","longitude":9.4710422,"latitude":49.6100203,"name":"Fahrradabstellplatz","city":"Hardheim","address":null,"covered":false,"access":null,"website":null,"phone":null,"source":"OpenStreetMap/node/7253437741","sourceUpdatedAt":null,"verifiedAt":null}}]}