{"type":"FeatureCollection","features":[{"type":"Feature","geometry":{"type":"Point","coordinates":[9.4568798,47.2742034]},"properties":{"id":"water:e4a0d3af-9e58-4fd8-aca5-f0d94236903a","kind":"water","longitude":9.4568798,"latitude":47.2742034,"name":"Drinking Fountain","city":"Sennwald","address":null,"covered":null,"access":null,"website":null,"phone":null,"source":"OpenStreetMap/node/9203080735","sourceUpdatedAt":null,"verifiedAt":null}},{"type":"Feature","geometry":{"type":"Point","coordinates":[9.4491266,47.2495308]},"properties":{"id":"water:e4acc464-2e8f-4947-b996-e6c3aad0e515","kind":"water","longitude":9.4491266,"latitude":47.2495308,"name":"Drinking Fountain","city":"Gams","address":null,"covered":null,"access":null,"website":null,"phone":null,"source":"OpenStreetMap/node/2369049457","sourceUpdatedAt":null,"verifiedAt":null}}]}