{"type":"FeatureCollection","features":[{"type":"Feature","geometry":{"type":"Point","coordinates":[9.4873728,45.9306918]},"properties":{"id":"bikerack:15247165-7cc6-44dd-94fc-a0cc3beb2e33","kind":"bikerack","longitude":9.4873728,"latitude":45.9306918,"name":"Parcheggio bici","city":"Moggio","address":null,"covered":false,"access":null,"website":null,"phone":null,"source":"OpenStreetMap/way/838385487","sourceUpdatedAt":null,"verifiedAt":null}},{"type":"Feature","geometry":{"type":"Point","coordinates":[9.4736212,45.9363206]},"properties":{"id":"bikerack:8347c6ab-7372-4a9a-902e-6db44b7fa07e","kind":"bikerack","longitude":9.4736212,"latitude":45.9363206,"name":"Parcheggio bici","city":"Cremeno","address":null,"covered":false,"access":null,"website":null,"phone":null,"source":"OpenStreetMap/node/9392979266","sourceUpdatedAt":null,"verifiedAt":null}},{"type":"Feature","geometry":{"type":"Point","coordinates":[9.4862898,45.9311037]},"properties":{"id":"bikerack:a61ee3e1-16b8-4687-9f63-bb79fa7a3554","kind":"bikerack","longitude":9.4862898,"latitude":45.9311037,"name":"Parcheggio bici","city":"Moggio","address":null,"covered":false,"access":null,"website":null,"phone":null,"source":"OpenStreetMap/way/433456332","sourceUpdatedAt":null,"verifiedAt":null}},{"type":"Feature","geometry":{"type":"Point","coordinates":[9.4787114,45.9328897]},"properties":{"id":"water:0029470f-5211-4480-8232-7c3ed0bdbf73","kind":"water","longitude":9.4787114,"latitude":45.9328897,"name":"Fontanella","city":"Cassina Valsassina","address":null,"covered":null,"access":null,"website":null,"phone":null,"source":"OpenStreetMap/node/9051356405","sourceUpdatedAt":null,"verifiedAt":null}},{"type":"Feature","geometry":{"type":"Point","coordinates":[9.4674264,45.9261297]},"properties":{"id":"water:023be844-613a-41bb-9320-31a558761d8e","kind":"water","longitude":9.4674264,"latitude":45.9261297,"name":"Fontana di San Lorenzo","city":"Cremeno","address":null,"covered":null,"access":null,"website":null,"phone":null,"source":"OpenStreetMap/node/1734400757","sourceUpdatedAt":null,"verifiedAt":null}},{"type":"Feature","geometry":{"type":"Point","coordinates":[9.4606669,45.9283421]},"properties":{"id":"water:02c4369f-f8d9-4fde-8d8f-9bffb25b5f21","kind":"water","longitude":9.4606669,"latitude":45.9283421,"name":"Fontanella","city":"Cremeno","address":null,"covered":null,"access":null,"website":null,"phone":null,"source":"OpenStreetMap/node/4732324164","sourceUpdatedAt":null,"verifiedAt":null}},{"type":"Feature","geometry":{"type":"Point","coordinates":[9.4857839,45.9329091]},"properties":{"id":"water:04652602-deb3-46b2-8e76-fabd70c74fc4","kind":"water","longitude":9.4857839,"latitude":45.9329091,"name":"Fontanella","city":"Moggio","address":null,"covered":null,"access":null,"website":null,"phone":null,"source":"OpenStreetMap/node/1734422000","sourceUpdatedAt":null,"verifiedAt":null}},{"type":"Feature","geometry":{"type":"Point","coordinates":[9.4821081,45.9297913]},"properties":{"id":"water:0716e606-b76f-4fbc-a725-6af036162678","kind":"water","longitude":9.4821081,"latitude":45.9297913,"name":"Fontanella","city":"Cassina Valsassina","address":null,"covered":null,"access":null,"website":null,"phone":null,"source":"OpenStreetMap/node/9045036168","sourceUpdatedAt":null,"verifiedAt":null}},{"type":"Feature","geometry":{"type":"Point","coordinates":[9.4836155,45.931526]},"properties":{"id":"water:1ffd3df6-3e08-4c2a-a541-9f640c3643c7","kind":"water","longitude":9.4836155,"latitude":45.931526,"name":"Fontanella","city":"Moggio","address":null,"covered":null,"access":null,"website":null,"phone":null,"source":"OpenStreetMap/node/1734427435","sourceUpdatedAt":null,"verifiedAt":null}},{"type":"Feature","geometry":{"type":"Point","coordinates":[9.4793616,45.932518]},"properties":{"id":"water:2d44344d-f07c-4b7e-a554-370587cc4de3","kind":"water","longitude":9.4793616,"latitude":45.932518,"name":"Piazza Cantello","city":"Cassina Valsassina","address":null,"covered":null,"access":null,"website":null,"phone":null,"source":"OpenStreetMap/node/3190112745","sourceUpdatedAt":null,"verifiedAt":null}},{"type":"Feature","geometry":{"type":"Point","coordinates":[9.4662364,45.9360341]},"properties":{"id":"water:31035cd9-c2c4-4240-a99e-a8aac9f20473","kind":"water","longitude":9.4662364,"latitude":45.9360341,"name":"Fontanella","city":"Cremeno","address":null,"covered":null,"access":null,"website":null,"phone":null,"source":"OpenStreetMap/node/7676385924","sourceUpdatedAt":null,"verifiedAt":null}},{"type":"Feature","geometry":{"type":"Point","coordinates":[9.4691128,45.9469455]},"properties":{"id":"water:317b1716-fd87-4237-999f-4b4715ff8fd3","kind":"water","longitude":9.4691128,"latitude":45.9469455,"name":"Fontanella","city":"Barzio","address":null,"covered":null,"access":null,"website":null,"phone":null,"source":"OpenStreetMap/node/9677787267","sourceUpdatedAt":null,"verifiedAt":null}},{"type":"Feature","geometry":{"type":"Point","coordinates":[9.4790608,45.9320479]},"properties":{"id":"water:342ee4fa-b94b-4535-b3fe-8b60413791a8","kind":"water","longitude":9.4790608,"latitude":45.9320479,"name":"Piazza Comunale 2","city":"Cassina Valsassina","address":null,"covered":null,"access":null,"website":null,"phone":null,"source":"OpenStreetMap/node/8855467154","sourceUpdatedAt":null,"verifiedAt":null}},{"type":"Feature","geometry":{"type":"Point","coordinates":[9.4855038,45.931203]},"properties":{"id":"water:3bde5b2f-4683-4de8-978b-e474cabee8cb","kind":"water","longitude":9.4855038,"latitude":45.931203,"name":"Fontanella","city":"Moggio","address":null,"covered":null,"access":null,"website":null,"phone":null,"source":"OpenStreetMap/node/4314525158","sourceUpdatedAt":null,"verifiedAt":null}},{"type":"Feature","geometry":{"type":"Point","coordinates":[9.4518131,45.9434277]},"properties":{"id":"water:431422a0-6254-4497-b0d2-55af3a26eb65","kind":"water","longitude":9.4518131,"latitude":45.9434277,"name":"Fontanella","city":"Pasturo","address":null,"covered":null,"access":null,"website":null,"phone":null,"source":"OpenStreetMap/node/5554734595","sourceUpdatedAt":null,"verifiedAt":null}},{"type":"Feature","geometry":{"type":"Point","coordinates":[9.4696803,45.9460664]},"properties":{"id":"water:4b63005b-9ed1-47c5-bfff-188a29ef51ad","kind":"water","longitude":9.4696803,"latitude":45.9460664,"name":"Fontanella","city":"Barzio","address":null,"covered":null,"access":null,"website":null,"phone":null,"source":"OpenStreetMap/node/8928193471","sourceUpdatedAt":null,"verifiedAt":null}},{"type":"Feature","geometry":{"type":"Point","coordinates":[9.4749822,45.9353592]},"properties":{"id":"water:4b9ded71-3e56-4303-81ef-0ec065d4242c","kind":"water","longitude":9.4749822,"latitude":45.9353592,"name":"Fontanella","city":"Cremeno","address":null,"covered":null,"access":null,"website":null,"phone":null,"source":"OpenStreetMap/node/5793843587","sourceUpdatedAt":null,"verifiedAt":null}},{"type":"Feature","geometry":{"type":"Point","coordinates":[9.4673259,45.9468542]},"properties":{"id":"water:4f8934df-7d31-44b6-a653-7b85b7364977","kind":"water","longitude":9.4673259,"latitude":45.9468542,"name":"Fontanella","city":"Barzio","address":null,"covered":null,"access":null,"website":null,"phone":null,"source":"OpenStreetMap/node/9925178024","sourceUpdatedAt":null,"verifiedAt":null}},{"type":"Feature","geometry":{"type":"Point","coordinates":[9.4718276,45.9409206]},"properties":{"id":"water:517db36a-3437-4092-953f-fe44ef41e439","kind":"water","longitude":9.4718276,"latitude":45.9409206,"name":"Fontanella","city":"Barzio","address":null,"covered":null,"access":null,"website":null,"phone":null,"source":"OpenStreetMap/node/9024838116","sourceUpdatedAt":null,"verifiedAt":null}},{"type":"Feature","geometry":{"type":"Point","coordinates":[9.4503128,45.9217441]},"properties":{"id":"water:5484bc14-447e-49f1-b589-5a211c68ee64","kind":"water","longitude":9.4503128,"latitude":45.9217441,"name":"Fontanella","city":"Cremeno","address":null,"covered":null,"access":null,"website":null,"phone":null,"source":"OpenStreetMap/node/7618392098","sourceUpdatedAt":null,"verifiedAt":null}},{"type":"Feature","geometry":{"type":"Point","coordinates":[9.4734161,45.9331681]},"properties":{"id":"water:57124664-f753-47eb-90bb-914f4485963f","kind":"water","longitude":9.4734161,"latitude":45.9331681,"name":"Fontanella","city":"Cremeno","address":null,"covered":null,"access":null,"website":null,"phone":null,"source":"OpenStreetMap/node/11500505119","sourceUpdatedAt":null,"verifiedAt":null}},{"type":"Feature","geometry":{"type":"Point","coordinates":[9.4799887,45.9322484]},"properties":{"id":"water:5b541d70-21c0-409e-a13e-8cdeb50124c0","kind":"water","longitude":9.4799887,"latitude":45.9322484,"name":"Fontanella","city":"Cassina Valsassina","address":null,"covered":null,"access":null,"website":null,"phone":null,"source":"OpenStreetMap/node/5813314105","sourceUpdatedAt":null,"verifiedAt":null}},{"type":"Feature","geometry":{"type":"Point","coordinates":[9.4665168,45.9463355]},"properties":{"id":"water:65fa22b7-24bf-4302-8843-0ccf420e7861","kind":"water","longitude":9.4665168,"latitude":45.9463355,"name":"Fontanella","city":"Barzio","address":null,"covered":null,"access":null,"website":null,"phone":null,"source":"OpenStreetMap/node/7533125871","sourceUpdatedAt":null,"verifiedAt":null}},{"type":"Feature","geometry":{"type":"Point","coordinates":[9.474548,45.9343081]},"properties":{"id":"water:68d43e96-db5a-4c09-9f7e-1e223a83d099","kind":"water","longitude":9.474548,"latitude":45.9343081,"name":"Fontanella","city":"Cremeno","address":null,"covered":null,"access":null,"website":null,"phone":null,"source":"OpenStreetMap/node/11500505099","sourceUpdatedAt":null,"verifiedAt":null}},{"type":"Feature","geometry":{"type":"Point","coordinates":[9.4694582,45.9453747]},"properties":{"id":"water:7534813b-f6d4-4cf4-a776-0022c313f88e","kind":"water","longitude":9.4694582,"latitude":45.9453747,"name":"Fontanella","city":"Barzio","address":null,"covered":null,"access":null,"website":null,"phone":null,"source":"OpenStreetMap/node/8928242244","sourceUpdatedAt":null,"verifiedAt":null}},{"type":"Feature","geometry":{"type":"Point","coordinates":[9.4691271,45.9461934]},"properties":{"id":"water:7a80f7e9-0481-404c-9e4b-69e1fbeafd10","kind":"water","longitude":9.4691271,"latitude":45.9461934,"name":"Fontanella","city":"Barzio","address":null,"covered":null,"access":null,"website":null,"phone":null,"source":"OpenStreetMap/node/10697480912","sourceUpdatedAt":null,"verifiedAt":null}},{"type":"Feature","geometry":{"type":"Point","coordinates":[9.4747927,45.9366405]},"properties":{"id":"water:8178fdba-354d-4d6c-8b50-2ee985548aaf","kind":"water","longitude":9.4747927,"latitude":45.9366405,"name":"Fontana Nebbiana","city":"Cremeno","address":null,"covered":null,"access":null,"website":null,"phone":null,"source":"OpenStreetMap/node/2620509892","sourceUpdatedAt":null,"verifiedAt":null}},{"type":"Feature","geometry":{"type":"Point","coordinates":[9.4878984,45.9327843]},"properties":{"id":"water:8295d826-3f66-43dc-a692-24099407ec2f","kind":"water","longitude":9.4878984,"latitude":45.9327843,"name":"Fontanella","city":"Moggio","address":null,"covered":null,"access":null,"website":null,"phone":null,"source":"OpenStreetMap/node/1734427440","sourceUpdatedAt":null,"verifiedAt":null}},{"type":"Feature","geometry":{"type":"Point","coordinates":[9.473212,45.9328228]},"properties":{"id":"water:831f36f8-bdca-45c9-a316-0cf433af8e45","kind":"water","longitude":9.473212,"latitude":45.9328228,"name":"Via Giovanni Pascoli – Fontanella","city":"Cremeno","address":null,"covered":null,"access":null,"website":null,"phone":null,"source":"OpenStreetMap/node/2620491267","sourceUpdatedAt":null,"verifiedAt":null}},{"type":"Feature","geometry":{"type":"Point","coordinates":[9.4919772,45.9357403]},"properties":{"id":"water:8463afa7-7053-47ab-ac1d-69c9720ed618","kind":"water","longitude":9.4919772,"latitude":45.9357403,"name":"Fontanella","city":"Moggio","address":null,"covered":null,"access":null,"website":null,"phone":null,"source":"OpenStreetMap/node/4560828449","sourceUpdatedAt":null,"verifiedAt":null}},{"type":"Feature","geometry":{"type":"Point","coordinates":[9.4683665,45.9489841]},"properties":{"id":"water:8e616a7c-1788-4086-b1e7-88315e501f6c","kind":"water","longitude":9.4683665,"latitude":45.9489841,"name":"Fontanella","city":"Barzio","address":null,"covered":null,"access":null,"website":null,"phone":null,"source":"OpenStreetMap/node/4731785095","sourceUpdatedAt":null,"verifiedAt":null}},{"type":"Feature","geometry":{"type":"Point","coordinates":[9.4861226,45.9305046]},"properties":{"id":"water:9286628e-1328-41a9-add7-eed14542f252","kind":"water","longitude":9.4861226,"latitude":45.9305046,"name":"Fontanella","city":"Moggio","address":null,"covered":null,"access":null,"website":null,"phone":null,"source":"OpenStreetMap/node/2949387112","sourceUpdatedAt":null,"verifiedAt":null}},{"type":"Feature","geometry":{"type":"Point","coordinates":[9.4785431,45.9348715]},"properties":{"id":"water:96562932-053a-45a3-b3c2-1a2fe5ca81f9","kind":"water","longitude":9.4785431,"latitude":45.9348715,"name":"Fontanella","city":"Cassina Valsassina","address":null,"covered":null,"access":null,"website":null,"phone":null,"source":"OpenStreetMap/node/5986265566","sourceUpdatedAt":null,"verifiedAt":null}},{"type":"Feature","geometry":{"type":"Point","coordinates":[9.4766213,45.9429858]},"properties":{"id":"water:9f49c860-0859-419d-b842-301754ddb76f","kind":"water","longitude":9.4766213,"latitude":45.9429858,"name":"Fontana San Carlo","city":"Barzio","address":null,"covered":null,"access":null,"website":null,"phone":null,"source":"OpenStreetMap/node/2246061987","sourceUpdatedAt":null,"verifiedAt":null}},{"type":"Feature","geometry":{"type":"Point","coordinates":[9.4905802,45.9255709]},"properties":{"id":"water:a19cdb0e-7dea-4503-a20c-f92640348ca2","kind":"water","longitude":9.4905802,"latitude":45.9255709,"name":"Fontanella","city":"Moggio","address":null,"covered":null,"access":null,"website":null,"phone":null,"source":"OpenStreetMap/node/9045068121","sourceUpdatedAt":null,"verifiedAt":null}},{"type":"Feature","geometry":{"type":"Point","coordinates":[9.4869171,45.930996]},"properties":{"id":"water:a3aa529a-ef86-4b6b-a910-eeae7b36e38f","kind":"water","longitude":9.4869171,"latitude":45.930996,"name":"Fontanella","city":"Moggio","address":null,"covered":null,"access":null,"website":null,"phone":null,"source":"OpenStreetMap/node/4314520618","sourceUpdatedAt":null,"verifiedAt":null}},{"type":"Feature","geometry":{"type":"Point","coordinates":[9.4819334,45.93706]},"properties":{"id":"water:a8f975ee-87e1-40cb-a0f7-803f6f0632b1","kind":"water","longitude":9.4819334,"latitude":45.93706,"name":"Fontanella","city":"Cassina Valsassina","address":null,"covered":null,"access":null,"website":null,"phone":null,"source":"OpenStreetMap/node/9994717162","sourceUpdatedAt":null,"verifiedAt":null}},{"type":"Feature","geometry":{"type":"Point","coordinates":[9.4863573,45.922929]},"properties":{"id":"water:ac8a971a-2c4c-4303-b02c-51717fcfd96b","kind":"water","longitude":9.4863573,"latitude":45.922929,"name":"Fontanella","city":"Moggio","address":null,"covered":null,"access":null,"website":null,"phone":null,"source":"OpenStreetMap/node/9999557981","sourceUpdatedAt":null,"verifiedAt":null}},{"type":"Feature","geometry":{"type":"Point","coordinates":[9.4790923,45.9313763]},"properties":{"id":"water:bc32e6c6-6292-4cd0-b892-e6675c92aca8","kind":"water","longitude":9.4790923,"latitude":45.9313763,"name":"Fontanella","city":"Cassina Valsassina","address":null,"covered":null,"access":null,"website":null,"phone":null,"source":"OpenStreetMap/node/10293225744","sourceUpdatedAt":null,"verifiedAt":null}},{"type":"Feature","geometry":{"type":"Point","coordinates":[9.4605975,45.9270262]},"properties":{"id":"water:bcddbc10-2f77-4703-bac3-4586f1973d2c","kind":"water","longitude":9.4605975,"latitude":45.9270262,"name":"Piazza Santa Maria – Fontanella","city":"Maggio","address":null,"covered":null,"access":null,"website":null,"phone":null,"source":"OpenStreetMap/node/4731921913","sourceUpdatedAt":null,"verifiedAt":null}},{"type":"Feature","geometry":{"type":"Point","coordinates":[9.4850793,45.9387575]},"properties":{"id":"water:c69784a5-ac0c-4f60-a267-b1c674d8f033","kind":"water","longitude":9.4850793,"latitude":45.9387575,"name":"Fontana Pozzoi","city":"Moggio","address":null,"covered":null,"access":null,"website":null,"phone":null,"source":"OpenStreetMap/node/10293154672","sourceUpdatedAt":null,"verifiedAt":null}},{"type":"Feature","geometry":{"type":"Point","coordinates":[9.4779852,45.9312779]},"properties":{"id":"water:c7a56a19-7919-47e5-b791-5706cee46287","kind":"water","longitude":9.4779852,"latitude":45.9312779,"name":"Fontanella","city":"Cassina Valsassina","address":null,"covered":null,"access":null,"website":null,"phone":null,"source":"OpenStreetMap/node/8864404415","sourceUpdatedAt":null,"verifiedAt":null}},{"type":"Feature","geometry":{"type":"Point","coordinates":[9.4582467,45.9222029]},"properties":{"id":"water:d21a4141-4bd1-4ff0-a296-372f3c09aa1d","kind":"water","longitude":9.4582467,"latitude":45.9222029,"name":"Fontanella","city":"Cremeno","address":null,"covered":null,"access":null,"website":null,"phone":null,"source":"OpenStreetMap/node/7804042414","sourceUpdatedAt":null,"verifiedAt":null}},{"type":"Feature","geometry":{"type":"Point","coordinates":[9.4734531,45.9348163]},"properties":{"id":"water:db5f059e-ac06-48b9-92a6-30a4cfff5099","kind":"water","longitude":9.4734531,"latitude":45.9348163,"name":"Fontanella","city":"Cremeno","address":null,"covered":null,"access":null,"website":null,"phone":null,"source":"OpenStreetMap/node/5243095678","sourceUpdatedAt":null,"verifiedAt":null}},{"type":"Feature","geometry":{"type":"Point","coordinates":[9.4583301,45.929851]},"properties":{"id":"water:dd728f9a-897d-40f0-95ea-a42ed3638bbc","kind":"water","longitude":9.4583301,"latitude":45.929851,"name":"Fontanella","city":"Cremeno","address":null,"covered":null,"access":null,"website":null,"phone":null,"source":"OpenStreetMap/node/4734458751","sourceUpdatedAt":null,"verifiedAt":null}},{"type":"Feature","geometry":{"type":"Point","coordinates":[9.4792515,45.9402217]},"properties":{"id":"water:dda18ddd-2dd0-4abf-be57-9fddc42f6527","kind":"water","longitude":9.4792515,"latitude":45.9402217,"name":"Fontanella","city":"Cassina Valsassina","address":null,"covered":null,"access":null,"website":null,"phone":null,"source":"OpenStreetMap/node/9994554267","sourceUpdatedAt":null,"verifiedAt":null}},{"type":"Feature","geometry":{"type":"Point","coordinates":[9.4844893,45.9299139]},"properties":{"id":"water:def5fd47-47f0-47be-aa16-258949075532","kind":"water","longitude":9.4844893,"latitude":45.9299139,"name":"Fontanella","city":"Moggio","address":null,"covered":null,"access":null,"website":null,"phone":null,"source":"OpenStreetMap/node/4984185222","sourceUpdatedAt":null,"verifiedAt":null}},{"type":"Feature","geometry":{"type":"Point","coordinates":[9.4658365,45.9438445]},"properties":{"id":"water:e23bfcfd-da14-4bc3-aa22-8f8e8c1102ee","kind":"water","longitude":9.4658365,"latitude":45.9438445,"name":"Fontanella","city":"Barzio","address":null,"covered":null,"access":null,"website":null,"phone":null,"source":"OpenStreetMap/node/13113015578","sourceUpdatedAt":null,"verifiedAt":null}},{"type":"Feature","geometry":{"type":"Point","coordinates":[9.4647509,45.9252396]},"properties":{"id":"water:e3d680ba-d353-4a75-9c4b-7ba3fac32f89","kind":"water","longitude":9.4647509,"latitude":45.9252396,"name":"Fontanella","city":"Cremeno","address":null,"covered":null,"access":null,"website":null,"phone":null,"source":"OpenStreetMap/node/7804042433","sourceUpdatedAt":null,"verifiedAt":null}},{"type":"Feature","geometry":{"type":"Point","coordinates":[9.486294,45.9287524]},"properties":{"id":"water:eb80f3d3-de50-4bac-9c46-80e60f509f38","kind":"water","longitude":9.486294,"latitude":45.9287524,"name":"Fontanella","city":"Moggio","address":null,"covered":null,"access":null,"website":null,"phone":null,"source":"OpenStreetMap/node/9045036191","sourceUpdatedAt":null,"verifiedAt":null}},{"type":"Feature","geometry":{"type":"Point","coordinates":[9.4896509,45.9253348]},"properties":{"id":"water:eda904c3-7770-4927-8153-3b9e3f70feca","kind":"water","longitude":9.4896509,"latitude":45.9253348,"name":"Fontanella","city":"Moggio","address":null,"covered":null,"access":null,"website":null,"phone":null,"source":"OpenStreetMap/node/4984185224","sourceUpdatedAt":null,"verifiedAt":null}},{"type":"Feature","geometry":{"type":"Point","coordinates":[9.4568874,45.9249957]},"properties":{"id":"water:f7103c9f-9676-4383-bab1-840e6a19cf26","kind":"water","longitude":9.4568874,"latitude":45.9249957,"name":"Via case manzoni 9 – Fontanella","city":"Maggio","address":null,"covered":null,"access":null,"website":null,"phone":null,"source":"OpenStreetMap/node/4731926173","sourceUpdatedAt":null,"verifiedAt":null}}]}