{"type":"FeatureCollection","features":[{"type":"Feature","geometry":{"type":"Point","coordinates":[17.278059,47.935963]},"properties":{"id":"water:4560b01d-8520-46b9-8bd1-a013fd2000eb","kind":"water","longitude":17.278059,"latitude":47.935963,"name":"Ivókút","city":null,"address":null,"covered":null,"access":null,"website":null,"phone":null,"source":"OpenStreetMap","sourceUpdatedAt":null,"verifiedAt":null}},{"type":"Feature","geometry":{"type":"Point","coordinates":[17.2750721,47.9372155]},"properties":{"id":"water:9f34cd49-f468-46e9-bbf9-0c61f445dd6e","kind":"water","longitude":17.2750721,"latitude":47.9372155,"name":"Ivókút","city":"Mosonmagyarovar","address":null,"covered":null,"access":null,"website":null,"phone":null,"source":"OpenStreetMap/node/13703838453","sourceUpdatedAt":null,"verifiedAt":null}},{"type":"Feature","geometry":{"type":"Point","coordinates":[17.2802348,47.9380514]},"properties":{"id":"water:d19e21be-9fb0-4956-af1b-f5bbd6df9d9d","kind":"water","longitude":17.2802348,"latitude":47.9380514,"name":"Ivókút","city":null,"address":null,"covered":null,"access":null,"website":null,"phone":null,"source":"OpenStreetMap","sourceUpdatedAt":null,"verifiedAt":null}}]}