{"type":"FeatureCollection","features":[{"type":"Feature","geometry":{"type":"Point","coordinates":[17.3069081,47.7229337]},"properties":{"id":"water:c0ea5e76-3d68-4aec-8d01-880f155f4989","kind":"water","longitude":17.3069081,"latitude":47.7229337,"name":"Ivókút","city":null,"address":null,"covered":null,"access":null,"website":null,"phone":null,"source":"OpenStreetMap","sourceUpdatedAt":null,"verifiedAt":null}},{"type":"Feature","geometry":{"type":"Point","coordinates":[17.2789869,47.7068573]},"properties":{"id":"water:ea328ba5-0be2-4472-9ace-d07ecce22068","kind":"water","longitude":17.2789869,"latitude":47.7068573,"name":"Ivókút","city":null,"address":null,"covered":null,"access":null,"website":null,"phone":null,"source":"OpenStreetMap","sourceUpdatedAt":null,"verifiedAt":null}}]}