{"type":"FeatureCollection","features":[{"type":"Feature","geometry":{"type":"Point","coordinates":[10.9844426,51.023108]},"properties":{"id":"bikerack:97a1ef06-f370-40a5-ac9e-d60eb76b22ec","kind":"bikerack","longitude":10.9844426,"latitude":51.023108,"name":"Fahrradabstellplatz","city":"Elxleben","address":null,"covered":false,"access":null,"website":null,"phone":null,"source":"OpenStreetMap/node/9369514878","sourceUpdatedAt":null,"verifiedAt":null}},{"type":"Feature","geometry":{"type":"Point","coordinates":[10.9781326,51.0360828]},"properties":{"id":"bikerack:ce77e07b-0f40-4287-bd08-1fe558165321","kind":"bikerack","longitude":10.9781326,"latitude":51.0360828,"name":"Fahrradabstellplatz","city":"Elxleben","address":null,"covered":false,"access":null,"website":null,"phone":null,"source":"OpenStreetMap/node/12114510224","sourceUpdatedAt":null,"verifiedAt":null}}]}