{"type":"FeatureCollection","features":[{"type":"Feature","geometry":{"type":"Point","coordinates":[10.975922,47.3094344]},"properties":{"id":"bikerack:77c98bb6-f6b7-4eed-aea9-4fec6bc995c4","kind":"bikerack","longitude":10.975922,"latitude":47.3094344,"name":"Biciklitároló","city":"Mieming","address":null,"covered":true,"access":null,"website":null,"phone":null,"source":"OpenStreetMap/way/1197313700","sourceUpdatedAt":null,"verifiedAt":null}},{"type":"Feature","geometry":{"type":"Point","coordinates":[10.9742666,47.3251014]},"properties":{"id":"water:37ebe5de-6fa6-46e2-8076-3d539136d645","kind":"water","longitude":10.9742666,"latitude":47.3251014,"name":"Ivókút","city":"Mieming","address":null,"covered":null,"access":null,"website":null,"phone":null,"source":"OpenStreetMap/node/1403011327","sourceUpdatedAt":null,"verifiedAt":null}},{"type":"Feature","geometry":{"type":"Point","coordinates":[10.963979,47.3102189]},"properties":{"id":"water:901e421e-284b-4b05-8120-0f736508ef52","kind":"water","longitude":10.963979,"latitude":47.3102189,"name":"Ivókút","city":"Mieming","address":null,"covered":null,"access":null,"website":null,"phone":null,"source":"OpenStreetMap/node/3712453337","sourceUpdatedAt":null,"verifiedAt":null}},{"type":"Feature","geometry":{"type":"Point","coordinates":[10.9814514,47.316845]},"properties":{"id":"water:df584236-44fe-43ec-9c2c-7c5f4d21b23c","kind":"water","longitude":10.9814514,"latitude":47.316845,"name":"Ivókút","city":"Mieming","address":null,"covered":null,"access":null,"website":null,"phone":null,"source":"OpenStreetMap/node/1403011210","sourceUpdatedAt":null,"verifiedAt":null}}]}