{"type":"FeatureCollection","features":[{"type":"Feature","geometry":{"type":"Point","coordinates":[16.6859848,52.0796032]},"properties":{"id":"bikerack:05c9a4b7-a21a-4a59-b310-7921af1cdae9","kind":"bikerack","longitude":16.6859848,"latitude":52.0796032,"name":"Biciklitároló","city":"Koscian","address":null,"covered":false,"access":null,"website":null,"phone":null,"source":"OpenStreetMap/node/11093076194","sourceUpdatedAt":null,"verifiedAt":null}},{"type":"Feature","geometry":{"type":"Point","coordinates":[16.6553097,52.0862709]},"properties":{"id":"bikerack:1e0ac0db-dc6e-497b-b22b-d391ebf34aea","kind":"bikerack","longitude":16.6553097,"latitude":52.0862709,"name":"Biciklitároló","city":"Koscian","address":null,"covered":false,"access":null,"website":null,"phone":null,"source":"OpenStreetMap/node/9413318024","sourceUpdatedAt":null,"verifiedAt":null}},{"type":"Feature","geometry":{"type":"Point","coordinates":[16.6698216,52.1028054]},"properties":{"id":"bikerack:70a99e7c-22b0-4d63-aed5-f595ae31fc8e","kind":"bikerack","longitude":16.6698216,"latitude":52.1028054,"name":"Biciklitároló","city":"Koscian","address":null,"covered":false,"access":null,"website":null,"phone":null,"source":"OpenStreetMap/way/1390074344","sourceUpdatedAt":null,"verifiedAt":null}}]}