{"type":"FeatureCollection","features":[{"type":"Feature","geometry":{"type":"Point","coordinates":[16.666063,47.6487451]},"properties":{"id":"bikerack:20b23325-e384-4380-9e63-53be895cc344","kind":"bikerack","longitude":16.666063,"latitude":47.6487451,"name":"Biciklitároló","city":"Nagycenk","address":null,"covered":false,"access":null,"website":null,"phone":null,"source":"OpenStreetMap/node/1628741734","sourceUpdatedAt":null,"verifiedAt":null}},{"type":"Feature","geometry":{"type":"Point","coordinates":[16.6676424,47.6582063]},"properties":{"id":"bikerack:3058f945-2aa1-404e-a004-7d4aa66f17ac","kind":"bikerack","longitude":16.6676424,"latitude":47.6582063,"name":"Biciklitároló","city":"Nagycenk","address":null,"covered":false,"access":null,"website":null,"phone":null,"source":"OpenStreetMap/node/1524373803","sourceUpdatedAt":null,"verifiedAt":null}},{"type":"Feature","geometry":{"type":"Point","coordinates":[16.6656946,47.6496953]},"properties":{"id":"bikerack:4ca32ffa-07c7-40d7-9b6a-1b774c2fcdf8","kind":"bikerack","longitude":16.6656946,"latitude":47.6496953,"name":"Biciklitároló","city":"Nagycenk","address":null,"covered":false,"access":null,"website":null,"phone":null,"source":"OpenStreetMap/node/1523948203","sourceUpdatedAt":null,"verifiedAt":null}},{"type":"Feature","geometry":{"type":"Point","coordinates":[16.6654234,47.650447]},"properties":{"id":"bikerack:7374dd33-f5c1-4e00-aa58-6a68fe0cac50","kind":"bikerack","longitude":16.6654234,"latitude":47.650447,"name":"Biciklitároló","city":"Nagycenk","address":null,"covered":false,"access":null,"website":null,"phone":null,"source":"OpenStreetMap/node/1523948199","sourceUpdatedAt":null,"verifiedAt":null}},{"type":"Feature","geometry":{"type":"Point","coordinates":[16.665856,47.6493532]},"properties":{"id":"bikerack:895e4fad-49ca-4b65-8d98-6d7c5a95f2d3","kind":"bikerack","longitude":16.665856,"latitude":47.6493532,"name":"Biciklitároló","city":"Nagycenk","address":null,"covered":false,"access":null,"website":null,"phone":null,"source":"OpenStreetMap/node/1628751774","sourceUpdatedAt":null,"verifiedAt":null}},{"type":"Feature","geometry":{"type":"Point","coordinates":[16.6656649,47.6512415]},"properties":{"id":"bikerack:a4d31aa4-aa26-458b-af1b-f126ded30077","kind":"bikerack","longitude":16.6656649,"latitude":47.6512415,"name":"Biciklitároló","city":"Nagycenk","address":null,"covered":false,"access":null,"website":null,"phone":null,"source":"OpenStreetMap/node/1523948206","sourceUpdatedAt":null,"verifiedAt":null}},{"type":"Feature","geometry":{"type":"Point","coordinates":[16.6981935,47.6364825]},"properties":{"id":"bikerack:d3bc2075-58ce-44a1-ad93-2613f7ce17fb","kind":"bikerack","longitude":16.6981935,"latitude":47.6364825,"name":"Biciklitároló","city":"Nagycenk","address":null,"covered":false,"access":null,"website":null,"phone":null,"source":"OpenStreetMap/node/10302231193","sourceUpdatedAt":null,"verifiedAt":null}},{"type":"Feature","geometry":{"type":"Point","coordinates":[16.6657265,47.6488151]},"properties":{"id":"bikerack:e85cd12c-2768-4ed9-a7c4-7c024e05d7d8","kind":"bikerack","longitude":16.6657265,"latitude":47.6488151,"name":"Biciklitároló","city":"Nagycenk","address":null,"covered":false,"access":null,"website":null,"phone":null,"source":"OpenStreetMap/node/1523948178","sourceUpdatedAt":null,"verifiedAt":null}},{"type":"Feature","geometry":{"type":"Point","coordinates":[16.6650511,47.6494071]},"properties":{"id":"bikerack:ec3eade9-8864-45fb-a583-8d8888be41b3","kind":"bikerack","longitude":16.6650511,"latitude":47.6494071,"name":"Biciklitároló","city":"Nagycenk","address":null,"covered":false,"access":null,"website":null,"phone":null,"source":"OpenStreetMap/node/1523948172","sourceUpdatedAt":null,"verifiedAt":null}},{"type":"Feature","geometry":{"type":"Point","coordinates":[16.663617,47.6553]},"properties":{"id":"water:7849fdf9-b3ac-4caa-9b83-62207b993a5c","kind":"water","longitude":16.663617,"latitude":47.6553,"name":"Ivókút","city":null,"address":null,"covered":null,"access":null,"website":null,"phone":null,"source":"OpenStreetMap","sourceUpdatedAt":null,"verifiedAt":null}}]}