{"type":"FeatureCollection","features":[{"type":"Feature","geometry":{"type":"Point","coordinates":[12.9813113,47.6717295]},"properties":{"id":"water:242c9529-6723-4998-9fce-f561682bdec3","kind":"water","longitude":12.9813113,"latitude":47.6717295,"name":"Trinkwasser","city":"Bischofswiesen","address":null,"covered":null,"access":null,"website":null,"phone":null,"source":"OpenStreetMap/node/4383662717","sourceUpdatedAt":null,"verifiedAt":null}},{"type":"Feature","geometry":{"type":"Point","coordinates":[12.9910693,47.6894522]},"properties":{"id":"water:36a6948a-538d-49f5-b57e-3a6aff47de88","kind":"water","longitude":12.9910693,"latitude":47.6894522,"name":"Trinkwasser","city":"Marktschellenberg","address":null,"covered":null,"access":null,"website":null,"phone":null,"source":"OpenStreetMap/node/3741718137","sourceUpdatedAt":null,"verifiedAt":null}},{"type":"Feature","geometry":{"type":"Point","coordinates":[12.9965503,47.6866829]},"properties":{"id":"water:a9c27150-84a3-4031-ac5c-06350d99e85b","kind":"water","longitude":12.9965503,"latitude":47.6866829,"name":"Trinkwasser","city":"Marktschellenberg","address":null,"covered":null,"access":null,"website":null,"phone":null,"source":"OpenStreetMap/node/3741718129","sourceUpdatedAt":null,"verifiedAt":null}},{"type":"Feature","geometry":{"type":"Point","coordinates":[12.9981602,47.6936877]},"properties":{"id":"water:edfe673b-f7f6-4cba-8b8f-360eb91888f4","kind":"water","longitude":12.9981602,"latitude":47.6936877,"name":"Trinkwasser","city":"Marktschellenberg","address":null,"covered":null,"access":null,"website":null,"phone":null,"source":"OpenStreetMap/node/3834748951","sourceUpdatedAt":null,"verifiedAt":null}}]}