{"type":"FeatureCollection","features":[{"type":"Feature","geometry":{"type":"Point","coordinates":[12.9751667,46.3806111]},"properties":{"id":"water:99232309-8f67-46c4-8069-c22adf5fa03d","kind":"water","longitude":12.9751667,"latitude":46.3806111,"name":"Fontanella","city":"Chiaulis","address":null,"covered":null,"access":null,"website":null,"phone":null,"source":"OpenStreetMap/node/12703061285","sourceUpdatedAt":null,"verifiedAt":null}},{"type":"Feature","geometry":{"type":"Point","coordinates":[12.9764773,46.383225]},"properties":{"id":"water:ab750669-d66a-4419-9d77-13c3d8639ee5","kind":"water","longitude":12.9764773,"latitude":46.383225,"name":"Fontanella","city":"Chiaulis","address":null,"covered":null,"access":null,"website":null,"phone":null,"source":"OpenStreetMap/node/9814234620","sourceUpdatedAt":null,"verifiedAt":null}},{"type":"Feature","geometry":{"type":"Point","coordinates":[12.9760266,46.3835088]},"properties":{"id":"water:f805d2db-e515-4551-a343-a4debbc16b99","kind":"water","longitude":12.9760266,"latitude":46.3835088,"name":"Fontanella","city":"Chiaulis","address":null,"covered":null,"access":null,"website":null,"phone":null,"source":"OpenStreetMap/node/13093991186","sourceUpdatedAt":null,"verifiedAt":null}}]}