{"type":"FeatureCollection","features":[{"type":"Feature","geometry":{"type":"Point","coordinates":[12.9953497,45.7637145]},"properties":{"id":"bikerack:39dc3f3e-8020-4069-a63d-0653c15b7bfd","kind":"bikerack","longitude":12.9953497,"latitude":45.7637145,"name":"Parcheggio bici","city":"San Michele al Tagliamento","address":null,"covered":false,"access":null,"website":null,"phone":null,"source":"OpenStreetMap/node/10887793089","sourceUpdatedAt":null,"verifiedAt":null}},{"type":"Feature","geometry":{"type":"Point","coordinates":[12.9943908,45.7642834]},"properties":{"id":"bikerack:650d79df-50ea-4ccc-87c9-5f627a50d70c","kind":"bikerack","longitude":12.9943908,"latitude":45.7642834,"name":"Parcheggio bici","city":"San Michele al Tagliamento","address":null,"covered":false,"access":null,"website":null,"phone":null,"source":"OpenStreetMap/node/11208533448","sourceUpdatedAt":null,"verifiedAt":null}},{"type":"Feature","geometry":{"type":"Point","coordinates":[12.9949295,45.7638536]},"properties":{"id":"bikerack:c4298652-1ccf-4a9c-be39-76847d573715","kind":"bikerack","longitude":12.9949295,"latitude":45.7638536,"name":"Parcheggio bici","city":"San Michele al Tagliamento","address":null,"covered":false,"access":null,"website":null,"phone":null,"source":"OpenStreetMap/node/10887793074","sourceUpdatedAt":null,"verifiedAt":null}},{"type":"Feature","geometry":{"type":"Point","coordinates":[12.9976452,45.7628062]},"properties":{"id":"service:251ec720-d3f2-4748-b4ba-fb1ca0f8287d","kind":"service","longitude":12.9976452,"latitude":45.7628062,"name":"Bulos!","city":"San Michele al Tagliamento","address":null,"covered":null,"access":null,"website":null,"phone":null,"source":"OpenStreetMap/node/13255808422","sourceUpdatedAt":null,"verifiedAt":null}},{"type":"Feature","geometry":{"type":"Point","coordinates":[12.9841202,45.767135]},"properties":{"id":"water:841f933a-f83b-45e0-817a-57529f497347","kind":"water","longitude":12.9841202,"latitude":45.767135,"name":"Fontanella","city":"San Michele al Tagliamento","address":null,"covered":null,"access":null,"website":null,"phone":null,"source":"OpenStreetMap/node/11933913824","sourceUpdatedAt":null,"verifiedAt":null}},{"type":"Feature","geometry":{"type":"Point","coordinates":[12.9939148,45.7634807]},"properties":{"id":"water:889f103c-00e0-4c18-9beb-fc74614d310b","kind":"water","longitude":12.9939148,"latitude":45.7634807,"name":"Fontanella","city":"San Michele al Tagliamento","address":null,"covered":null,"access":null,"website":null,"phone":null,"source":"OpenStreetMap/node/10891517063","sourceUpdatedAt":null,"verifiedAt":null}},{"type":"Feature","geometry":{"type":"Point","coordinates":[12.9842473,45.7668961]},"properties":{"id":"water:e43131a9-63b1-41c0-b4e6-6909797f5502","kind":"water","longitude":12.9842473,"latitude":45.7668961,"name":"Fontanella","city":"San Michele al Tagliamento","address":null,"covered":null,"access":null,"website":null,"phone":null,"source":"OpenStreetMap/node/11933844541","sourceUpdatedAt":null,"verifiedAt":null}}]}