{"type":"FeatureCollection","features":[{"type":"Feature","geometry":{"type":"Point","coordinates":[22.3185108,48.1306189]},"properties":{"id":"bikerack:0241a9b5-3f64-41c1-bd11-edfebfb370c2","kind":"bikerack","longitude":22.3185108,"latitude":48.1306189,"name":"Biciklitároló","city":"Vasarosnameny","address":null,"covered":false,"access":null,"website":null,"phone":null,"source":"OpenStreetMap/node/11830837364","sourceUpdatedAt":null,"verifiedAt":null}},{"type":"Feature","geometry":{"type":"Point","coordinates":[22.3145118,48.117732]},"properties":{"id":"bikerack:1644fbb1-5974-4808-996e-5b33deddc0a0","kind":"bikerack","longitude":22.3145118,"latitude":48.117732,"name":"Biciklitároló","city":"Vasarosnameny","address":null,"covered":false,"access":null,"website":null,"phone":null,"source":"OpenStreetMap/node/11640564980","sourceUpdatedAt":null,"verifiedAt":null}},{"type":"Feature","geometry":{"type":"Point","coordinates":[22.3061836,48.1300574]},"properties":{"id":"bikerack:1d78b0a2-9e86-452c-8101-0b3b84fb986c","kind":"bikerack","longitude":22.3061836,"latitude":48.1300574,"name":"Biciklitároló","city":"Vasarosnameny","address":null,"covered":false,"access":null,"website":null,"phone":null,"source":"OpenStreetMap/node/11639410853","sourceUpdatedAt":null,"verifiedAt":null}},{"type":"Feature","geometry":{"type":"Point","coordinates":[22.31892,48.1272726]},"properties":{"id":"bikerack:23635b01-a675-49a7-9880-c6e6f8fc6cb5","kind":"bikerack","longitude":22.31892,"latitude":48.1272726,"name":"Biciklitároló","city":"Vasarosnameny","address":null,"covered":true,"access":null,"website":null,"phone":null,"source":"OpenStreetMap/node/11640578444","sourceUpdatedAt":null,"verifiedAt":null}},{"type":"Feature","geometry":{"type":"Point","coordinates":[22.3156384,48.1308711]},"properties":{"id":"bikerack:25c7b2e8-3e41-4fab-b1f9-b709bf58ac9e","kind":"bikerack","longitude":22.3156384,"latitude":48.1308711,"name":"Biciklitároló","city":"Vasarosnameny","address":null,"covered":false,"access":null,"website":null,"phone":null,"source":"OpenStreetMap/node/6700062103","sourceUpdatedAt":null,"verifiedAt":null}},{"type":"Feature","geometry":{"type":"Point","coordinates":[22.3185982,48.1254608]},"properties":{"id":"bikerack:2deeeae2-841c-42b9-accb-891c0aa7c673","kind":"bikerack","longitude":22.3185982,"latitude":48.1254608,"name":"Biciklitároló","city":"Vasarosnameny","address":null,"covered":false,"access":null,"website":null,"phone":null,"source":"OpenStreetMap/node/11640564888","sourceUpdatedAt":null,"verifiedAt":null}},{"type":"Feature","geometry":{"type":"Point","coordinates":[22.3020295,48.1352604]},"properties":{"id":"bikerack:349e56ec-046a-41dd-afb8-bb2adba39e87","kind":"bikerack","longitude":22.3020295,"latitude":48.1352604,"name":"Biciklitároló","city":"Vasarosnameny","address":null,"covered":false,"access":null,"website":null,"phone":null,"source":"OpenStreetMap/node/11639410834","sourceUpdatedAt":null,"verifiedAt":null}},{"type":"Feature","geometry":{"type":"Point","coordinates":[22.3170894,48.1302829]},"properties":{"id":"bikerack:3675ec40-b5c6-4803-accb-023df753376d","kind":"bikerack","longitude":22.3170894,"latitude":48.1302829,"name":"Biciklitároló","city":"Vasarosnameny","address":null,"covered":false,"access":null,"website":null,"phone":null,"source":"OpenStreetMap/node/11639497215","sourceUpdatedAt":null,"verifiedAt":null}},{"type":"Feature","geometry":{"type":"Point","coordinates":[22.3163927,48.1287384]},"properties":{"id":"bikerack:36bd55ef-1249-4ea4-82ba-d270396b8912","kind":"bikerack","longitude":22.3163927,"latitude":48.1287384,"name":"Biciklitároló","city":"Vasarosnameny","address":null,"covered":false,"access":null,"website":null,"phone":null,"source":"OpenStreetMap/node/11830837357","sourceUpdatedAt":null,"verifiedAt":null}},{"type":"Feature","geometry":{"type":"Point","coordinates":[22.3059998,48.1286619]},"properties":{"id":"bikerack:37b4bd89-ef7a-4612-b070-ec6080348ac5","kind":"bikerack","longitude":22.3059998,"latitude":48.1286619,"name":"Biciklitároló","city":"Vasarosnameny","address":null,"covered":false,"access":null,"website":null,"phone":null,"source":"OpenStreetMap/node/11639410861","sourceUpdatedAt":null,"verifiedAt":null}},{"type":"Feature","geometry":{"type":"Point","coordinates":[22.3165235,48.1306097]},"properties":{"id":"bikerack:49487e59-b540-4b90-bacc-5c8fe52b5f63","kind":"bikerack","longitude":22.3165235,"latitude":48.1306097,"name":"Biciklitároló","city":"Vasarosnameny","address":null,"covered":false,"access":null,"website":null,"phone":null,"source":"OpenStreetMap/node/11639497221","sourceUpdatedAt":null,"verifiedAt":null}},{"type":"Feature","geometry":{"type":"Point","coordinates":[22.3188697,48.1305981]},"properties":{"id":"bikerack:58b02dfc-ee59-4633-8e6f-b33edf655ebb","kind":"bikerack","longitude":22.3188697,"latitude":48.1305981,"name":"Biciklitároló","city":"Vasarosnameny","address":null,"covered":false,"access":null,"website":null,"phone":null,"source":"OpenStreetMap/node/11830837367","sourceUpdatedAt":null,"verifiedAt":null}},{"type":"Feature","geometry":{"type":"Point","coordinates":[22.314949,48.1285572]},"properties":{"id":"bikerack:5b4241c7-1d20-4203-a164-5cb39f59b7a4","kind":"bikerack","longitude":22.314949,"latitude":48.1285572,"name":"Biciklitároló","city":"Vasarosnameny","address":null,"covered":false,"access":null,"website":null,"phone":null,"source":"OpenStreetMap/node/11640283766","sourceUpdatedAt":null,"verifiedAt":null}},{"type":"Feature","geometry":{"type":"Point","coordinates":[22.3161507,48.1307574]},"properties":{"id":"bikerack:652dfcb4-40b8-489d-9c55-78db9d6d37ec","kind":"bikerack","longitude":22.3161507,"latitude":48.1307574,"name":"Biciklitároló","city":"Vasarosnameny","address":null,"covered":false,"access":null,"website":null,"phone":null,"source":"OpenStreetMap/node/11639497227","sourceUpdatedAt":null,"verifiedAt":null}},{"type":"Feature","geometry":{"type":"Point","coordinates":[22.3108486,48.1301044]},"properties":{"id":"bikerack:68f44ec5-8e9a-4779-80e3-fa03aafe06c2","kind":"bikerack","longitude":22.3108486,"latitude":48.1301044,"name":"Biciklitároló","city":"Vasarosnameny","address":null,"covered":false,"access":null,"website":null,"phone":null,"source":"OpenStreetMap/node/11639691081","sourceUpdatedAt":null,"verifiedAt":null}},{"type":"Feature","geometry":{"type":"Point","coordinates":[22.316376,48.1308361]},"properties":{"id":"bikerack:6d054364-9b83-46ef-82c0-445dacf86c92","kind":"bikerack","longitude":22.316376,"latitude":48.1308361,"name":"Biciklitároló","city":"Vasarosnameny","address":null,"covered":true,"access":null,"website":null,"phone":null,"source":"OpenStreetMap/node/11639497226","sourceUpdatedAt":null,"verifiedAt":null}},{"type":"Feature","geometry":{"type":"Point","coordinates":[22.3186773,48.1247402]},"properties":{"id":"bikerack:8cf73538-4632-46ec-8c61-5da5977dfc65","kind":"bikerack","longitude":22.3186773,"latitude":48.1247402,"name":"Biciklitároló","city":"Vasarosnameny","address":null,"covered":true,"access":null,"website":null,"phone":null,"source":"OpenStreetMap/node/11640564889","sourceUpdatedAt":null,"verifiedAt":null}},{"type":"Feature","geometry":{"type":"Point","coordinates":[22.3152414,48.1217071]},"properties":{"id":"bikerack:b9208fa2-f573-48ef-bd3d-9b3197116d2b","kind":"bikerack","longitude":22.3152414,"latitude":48.1217071,"name":"Biciklitároló","city":"Vasarosnameny","address":null,"covered":false,"access":null,"website":null,"phone":null,"source":"OpenStreetMap/node/11645476979","sourceUpdatedAt":null,"verifiedAt":null}},{"type":"Feature","geometry":{"type":"Point","coordinates":[22.3208921,48.1268761]},"properties":{"id":"bikerack:c30e50f6-1cd1-4dae-b77d-bcf1a799781c","kind":"bikerack","longitude":22.3208921,"latitude":48.1268761,"name":"Biciklitároló","city":"Vasarosnameny","address":null,"covered":false,"access":null,"website":null,"phone":null,"source":"OpenStreetMap/node/11830837720","sourceUpdatedAt":null,"verifiedAt":null}},{"type":"Feature","geometry":{"type":"Point","coordinates":[22.3159052,48.1224708]},"properties":{"id":"bikerack:c6b8c813-5fb9-406f-88f4-deafa0fd7e93","kind":"bikerack","longitude":22.3159052,"latitude":48.1224708,"name":"Biciklitároló","city":"Vasarosnameny","address":null,"covered":false,"access":null,"website":null,"phone":null,"source":"OpenStreetMap/node/11640564942","sourceUpdatedAt":null,"verifiedAt":null}},{"type":"Feature","geometry":{"type":"Point","coordinates":[22.3181538,48.1305686]},"properties":{"id":"bikerack:d2b82761-f5a3-4aec-bfcf-093fb7c542af","kind":"bikerack","longitude":22.3181538,"latitude":48.1305686,"name":"Biciklitároló","city":"Vasarosnameny","address":null,"covered":false,"access":null,"website":null,"phone":null,"source":"OpenStreetMap/node/11830837363","sourceUpdatedAt":null,"verifiedAt":null}},{"type":"Feature","geometry":{"type":"Point","coordinates":[22.3168614,48.1304333]},"properties":{"id":"bikerack:d3235457-7a21-484c-b607-b6f0b92df81c","kind":"bikerack","longitude":22.3168614,"latitude":48.1304333,"name":"Biciklitároló","city":"Vasarosnameny","address":null,"covered":false,"access":null,"website":null,"phone":null,"source":"OpenStreetMap/node/11639497216","sourceUpdatedAt":null,"verifiedAt":null}},{"type":"Feature","geometry":{"type":"Point","coordinates":[22.3145762,48.1267651]},"properties":{"id":"bikerack:db57e92c-a389-490d-b8a0-7e079e08a697","kind":"bikerack","longitude":22.3145762,"latitude":48.1267651,"name":"Biciklitároló","city":"Vasarosnameny","address":null,"covered":false,"access":null,"website":null,"phone":null,"source":"OpenStreetMap/node/11640564922","sourceUpdatedAt":null,"verifiedAt":null}},{"type":"Feature","geometry":{"type":"Point","coordinates":[22.3174556,48.1302991]},"properties":{"id":"bikerack:e9d264fb-c86a-45f0-96f4-26f753a1401c","kind":"bikerack","longitude":22.3174556,"latitude":48.1302991,"name":"Biciklitároló","city":"Vasarosnameny","address":null,"covered":false,"access":null,"website":null,"phone":null,"source":"OpenStreetMap/node/11639497214","sourceUpdatedAt":null,"verifiedAt":null}},{"type":"Feature","geometry":{"type":"Point","coordinates":[22.3166536,48.1289242]},"properties":{"id":"bikerack:ec92e7f4-92b3-43e5-b1e8-848c98b249ac","kind":"bikerack","longitude":22.3166536,"latitude":48.1289242,"name":"Biciklitároló","city":"Vasarosnameny","address":null,"covered":false,"access":null,"website":null,"phone":null,"source":"OpenStreetMap/node/11640283762","sourceUpdatedAt":null,"verifiedAt":null}},{"type":"Feature","geometry":{"type":"Point","coordinates":[22.3174368,48.1298515]},"properties":{"id":"bikerack:ed9a160f-aa57-4cea-813f-901ace7ac990","kind":"bikerack","longitude":22.3174368,"latitude":48.1298515,"name":"Biciklitároló","city":"Vasarosnameny","address":null,"covered":false,"access":null,"website":null,"phone":null,"source":"OpenStreetMap/node/11639497205","sourceUpdatedAt":null,"verifiedAt":null}},{"type":"Feature","geometry":{"type":"Point","coordinates":[22.3168561,48.12896]},"properties":{"id":"bikerack:ee41783e-7b3e-4487-8bcf-8338f24af354","kind":"bikerack","longitude":22.3168561,"latitude":48.12896,"name":"Biciklitároló","city":"Vasarosnameny","address":null,"covered":false,"access":null,"website":null,"phone":null,"source":"OpenStreetMap/node/11640283761","sourceUpdatedAt":null,"verifiedAt":null}},{"type":"Feature","geometry":{"type":"Point","coordinates":[22.3144796,48.1266791]},"properties":{"id":"bikerack:f0f6895f-804d-4f1a-9a74-60930fefbe17","kind":"bikerack","longitude":22.3144796,"latitude":48.1266791,"name":"Biciklitároló","city":"Vasarosnameny","address":null,"covered":false,"access":null,"website":null,"phone":null,"source":"OpenStreetMap/node/11640564921","sourceUpdatedAt":null,"verifiedAt":null}},{"type":"Feature","geometry":{"type":"Point","coordinates":[22.3062842,48.1263631]},"properties":{"id":"bikerack:f6357597-33ba-484a-981b-027c0d1bdced","kind":"bikerack","longitude":22.3062842,"latitude":48.1263631,"name":"Biciklitároló","city":"Vasarosnameny","address":null,"covered":true,"access":null,"website":null,"phone":null,"source":"OpenStreetMap/node/11639508892","sourceUpdatedAt":null,"verifiedAt":null}},{"type":"Feature","geometry":{"type":"Point","coordinates":[22.3186841,48.1306483]},"properties":{"id":"service:56581008-9176-4fcc-9c36-1e2ea0105215","kind":"service","longitude":22.3186841,"latitude":48.1306483,"name":"Piaci barkács bolt","city":"Vasarosnameny","address":null,"covered":null,"access":null,"website":null,"phone":null,"source":"OpenStreetMap/node/4100026991","sourceUpdatedAt":null,"verifiedAt":null}},{"type":"Feature","geometry":{"type":"Point","coordinates":[22.3180551,48.1262338]},"properties":{"id":"service:9ef33c13-5df6-4d7b-a1a1-13dcbf1a2c93","kind":"service","longitude":22.3180551,"latitude":48.1262338,"name":"Bicikli szervíz","city":"Vasarosnameny","address":null,"covered":null,"access":null,"website":null,"phone":null,"source":"OpenStreetMap/node/4655229490","sourceUpdatedAt":null,"verifiedAt":null}},{"type":"Feature","geometry":{"type":"Point","coordinates":[22.314584,48.121684]},"properties":{"id":"water:4ff4c616-1688-40b4-8ce0-c784f58841e9","kind":"water","longitude":22.314584,"latitude":48.121684,"name":"Ivókút","city":null,"address":null,"covered":null,"access":null,"website":null,"phone":null,"source":"OpenStreetMap","sourceUpdatedAt":null,"verifiedAt":null}}]}