{"type":"FeatureCollection","features":[{"type":"Feature","geometry":{"type":"Point","coordinates":[22.3054942,47.9577004]},"properties":{"id":"bikerack:0776f7f3-c342-4832-bcc6-5883e2142297","kind":"bikerack","longitude":22.3054942,"latitude":47.9577004,"name":"Biciklitároló","city":"Mateszalka","address":null,"covered":false,"access":null,"website":null,"phone":null,"source":"OpenStreetMap/node/7398765273","sourceUpdatedAt":null,"verifiedAt":null}},{"type":"Feature","geometry":{"type":"Point","coordinates":[22.3185888,47.9527641]},"properties":{"id":"bikerack:13f20b69-cd95-46be-af4f-e6173a3cf74b","kind":"bikerack","longitude":22.3185888,"latitude":47.9527641,"name":"Biciklitároló","city":"Mateszalka","address":null,"covered":false,"access":null,"website":null,"phone":null,"source":"OpenStreetMap/node/7398616699","sourceUpdatedAt":null,"verifiedAt":null}},{"type":"Feature","geometry":{"type":"Point","coordinates":[22.3045099,47.9397908]},"properties":{"id":"bikerack:15bc69f4-45be-4722-9f7e-1aa1bf68e252","kind":"bikerack","longitude":22.3045099,"latitude":47.9397908,"name":"Biciklitároló","city":"Mateszalka","address":null,"covered":true,"access":null,"website":null,"phone":null,"source":"OpenStreetMap/node/7396419580","sourceUpdatedAt":null,"verifiedAt":null}},{"type":"Feature","geometry":{"type":"Point","coordinates":[22.3175642,47.9550724]},"properties":{"id":"bikerack:1b21cace-9564-4af1-a228-8849c0e5c9ee","kind":"bikerack","longitude":22.3175642,"latitude":47.9550724,"name":"Biciklitároló","city":"Mateszalka","address":null,"covered":false,"access":null,"website":null,"phone":null,"source":"OpenStreetMap/node/7398616704","sourceUpdatedAt":null,"verifiedAt":null}},{"type":"Feature","geometry":{"type":"Point","coordinates":[22.305851,47.9576968]},"properties":{"id":"bikerack:1c07c78a-c1bd-476a-a2ff-ebf3c4ac1df7","kind":"bikerack","longitude":22.305851,"latitude":47.9576968,"name":"Biciklitároló","city":"Mateszalka","address":null,"covered":false,"access":null,"website":null,"phone":null,"source":"OpenStreetMap/node/7398765274","sourceUpdatedAt":null,"verifiedAt":null}},{"type":"Feature","geometry":{"type":"Point","coordinates":[22.3051174,47.9564313]},"properties":{"id":"bikerack:29b73827-88a7-4203-b1d4-1ea19252ad73","kind":"bikerack","longitude":22.3051174,"latitude":47.9564313,"name":"Biciklitároló","city":"Mateszalka","address":null,"covered":false,"access":null,"website":null,"phone":null,"source":"OpenStreetMap/node/7398978638","sourceUpdatedAt":null,"verifiedAt":null}},{"type":"Feature","geometry":{"type":"Point","coordinates":[22.3130929,47.9532276]},"properties":{"id":"bikerack:398e9333-7508-4d4d-9054-2daf87637ad6","kind":"bikerack","longitude":22.3130929,"latitude":47.9532276,"name":"Biciklitároló","city":"Mateszalka","address":null,"covered":false,"access":null,"website":null,"phone":null,"source":"OpenStreetMap/node/7398825240","sourceUpdatedAt":null,"verifiedAt":null}},{"type":"Feature","geometry":{"type":"Point","coordinates":[22.3051174,47.9564978]},"properties":{"id":"bikerack:41584f64-8c04-4ca1-8f49-a763b53e6c57","kind":"bikerack","longitude":22.3051174,"latitude":47.9564978,"name":"Biciklitároló","city":"Mateszalka","address":null,"covered":false,"access":null,"website":null,"phone":null,"source":"OpenStreetMap/node/7398978637","sourceUpdatedAt":null,"verifiedAt":null}},{"type":"Feature","geometry":{"type":"Point","coordinates":[22.3085412,47.9578135]},"properties":{"id":"bikerack:4267ebc5-4420-4d03-b5ff-965311298cfc","kind":"bikerack","longitude":22.3085412,"latitude":47.9578135,"name":"Biciklitároló","city":"Mateszalka","address":null,"covered":false,"access":null,"website":null,"phone":null,"source":"OpenStreetMap/node/7398765270","sourceUpdatedAt":null,"verifiedAt":null}},{"type":"Feature","geometry":{"type":"Point","coordinates":[22.3197093,47.9557092]},"properties":{"id":"bikerack:47341eb7-561e-42a1-bb42-e1526d5a7fc4","kind":"bikerack","longitude":22.3197093,"latitude":47.9557092,"name":"Biciklitároló","city":"Mateszalka","address":null,"covered":false,"access":null,"website":null,"phone":null,"source":"OpenStreetMap/node/7398616708","sourceUpdatedAt":null,"verifiedAt":null}},{"type":"Feature","geometry":{"type":"Point","coordinates":[22.323921,47.9548479]},"properties":{"id":"bikerack:6001a8e1-9f33-4a4a-92a9-fe3256fb2083","kind":"bikerack","longitude":22.323921,"latitude":47.9548479,"name":"Biciklitároló","city":"Mateszalka","address":null,"covered":false,"access":null,"website":null,"phone":null,"source":"OpenStreetMap/node/7522129923","sourceUpdatedAt":null,"verifiedAt":null}},{"type":"Feature","geometry":{"type":"Point","coordinates":[22.3173147,47.953242]},"properties":{"id":"bikerack:6274249e-a892-4c33-b081-bc77793b3b9c","kind":"bikerack","longitude":22.3173147,"latitude":47.953242,"name":"Biciklitároló","city":"Mateszalka","address":null,"covered":false,"access":null,"website":null,"phone":null,"source":"OpenStreetMap/node/7398616711","sourceUpdatedAt":null,"verifiedAt":null}},{"type":"Feature","geometry":{"type":"Point","coordinates":[22.3023373,47.9577938]},"properties":{"id":"bikerack:67d32813-ab75-4633-9890-154b77059deb","kind":"bikerack","longitude":22.3023373,"latitude":47.9577938,"name":"Biciklitároló","city":"Mateszalka","address":null,"covered":false,"access":null,"website":null,"phone":null,"source":"OpenStreetMap/node/7398765275","sourceUpdatedAt":null,"verifiedAt":null}},{"type":"Feature","geometry":{"type":"Point","coordinates":[22.3046064,47.939514]},"properties":{"id":"bikerack:6ae41582-6989-42a0-b04d-fde0ade2b801","kind":"bikerack","longitude":22.3046064,"latitude":47.939514,"name":"Biciklitároló","city":"Mateszalka","address":null,"covered":false,"access":null,"website":null,"phone":null,"source":"OpenStreetMap/node/7522889766","sourceUpdatedAt":null,"verifiedAt":null}},{"type":"Feature","geometry":{"type":"Point","coordinates":[22.3024553,47.9480987]},"properties":{"id":"bikerack:6d61737a-a73c-4e92-a6af-5a180e2a85fb","kind":"bikerack","longitude":22.3024553,"latitude":47.9480987,"name":"Biciklitároló","city":"Mateszalka","address":null,"covered":true,"access":null,"website":null,"phone":null,"source":"OpenStreetMap/node/7397115853","sourceUpdatedAt":null,"verifiedAt":null}},{"type":"Feature","geometry":{"type":"Point","coordinates":[22.3136535,47.9525629]},"properties":{"id":"bikerack:7284e30e-10c2-4159-9a99-2bc957752a91","kind":"bikerack","longitude":22.3136535,"latitude":47.9525629,"name":"Biciklitároló","city":"Mateszalka","address":null,"covered":false,"access":null,"website":null,"phone":null,"source":"OpenStreetMap/node/7522102451","sourceUpdatedAt":null,"verifiedAt":null}},{"type":"Feature","geometry":{"type":"Point","coordinates":[22.3231273,47.9476327]},"properties":{"id":"bikerack:73014f8f-57a5-48fd-9f53-0970fde99a0b","kind":"bikerack","longitude":22.3231273,"latitude":47.9476327,"name":"Biciklitároló","city":"Mateszalka","address":null,"covered":false,"access":null,"website":null,"phone":null,"source":"OpenStreetMap/node/13327621391","sourceUpdatedAt":null,"verifiedAt":null}},{"type":"Feature","geometry":{"type":"Point","coordinates":[22.3115292,47.9433448]},"properties":{"id":"bikerack:73f8d4e0-953f-4dee-8072-4da6fd000e6b","kind":"bikerack","longitude":22.3115292,"latitude":47.9433448,"name":"Biciklitároló","city":"Mateszalka","address":null,"covered":false,"access":null,"website":null,"phone":null,"source":"OpenStreetMap/node/7399389363","sourceUpdatedAt":null,"verifiedAt":null}},{"type":"Feature","geometry":{"type":"Point","coordinates":[22.318346,47.9536336]},"properties":{"id":"bikerack:75fb2c77-6539-445c-a041-bb3369b05c0e","kind":"bikerack","longitude":22.318346,"latitude":47.9536336,"name":"Biciklitároló","city":"Mateszalka","address":null,"covered":false,"access":null,"website":null,"phone":null,"source":"OpenStreetMap/node/7398616700","sourceUpdatedAt":null,"verifiedAt":null}},{"type":"Feature","geometry":{"type":"Point","coordinates":[22.3021817,47.9577938]},"properties":{"id":"bikerack:7ee141af-a694-44b4-aea2-f49ede8b392a","kind":"bikerack","longitude":22.3021817,"latitude":47.9577938,"name":"Biciklitároló","city":"Mateszalka","address":null,"covered":false,"access":null,"website":null,"phone":null,"source":"OpenStreetMap/node/7398765276","sourceUpdatedAt":null,"verifiedAt":null}},{"type":"Feature","geometry":{"type":"Point","coordinates":[22.3002379,47.9514864]},"properties":{"id":"bikerack:9a446a9b-73bd-413b-a8a0-27ec2ba0dbf7","kind":"bikerack","longitude":22.3002379,"latitude":47.9514864,"name":"Biciklitároló","city":"Mateszalka","address":null,"covered":false,"access":null,"website":null,"phone":null,"source":"OpenStreetMap/node/12541837793","sourceUpdatedAt":null,"verifiedAt":null}},{"type":"Feature","geometry":{"type":"Point","coordinates":[22.3144078,47.9504844]},"properties":{"id":"bikerack:9f6b9359-0894-4d36-bae8-4e38dd10533f","kind":"bikerack","longitude":22.3144078,"latitude":47.9504844,"name":"Biciklitároló","city":"Mateszalka","address":null,"covered":false,"access":null,"website":null,"phone":null,"source":"OpenStreetMap/node/11743359212","sourceUpdatedAt":null,"verifiedAt":null}},{"type":"Feature","geometry":{"type":"Point","coordinates":[22.3032063,47.9459643]},"properties":{"id":"bikerack:a308809d-51df-48cd-b5af-3cd22ba15bb7","kind":"bikerack","longitude":22.3032063,"latitude":47.9459643,"name":"Biciklitároló","city":"Mateszalka","address":null,"covered":true,"access":null,"website":null,"phone":null,"source":"OpenStreetMap/node/7397115854","sourceUpdatedAt":null,"verifiedAt":null}},{"type":"Feature","geometry":{"type":"Point","coordinates":[22.3181134,47.9541526]},"properties":{"id":"bikerack:b095bef0-5f36-45c8-ba49-33817c360b86","kind":"bikerack","longitude":22.3181134,"latitude":47.9541526,"name":"Biciklitároló","city":"Mateszalka","address":null,"covered":false,"access":null,"website":null,"phone":null,"source":"OpenStreetMap/node/7398616701","sourceUpdatedAt":null,"verifiedAt":null}},{"type":"Feature","geometry":{"type":"Point","coordinates":[22.3062319,47.9574633]},"properties":{"id":"bikerack:b3a3c3d3-4b7e-43fc-b53d-7e352784e313","kind":"bikerack","longitude":22.3062319,"latitude":47.9574633,"name":"Biciklitároló","city":"Mateszalka","address":null,"covered":false,"access":null,"website":null,"phone":null,"source":"OpenStreetMap/node/7398765272","sourceUpdatedAt":null,"verifiedAt":null}},{"type":"Feature","geometry":{"type":"Point","coordinates":[22.3174529,47.9447799]},"properties":{"id":"bikerack:b61852be-89f7-4038-bd84-b7165e28683e","kind":"bikerack","longitude":22.3174529,"latitude":47.9447799,"name":"Biciklitároló","city":"Mateszalka","address":null,"covered":false,"access":null,"website":null,"phone":null,"source":"OpenStreetMap/node/7399291077","sourceUpdatedAt":null,"verifiedAt":null}},{"type":"Feature","geometry":{"type":"Point","coordinates":[22.3220515,47.9531414]},"properties":{"id":"bikerack:c6c9a531-480a-4bba-8404-69a086ecc943","kind":"bikerack","longitude":22.3220515,"latitude":47.9531414,"name":"Biciklitároló","city":"Mateszalka","address":null,"covered":true,"access":null,"website":null,"phone":null,"source":"OpenStreetMap/node/7396436557","sourceUpdatedAt":null,"verifiedAt":null}},{"type":"Feature","geometry":{"type":"Point","coordinates":[22.3233631,47.9536264]},"properties":{"id":"bikerack:c81382c9-fa04-458a-9b4a-56aea0754b4a","kind":"bikerack","longitude":22.3233631,"latitude":47.9536264,"name":"Biciklitároló","city":"Mateszalka","address":null,"covered":true,"access":null,"website":null,"phone":null,"source":"OpenStreetMap/node/7522130037","sourceUpdatedAt":null,"verifiedAt":null}},{"type":"Feature","geometry":{"type":"Point","coordinates":[22.3174006,47.9520384]},"properties":{"id":"bikerack:d3288edb-1d86-4b6d-b99d-426fc745846d","kind":"bikerack","longitude":22.3174006,"latitude":47.9520384,"name":"Biciklitároló","city":"Mateszalka","address":null,"covered":false,"access":null,"website":null,"phone":null,"source":"OpenStreetMap/node/7522130076","sourceUpdatedAt":null,"verifiedAt":null}},{"type":"Feature","geometry":{"type":"Point","coordinates":[22.3117062,47.943369]},"properties":{"id":"bikerack:df2a59e7-619e-4c92-af9b-f8b5ee494963","kind":"bikerack","longitude":22.3117062,"latitude":47.943369,"name":"Biciklitároló","city":"Mateszalka","address":null,"covered":true,"access":null,"website":null,"phone":null,"source":"OpenStreetMap/node/7399389364","sourceUpdatedAt":null,"verifiedAt":null}},{"type":"Feature","geometry":{"type":"Point","coordinates":[22.3072216,47.957607]},"properties":{"id":"bikerack:e7ce2eac-cf88-4352-ac12-f02de36213c2","kind":"bikerack","longitude":22.3072216,"latitude":47.957607,"name":"Biciklitároló","city":"Mateszalka","address":null,"covered":false,"access":null,"website":null,"phone":null,"source":"OpenStreetMap/node/7398765271","sourceUpdatedAt":null,"verifiedAt":null}},{"type":"Feature","geometry":{"type":"Point","coordinates":[22.3207721,47.953718]},"properties":{"id":"bikerack:eb999902-4ede-46c4-a883-a7360ec5e33e","kind":"bikerack","longitude":22.3207721,"latitude":47.953718,"name":"Biciklitároló","city":"Mateszalka","address":null,"covered":false,"access":null,"website":null,"phone":null,"source":"OpenStreetMap/node/7522129897","sourceUpdatedAt":null,"verifiedAt":null}},{"type":"Feature","geometry":{"type":"Point","coordinates":[22.3175588,47.953321]},"properties":{"id":"bikerack:f4e4f6fe-ca25-4159-a045-0499bad05745","kind":"bikerack","longitude":22.3175588,"latitude":47.953321,"name":"Biciklitároló","city":"Mateszalka","address":null,"covered":false,"access":null,"website":null,"phone":null,"source":"OpenStreetMap/node/7398616710","sourceUpdatedAt":null,"verifiedAt":null}},{"type":"Feature","geometry":{"type":"Point","coordinates":[22.3200506,47.9529563]},"properties":{"id":"bikerack:fd72cb6f-de97-49cd-8894-4035ef7a1a0b","kind":"bikerack","longitude":22.3200506,"latitude":47.9529563,"name":"Biciklitároló","city":"Mateszalka","address":null,"covered":false,"access":null,"website":null,"phone":null,"source":"OpenStreetMap/node/7522130060","sourceUpdatedAt":null,"verifiedAt":null}},{"type":"Feature","geometry":{"type":"Point","coordinates":[22.3129642,47.9518372]},"properties":{"id":"bikerack:fe525bcb-6d7a-4999-a794-4539f4592b14","kind":"bikerack","longitude":22.3129642,"latitude":47.9518372,"name":"Biciklitároló","city":"Mateszalka","address":null,"covered":true,"access":null,"website":null,"phone":null,"source":"OpenStreetMap/node/7522102450","sourceUpdatedAt":null,"verifiedAt":null}},{"type":"Feature","geometry":{"type":"Point","coordinates":[22.3168275,47.9508712]},"properties":{"id":"service:ae6c91e2-14bc-4d6d-ab4b-36422527fd18","kind":"service","longitude":22.3168275,"latitude":47.9508712,"name":"Dupla2","city":"Mátészalka","address":null,"covered":null,"access":null,"website":null,"phone":null,"source":"OpenStreetMap/node/4874726621","sourceUpdatedAt":null,"verifiedAt":null}},{"type":"Feature","geometry":{"type":"Point","coordinates":[22.3171714,47.9524551]},"properties":{"id":"service:fcf31992-90e2-4aa4-8edc-72441ddac8fe","kind":"service","longitude":22.3171714,"latitude":47.9524551,"name":"Rimili","city":"Mateszalka","address":null,"covered":null,"access":null,"website":null,"phone":null,"source":"OpenStreetMap/node/4854294225","sourceUpdatedAt":null,"verifiedAt":null}},{"type":"Feature","geometry":{"type":"Point","coordinates":[22.3240135,47.9546574]},"properties":{"id":"water:0517a56e-3450-483c-b204-2d9e163b376e","kind":"water","longitude":22.3240135,"latitude":47.9546574,"name":"Ivókút","city":null,"address":null,"covered":null,"access":null,"website":null,"phone":null,"source":"OpenStreetMap","sourceUpdatedAt":null,"verifiedAt":null}},{"type":"Feature","geometry":{"type":"Point","coordinates":[22.31808,47.95838]},"properties":{"id":"water:298b491c-f942-4cb8-b710-4f0a11bac857","kind":"water","longitude":22.31808,"latitude":47.95838,"name":"Ivókút","city":null,"address":null,"covered":null,"access":null,"website":null,"phone":null,"source":"OpenStreetMap","sourceUpdatedAt":null,"verifiedAt":null}},{"type":"Feature","geometry":{"type":"Point","coordinates":[22.3115431,47.9427721]},"properties":{"id":"water:5e804b96-0d06-4727-8069-2a9bcfb23d83","kind":"water","longitude":22.3115431,"latitude":47.9427721,"name":"Ivókút","city":null,"address":null,"covered":null,"access":null,"website":null,"phone":null,"source":"OpenStreetMap","sourceUpdatedAt":null,"verifiedAt":null}},{"type":"Feature","geometry":{"type":"Point","coordinates":[22.292649,47.952668]},"properties":{"id":"water:81f8d10e-d276-498d-9f8c-04f2606f9ea5","kind":"water","longitude":22.292649,"latitude":47.952668,"name":"Ivókút","city":null,"address":null,"covered":null,"access":null,"website":null,"phone":null,"source":"OpenStreetMap","sourceUpdatedAt":null,"verifiedAt":null}},{"type":"Feature","geometry":{"type":"Point","coordinates":[22.3202201,47.9551355]},"properties":{"id":"water:8b9f6500-c24b-425d-b089-40e22e26ae3c","kind":"water","longitude":22.3202201,"latitude":47.9551355,"name":"Ivókút","city":null,"address":null,"covered":null,"access":null,"website":null,"phone":null,"source":"OpenStreetMap","sourceUpdatedAt":null,"verifiedAt":null}},{"type":"Feature","geometry":{"type":"Point","coordinates":[22.3166496,47.9359526]},"properties":{"id":"water:a42f05dd-dbaa-42cb-bd1e-8025ebc4ffa5","kind":"water","longitude":22.3166496,"latitude":47.9359526,"name":"Ivókút","city":null,"address":null,"covered":null,"access":null,"website":null,"phone":null,"source":"OpenStreetMap","sourceUpdatedAt":null,"verifiedAt":null}},{"type":"Feature","geometry":{"type":"Point","coordinates":[22.3216908,47.9593466]},"properties":{"id":"water:b0ee42d3-f58c-4efd-a339-55446ccc6b98","kind":"water","longitude":22.3216908,"latitude":47.9593466,"name":"Ivókút","city":null,"address":null,"covered":null,"access":null,"website":null,"phone":null,"source":"OpenStreetMap","sourceUpdatedAt":null,"verifiedAt":null}}]}