{"type":"FeatureCollection","features":[{"type":"Feature","geometry":{"type":"Point","coordinates":[11.2674123,46.2076687]},"properties":{"id":"water:036fd8d2-f2d2-4e89-9e39-160ab2b19542","kind":"water","longitude":11.2674123,"latitude":46.2076687,"name":"Fontanella","city":"Valda","address":null,"covered":null,"access":null,"website":null,"phone":null,"source":"OpenStreetMap/node/7581230133","sourceUpdatedAt":null,"verifiedAt":null}},{"type":"Feature","geometry":{"type":"Point","coordinates":[11.2882292,46.220127]},"properties":{"id":"water:3882b45b-c5f7-4f99-b52a-defcfb2b8124","kind":"water","longitude":11.2882292,"latitude":46.220127,"name":"Fontanella","city":"Grumes","address":null,"covered":null,"access":null,"website":null,"phone":null,"source":"OpenStreetMap/node/12919075815","sourceUpdatedAt":null,"verifiedAt":null}},{"type":"Feature","geometry":{"type":"Point","coordinates":[11.2658865,46.2067709]},"properties":{"id":"water:415b36d1-d59e-4685-bc13-26d4744ad4fd","kind":"water","longitude":11.2658865,"latitude":46.2067709,"name":"Fontanella","city":"Valda","address":null,"covered":null,"access":null,"website":null,"phone":null,"source":"OpenStreetMap/node/7581230132","sourceUpdatedAt":null,"verifiedAt":null}},{"type":"Feature","geometry":{"type":"Point","coordinates":[11.256714,46.2197683]},"properties":{"id":"water:a46a6afe-90bb-4786-b65c-db52b8123958","kind":"water","longitude":11.256714,"latitude":46.2197683,"name":"Fontanella","city":"Valda","address":null,"covered":null,"access":null,"website":null,"phone":null,"source":"OpenStreetMap/node/940191519","sourceUpdatedAt":null,"verifiedAt":null}},{"type":"Feature","geometry":{"type":"Point","coordinates":[11.2934054,46.2209959]},"properties":{"id":"water:bddac87e-567c-4fe6-b133-d4b321d4942a","kind":"water","longitude":11.2934054,"latitude":46.2209959,"name":"Fontanella","city":"Grumes","address":null,"covered":null,"access":null,"website":null,"phone":null,"source":"OpenStreetMap/node/11197793961","sourceUpdatedAt":null,"verifiedAt":null}},{"type":"Feature","geometry":{"type":"Point","coordinates":[11.2743608,46.2185738]},"properties":{"id":"water:edd68cf5-9e51-49f8-b323-f30ee3869c3a","kind":"water","longitude":11.2743608,"latitude":46.2185738,"name":"Fontanella","city":"Valda","address":null,"covered":null,"access":null,"website":null,"phone":null,"source":"OpenStreetMap/node/12920693303","sourceUpdatedAt":null,"verifiedAt":null}},{"type":"Feature","geometry":{"type":"Point","coordinates":[11.2637726,46.2071776]},"properties":{"id":"water:f0f321c4-54d9-44b2-abcf-a6b40a4773ff","kind":"water","longitude":11.2637726,"latitude":46.2071776,"name":"Fontanella","city":"Valda","address":null,"covered":null,"access":null,"website":null,"phone":null,"source":"OpenStreetMap/node/7581230134","sourceUpdatedAt":null,"verifiedAt":null}}]}