{"type":"FeatureCollection","features":[{"type":"Feature","geometry":{"type":"Point","coordinates":[11.0216338,49.3367928]},"properties":{"id":"bikerack:17109b9f-3660-4482-b50e-a4b4e0f876ac","kind":"bikerack","longitude":11.0216338,"latitude":49.3367928,"name":"Fahrradabstellplatz","city":"Schwabach","address":null,"covered":false,"access":null,"website":null,"phone":null,"source":"OpenStreetMap/node/13192300633","sourceUpdatedAt":null,"verifiedAt":null}},{"type":"Feature","geometry":{"type":"Point","coordinates":[11.0124857,49.327694]},"properties":{"id":"bikerack:67aef3c1-7b83-4c9d-a366-e219cc564df5","kind":"bikerack","longitude":11.0124857,"latitude":49.327694,"name":"Fahrradabstellplatz","city":"Schwabach","address":null,"covered":true,"access":null,"website":null,"phone":null,"source":"OpenStreetMap/node/11126139153","sourceUpdatedAt":null,"verifiedAt":null}},{"type":"Feature","geometry":{"type":"Point","coordinates":[11.0196062,49.3268901]},"properties":{"id":"bikerack:89c41af8-2156-48e2-b8cf-e830c0f98e5f","kind":"bikerack","longitude":11.0196062,"latitude":49.3268901,"name":"Fahrradabstellplatz","city":"Schwabach","address":null,"covered":false,"access":null,"website":null,"phone":null,"source":"OpenStreetMap/way/92080707","sourceUpdatedAt":null,"verifiedAt":null}},{"type":"Feature","geometry":{"type":"Point","coordinates":[11.0176983,49.3277801]},"properties":{"id":"bikerack:a6a3f017-b6d9-4edd-b2c7-3d688e2abca7","kind":"bikerack","longitude":11.0176983,"latitude":49.3277801,"name":"Fahrradabstellplatz","city":"Schwabach","address":null,"covered":false,"access":null,"website":null,"phone":null,"source":"OpenStreetMap/way/972486285","sourceUpdatedAt":null,"verifiedAt":null}},{"type":"Feature","geometry":{"type":"Point","coordinates":[11.0270208,49.3286068]},"properties":{"id":"bikerack:ed671078-e27e-4a6e-9f19-48735dcbf5d0","kind":"bikerack","longitude":11.0270208,"latitude":49.3286068,"name":"Fahrradabstellplatz","city":"Schwabach","address":null,"covered":false,"access":null,"website":null,"phone":null,"source":"OpenStreetMap/node/13180607710","sourceUpdatedAt":null,"verifiedAt":null}},{"type":"Feature","geometry":{"type":"Point","coordinates":[11.0203347,49.3291265]},"properties":{"id":"bikerack:fcdb31ad-1817-4377-8877-7652a080ca41","kind":"bikerack","longitude":11.0203347,"latitude":49.3291265,"name":"Fahrradabstellplatz","city":"Schwabach","address":null,"covered":false,"access":null,"website":null,"phone":null,"source":"OpenStreetMap/node/13180769630","sourceUpdatedAt":null,"verifiedAt":null}},{"type":"Feature","geometry":{"type":"Point","coordinates":[11.0212017,49.328428]},"properties":{"id":"service:93006fa9-3e1e-4bf8-9d75-6fe6cc93a693","kind":"service","longitude":11.0212017,"latitude":49.328428,"name":"Radgeber","city":"Schwabach","address":null,"covered":null,"access":null,"website":null,"phone":null,"source":"OpenStreetMap/node/10924070905","sourceUpdatedAt":null,"verifiedAt":null}}]}