{"type":"FeatureCollection","features":[{"type":"Feature","geometry":{"type":"Point","coordinates":[10.9883952,48.3605511]},"properties":{"id":"bikerack:1d4543d4-bf6f-4a4e-914a-bba140f400b3","kind":"bikerack","longitude":10.9883952,"latitude":48.3605511,"name":"Fahrradabstellplatz","city":"Friedberg","address":null,"covered":false,"access":null,"website":null,"phone":null,"source":"OpenStreetMap/node/12737002155","sourceUpdatedAt":null,"verifiedAt":null}},{"type":"Feature","geometry":{"type":"Point","coordinates":[10.9868988,48.3535951]},"properties":{"id":"bikerack:36a9c89e-cec4-4d8d-9b53-625c9f746211","kind":"bikerack","longitude":10.9868988,"latitude":48.3535951,"name":"Fahrradabstellplatz","city":"Friedberg","address":null,"covered":false,"access":null,"website":null,"phone":null,"source":"OpenStreetMap/node/11820137303","sourceUpdatedAt":null,"verifiedAt":null}},{"type":"Feature","geometry":{"type":"Point","coordinates":[10.9965846,48.3483149]},"properties":{"id":"bikerack:4170ce2d-1e50-4540-bc45-44012d3888ff","kind":"bikerack","longitude":10.9965846,"latitude":48.3483149,"name":"Fahrradabstellplatz","city":"Friedberg","address":null,"covered":true,"access":null,"website":null,"phone":null,"source":"OpenStreetMap/node/4449708651","sourceUpdatedAt":null,"verifiedAt":null}},{"type":"Feature","geometry":{"type":"Point","coordinates":[10.9985347,48.3477916]},"properties":{"id":"bikerack:6df32a33-a1a4-4fa5-859a-78653cb3dffd","kind":"bikerack","longitude":10.9985347,"latitude":48.3477916,"name":"Fahrradabstellplatz","city":"Friedberg","address":null,"covered":false,"access":null,"website":null,"phone":null,"source":"OpenStreetMap/node/4474824144","sourceUpdatedAt":null,"verifiedAt":null}},{"type":"Feature","geometry":{"type":"Point","coordinates":[10.986711,48.355381]},"properties":{"id":"bikerack:7aa2ae24-a246-455b-a9dd-08ddd595fe0c","kind":"bikerack","longitude":10.986711,"latitude":48.355381,"name":"Fahrradabstellplatz","city":"Friedberg","address":null,"covered":false,"access":null,"website":null,"phone":null,"source":"OpenStreetMap/node/13062490732","sourceUpdatedAt":null,"verifiedAt":null}},{"type":"Feature","geometry":{"type":"Point","coordinates":[10.9900472,48.3557585]},"properties":{"id":"bikerack:90818d3b-ce2b-461a-9ba0-c550ec490670","kind":"bikerack","longitude":10.9900472,"latitude":48.3557585,"name":"Fahrradabstellplatz","city":"Friedberg","address":null,"covered":false,"access":null,"website":null,"phone":null,"source":"OpenStreetMap/node/12107674164","sourceUpdatedAt":null,"verifiedAt":null}},{"type":"Feature","geometry":{"type":"Point","coordinates":[10.9919313,48.3484044]},"properties":{"id":"bikerack:93ba9ee4-fbdd-41f4-8dcf-dff1d5268c02","kind":"bikerack","longitude":10.9919313,"latitude":48.3484044,"name":"Fahrradabstellplatz","city":"Friedberg","address":null,"covered":false,"access":null,"website":null,"phone":null,"source":"OpenStreetMap/node/4874435710","sourceUpdatedAt":null,"verifiedAt":null}},{"type":"Feature","geometry":{"type":"Point","coordinates":[10.9870088,48.3558083]},"properties":{"id":"bikerack:96b249a6-b4f2-4275-bfd4-d4f328c50e4f","kind":"bikerack","longitude":10.9870088,"latitude":48.3558083,"name":"Fahrradabstellplatz","city":"Friedberg","address":null,"covered":false,"access":null,"website":null,"phone":null,"source":"OpenStreetMap/node/10606706740","sourceUpdatedAt":null,"verifiedAt":null}},{"type":"Feature","geometry":{"type":"Point","coordinates":[10.9962663,48.34916]},"properties":{"id":"bikerack:b794a46e-6faf-4e39-8025-566a9c3d2540","kind":"bikerack","longitude":10.9962663,"latitude":48.34916,"name":"Fahrradabstellplatz","city":"Friedberg","address":null,"covered":false,"access":null,"website":null,"phone":null,"source":"OpenStreetMap/node/4604335938","sourceUpdatedAt":null,"verifiedAt":null}},{"type":"Feature","geometry":{"type":"Point","coordinates":[10.9922478,48.348433]},"properties":{"id":"bikerack:baf28f27-b676-4ba6-8ad2-3f6f2af8353c","kind":"bikerack","longitude":10.9922478,"latitude":48.348433,"name":"Fahrradabstellplatz","city":"Friedberg","address":null,"covered":false,"access":null,"website":null,"phone":null,"source":"OpenStreetMap/node/4874435711","sourceUpdatedAt":null,"verifiedAt":null}},{"type":"Feature","geometry":{"type":"Point","coordinates":[10.990009,48.3611277]},"properties":{"id":"bikerack:e1dde3b8-c8fe-4586-8608-6726dcbedef3","kind":"bikerack","longitude":10.990009,"latitude":48.3611277,"name":"Fahrradabstellplatz","city":"Friedberg","address":null,"covered":false,"access":null,"website":null,"phone":null,"source":"OpenStreetMap/way/891322894","sourceUpdatedAt":null,"verifiedAt":null}}]}