{"type":"FeatureCollection","features":[{"type":"Feature","geometry":{"type":"Point","coordinates":[10.9888171,48.2673459]},"properties":{"id":"bikerack:048de1b8-a672-4685-9186-75ec1338d432","kind":"bikerack","longitude":10.9888171,"latitude":48.2673459,"name":"Fahrradabstellplatz","city":"Mering","address":null,"covered":false,"access":null,"website":null,"phone":null,"source":"OpenStreetMap/node/4922317385","sourceUpdatedAt":null,"verifiedAt":null}},{"type":"Feature","geometry":{"type":"Point","coordinates":[10.9878091,48.2634284]},"properties":{"id":"bikerack:2eb1a0ef-7ce9-4e87-ad18-8cffad884fbc","kind":"bikerack","longitude":10.9878091,"latitude":48.2634284,"name":"Fahrradabstellplatz","city":"Mering","address":null,"covered":false,"access":null,"website":null,"phone":null,"source":"OpenStreetMap/node/10073353682","sourceUpdatedAt":null,"verifiedAt":null}},{"type":"Feature","geometry":{"type":"Point","coordinates":[10.9868735,48.2676847]},"properties":{"id":"bikerack:52aada13-316e-40e6-b8b9-d28eb8b1ac95","kind":"bikerack","longitude":10.9868735,"latitude":48.2676847,"name":"Fahrradabstellplatz","city":"Mering","address":null,"covered":false,"access":null,"website":null,"phone":null,"source":"OpenStreetMap/node/7258143860","sourceUpdatedAt":null,"verifiedAt":null}},{"type":"Feature","geometry":{"type":"Point","coordinates":[11.0210816,48.2830641]},"properties":{"id":"bikerack:566d4c1d-1315-4b1e-aeab-646d117ff9af","kind":"bikerack","longitude":11.0210816,"latitude":48.2830641,"name":"Fahrradabstellplatz","city":"Ried","address":null,"covered":false,"access":null,"website":null,"phone":null,"source":"OpenStreetMap/node/8815273879","sourceUpdatedAt":null,"verifiedAt":null}},{"type":"Feature","geometry":{"type":"Point","coordinates":[10.9875014,48.2635216]},"properties":{"id":"bikerack:5fc0a89a-e814-4af5-9092-6722a223cca7","kind":"bikerack","longitude":10.9875014,"latitude":48.2635216,"name":"Fahrradabstellplatz","city":"Mering","address":null,"covered":false,"access":null,"website":null,"phone":null,"source":"OpenStreetMap/way/107086985","sourceUpdatedAt":null,"verifiedAt":null}},{"type":"Feature","geometry":{"type":"Point","coordinates":[10.9865889,48.2674302]},"properties":{"id":"bikerack:60559116-738a-4af6-a615-d0739cf4fa6f","kind":"bikerack","longitude":10.9865889,"latitude":48.2674302,"name":"Fahrradabstellplatz","city":"Mering","address":null,"covered":false,"access":null,"website":null,"phone":null,"source":"OpenStreetMap/node/4922317387","sourceUpdatedAt":null,"verifiedAt":null}},{"type":"Feature","geometry":{"type":"Point","coordinates":[10.9868354,48.2675465]},"properties":{"id":"bikerack:68995d22-7700-4efc-bbfd-196e70b43c05","kind":"bikerack","longitude":10.9868354,"latitude":48.2675465,"name":"Fahrradabstellplatz","city":"Mering","address":null,"covered":false,"access":null,"website":null,"phone":null,"source":"OpenStreetMap/node/7258143862","sourceUpdatedAt":null,"verifiedAt":null}},{"type":"Feature","geometry":{"type":"Point","coordinates":[10.9864208,48.2664149]},"properties":{"id":"bikerack:6d17384e-2077-4079-8ba5-503da5648a7b","kind":"bikerack","longitude":10.9864208,"latitude":48.2664149,"name":"Fahrradabstellplatz","city":"Mering","address":null,"covered":false,"access":null,"website":null,"phone":null,"source":"OpenStreetMap/node/4922317370","sourceUpdatedAt":null,"verifiedAt":null}},{"type":"Feature","geometry":{"type":"Point","coordinates":[10.9872933,48.2675661]},"properties":{"id":"bikerack:763555b9-7d15-4b83-bdaa-7dfee1a79f0d","kind":"bikerack","longitude":10.9872933,"latitude":48.2675661,"name":"Fahrradabstellplatz","city":"Mering","address":null,"covered":false,"access":null,"website":null,"phone":null,"source":"OpenStreetMap/node/11482293501","sourceUpdatedAt":null,"verifiedAt":null}},{"type":"Feature","geometry":{"type":"Point","coordinates":[10.9865049,48.2659727]},"properties":{"id":"bikerack:8edb5d9d-151c-444e-8832-f801ab84178e","kind":"bikerack","longitude":10.9865049,"latitude":48.2659727,"name":"Fahrradabstellplatz","city":"Mering","address":null,"covered":false,"access":null,"website":null,"phone":null,"source":"OpenStreetMap/node/4922317373","sourceUpdatedAt":null,"verifiedAt":null}},{"type":"Feature","geometry":{"type":"Point","coordinates":[10.9885966,48.2666556]},"properties":{"id":"bikerack:90ba19e1-119a-4eaf-a437-ddbb2707696b","kind":"bikerack","longitude":10.9885966,"latitude":48.2666556,"name":"Fahrradabstellplatz","city":"Mering","address":null,"covered":false,"access":null,"website":null,"phone":null,"source":"OpenStreetMap/node/4905343565","sourceUpdatedAt":null,"verifiedAt":null}},{"type":"Feature","geometry":{"type":"Point","coordinates":[10.9885908,48.2667932]},"properties":{"id":"bikerack:a6787067-2dd7-4981-b961-9468fdf1b426","kind":"bikerack","longitude":10.9885908,"latitude":48.2667932,"name":"Fahrradabstellplatz","city":"Mering","address":null,"covered":false,"access":null,"website":null,"phone":null,"source":"OpenStreetMap/node/4905343552","sourceUpdatedAt":null,"verifiedAt":null}},{"type":"Feature","geometry":{"type":"Point","coordinates":[10.9877511,48.2677135]},"properties":{"id":"bikerack:b8450e19-3b23-4cef-86b5-73ed6c5fece1","kind":"bikerack","longitude":10.9877511,"latitude":48.2677135,"name":"Fahrradabstellplatz","city":"Mering","address":null,"covered":true,"access":null,"website":null,"phone":null,"source":"OpenStreetMap/way/1079298067","sourceUpdatedAt":null,"verifiedAt":null}},{"type":"Feature","geometry":{"type":"Point","coordinates":[10.9889569,48.2627302]},"properties":{"id":"bikerack:caa834e5-8091-4a0c-b2c7-5860e7df9cb4","kind":"bikerack","longitude":10.9889569,"latitude":48.2627302,"name":"Fahrradabstellplatz","city":"Mering","address":null,"covered":true,"access":null,"website":null,"phone":null,"source":"OpenStreetMap/way/253195129","sourceUpdatedAt":null,"verifiedAt":null}},{"type":"Feature","geometry":{"type":"Point","coordinates":[10.9878775,48.2674227]},"properties":{"id":"bikerack:e76f7241-439c-43c8-ac57-bd9b58233ba3","kind":"bikerack","longitude":10.9878775,"latitude":48.2674227,"name":"Fahrradabstellplatz","city":"Mering","address":null,"covered":true,"access":null,"website":null,"phone":null,"source":"OpenStreetMap/node/3680683687","sourceUpdatedAt":null,"verifiedAt":null}},{"type":"Feature","geometry":{"type":"Point","coordinates":[10.9892877,48.2625566]},"properties":{"id":"bikerack:f4886391-93c7-4d05-b8fd-2aaae0da2f7b","kind":"bikerack","longitude":10.9892877,"latitude":48.2625566,"name":"Fahrradabstellplatz","city":"Mering","address":null,"covered":false,"access":null,"website":null,"phone":null,"source":"OpenStreetMap/node/8335574046","sourceUpdatedAt":null,"verifiedAt":null}},{"type":"Feature","geometry":{"type":"Point","coordinates":[10.9892267,48.2627351]},"properties":{"id":"bikerack:fdb32a4a-e038-4132-a6a5-fc29d2af337a","kind":"bikerack","longitude":10.9892267,"latitude":48.2627351,"name":"Fahrradabstellplatz","city":"Mering","address":null,"covered":true,"access":null,"website":null,"phone":null,"source":"OpenStreetMap/way/253195131","sourceUpdatedAt":null,"verifiedAt":null}},{"type":"Feature","geometry":{"type":"Point","coordinates":[11.0211193,48.2831233]},"properties":{"id":"water:87dd02d1-c97c-472e-a73a-d3d0c3748f06","kind":"water","longitude":11.0211193,"latitude":48.2831233,"name":"Trinkwasser","city":"Ried","address":null,"covered":null,"access":null,"website":null,"phone":null,"source":"OpenStreetMap/node/9167070779","sourceUpdatedAt":null,"verifiedAt":null}},{"type":"Feature","geometry":{"type":"Point","coordinates":[10.9871577,48.2678417]},"properties":{"id":"water:9397470d-1646-4208-bed7-3a74d39d249b","kind":"water","longitude":10.9871577,"latitude":48.2678417,"name":"Trinkwasser","city":"Mering","address":null,"covered":null,"access":null,"website":null,"phone":null,"source":"OpenStreetMap/node/2202438446","sourceUpdatedAt":null,"verifiedAt":null}}]}