{"type":"FeatureCollection","features":[{"type":"Feature","geometry":{"type":"Point","coordinates":[11.0067708,45.8098342]},"properties":{"id":"water:075657a0-99f6-4ac2-ac5e-909d04e118ea","kind":"water","longitude":11.0067708,"latitude":45.8098342,"name":"Fontanella","city":"Marco","address":null,"covered":null,"access":null,"website":null,"phone":null,"source":"OpenStreetMap/node/402825213","sourceUpdatedAt":null,"verifiedAt":null}},{"type":"Feature","geometry":{"type":"Point","coordinates":[11.0088154,45.8123483]},"properties":{"id":"water:30c4d875-ab2d-4df1-a613-9765b76ae957","kind":"water","longitude":11.0088154,"latitude":45.8123483,"name":"Fontanella","city":"Marco","address":null,"covered":null,"access":null,"website":null,"phone":null,"source":"OpenStreetMap/node/316996909","sourceUpdatedAt":null,"verifiedAt":null}},{"type":"Feature","geometry":{"type":"Point","coordinates":[11.0105465,45.8065071]},"properties":{"id":"water:4dd2e5ff-4397-40cb-a7b6-9e0e97d7998e","kind":"water","longitude":11.0105465,"latitude":45.8065071,"name":"Fontanella","city":"Marco","address":null,"covered":null,"access":null,"website":null,"phone":null,"source":"OpenStreetMap/node/6546893172","sourceUpdatedAt":null,"verifiedAt":null}},{"type":"Feature","geometry":{"type":"Point","coordinates":[11.0076162,45.8146144]},"properties":{"id":"water:6da4fecb-f576-4500-8a6a-c11d0c69f29e","kind":"water","longitude":11.0076162,"latitude":45.8146144,"name":"Fontanella","city":"Marco","address":null,"covered":null,"access":null,"website":null,"phone":null,"source":"OpenStreetMap/node/303545504","sourceUpdatedAt":null,"verifiedAt":null}},{"type":"Feature","geometry":{"type":"Point","coordinates":[11.0127561,45.8143085]},"properties":{"id":"water:930ecce3-4796-4dfc-bb50-de8b925d59a9","kind":"water","longitude":11.0127561,"latitude":45.8143085,"name":"Fontanella","city":"Marco","address":null,"covered":null,"access":null,"website":null,"phone":null,"source":"OpenStreetMap/node/332628680","sourceUpdatedAt":null,"verifiedAt":null}},{"type":"Feature","geometry":{"type":"Point","coordinates":[11.013661,45.8137679]},"properties":{"id":"water:9670a68a-15aa-4d2c-8d90-a9135494d236","kind":"water","longitude":11.013661,"latitude":45.8137679,"name":"Fontanella","city":"Marco","address":null,"covered":null,"access":null,"website":null,"phone":null,"source":"OpenStreetMap/node/332629059","sourceUpdatedAt":null,"verifiedAt":null}},{"type":"Feature","geometry":{"type":"Point","coordinates":[11.0133617,45.8109614]},"properties":{"id":"water:96f75312-421a-417d-b4d7-2883f8a27422","kind":"water","longitude":11.0133617,"latitude":45.8109614,"name":"Fontanella","city":"Marco","address":null,"covered":null,"access":null,"website":null,"phone":null,"source":"OpenStreetMap/node/303545512","sourceUpdatedAt":null,"verifiedAt":null}},{"type":"Feature","geometry":{"type":"Point","coordinates":[11.0087871,45.8085065]},"properties":{"id":"water:a33df65c-e906-4f31-bdd2-415b73f5bc42","kind":"water","longitude":11.0087871,"latitude":45.8085065,"name":"Fontanella","city":"Marco","address":null,"covered":null,"access":null,"website":null,"phone":null,"source":"OpenStreetMap/node/316998765","sourceUpdatedAt":null,"verifiedAt":null}},{"type":"Feature","geometry":{"type":"Point","coordinates":[10.9970129,45.8236135]},"properties":{"id":"water:ca7a40b0-2cf8-4867-a188-4d3ec8610070","kind":"water","longitude":10.9970129,"latitude":45.8236135,"name":"Fontanella","city":"Marco","address":null,"covered":null,"access":null,"website":null,"phone":null,"source":"OpenStreetMap/node/316996702","sourceUpdatedAt":null,"verifiedAt":null}},{"type":"Feature","geometry":{"type":"Point","coordinates":[11.0139578,45.8108619]},"properties":{"id":"water:d0956621-e110-4695-8c6d-ea7924c9ebe5","kind":"water","longitude":11.0139578,"latitude":45.8108619,"name":"Fontanella","city":"Marco","address":null,"covered":null,"access":null,"website":null,"phone":null,"source":"OpenStreetMap/node/332628636","sourceUpdatedAt":null,"verifiedAt":null}}]}