{"type":"FeatureCollection","features":[{"type":"Feature","geometry":{"type":"Point","coordinates":[11.529301,47.2869207]},"properties":{"id":"bikerack:00576254-6613-4c59-a9c5-9a3fbd676ffa","kind":"bikerack","longitude":11.529301,"latitude":47.2869207,"name":"Biciklitároló","city":"Hall in Tirol","address":null,"covered":false,"access":null,"website":null,"phone":null,"source":"OpenStreetMap/node/5320515771","sourceUpdatedAt":null,"verifiedAt":null}},{"type":"Feature","geometry":{"type":"Point","coordinates":[11.5148857,47.2828621]},"properties":{"id":"bikerack:d38b5b2d-8831-4311-9d64-4a75f2808835","kind":"bikerack","longitude":11.5148857,"latitude":47.2828621,"name":"Biciklitároló","city":"Hall in Tirol","address":null,"covered":false,"access":null,"website":null,"phone":null,"source":"OpenStreetMap/way/1025791241","sourceUpdatedAt":null,"verifiedAt":null}},{"type":"Feature","geometry":{"type":"Point","coordinates":[11.5140873,47.2845839]},"properties":{"id":"water:0fa8d616-6cad-4f74-9205-de08c685710d","kind":"water","longitude":11.5140873,"latitude":47.2845839,"name":"Ivókút","city":"Hall in Tirol","address":null,"covered":null,"access":null,"website":null,"phone":null,"source":"OpenStreetMap/node/5031050375","sourceUpdatedAt":null,"verifiedAt":null}},{"type":"Feature","geometry":{"type":"Point","coordinates":[11.5146955,47.2864987]},"properties":{"id":"water:141abc84-a731-417f-b7d7-4b5bd7c99efc","kind":"water","longitude":11.5146955,"latitude":47.2864987,"name":"Ivókút","city":"Hall in Tirol","address":null,"covered":null,"access":null,"website":null,"phone":null,"source":"OpenStreetMap/node/10960266862","sourceUpdatedAt":null,"verifiedAt":null}},{"type":"Feature","geometry":{"type":"Point","coordinates":[11.5281031,47.2991031]},"properties":{"id":"water:18e5c44d-3243-4b45-b717-82ca72fc44b6","kind":"water","longitude":11.5281031,"latitude":47.2991031,"name":"Ivókút","city":"Hall in Tirol","address":null,"covered":null,"access":null,"website":null,"phone":null,"source":"OpenStreetMap/node/12324607038","sourceUpdatedAt":null,"verifiedAt":null}},{"type":"Feature","geometry":{"type":"Point","coordinates":[11.5280315,47.2942009]},"properties":{"id":"water:2ddaa3ec-7d7b-436b-b9af-71bf8fe83624","kind":"water","longitude":11.5280315,"latitude":47.2942009,"name":"Ivókút","city":"Hall in Tirol","address":null,"covered":null,"access":null,"website":null,"phone":null,"source":"OpenStreetMap/node/4446579411","sourceUpdatedAt":null,"verifiedAt":null}},{"type":"Feature","geometry":{"type":"Point","coordinates":[11.5377755,47.2873082]},"properties":{"id":"water:3382232d-886a-40cc-ad46-e66f7886ce59","kind":"water","longitude":11.5377755,"latitude":47.2873082,"name":"Ivókút","city":"Hall in Tirol","address":null,"covered":null,"access":null,"website":null,"phone":null,"source":"OpenStreetMap/node/6665117297","sourceUpdatedAt":null,"verifiedAt":null}},{"type":"Feature","geometry":{"type":"Point","coordinates":[11.5323007,47.2891964]},"properties":{"id":"water:4b3b96dc-ccd8-493c-8099-fdbeb78e1f96","kind":"water","longitude":11.5323007,"latitude":47.2891964,"name":"Ivókút","city":"Hall in Tirol","address":null,"covered":null,"access":null,"website":null,"phone":null,"source":"OpenStreetMap/node/1291649426","sourceUpdatedAt":null,"verifiedAt":null}},{"type":"Feature","geometry":{"type":"Point","coordinates":[11.5320468,47.2898156]},"properties":{"id":"water:54bd9478-af00-407e-a583-252b165cae0f","kind":"water","longitude":11.5320468,"latitude":47.2898156,"name":"Ivókút","city":"Hall in Tirol","address":null,"covered":null,"access":null,"website":null,"phone":null,"source":"OpenStreetMap/node/1291649413","sourceUpdatedAt":null,"verifiedAt":null}},{"type":"Feature","geometry":{"type":"Point","coordinates":[11.553255,47.2800381]},"properties":{"id":"water:70432c0d-f36f-4570-bddc-25966e5229bf","kind":"water","longitude":11.553255,"latitude":47.2800381,"name":"Ivókút","city":"Volders","address":null,"covered":null,"access":null,"website":null,"phone":null,"source":"OpenStreetMap/node/296011842","sourceUpdatedAt":null,"verifiedAt":null}},{"type":"Feature","geometry":{"type":"Point","coordinates":[11.533489,47.2904481]},"properties":{"id":"water:72635687-2b70-45ba-aa39-c189ba82c84c","kind":"water","longitude":11.533489,"latitude":47.2904481,"name":"Ivókút","city":"Hall in Tirol","address":null,"covered":null,"access":null,"website":null,"phone":null,"source":"OpenStreetMap/node/1291649414","sourceUpdatedAt":null,"verifiedAt":null}},{"type":"Feature","geometry":{"type":"Point","coordinates":[11.513695,47.301592]},"properties":{"id":"water:78e6867f-2f58-4bc6-aa8b-1621783b46a7","kind":"water","longitude":11.513695,"latitude":47.301592,"name":"Ivókút","city":"Absam","address":null,"covered":null,"access":null,"website":null,"phone":null,"source":"OpenStreetMap/node/10916898068","sourceUpdatedAt":null,"verifiedAt":null}},{"type":"Feature","geometry":{"type":"Point","coordinates":[11.5194004,47.3086992]},"properties":{"id":"water:801bf4c3-e15d-4479-aac8-0aae05dc813c","kind":"water","longitude":11.5194004,"latitude":47.3086992,"name":"Ivókút","city":"Absam","address":null,"covered":null,"access":null,"website":null,"phone":null,"source":"OpenStreetMap/node/11779275966","sourceUpdatedAt":null,"verifiedAt":null}},{"type":"Feature","geometry":{"type":"Point","coordinates":[11.526704,47.3038733]},"properties":{"id":"water:81547309-1ee5-4408-a205-07dcc08e74ec","kind":"water","longitude":11.526704,"latitude":47.3038733,"name":"Ivókút","city":"Hall in Tirol","address":null,"covered":null,"access":null,"website":null,"phone":null,"source":"OpenStreetMap/node/5022454949","sourceUpdatedAt":null,"verifiedAt":null}},{"type":"Feature","geometry":{"type":"Point","coordinates":[11.5156578,47.2843766]},"properties":{"id":"water:a8b04c34-e250-4ee0-9b59-8f66ece1799a","kind":"water","longitude":11.5156578,"latitude":47.2843766,"name":"Ivókút","city":"Hall in Tirol","address":null,"covered":null,"access":null,"website":null,"phone":null,"source":"OpenStreetMap/node/10960266863","sourceUpdatedAt":null,"verifiedAt":null}},{"type":"Feature","geometry":{"type":"Point","coordinates":[11.5370969,47.2949323]},"properties":{"id":"water:be6ef65b-f4a8-40ef-94d6-f5f1c1fe32bb","kind":"water","longitude":11.5370969,"latitude":47.2949323,"name":"Ivókút","city":"Hall in Tirol","address":null,"covered":null,"access":null,"website":null,"phone":null,"source":"OpenStreetMap/node/8669875258","sourceUpdatedAt":null,"verifiedAt":null}},{"type":"Feature","geometry":{"type":"Point","coordinates":[11.5331001,47.2881885]},"properties":{"id":"water:cba768c0-e188-42fc-83fe-85a4f74e8bc8","kind":"water","longitude":11.5331001,"latitude":47.2881885,"name":"St. Florian Brunnen","city":"Hall in Tirol","address":null,"covered":null,"access":null,"website":null,"phone":null,"source":"OpenStreetMap/node/2965103814","sourceUpdatedAt":null,"verifiedAt":null}},{"type":"Feature","geometry":{"type":"Point","coordinates":[11.5287763,47.2867348]},"properties":{"id":"water:cf4940c2-f886-404f-a896-18a853c02a6d","kind":"water","longitude":11.5287763,"latitude":47.2867348,"name":"Ivókút","city":"Hall in Tirol","address":null,"covered":null,"access":null,"website":null,"phone":null,"source":"OpenStreetMap/node/1291649415","sourceUpdatedAt":null,"verifiedAt":null}},{"type":"Feature","geometry":{"type":"Point","coordinates":[11.545283,47.3077253]},"properties":{"id":"water:cf6ee67f-1619-4980-8ed4-e19d71675d68","kind":"water","longitude":11.545283,"latitude":47.3077253,"name":"Ivókút","city":"Baumkirchen","address":null,"covered":null,"access":null,"website":null,"phone":null,"source":"OpenStreetMap/node/8669803300","sourceUpdatedAt":null,"verifiedAt":null}},{"type":"Feature","geometry":{"type":"Point","coordinates":[11.5152329,47.2976522]},"properties":{"id":"water:d8a60ad3-20a5-49b3-8898-cce513a39939","kind":"water","longitude":11.5152329,"latitude":47.2976522,"name":"Ivókút","city":"Hall in Tirol","address":null,"covered":null,"access":null,"website":null,"phone":null,"source":"OpenStreetMap/node/7473273406","sourceUpdatedAt":null,"verifiedAt":null}},{"type":"Feature","geometry":{"type":"Point","coordinates":[11.5188173,47.3083283]},"properties":{"id":"water:daa07875-9b45-404c-a95e-85a1f67f129b","kind":"water","longitude":11.5188173,"latitude":47.3083283,"name":"Ivókút","city":"Absam","address":null,"covered":null,"access":null,"website":null,"phone":null,"source":"OpenStreetMap/node/11776427012","sourceUpdatedAt":null,"verifiedAt":null}},{"type":"Feature","geometry":{"type":"Point","coordinates":[11.5149521,47.3039468]},"properties":{"id":"water:e2806b8c-3f0c-45c5-98ac-bb9595006f24","kind":"water","longitude":11.5149521,"latitude":47.3039468,"name":"Ivókút","city":"Absam","address":null,"covered":null,"access":null,"website":null,"phone":null,"source":"OpenStreetMap/node/4412270275","sourceUpdatedAt":null,"verifiedAt":null}},{"type":"Feature","geometry":{"type":"Point","coordinates":[11.5211606,47.3078326]},"properties":{"id":"water:e63e8480-1d6d-46e7-8bc7-377e267e92db","kind":"water","longitude":11.5211606,"latitude":47.3078326,"name":"Ivókút","city":"Absam","address":null,"covered":null,"access":null,"website":null,"phone":null,"source":"OpenStreetMap/node/12158236638","sourceUpdatedAt":null,"verifiedAt":null}}]}