{"type":"FeatureCollection","features":[{"type":"Feature","geometry":{"type":"Point","coordinates":[11.5325908,47.2739191]},"properties":{"id":"bikerack:ccf4b20e-14c0-474e-8ffc-aeaf4112f3a8","kind":"bikerack","longitude":11.5325908,"latitude":47.2739191,"name":"Biciklitároló","city":"Hall in Tirol","address":null,"covered":false,"access":null,"website":null,"phone":null,"source":"OpenStreetMap/node/12259707677","sourceUpdatedAt":null,"verifiedAt":null}},{"type":"Feature","geometry":{"type":"Point","coordinates":[11.5175191,47.262337]},"properties":{"id":"water:31afa255-d6dc-464b-8181-1205000c515b","kind":"water","longitude":11.5175191,"latitude":47.262337,"name":"Ivókút","city":"Tulfes","address":null,"covered":null,"access":null,"website":null,"phone":null,"source":"OpenStreetMap/node/11826191636","sourceUpdatedAt":null,"verifiedAt":null}},{"type":"Feature","geometry":{"type":"Point","coordinates":[11.5357876,47.2682012]},"properties":{"id":"water:761ea2ee-d70f-4330-a2bb-a094c84e0af6","kind":"water","longitude":11.5357876,"latitude":47.2682012,"name":"Ivókút","city":"Tulfes","address":null,"covered":null,"access":null,"website":null,"phone":null,"source":"OpenStreetMap/node/4811935076","sourceUpdatedAt":null,"verifiedAt":null}},{"type":"Feature","geometry":{"type":"Point","coordinates":[11.5227628,47.2731329]},"properties":{"id":"water:8ed88fd6-6e34-4bcd-9f7e-e973ac2e8516","kind":"water","longitude":11.5227628,"latitude":47.2731329,"name":"Ivókút","city":"Hall in Tirol","address":null,"covered":null,"access":null,"website":null,"phone":null,"source":"OpenStreetMap/node/12166854820","sourceUpdatedAt":null,"verifiedAt":null}},{"type":"Feature","geometry":{"type":"Point","coordinates":[11.5216242,47.2498729]},"properties":{"id":"water:925cca2a-8f61-46d0-8f63-10c8079a0216","kind":"water","longitude":11.5216242,"latitude":47.2498729,"name":"Roman-Brünnl","city":"Tulfes","address":null,"covered":null,"access":null,"website":null,"phone":null,"source":"OpenStreetMap/node/12235984195","sourceUpdatedAt":null,"verifiedAt":null}},{"type":"Feature","geometry":{"type":"Point","coordinates":[11.5301414,47.256761]},"properties":{"id":"water:966c6b85-1370-4e15-bc01-6db2a9907e68","kind":"water","longitude":11.5301414,"latitude":47.256761,"name":"Ivókút","city":"Tulfes","address":null,"covered":null,"access":null,"website":null,"phone":null,"source":"OpenStreetMap/node/4214029069","sourceUpdatedAt":null,"verifiedAt":null}},{"type":"Feature","geometry":{"type":"Point","coordinates":[11.533984,47.2589137]},"properties":{"id":"water:b838f629-9124-4cea-b2fc-011192024d86","kind":"water","longitude":11.533984,"latitude":47.2589137,"name":"Ivókút","city":"Tulfes","address":null,"covered":null,"access":null,"website":null,"phone":null,"source":"OpenStreetMap/node/4214029072","sourceUpdatedAt":null,"verifiedAt":null}},{"type":"Feature","geometry":{"type":"Point","coordinates":[11.5302071,47.257722]},"properties":{"id":"water:eed470b2-b2f9-4d10-b99c-e1a05bca0848","kind":"water","longitude":11.5302071,"latitude":47.257722,"name":"Ivókút","city":"Tulfes","address":null,"covered":null,"access":null,"website":null,"phone":null,"source":"OpenStreetMap/node/9820608812","sourceUpdatedAt":null,"verifiedAt":null}}]}