{"type":"FeatureCollection","features":[{"type":"Feature","geometry":{"type":"Point","coordinates":[11.5289427,46.0570281]},"properties":{"id":"water:081f80db-585e-4112-a023-bd5f8bd0fbfe","kind":"water","longitude":11.5289427,"latitude":46.0570281,"name":"Fontanella","city":"Ivano-Fracena","address":null,"covered":null,"access":null,"website":null,"phone":null,"source":"OpenStreetMap/node/5907768596","sourceUpdatedAt":null,"verifiedAt":null}},{"type":"Feature","geometry":{"type":"Point","coordinates":[11.5561472,46.0610187]},"properties":{"id":"water:095816eb-6e1a-4dfa-b1a9-b4f9f3e8cf54","kind":"water","longitude":11.5561472,"latitude":46.0610187,"name":"Fontanella","city":"Ospedaletto","address":null,"covered":null,"access":null,"website":null,"phone":null,"source":"OpenStreetMap/node/2905503055","sourceUpdatedAt":null,"verifiedAt":null}},{"type":"Feature","geometry":{"type":"Point","coordinates":[11.5352852,46.0557507]},"properties":{"id":"water:1f44fe57-a030-4988-a1c7-ac40269da039","kind":"water","longitude":11.5352852,"latitude":46.0557507,"name":"Fontanella","city":"Ivano-Fracena","address":null,"covered":null,"access":null,"website":null,"phone":null,"source":"OpenStreetMap/node/6516621032","sourceUpdatedAt":null,"verifiedAt":null}},{"type":"Feature","geometry":{"type":"Point","coordinates":[11.5332238,46.0666111]},"properties":{"id":"water:33cc94b5-ce06-43ca-aeb9-aaafa8221d83","kind":"water","longitude":11.5332238,"latitude":46.0666111,"name":"Fontanella","city":"Ivano-Fracena","address":null,"covered":null,"access":null,"website":null,"phone":null,"source":"OpenStreetMap/node/5474059239","sourceUpdatedAt":null,"verifiedAt":null}},{"type":"Feature","geometry":{"type":"Point","coordinates":[11.5205548,46.063265]},"properties":{"id":"water:47d4e725-71c1-4b33-84f3-55981a626b74","kind":"water","longitude":11.5205548,"latitude":46.063265,"name":"Fontanella","city":"Strigno","address":null,"covered":null,"access":null,"website":null,"phone":null,"source":"OpenStreetMap/node/6660235813","sourceUpdatedAt":null,"verifiedAt":null}},{"type":"Feature","geometry":{"type":"Point","coordinates":[11.529946,46.0529119]},"properties":{"id":"water:4dd8a2fa-e198-493b-9eac-6adf46015b7a","kind":"water","longitude":11.529946,"latitude":46.0529119,"name":"Fontanella","city":"Villa-Agnedo","address":null,"covered":null,"access":null,"website":null,"phone":null,"source":"OpenStreetMap/node/6357758939","sourceUpdatedAt":null,"verifiedAt":null}},{"type":"Feature","geometry":{"type":"Point","coordinates":[11.5268394,46.0684371]},"properties":{"id":"water:51818968-ac46-4559-bac0-01f0bdc3521e","kind":"water","longitude":11.5268394,"latitude":46.0684371,"name":"Fontanella","city":"Strigno","address":null,"covered":null,"access":null,"website":null,"phone":null,"source":"OpenStreetMap/node/5807586268","sourceUpdatedAt":null,"verifiedAt":null}},{"type":"Feature","geometry":{"type":"Point","coordinates":[11.5308454,46.0660979]},"properties":{"id":"water:65413888-0ed7-487a-aeca-b54b3c9b35cd","kind":"water","longitude":11.5308454,"latitude":46.0660979,"name":"Fontanella","city":"Strigno","address":null,"covered":null,"access":null,"website":null,"phone":null,"source":"OpenStreetMap/node/5474059242","sourceUpdatedAt":null,"verifiedAt":null}},{"type":"Feature","geometry":{"type":"Point","coordinates":[11.5227913,46.0438771]},"properties":{"id":"water:780c2fc0-99f8-475f-a2f7-16f4275e4e1f","kind":"water","longitude":11.5227913,"latitude":46.0438771,"name":"Fontanella","city":"Villa-Agnedo","address":null,"covered":null,"access":null,"website":null,"phone":null,"source":"OpenStreetMap/node/7510624251","sourceUpdatedAt":null,"verifiedAt":null}},{"type":"Feature","geometry":{"type":"Point","coordinates":[11.5200452,46.0657984]},"properties":{"id":"water:8531c3e5-56c9-46b9-8e9d-dc3bac51b6c5","kind":"water","longitude":11.5200452,"latitude":46.0657984,"name":"Fontanella","city":"Strigno","address":null,"covered":null,"access":null,"website":null,"phone":null,"source":"OpenStreetMap/node/4622440205","sourceUpdatedAt":null,"verifiedAt":null}},{"type":"Feature","geometry":{"type":"Point","coordinates":[11.5325332,46.0684999]},"properties":{"id":"water:888fe32e-0b57-48da-a156-60d7e5f2a4e5","kind":"water","longitude":11.5325332,"latitude":46.0684999,"name":"Fontanella","city":"Strigno","address":null,"covered":null,"access":null,"website":null,"phone":null,"source":"OpenStreetMap/node/5474058581","sourceUpdatedAt":null,"verifiedAt":null}},{"type":"Feature","geometry":{"type":"Point","coordinates":[11.5229151,46.06594]},"properties":{"id":"water:a90b7103-c539-4086-8c87-17efebf40746","kind":"water","longitude":11.5229151,"latitude":46.06594,"name":"Fontanella","city":"Strigno","address":null,"covered":null,"access":null,"website":null,"phone":null,"source":"OpenStreetMap/node/5575322855","sourceUpdatedAt":null,"verifiedAt":null}},{"type":"Feature","geometry":{"type":"Point","coordinates":[11.5254924,46.0619347]},"properties":{"id":"water:c243b192-6985-49eb-8a09-89e33c6d956a","kind":"water","longitude":11.5254924,"latitude":46.0619347,"name":"Fontanella","city":"Strigno","address":null,"covered":null,"access":null,"website":null,"phone":null,"source":"OpenStreetMap/node/5564885977","sourceUpdatedAt":null,"verifiedAt":null}},{"type":"Feature","geometry":{"type":"Point","coordinates":[11.5237133,46.0663726]},"properties":{"id":"water:c99d02c4-f029-4d78-be28-4d326b1595c2","kind":"water","longitude":11.5237133,"latitude":46.0663726,"name":"Fontanella","city":"Strigno","address":null,"covered":null,"access":null,"website":null,"phone":null,"source":"OpenStreetMap/node/5908187292","sourceUpdatedAt":null,"verifiedAt":null}},{"type":"Feature","geometry":{"type":"Point","coordinates":[11.5201399,46.0670282]},"properties":{"id":"water:e660fe0b-94bc-4392-8993-16c1d764bbeb","kind":"water","longitude":11.5201399,"latitude":46.0670282,"name":"Fontanella","city":"Strigno","address":null,"covered":null,"access":null,"website":null,"phone":null,"source":"OpenStreetMap/node/6700746914","sourceUpdatedAt":null,"verifiedAt":null}},{"type":"Feature","geometry":{"type":"Point","coordinates":[11.5242883,46.0672354]},"properties":{"id":"water:fd41953f-54a8-4f12-9dae-ce3edf773d40","kind":"water","longitude":11.5242883,"latitude":46.0672354,"name":"Fontanella","city":"Strigno","address":null,"covered":null,"access":null,"website":null,"phone":null,"source":"OpenStreetMap/node/5908186073","sourceUpdatedAt":null,"verifiedAt":null}}]}