{"type":"FeatureCollection","features":[{"type":"Feature","geometry":{"type":"Point","coordinates":[11.550531,45.4957283]},"properties":{"id":"bikerack:30d59e02-1711-4287-ba86-ef80b506d010","kind":"bikerack","longitude":11.550531,"latitude":45.4957283,"name":"Parcheggio bici","city":"Arcugnano-Torri","address":null,"covered":false,"access":null,"website":null,"phone":null,"source":"OpenStreetMap/node/9225983034","sourceUpdatedAt":null,"verifiedAt":null}},{"type":"Feature","geometry":{"type":"Point","coordinates":[11.5563956,45.5048772]},"properties":{"id":"water:2edd47d8-5ebd-4215-aa86-b3617ae39cc6","kind":"water","longitude":11.5563956,"latitude":45.5048772,"name":"Fontanella","city":"Arcugnano-Torri","address":null,"covered":null,"access":null,"website":null,"phone":null,"source":"OpenStreetMap/node/2398286907","sourceUpdatedAt":null,"verifiedAt":null}},{"type":"Feature","geometry":{"type":"Point","coordinates":[11.5513705,45.4927102]},"properties":{"id":"water:55e2f3f9-f633-434b-995f-d86321cdbbbb","kind":"water","longitude":11.5513705,"latitude":45.4927102,"name":"Fontanella","city":"Arcugnano-Torri","address":null,"covered":null,"access":null,"website":null,"phone":null,"source":"OpenStreetMap/node/5163281759","sourceUpdatedAt":null,"verifiedAt":null}},{"type":"Feature","geometry":{"type":"Point","coordinates":[11.5329678,45.4957833]},"properties":{"id":"water:a7d2b1ee-3b91-4339-b840-6735c9bd0d64","kind":"water","longitude":11.5329678,"latitude":45.4957833,"name":"Fontanella","city":"Arcugnano-Torri","address":null,"covered":null,"access":null,"website":null,"phone":null,"source":"OpenStreetMap/node/12964919601","sourceUpdatedAt":null,"verifiedAt":null}}]}