{"type":"FeatureCollection","features":[{"type":"Feature","geometry":{"type":"Point","coordinates":[22.7264958,53.4881014]},"properties":{"id":"bikerack:a884d138-dceb-4436-8d61-bc7b6d474a3d","kind":"bikerack","longitude":22.7264958,"latitude":53.4881014,"name":"Biciklitároló","city":"Goniadz","address":null,"covered":false,"access":null,"website":null,"phone":null,"source":"OpenStreetMap/node/5887655667","sourceUpdatedAt":null,"verifiedAt":null}},{"type":"Feature","geometry":{"type":"Point","coordinates":[22.7297798,53.4913588]},"properties":{"id":"bikerack:ba277ef3-d1ed-488a-9265-6bf2ce6755c0","kind":"bikerack","longitude":22.7297798,"latitude":53.4913588,"name":"Biciklitároló","city":"Goniadz","address":null,"covered":false,"access":null,"website":null,"phone":null,"source":"OpenStreetMap/way/434614772","sourceUpdatedAt":null,"verifiedAt":null}}]}