{"type":"FeatureCollection","features":[{"type":"Feature","geometry":{"type":"Point","coordinates":[10.3904217,46.25735]},"properties":{"id":"water:2d94aa32-bfa9-4240-8c78-68684c54f2f7","kind":"water","longitude":10.3904217,"latitude":46.25735,"name":"Fontanella","city":"Vezza d'Oglio","address":null,"covered":null,"access":null,"website":null,"phone":null,"source":"OpenStreetMap/node/7817423868","sourceUpdatedAt":null,"verifiedAt":null}},{"type":"Feature","geometry":{"type":"Point","coordinates":[10.3882948,46.2570017]},"properties":{"id":"water:43f3ff99-82ac-4970-9c13-a008e64f1840","kind":"water","longitude":10.3882948,"latitude":46.2570017,"name":"Fontanella","city":"Vezza d'Oglio","address":null,"covered":null,"access":null,"website":null,"phone":null,"source":"OpenStreetMap/node/6707648403","sourceUpdatedAt":null,"verifiedAt":null}},{"type":"Feature","geometry":{"type":"Point","coordinates":[10.3872299,46.2591303]},"properties":{"id":"water:712255a8-cdb4-4f99-83d7-7910de333278","kind":"water","longitude":10.3872299,"latitude":46.2591303,"name":"Fontanella","city":"Vezza d'Oglio","address":null,"covered":null,"access":null,"website":null,"phone":null,"source":"OpenStreetMap/node/6707648364","sourceUpdatedAt":null,"verifiedAt":null}}]}