{"type":"FeatureCollection","features":[{"type":"Feature","geometry":{"type":"Point","coordinates":[21.6023617,52.7380584]},"properties":{"id":"bikerack:1adc3eb9-8ef5-4f33-9047-18657e12d6fa","kind":"bikerack","longitude":21.6023617,"latitude":52.7380584,"name":"Biciklitároló","city":"Dlugosiodlo","address":null,"covered":false,"access":null,"website":null,"phone":null,"source":"OpenStreetMap/node/12361640978","sourceUpdatedAt":null,"verifiedAt":null}},{"type":"Feature","geometry":{"type":"Point","coordinates":[21.6040286,52.7436425]},"properties":{"id":"bikerack:e1fceb0f-c43f-4d21-b77e-d3d902a27da9","kind":"bikerack","longitude":21.6040286,"latitude":52.7436425,"name":"Biciklitároló","city":"Dlugosiodlo","address":null,"covered":false,"access":null,"website":null,"phone":null,"source":"OpenStreetMap/node/12361737122","sourceUpdatedAt":null,"verifiedAt":null}}]}