{"type":"FeatureCollection","features":[{"type":"Feature","geometry":{"type":"Point","coordinates":[11.6142442,52.1030835]},"properties":{"id":"bikerack:00e3c34f-3bca-46e6-a149-8e5423226794","kind":"bikerack","longitude":11.6142442,"latitude":52.1030835,"name":"Fahrradabstellplatz","city":"Magdeburg","address":null,"covered":false,"access":null,"website":null,"phone":null,"source":"OpenStreetMap/way/1348773637","sourceUpdatedAt":null,"verifiedAt":null}},{"type":"Feature","geometry":{"type":"Point","coordinates":[11.6171332,52.1027526]},"properties":{"id":"bikerack:015f6508-7c87-4dd9-ad59-a3f088e6ed25","kind":"bikerack","longitude":11.6171332,"latitude":52.1027526,"name":"Fahrradabstellplatz","city":"Magdeburg","address":null,"covered":false,"access":null,"website":null,"phone":null,"source":"OpenStreetMap/way/1205163255","sourceUpdatedAt":null,"verifiedAt":null}},{"type":"Feature","geometry":{"type":"Point","coordinates":[11.6087054,52.081615]},"properties":{"id":"bikerack:0348f31a-47bd-4794-bfcf-348f5617c7e5","kind":"bikerack","longitude":11.6087054,"latitude":52.081615,"name":"Fahrradabstellplatz","city":"Magdeburg","address":null,"covered":true,"access":null,"website":null,"phone":null,"source":"OpenStreetMap/node/5357444186","sourceUpdatedAt":null,"verifiedAt":null}},{"type":"Feature","geometry":{"type":"Point","coordinates":[11.6148151,52.089355]},"properties":{"id":"bikerack:061a9e26-5e37-4d7b-a73d-665e0c4232d8","kind":"bikerack","longitude":11.6148151,"latitude":52.089355,"name":"Fahrradabstellplatz","city":"Magdeburg","address":null,"covered":false,"access":null,"website":null,"phone":null,"source":"OpenStreetMap/node/3066295040","sourceUpdatedAt":null,"verifiedAt":null}},{"type":"Feature","geometry":{"type":"Point","coordinates":[11.6351994,52.0795921]},"properties":{"id":"bikerack:0749ccb8-83b8-4457-97b8-39ff83be5696","kind":"bikerack","longitude":11.6351994,"latitude":52.0795921,"name":"Fahrradabstellplatz","city":"Magdeburg","address":null,"covered":false,"access":null,"website":null,"phone":null,"source":"OpenStreetMap/node/12840759765","sourceUpdatedAt":null,"verifiedAt":null}},{"type":"Feature","geometry":{"type":"Point","coordinates":[11.6165266,52.1008037]},"properties":{"id":"bikerack:0a07b25c-a17b-49d1-ae49-e96aa0ebd664","kind":"bikerack","longitude":11.6165266,"latitude":52.1008037,"name":"Fahrradabstellplatz","city":"Magdeburg","address":null,"covered":true,"access":null,"website":null,"phone":null,"source":"OpenStreetMap/way/1205016182","sourceUpdatedAt":null,"verifiedAt":null}},{"type":"Feature","geometry":{"type":"Point","coordinates":[11.637278,52.0804974]},"properties":{"id":"bikerack:0c56feb9-9ba9-4bc5-b4ed-1fbeef40b746","kind":"bikerack","longitude":11.637278,"latitude":52.0804974,"name":"Fahrradabstellplatz","city":"Magdeburg","address":null,"covered":false,"access":null,"website":null,"phone":null,"source":"OpenStreetMap/node/11165130351","sourceUpdatedAt":null,"verifiedAt":null}},{"type":"Feature","geometry":{"type":"Point","coordinates":[11.6300066,52.0975117]},"properties":{"id":"bikerack:0ce7e78f-3295-40f0-b2af-610d277cdf30","kind":"bikerack","longitude":11.6300066,"latitude":52.0975117,"name":"Fahrradabstellplatz","city":"Magdeburg","address":null,"covered":false,"access":null,"website":null,"phone":null,"source":"OpenStreetMap/node/9803405039","sourceUpdatedAt":null,"verifiedAt":null}},{"type":"Feature","geometry":{"type":"Point","coordinates":[11.6023175,52.1032432]},"properties":{"id":"bikerack:0ea50a6c-db10-4c74-b276-dfcfcb1fb184","kind":"bikerack","longitude":11.6023175,"latitude":52.1032432,"name":"Fahrradabstellplatz","city":"Magdeburg","address":null,"covered":false,"access":null,"website":null,"phone":null,"source":"OpenStreetMap/node/5603479574","sourceUpdatedAt":null,"verifiedAt":null}},{"type":"Feature","geometry":{"type":"Point","coordinates":[11.6152624,52.1027258]},"properties":{"id":"bikerack:0f419055-80cf-4543-8bd5-737ce74970e6","kind":"bikerack","longitude":11.6152624,"latitude":52.1027258,"name":"Fahrradabstellplatz","city":"Magdeburg","address":null,"covered":false,"access":null,"website":null,"phone":null,"source":"OpenStreetMap/way/1205262128","sourceUpdatedAt":null,"verifiedAt":null}},{"type":"Feature","geometry":{"type":"Point","coordinates":[11.6143375,52.1054548]},"properties":{"id":"bikerack:104f62cc-c04b-4e8e-88b7-c253df4740cd","kind":"bikerack","longitude":11.6143375,"latitude":52.1054548,"name":"Fahrradabstellplatz","city":"Magdeburg","address":null,"covered":false,"access":null,"website":null,"phone":null,"source":"OpenStreetMap/way/516988519","sourceUpdatedAt":null,"verifiedAt":null}},{"type":"Feature","geometry":{"type":"Point","coordinates":[11.618722,52.1015087]},"properties":{"id":"bikerack:1182c0da-c8da-48f0-8fd0-c96be0df9df3","kind":"bikerack","longitude":11.618722,"latitude":52.1015087,"name":"Fahrradabstellplatz","city":"Magdeburg","address":null,"covered":false,"access":null,"website":null,"phone":null,"source":"OpenStreetMap/node/5045984010","sourceUpdatedAt":null,"verifiedAt":null}},{"type":"Feature","geometry":{"type":"Point","coordinates":[11.6132422,52.0900413]},"properties":{"id":"bikerack:14d82092-0f24-4c98-92d5-350c526c3dac","kind":"bikerack","longitude":11.6132422,"latitude":52.0900413,"name":"Fahrradabstellplatz","city":"Magdeburg","address":null,"covered":false,"access":null,"website":null,"phone":null,"source":"OpenStreetMap/way/1316392832","sourceUpdatedAt":null,"verifiedAt":null}},{"type":"Feature","geometry":{"type":"Point","coordinates":[11.6132809,52.0893156]},"properties":{"id":"bikerack:1c14c998-6aaa-45f1-bd10-252de3be69cf","kind":"bikerack","longitude":11.6132809,"latitude":52.0893156,"name":"Fahrradabstellplatz","city":"Magdeburg","address":null,"covered":false,"access":null,"website":null,"phone":null,"source":"OpenStreetMap/node/3066295045","sourceUpdatedAt":null,"verifiedAt":null}},{"type":"Feature","geometry":{"type":"Point","coordinates":[11.6191805,52.1016594]},"properties":{"id":"bikerack:1c27d6e5-8444-4b87-9914-fd71c0941c52","kind":"bikerack","longitude":11.6191805,"latitude":52.1016594,"name":"Fahrradabstellplatz","city":"Magdeburg","address":null,"covered":false,"access":null,"website":null,"phone":null,"source":"OpenStreetMap/node/5045983975","sourceUpdatedAt":null,"verifiedAt":null}},{"type":"Feature","geometry":{"type":"Point","coordinates":[11.6195463,52.1028586]},"properties":{"id":"bikerack:1c9ddc31-d703-467c-9392-cc28db1efdaf","kind":"bikerack","longitude":11.6195463,"latitude":52.1028586,"name":"Fahrradabstellplatz","city":"Magdeburg","address":null,"covered":false,"access":null,"website":null,"phone":null,"source":"OpenStreetMap/way/516978489","sourceUpdatedAt":null,"verifiedAt":null}},{"type":"Feature","geometry":{"type":"Point","coordinates":[11.6180747,52.1023067]},"properties":{"id":"bikerack:1de04420-c1ff-4e58-bf84-5e99ad749a56","kind":"bikerack","longitude":11.6180747,"latitude":52.1023067,"name":"Fahrradabstellplatz","city":"Magdeburg","address":null,"covered":false,"access":null,"website":null,"phone":null,"source":"OpenStreetMap/way/1205464809","sourceUpdatedAt":null,"verifiedAt":null}},{"type":"Feature","geometry":{"type":"Point","coordinates":[11.6190999,52.1001914]},"properties":{"id":"bikerack:2131a056-a220-4f35-a5bf-3994c6d0322b","kind":"bikerack","longitude":11.6190999,"latitude":52.1001914,"name":"Fahrradabstellplatz","city":"Magdeburg","address":null,"covered":false,"access":null,"website":null,"phone":null,"source":"OpenStreetMap/way/1290632797","sourceUpdatedAt":null,"verifiedAt":null}},{"type":"Feature","geometry":{"type":"Point","coordinates":[11.6233838,52.0979042]},"properties":{"id":"bikerack:21d9d304-a369-4af2-b7f1-0f09ae332607","kind":"bikerack","longitude":11.6233838,"latitude":52.0979042,"name":"Fahrradabstellplatz","city":"Magdeburg","address":null,"covered":false,"access":null,"website":null,"phone":null,"source":"OpenStreetMap/node/13168206965","sourceUpdatedAt":null,"verifiedAt":null}},{"type":"Feature","geometry":{"type":"Point","coordinates":[11.6023148,52.1045135]},"properties":{"id":"bikerack:222bd93d-2443-4cdb-8caf-55575a3691db","kind":"bikerack","longitude":11.6023148,"latitude":52.1045135,"name":"Fahrradpakplatz Obi","city":"Magdeburg","address":null,"covered":false,"access":null,"website":null,"phone":null,"source":"OpenStreetMap/way/1198041333","sourceUpdatedAt":null,"verifiedAt":null}},{"type":"Feature","geometry":{"type":"Point","coordinates":[11.612551,52.1024868]},"properties":{"id":"bikerack:25f89b69-23d5-4759-9a0f-2ece13a6f187","kind":"bikerack","longitude":11.612551,"latitude":52.1024868,"name":"Fahrradabstellplatz","city":"Magdeburg","address":null,"covered":false,"access":null,"website":null,"phone":null,"source":"OpenStreetMap/way/517002236","sourceUpdatedAt":null,"verifiedAt":null}},{"type":"Feature","geometry":{"type":"Point","coordinates":[11.6189991,52.1010826]},"properties":{"id":"bikerack:2675890b-6ac4-4809-91d3-e2b469c45735","kind":"bikerack","longitude":11.6189991,"latitude":52.1010826,"name":"Fahrradabstellplatz","city":"Magdeburg","address":null,"covered":true,"access":null,"website":null,"phone":null,"source":"OpenStreetMap/way/1292918343","sourceUpdatedAt":null,"verifiedAt":null}},{"type":"Feature","geometry":{"type":"Point","coordinates":[11.6211778,52.1011899]},"properties":{"id":"bikerack:2aa2f38a-7897-496a-9a70-02c256c5e430","kind":"bikerack","longitude":11.6211778,"latitude":52.1011899,"name":"Fahrradabstellplatz","city":"Magdeburg","address":null,"covered":false,"access":null,"website":null,"phone":null,"source":"OpenStreetMap/way/1301673953","sourceUpdatedAt":null,"verifiedAt":null}},{"type":"Feature","geometry":{"type":"Point","coordinates":[11.6044581,52.0893377]},"properties":{"id":"bikerack:2baeb8c5-551f-4b25-9ad9-a5137a9159a4","kind":"bikerack","longitude":11.6044581,"latitude":52.0893377,"name":"Fahrradabstellplatz","city":"Magdeburg","address":null,"covered":false,"access":null,"website":null,"phone":null,"source":"OpenStreetMap/node/4329228699","sourceUpdatedAt":null,"verifiedAt":null}},{"type":"Feature","geometry":{"type":"Point","coordinates":[11.6203684,52.080599]},"properties":{"id":"bikerack:2be71767-1999-4e15-b7fd-6b8596a156d1","kind":"bikerack","longitude":11.6203684,"latitude":52.080599,"name":"Fahrradabstellplatz","city":"Magdeburg","address":null,"covered":false,"access":null,"website":null,"phone":null,"source":"OpenStreetMap/node/7747812346","sourceUpdatedAt":null,"verifiedAt":null}},{"type":"Feature","geometry":{"type":"Point","coordinates":[11.6207952,52.0815233]},"properties":{"id":"bikerack:2bebcf0b-5faa-428f-94f0-3150f7088c92","kind":"bikerack","longitude":11.6207952,"latitude":52.0815233,"name":"Fahrradabstellplatz","city":"Magdeburg","address":null,"covered":true,"access":null,"website":null,"phone":null,"source":"OpenStreetMap/node/3742650635","sourceUpdatedAt":null,"verifiedAt":null}},{"type":"Feature","geometry":{"type":"Point","coordinates":[11.6201439,52.0994891]},"properties":{"id":"bikerack:2c60ae95-7d7d-43d9-818f-e015b1da333a","kind":"bikerack","longitude":11.6201439,"latitude":52.0994891,"name":"Fahrradabstellplatz","city":"Magdeburg","address":null,"covered":false,"access":null,"website":null,"phone":null,"source":"OpenStreetMap/way/1292863604","sourceUpdatedAt":null,"verifiedAt":null}},{"type":"Feature","geometry":{"type":"Point","coordinates":[11.6182089,52.1000454]},"properties":{"id":"bikerack:2d9d117b-194a-4566-8db2-bc803800ca7e","kind":"bikerack","longitude":11.6182089,"latitude":52.1000454,"name":"Fahrradabstellplatz","city":"Magdeburg","address":null,"covered":false,"access":null,"website":null,"phone":null,"source":"OpenStreetMap/way/1205484743","sourceUpdatedAt":null,"verifiedAt":null}},{"type":"Feature","geometry":{"type":"Point","coordinates":[11.6199201,52.0989275]},"properties":{"id":"bikerack:2e6b8f45-523f-4c59-b340-0cb249bd4e66","kind":"bikerack","longitude":11.6199201,"latitude":52.0989275,"name":"Fahrradabstellplatz","city":"Magdeburg","address":null,"covered":false,"access":null,"website":null,"phone":null,"source":"OpenStreetMap/way/1314914194","sourceUpdatedAt":null,"verifiedAt":null}},{"type":"Feature","geometry":{"type":"Point","coordinates":[11.6198235,52.1010049]},"properties":{"id":"bikerack:330df057-af32-42eb-bcaa-d8755a5bd4f2","kind":"bikerack","longitude":11.6198235,"latitude":52.1010049,"name":"Fahrradabstellplatz","city":"Magdeburg","address":null,"covered":false,"access":null,"website":null,"phone":null,"source":"OpenStreetMap/way/1293626598","sourceUpdatedAt":null,"verifiedAt":null}},{"type":"Feature","geometry":{"type":"Point","coordinates":[11.6126756,52.1019648]},"properties":{"id":"bikerack:3335c777-1be1-4bd0-bd8c-e2eb10fe68e7","kind":"bikerack","longitude":11.6126756,"latitude":52.1019648,"name":"Fahrradabstellplatz","city":"Magdeburg","address":null,"covered":true,"access":null,"website":null,"phone":null,"source":"OpenStreetMap/way/1205163256","sourceUpdatedAt":null,"verifiedAt":null}},{"type":"Feature","geometry":{"type":"Point","coordinates":[11.6291542,52.0975897]},"properties":{"id":"bikerack:39d95bf7-362e-40cb-9469-7226ec46ab00","kind":"bikerack","longitude":11.6291542,"latitude":52.0975897,"name":"Fahrradabstellplatz","city":"Magdeburg","address":null,"covered":false,"access":null,"website":null,"phone":null,"source":"OpenStreetMap/node/9803405040","sourceUpdatedAt":null,"verifiedAt":null}},{"type":"Feature","geometry":{"type":"Point","coordinates":[11.6175834,52.1023555]},"properties":{"id":"bikerack:39ddb8b2-d8ff-433b-a09d-3f7a9162a960","kind":"bikerack","longitude":11.6175834,"latitude":52.1023555,"name":"Fahrradabstellplatz","city":"Magdeburg","address":null,"covered":false,"access":null,"website":null,"phone":null,"source":"OpenStreetMap/node/5045984012","sourceUpdatedAt":null,"verifiedAt":null}},{"type":"Feature","geometry":{"type":"Point","coordinates":[11.6210352,52.0864421]},"properties":{"id":"bikerack:3eb54191-a0b2-48a2-9db1-1b2c7cbe2a9f","kind":"bikerack","longitude":11.6210352,"latitude":52.0864421,"name":"Fahrradabstellplatz","city":"Magdeburg","address":null,"covered":true,"access":null,"website":null,"phone":null,"source":"OpenStreetMap/node/3221863267","sourceUpdatedAt":null,"verifiedAt":null}},{"type":"Feature","geometry":{"type":"Point","coordinates":[11.6180917,52.0948365]},"properties":{"id":"bikerack:4260b43f-bca5-42e0-9d38-d20c43fdb8c1","kind":"bikerack","longitude":11.6180917,"latitude":52.0948365,"name":"Fahrradabstellplatz","city":"Magdeburg","address":null,"covered":false,"access":null,"website":null,"phone":null,"source":"OpenStreetMap/node/9176738407","sourceUpdatedAt":null,"verifiedAt":null}},{"type":"Feature","geometry":{"type":"Point","coordinates":[11.6373944,52.10641]},"properties":{"id":"bikerack:4591756b-6ffb-406b-af33-275bc1a3261d","kind":"bikerack","longitude":11.6373944,"latitude":52.10641,"name":"Fahrradabstellplatz","city":"Magdeburg","address":null,"covered":false,"access":null,"website":null,"phone":null,"source":"OpenStreetMap/node/11178407105","sourceUpdatedAt":null,"verifiedAt":null}},{"type":"Feature","geometry":{"type":"Point","coordinates":[11.6199997,52.0990738]},"properties":{"id":"bikerack:45f7e122-d526-4980-8076-5cf4bb8afbe4","kind":"bikerack","longitude":11.6199997,"latitude":52.0990738,"name":"Fahrradabstellplatz","city":"Magdeburg","address":null,"covered":false,"access":null,"website":null,"phone":null,"source":"OpenStreetMap/way/1292861474","sourceUpdatedAt":null,"verifiedAt":null}},{"type":"Feature","geometry":{"type":"Point","coordinates":[11.6196554,52.1006368]},"properties":{"id":"bikerack:494fb9d3-a8b7-413f-9d56-5b6f86fe7116","kind":"bikerack","longitude":11.6196554,"latitude":52.1006368,"name":"Fahrradabstellplatz","city":"Magdeburg","address":null,"covered":false,"access":null,"website":null,"phone":null,"source":"OpenStreetMap/way/1292917142","sourceUpdatedAt":null,"verifiedAt":null}},{"type":"Feature","geometry":{"type":"Point","coordinates":[11.6161232,52.1007565]},"properties":{"id":"bikerack:4af7c7ba-0494-4c87-a9de-c82fbb68ea19","kind":"bikerack","longitude":11.6161232,"latitude":52.1007565,"name":"Fahrradabstellplatz","city":"Magdeburg","address":null,"covered":false,"access":null,"website":null,"phone":null,"source":"OpenStreetMap/way/1300921172","sourceUpdatedAt":null,"verifiedAt":null}},{"type":"Feature","geometry":{"type":"Point","coordinates":[11.6250033,52.0869254]},"properties":{"id":"bikerack:4e58ce9e-271b-4571-b97d-be08fc4fa7c4","kind":"bikerack","longitude":11.6250033,"latitude":52.0869254,"name":"Fahrradabstellplatz","city":"Magdeburg","address":null,"covered":false,"access":null,"website":null,"phone":null,"source":"OpenStreetMap/node/8696729583","sourceUpdatedAt":null,"verifiedAt":null}},{"type":"Feature","geometry":{"type":"Point","coordinates":[11.6441538,52.1016457]},"properties":{"id":"bikerack:5196bf19-d200-42f3-aad9-61591ca4adde","kind":"bikerack","longitude":11.6441538,"latitude":52.1016457,"name":"Fahrradparkplatz SKET-Passage","city":"Magdeburg","address":null,"covered":true,"access":null,"website":null,"phone":null,"source":"OpenStreetMap/way/1205149344","sourceUpdatedAt":null,"verifiedAt":null}},{"type":"Feature","geometry":{"type":"Point","coordinates":[11.612495,52.0900324]},"properties":{"id":"bikerack:528b4cab-ce77-4d64-ab32-60687cedf634","kind":"bikerack","longitude":11.612495,"latitude":52.0900324,"name":"Fahrradabstellplatz","city":"Magdeburg","address":null,"covered":false,"access":null,"website":null,"phone":null,"source":"OpenStreetMap/node/3066295044","sourceUpdatedAt":null,"verifiedAt":null}},{"type":"Feature","geometry":{"type":"Point","coordinates":[11.6188253,52.0995061]},"properties":{"id":"bikerack:54293f87-fce5-4443-a245-ee01e755fe3b","kind":"bikerack","longitude":11.6188253,"latitude":52.0995061,"name":"Fahrradabstellplatz","city":"Magdeburg","address":null,"covered":false,"access":null,"website":null,"phone":null,"source":"OpenStreetMap/way/1205016184","sourceUpdatedAt":null,"verifiedAt":null}},{"type":"Feature","geometry":{"type":"Point","coordinates":[11.6023417,52.1033149]},"properties":{"id":"bikerack:568fd182-e5e3-4a99-a95a-45ee47916448","kind":"bikerack","longitude":11.6023417,"latitude":52.1033149,"name":"Fahrradabstellplatz","city":"Magdeburg","address":null,"covered":true,"access":null,"website":null,"phone":null,"source":"OpenStreetMap/node/5603479575","sourceUpdatedAt":null,"verifiedAt":null}},{"type":"Feature","geometry":{"type":"Point","coordinates":[11.6341782,52.0801217]},"properties":{"id":"bikerack:574ab7d7-588a-431b-97a7-e4e5eae7fd83","kind":"bikerack","longitude":11.6341782,"latitude":52.0801217,"name":"Fahrradabstellplatz","city":"Magdeburg","address":null,"covered":false,"access":null,"website":null,"phone":null,"source":"OpenStreetMap/node/12832195620","sourceUpdatedAt":null,"verifiedAt":null}},{"type":"Feature","geometry":{"type":"Point","coordinates":[11.6215584,52.1011996]},"properties":{"id":"bikerack:57bac4b9-d011-4076-aba7-dd09214cbda2","kind":"bikerack","longitude":11.6215584,"latitude":52.1011996,"name":"Fahrradabstellplatz","city":"Magdeburg","address":null,"covered":false,"access":null,"website":null,"phone":null,"source":"OpenStreetMap/way/1301673954","sourceUpdatedAt":null,"verifiedAt":null}},{"type":"Feature","geometry":{"type":"Point","coordinates":[11.6400757,52.1064408]},"properties":{"id":"bikerack:57edaa60-a17b-4303-8db3-16bcaa4b1dcd","kind":"bikerack","longitude":11.6400757,"latitude":52.1064408,"name":"Fahrradabstellplatz","city":"Magdeburg","address":null,"covered":false,"access":null,"website":null,"phone":null,"source":"OpenStreetMap/node/3830647270","sourceUpdatedAt":null,"verifiedAt":null}},{"type":"Feature","geometry":{"type":"Point","coordinates":[11.6366977,52.088272]},"properties":{"id":"bikerack:5a06df4d-4ba1-467c-9f39-418f8588f15e","kind":"bikerack","longitude":11.6366977,"latitude":52.088272,"name":"Fahrradabstellplatz","city":"Magdeburg","address":null,"covered":true,"access":null,"website":null,"phone":null,"source":"OpenStreetMap/way/598057986","sourceUpdatedAt":null,"verifiedAt":null}},{"type":"Feature","geometry":{"type":"Point","coordinates":[11.6290413,52.1014193]},"properties":{"id":"bikerack:5a12c95f-be3a-4f50-a1d2-d76c0e39eede","kind":"bikerack","longitude":11.6290413,"latitude":52.1014193,"name":"Fahrradabstellplatz","city":"Magdeburg","address":null,"covered":true,"access":null,"website":null,"phone":null,"source":"OpenStreetMap/way/1210209511","sourceUpdatedAt":null,"verifiedAt":null}},{"type":"Feature","geometry":{"type":"Point","coordinates":[11.6191397,52.1008853]},"properties":{"id":"bikerack:5b73323f-ae6e-42de-88f1-dfd10297181b","kind":"bikerack","longitude":11.6191397,"latitude":52.1008853,"name":"Fahrradabstellplatz","city":"Magdeburg","address":null,"covered":false,"access":null,"website":null,"phone":null,"source":"OpenStreetMap/way/1314312617","sourceUpdatedAt":null,"verifiedAt":null}},{"type":"Feature","geometry":{"type":"Point","coordinates":[11.6056261,52.0935738]},"properties":{"id":"bikerack:5c0b7754-e396-4d04-bab7-b99247f11594","kind":"bikerack","longitude":11.6056261,"latitude":52.0935738,"name":"Fahrradabstellplatz","city":"Magdeburg","address":null,"covered":false,"access":null,"website":null,"phone":null,"source":"OpenStreetMap/node/3066295034","sourceUpdatedAt":null,"verifiedAt":null}},{"type":"Feature","geometry":{"type":"Point","coordinates":[11.6202158,52.0999316]},"properties":{"id":"bikerack:5c3b2b79-b383-4d36-be6d-72749c58317d","kind":"bikerack","longitude":11.6202158,"latitude":52.0999316,"name":"Fahrradabstellplatz","city":"Magdeburg","address":null,"covered":false,"access":null,"website":null,"phone":null,"source":"OpenStreetMap/way/1290632799","sourceUpdatedAt":null,"verifiedAt":null}},{"type":"Feature","geometry":{"type":"Point","coordinates":[11.6151826,52.1041903]},"properties":{"id":"bikerack:5d435283-ca96-46ba-ae73-5c37ffaa1cc0","kind":"bikerack","longitude":11.6151826,"latitude":52.1041903,"name":"Fahrradabstellplatz","city":"Magdeburg","address":null,"covered":false,"access":null,"website":null,"phone":null,"source":"OpenStreetMap/way/1330845594","sourceUpdatedAt":null,"verifiedAt":null}},{"type":"Feature","geometry":{"type":"Point","coordinates":[11.6136591,52.0893337]},"properties":{"id":"bikerack:5d7cd47b-5363-4092-ab9b-bb2544cc1d60","kind":"bikerack","longitude":11.6136591,"latitude":52.0893337,"name":"Fahrradabstellplatz","city":"Magdeburg","address":null,"covered":false,"access":null,"website":null,"phone":null,"source":"OpenStreetMap/node/3066295038","sourceUpdatedAt":null,"verifiedAt":null}},{"type":"Feature","geometry":{"type":"Point","coordinates":[11.6219463,52.1019239]},"properties":{"id":"bikerack:62a62a33-0421-4359-816a-b5f73cc34f5f","kind":"bikerack","longitude":11.6219463,"latitude":52.1019239,"name":"Fahrradabstellplatz","city":"Magdeburg","address":null,"covered":false,"access":null,"website":null,"phone":null,"source":"OpenStreetMap/way/1293805807","sourceUpdatedAt":null,"verifiedAt":null}},{"type":"Feature","geometry":{"type":"Point","coordinates":[11.6174433,52.1043589]},"properties":{"id":"bikerack:652e5da5-3c06-4454-971f-b7346f8daa02","kind":"bikerack","longitude":11.6174433,"latitude":52.1043589,"name":"Fahrradabstellplatz","city":"Magdeburg","address":null,"covered":false,"access":null,"website":null,"phone":null,"source":"OpenStreetMap/way/1205170068","sourceUpdatedAt":null,"verifiedAt":null}},{"type":"Feature","geometry":{"type":"Point","coordinates":[11.6199413,52.0990733]},"properties":{"id":"bikerack:6a728a81-1ce7-4029-8767-a8eec0b94acd","kind":"bikerack","longitude":11.6199413,"latitude":52.0990733,"name":"Fahrradabstellplatz","city":"Magdeburg","address":null,"covered":false,"access":null,"website":null,"phone":null,"source":"OpenStreetMap/way/1292861475","sourceUpdatedAt":null,"verifiedAt":null}},{"type":"Feature","geometry":{"type":"Point","coordinates":[11.623736,52.0867073]},"properties":{"id":"bikerack:6a781f05-6845-4556-848d-b615b646bd7d","kind":"bikerack","longitude":11.623736,"latitude":52.0867073,"name":"Fahrradabstellplatz","city":"Magdeburg","address":null,"covered":false,"access":null,"website":null,"phone":null,"source":"OpenStreetMap/node/8696729584","sourceUpdatedAt":null,"verifiedAt":null}},{"type":"Feature","geometry":{"type":"Point","coordinates":[11.6352435,52.079919]},"properties":{"id":"bikerack:6b3e1ef3-d55b-4c82-9207-4b15e67ddb23","kind":"bikerack","longitude":11.6352435,"latitude":52.079919,"name":"Fahrradabstellplatz","city":"Magdeburg","address":null,"covered":false,"access":null,"website":null,"phone":null,"source":"OpenStreetMap/node/12840722093","sourceUpdatedAt":null,"verifiedAt":null}},{"type":"Feature","geometry":{"type":"Point","coordinates":[11.6137985,52.102136]},"properties":{"id":"bikerack:6c3f79f1-6105-4dc7-bb17-c33cd28d3a2f","kind":"bikerack","longitude":11.6137985,"latitude":52.102136,"name":"Fahrradabstellplatz","city":"Magdeburg","address":null,"covered":false,"access":null,"website":null,"phone":null,"source":"OpenStreetMap/way/1305033218","sourceUpdatedAt":null,"verifiedAt":null}},{"type":"Feature","geometry":{"type":"Point","coordinates":[11.6018953,52.0837528]},"properties":{"id":"bikerack:6d461c87-cb22-459c-8d77-a92aceb7cdd8","kind":"bikerack","longitude":11.6018953,"latitude":52.0837528,"name":"Fahrradabstellplatz","city":"Magdeburg","address":null,"covered":false,"access":null,"website":null,"phone":null,"source":"OpenStreetMap/node/5357436812","sourceUpdatedAt":null,"verifiedAt":null}},{"type":"Feature","geometry":{"type":"Point","coordinates":[11.61981,52.1013507]},"properties":{"id":"bikerack:6da4b597-007d-4ce8-b0c0-c245c5b7eb68","kind":"bikerack","longitude":11.61981,"latitude":52.1013507,"name":"Fahrradabstellplatz","city":"Magdeburg","address":null,"covered":false,"access":null,"website":null,"phone":null,"source":"OpenStreetMap/way/1293805161","sourceUpdatedAt":null,"verifiedAt":null}},{"type":"Feature","geometry":{"type":"Point","coordinates":[11.620469,52.0951937]},"properties":{"id":"bikerack:6fa3889d-4294-4917-b6ae-226ad89e9ba6","kind":"bikerack","longitude":11.620469,"latitude":52.0951937,"name":"Fahrradabstellplatz","city":"Magdeburg","address":null,"covered":false,"access":null,"website":null,"phone":null,"source":"OpenStreetMap/way/524891430","sourceUpdatedAt":null,"verifiedAt":null}},{"type":"Feature","geometry":{"type":"Point","coordinates":[11.637515,52.1062051]},"properties":{"id":"bikerack:709760e7-9b6b-4b65-afb9-1b0e2447c5b1","kind":"bikerack","longitude":11.637515,"latitude":52.1062051,"name":"Fahrradabstellplatz","city":"Magdeburg","address":null,"covered":false,"access":null,"website":null,"phone":null,"source":"OpenStreetMap/node/11178407106","sourceUpdatedAt":null,"verifiedAt":null}},{"type":"Feature","geometry":{"type":"Point","coordinates":[11.6137195,52.1021624]},"properties":{"id":"bikerack:70e2ecb6-b8f0-4339-a7fd-97c410bc7877","kind":"bikerack","longitude":11.6137195,"latitude":52.1021624,"name":"Fahrradabstellplatz","city":"Magdeburg","address":null,"covered":false,"access":null,"website":null,"phone":null,"source":"OpenStreetMap/way/1205164522","sourceUpdatedAt":null,"verifiedAt":null}},{"type":"Feature","geometry":{"type":"Point","coordinates":[11.6195246,52.1012353]},"properties":{"id":"bikerack:73e9f6b4-147f-47de-93cd-990b19233a03","kind":"bikerack","longitude":11.6195246,"latitude":52.1012353,"name":"Fahrradabstellplatz","city":"Magdeburg","address":null,"covered":false,"access":null,"website":null,"phone":null,"source":"OpenStreetMap/way/1293806092","sourceUpdatedAt":null,"verifiedAt":null}},{"type":"Feature","geometry":{"type":"Point","coordinates":[11.6189218,52.1016511]},"properties":{"id":"bikerack:79e07e29-07de-4150-ab78-80075ca05b28","kind":"bikerack","longitude":11.6189218,"latitude":52.1016511,"name":"Fahrradabstellplatz","city":"Magdeburg","address":null,"covered":false,"access":null,"website":null,"phone":null,"source":"OpenStreetMap/node/5045983974","sourceUpdatedAt":null,"verifiedAt":null}},{"type":"Feature","geometry":{"type":"Point","coordinates":[11.6182176,52.0998512]},"properties":{"id":"bikerack:8078cdb1-9834-4535-be0a-4bf280107cc2","kind":"bikerack","longitude":11.6182176,"latitude":52.0998512,"name":"Fahrradabstellplatz","city":"Magdeburg","address":null,"covered":false,"access":null,"website":null,"phone":null,"source":"OpenStreetMap/way/1205484745","sourceUpdatedAt":null,"verifiedAt":null}},{"type":"Feature","geometry":{"type":"Point","coordinates":[11.6174352,52.102755]},"properties":{"id":"bikerack:81fb31a2-a6b6-4dce-9545-0328411b6ee6","kind":"bikerack","longitude":11.6174352,"latitude":52.102755,"name":"Fahrradabstellplatz","city":"Magdeburg","address":null,"covered":false,"access":null,"website":null,"phone":null,"source":"OpenStreetMap/way/1205466617","sourceUpdatedAt":null,"verifiedAt":null}},{"type":"Feature","geometry":{"type":"Point","coordinates":[11.6144155,52.0893501]},"properties":{"id":"bikerack:85224b72-adb7-4a71-bc92-e1aa6e7eb0e9","kind":"bikerack","longitude":11.6144155,"latitude":52.0893501,"name":"Fahrradabstellplatz","city":"Magdeburg","address":null,"covered":false,"access":null,"website":null,"phone":null,"source":"OpenStreetMap/node/3066295036","sourceUpdatedAt":null,"verifiedAt":null}},{"type":"Feature","geometry":{"type":"Point","coordinates":[11.6118222,52.101817]},"properties":{"id":"bikerack:86e69e2c-28cf-4ad5-8ddb-53605dc85530","kind":"bikerack","longitude":11.6118222,"latitude":52.101817,"name":"Fahrradabstellplatz","city":"Magdeburg","address":null,"covered":true,"access":null,"website":null,"phone":null,"source":"OpenStreetMap/way/161046330","sourceUpdatedAt":null,"verifiedAt":null}},{"type":"Feature","geometry":{"type":"Point","coordinates":[11.6215591,52.1019168]},"properties":{"id":"bikerack:872a4bff-38ae-4b59-bc58-7b000369a570","kind":"bikerack","longitude":11.6215591,"latitude":52.1019168,"name":"Fahrradabstellplatz","city":"Magdeburg","address":null,"covered":false,"access":null,"website":null,"phone":null,"source":"OpenStreetMap/way/1293805808","sourceUpdatedAt":null,"verifiedAt":null}},{"type":"Feature","geometry":{"type":"Point","coordinates":[11.622502,52.098677]},"properties":{"id":"bikerack:8ac231e2-4ae0-42c0-affc-3aebb52b5b4d","kind":"bikerack","longitude":11.622502,"latitude":52.098677,"name":"Fahrradabstellplatz","city":"Magdeburg","address":null,"covered":true,"access":null,"website":null,"phone":null,"source":"OpenStreetMap/node/11167949733","sourceUpdatedAt":null,"verifiedAt":null}},{"type":"Feature","geometry":{"type":"Point","coordinates":[11.6058355,52.0815557]},"properties":{"id":"bikerack:8e0195f6-771d-4bb0-9bd7-887a7de1f72a","kind":"bikerack","longitude":11.6058355,"latitude":52.0815557,"name":"Fahrradabstellplatz","city":"Magdeburg","address":null,"covered":false,"access":null,"website":null,"phone":null,"source":"OpenStreetMap/node/5075581843","sourceUpdatedAt":null,"verifiedAt":null}},{"type":"Feature","geometry":{"type":"Point","coordinates":[11.615884,52.1010644]},"properties":{"id":"bikerack:925eccc8-60b1-4e73-b85c-c04fb4caae59","kind":"bikerack","longitude":11.615884,"latitude":52.1010644,"name":"Fahrradabstellplatz","city":"Magdeburg","address":null,"covered":false,"access":null,"website":null,"phone":null,"source":"OpenStreetMap/way/1301532374","sourceUpdatedAt":null,"verifiedAt":null}},{"type":"Feature","geometry":{"type":"Point","coordinates":[11.6172655,52.1004668]},"properties":{"id":"bikerack:92ca4618-b6f6-493f-8249-873f7eba8b34","kind":"bikerack","longitude":11.6172655,"latitude":52.1004668,"name":"Fahrradabstellplatz","city":"Magdeburg","address":null,"covered":false,"access":null,"website":null,"phone":null,"source":"OpenStreetMap/way/1310463908","sourceUpdatedAt":null,"verifiedAt":null}},{"type":"Feature","geometry":{"type":"Point","coordinates":[11.6349097,52.0801066]},"properties":{"id":"bikerack:96bcf9de-1e6c-4f44-bbb0-b58a66dfbf6a","kind":"bikerack","longitude":11.6349097,"latitude":52.0801066,"name":"Fahrradabstellplatz","city":"Magdeburg","address":null,"covered":false,"access":null,"website":null,"phone":null,"source":"OpenStreetMap/node/12832195609","sourceUpdatedAt":null,"verifiedAt":null}},{"type":"Feature","geometry":{"type":"Point","coordinates":[11.6387313,52.0915486]},"properties":{"id":"bikerack:971179ff-5360-4045-8a16-7cb6e975301e","kind":"bikerack","longitude":11.6387313,"latitude":52.0915486,"name":"Fahrradabstellplatz","city":"Magdeburg","address":null,"covered":false,"access":null,"website":null,"phone":null,"source":"OpenStreetMap/node/4226628879","sourceUpdatedAt":null,"verifiedAt":null}},{"type":"Feature","geometry":{"type":"Point","coordinates":[11.6186706,52.1008783]},"properties":{"id":"bikerack:99dedea6-ec15-4326-9245-24966e1eee43","kind":"bikerack","longitude":11.6186706,"latitude":52.1008783,"name":"Fahrradabstellplatz","city":"Magdeburg","address":null,"covered":false,"access":null,"website":null,"phone":null,"source":"OpenStreetMap/way/1314360924","sourceUpdatedAt":null,"verifiedAt":null}},{"type":"Feature","geometry":{"type":"Point","coordinates":[11.608461,52.089243]},"properties":{"id":"bikerack:9bdb62d1-e7e4-4d37-a7e6-d339e99c7031","kind":"bikerack","longitude":11.608461,"latitude":52.089243,"name":"Fahrradabstellplatz","city":"Magdeburg","address":null,"covered":true,"access":null,"website":null,"phone":null,"source":"OpenStreetMap/node/3066295041","sourceUpdatedAt":null,"verifiedAt":null}},{"type":"Feature","geometry":{"type":"Point","coordinates":[11.6158613,52.1031966]},"properties":{"id":"bikerack:9f393e01-4f97-4896-8c43-2301af0f18a0","kind":"bikerack","longitude":11.6158613,"latitude":52.1031966,"name":"Fahrradabstellplatz","city":"Magdeburg","address":null,"covered":false,"access":null,"website":null,"phone":null,"source":"OpenStreetMap/way/516986676","sourceUpdatedAt":null,"verifiedAt":null}},{"type":"Feature","geometry":{"type":"Point","coordinates":[11.6085954,52.0813182]},"properties":{"id":"bikerack:9fc60ce9-61d4-4d6b-a2f8-adeff8cf042a","kind":"bikerack","longitude":11.6085954,"latitude":52.0813182,"name":"Fahrradabstellplatz","city":"Magdeburg","address":null,"covered":true,"access":null,"website":null,"phone":null,"source":"OpenStreetMap/node/5357444185","sourceUpdatedAt":null,"verifiedAt":null}},{"type":"Feature","geometry":{"type":"Point","coordinates":[11.6208256,52.1018457]},"properties":{"id":"bikerack:a2d851e1-eb57-440f-801d-0eca4c4627c3","kind":"bikerack","longitude":11.6208256,"latitude":52.1018457,"name":"Fahrradabstellplatz","city":"Magdeburg","address":null,"covered":false,"access":null,"website":null,"phone":null,"source":"OpenStreetMap/way/1354741667","sourceUpdatedAt":null,"verifiedAt":null}},{"type":"Feature","geometry":{"type":"Point","coordinates":[11.6189443,52.0999344]},"properties":{"id":"bikerack:a33b89b9-1732-463d-b055-494c9d1c6745","kind":"bikerack","longitude":11.6189443,"latitude":52.0999344,"name":"Fahrradabstellplatz","city":"Magdeburg","address":null,"covered":false,"access":null,"website":null,"phone":null,"source":"OpenStreetMap/way/1290632798","sourceUpdatedAt":null,"verifiedAt":null}},{"type":"Feature","geometry":{"type":"Point","coordinates":[11.6175578,52.1007313]},"properties":{"id":"bikerack:a5cb6c72-68ee-4a1b-ad4f-83b894511635","kind":"bikerack","longitude":11.6175578,"latitude":52.1007313,"name":"Fahrradabstellplatz","city":"Magdeburg","address":null,"covered":false,"access":null,"website":null,"phone":null,"source":"OpenStreetMap/way/1293842962","sourceUpdatedAt":null,"verifiedAt":null}},{"type":"Feature","geometry":{"type":"Point","coordinates":[11.6188037,52.100228]},"properties":{"id":"bikerack:a73f647a-944d-4efa-bf94-f84c4b3d97ad","kind":"bikerack","longitude":11.6188037,"latitude":52.100228,"name":"Fahrradabstellplatz","city":"Magdeburg","address":null,"covered":false,"access":null,"website":null,"phone":null,"source":"OpenStreetMap/way/1205016183","sourceUpdatedAt":null,"verifiedAt":null}},{"type":"Feature","geometry":{"type":"Point","coordinates":[11.613061,52.0895413]},"properties":{"id":"bikerack:aadf08b3-3c72-4b7b-912c-88ab0e3c29ea","kind":"bikerack","longitude":11.613061,"latitude":52.0895413,"name":"Fahrradabstellplatz","city":"Magdeburg","address":null,"covered":false,"access":null,"website":null,"phone":null,"source":"OpenStreetMap/node/3066295042","sourceUpdatedAt":null,"verifiedAt":null}},{"type":"Feature","geometry":{"type":"Point","coordinates":[11.6171609,52.1027088]},"properties":{"id":"bikerack:b0850179-3853-456f-ab51-26dea5736a17","kind":"bikerack","longitude":11.6171609,"latitude":52.1027088,"name":"Fahrradabstellplatz","city":"Magdeburg","address":null,"covered":false,"access":null,"website":null,"phone":null,"source":"OpenStreetMap/way/1205466616","sourceUpdatedAt":null,"verifiedAt":null}},{"type":"Feature","geometry":{"type":"Point","coordinates":[11.6146368,52.1029698]},"properties":{"id":"bikerack:b4ff80eb-f4ea-4a2d-b169-1dcd02c9cb9e","kind":"bikerack","longitude":11.6146368,"latitude":52.1029698,"name":"Fahrradabstellplatz","city":"Magdeburg","address":null,"covered":false,"access":null,"website":null,"phone":null,"source":"OpenStreetMap/way/1205163262","sourceUpdatedAt":null,"verifiedAt":null}},{"type":"Feature","geometry":{"type":"Point","coordinates":[11.6198533,52.1009833]},"properties":{"id":"bikerack:b6c5967c-8db5-4743-9324-6e476e1e6ec7","kind":"bikerack","longitude":11.6198533,"latitude":52.1009833,"name":"Fahrradabstellplatz","city":"Magdeburg","address":null,"covered":false,"access":null,"website":null,"phone":null,"source":"OpenStreetMap/way/1293626599","sourceUpdatedAt":null,"verifiedAt":null}},{"type":"Feature","geometry":{"type":"Point","coordinates":[11.6435556,52.1022062]},"properties":{"id":"bikerack:b8581ff3-6627-48d6-af5f-f3a8c76e7cbb","kind":"bikerack","longitude":11.6435556,"latitude":52.1022062,"name":"Fahrradabstellplatz","city":"Magdeburg","address":null,"covered":false,"access":null,"website":null,"phone":null,"source":"OpenStreetMap/way/1205151403","sourceUpdatedAt":null,"verifiedAt":null}},{"type":"Feature","geometry":{"type":"Point","coordinates":[11.6181265,52.1001608]},"properties":{"id":"bikerack:b960dbef-074b-4457-ad19-baa4dc4a9ee4","kind":"bikerack","longitude":11.6181265,"latitude":52.1001608,"name":"Fahrradabstellplatz","city":"Magdeburg","address":null,"covered":false,"access":null,"website":null,"phone":null,"source":"OpenStreetMap/way/1205484744","sourceUpdatedAt":null,"verifiedAt":null}},{"type":"Feature","geometry":{"type":"Point","coordinates":[11.6198648,52.0924213]},"properties":{"id":"bikerack:ba5b166b-a6ab-4581-8cbf-3db4e8e010d0","kind":"bikerack","longitude":11.6198648,"latitude":52.0924213,"name":"Fahrradabstellplatz","city":"Magdeburg","address":null,"covered":true,"access":null,"website":null,"phone":null,"source":"OpenStreetMap/node/305930125","sourceUpdatedAt":null,"verifiedAt":null}},{"type":"Feature","geometry":{"type":"Point","coordinates":[11.6143538,52.0896106]},"properties":{"id":"bikerack:bdbbae56-8950-41d4-8464-fef927f89917","kind":"bikerack","longitude":11.6143538,"latitude":52.0896106,"name":"Fahrradabstellplatz","city":"Magdeburg","address":null,"covered":false,"access":null,"website":null,"phone":null,"source":"OpenStreetMap/node/3066295039","sourceUpdatedAt":null,"verifiedAt":null}},{"type":"Feature","geometry":{"type":"Point","coordinates":[11.6172813,52.1031502]},"properties":{"id":"bikerack:bfe192be-f527-4917-88d8-bc9e9ed815a4","kind":"bikerack","longitude":11.6172813,"latitude":52.1031502,"name":"Fahrradabstellplatz","city":"Magdeburg","address":null,"covered":false,"access":null,"website":null,"phone":null,"source":"OpenStreetMap/node/11169998485","sourceUpdatedAt":null,"verifiedAt":null}},{"type":"Feature","geometry":{"type":"Point","coordinates":[11.6022397,52.1045227]},"properties":{"id":"bikerack:c0607927-c172-4654-b53d-9940b9b6462e","kind":"bikerack","longitude":11.6022397,"latitude":52.1045227,"name":"Fahrradpakplatz Obi","city":"Magdeburg","address":null,"covered":false,"access":null,"website":null,"phone":null,"source":"OpenStreetMap/way/1198041334","sourceUpdatedAt":null,"verifiedAt":null}},{"type":"Feature","geometry":{"type":"Point","coordinates":[11.6177132,52.1008537]},"properties":{"id":"bikerack:c066be4a-619a-40d2-b9b5-36213880579b","kind":"bikerack","longitude":11.6177132,"latitude":52.1008537,"name":"Fahrradabstellplatz","city":"Magdeburg","address":null,"covered":false,"access":null,"website":null,"phone":null,"source":"OpenStreetMap/way/1293625907","sourceUpdatedAt":null,"verifiedAt":null}},{"type":"Feature","geometry":{"type":"Point","coordinates":[11.6397586,52.0900399]},"properties":{"id":"bikerack:c0b087fd-a58d-4abb-8248-d74aee44ba28","kind":"bikerack","longitude":11.6397586,"latitude":52.0900399,"name":"Fahrradabstellplatz","city":"Magdeburg","address":null,"covered":false,"access":null,"website":null,"phone":null,"source":"OpenStreetMap/node/4226628843","sourceUpdatedAt":null,"verifiedAt":null}},{"type":"Feature","geometry":{"type":"Point","coordinates":[11.6219443,52.1012081]},"properties":{"id":"bikerack:c110f114-de75-4529-8859-128bd9b09a55","kind":"bikerack","longitude":11.6219443,"latitude":52.1012081,"name":"Fahrradabstellplatz","city":"Magdeburg","address":null,"covered":false,"access":null,"website":null,"phone":null,"source":"OpenStreetMap/way/1301673955","sourceUpdatedAt":null,"verifiedAt":null}},{"type":"Feature","geometry":{"type":"Point","coordinates":[11.6165104,52.1022375]},"properties":{"id":"bikerack:c13beacf-0ad0-46ba-933f-81329236ad21","kind":"bikerack","longitude":11.6165104,"latitude":52.1022375,"name":"Fahrradabstellplatz","city":"Magdeburg","address":null,"covered":false,"access":null,"website":null,"phone":null,"source":"OpenStreetMap/way/516986681","sourceUpdatedAt":null,"verifiedAt":null}},{"type":"Feature","geometry":{"type":"Point","coordinates":[11.6177416,52.1017352]},"properties":{"id":"bikerack:c1ead844-88ed-48e0-a001-b8e1d6df22f2","kind":"bikerack","longitude":11.6177416,"latitude":52.1017352,"name":"Fahrradabstellplatz","city":"Magdeburg","address":null,"covered":false,"access":null,"website":null,"phone":null,"source":"OpenStreetMap/node/5045983948","sourceUpdatedAt":null,"verifiedAt":null}},{"type":"Feature","geometry":{"type":"Point","coordinates":[11.637266,52.0797291]},"properties":{"id":"bikerack:c3ce96b4-4416-42c0-a90c-fcfe378bd485","kind":"bikerack","longitude":11.637266,"latitude":52.0797291,"name":"Fahrradabstellplatz","city":"Magdeburg","address":null,"covered":false,"access":null,"website":null,"phone":null,"source":"OpenStreetMap/node/11165130358","sourceUpdatedAt":null,"verifiedAt":null}},{"type":"Feature","geometry":{"type":"Point","coordinates":[11.615156,52.1004214]},"properties":{"id":"bikerack:c417a597-d5b9-4b35-8cca-e9cb153a7f0d","kind":"bikerack","longitude":11.615156,"latitude":52.1004214,"name":"Fahrradabstellplatz","city":"Magdeburg","address":null,"covered":false,"access":null,"website":null,"phone":null,"source":"OpenStreetMap/way/1348262467","sourceUpdatedAt":null,"verifiedAt":null}},{"type":"Feature","geometry":{"type":"Point","coordinates":[11.6146933,52.1016335]},"properties":{"id":"bikerack:c41da96f-b890-41cb-9dd2-7dd62adbb592","kind":"bikerack","longitude":11.6146933,"latitude":52.1016335,"name":"Fahrradabstellplatz","city":"Magdeburg","address":null,"covered":false,"access":null,"website":null,"phone":null,"source":"OpenStreetMap/way/516982197","sourceUpdatedAt":null,"verifiedAt":null}},{"type":"Feature","geometry":{"type":"Point","coordinates":[11.614048,52.0893418]},"properties":{"id":"bikerack:c5427fe8-064f-4b4d-8bb1-d77d09eef7d4","kind":"bikerack","longitude":11.614048,"latitude":52.0893418,"name":"Fahrradabstellplatz","city":"Magdeburg","address":null,"covered":false,"access":null,"website":null,"phone":null,"source":"OpenStreetMap/node/3066295037","sourceUpdatedAt":null,"verifiedAt":null}},{"type":"Feature","geometry":{"type":"Point","coordinates":[11.6160446,52.081581]},"properties":{"id":"bikerack:c5da2988-7b3f-4b76-b911-ad239bb719f2","kind":"bikerack","longitude":11.6160446,"latitude":52.081581,"name":"Fahrradabstellplatz","city":"Magdeburg","address":null,"covered":true,"access":null,"website":null,"phone":null,"source":"OpenStreetMap/node/11927952697","sourceUpdatedAt":null,"verifiedAt":null}},{"type":"Feature","geometry":{"type":"Point","coordinates":[11.6210041,52.0978807]},"properties":{"id":"bikerack:c6cca036-5aa2-4a97-bf42-f593e56923ed","kind":"bikerack","longitude":11.6210041,"latitude":52.0978807,"name":"Fahrradabstellplatz","city":"Magdeburg","address":null,"covered":true,"access":null,"website":null,"phone":null,"source":"OpenStreetMap/node/11167949728","sourceUpdatedAt":null,"verifiedAt":null}},{"type":"Feature","geometry":{"type":"Point","coordinates":[11.6180246,52.1017698]},"properties":{"id":"bikerack:c96e43c1-7964-4bbd-9250-92a7c4e2ebc1","kind":"bikerack","longitude":11.6180246,"latitude":52.1017698,"name":"Fahrradabstellplatz","city":"Magdeburg","address":null,"covered":false,"access":null,"website":null,"phone":null,"source":"OpenStreetMap/node/5045983991","sourceUpdatedAt":null,"verifiedAt":null}},{"type":"Feature","geometry":{"type":"Point","coordinates":[11.6028457,52.0827026]},"properties":{"id":"bikerack:ca01bc31-b98d-4f17-9c30-dae166c20b45","kind":"bikerack","longitude":11.6028457,"latitude":52.0827026,"name":"Fahrradabstellplatz","city":"Magdeburg","address":null,"covered":false,"access":null,"website":null,"phone":null,"source":"OpenStreetMap/node/3437194207","sourceUpdatedAt":null,"verifiedAt":null}},{"type":"Feature","geometry":{"type":"Point","coordinates":[11.6223325,52.1012143]},"properties":{"id":"bikerack:cae8c72a-4f9e-44e8-b495-9f6629b854ba","kind":"bikerack","longitude":11.6223325,"latitude":52.1012143,"name":"Fahrradabstellplatz","city":"Magdeburg","address":null,"covered":false,"access":null,"website":null,"phone":null,"source":"OpenStreetMap/way/1301673956","sourceUpdatedAt":null,"verifiedAt":null}},{"type":"Feature","geometry":{"type":"Point","coordinates":[11.6169052,52.1033137]},"properties":{"id":"bikerack:cb66dfae-580c-42d1-8ea9-8b671ebac788","kind":"bikerack","longitude":11.6169052,"latitude":52.1033137,"name":"Fahrradabstellplatz","city":"Magdeburg","address":null,"covered":false,"access":null,"website":null,"phone":null,"source":"OpenStreetMap/way/1310401480","sourceUpdatedAt":null,"verifiedAt":null}},{"type":"Feature","geometry":{"type":"Point","coordinates":[11.6029459,52.0829559]},"properties":{"id":"bikerack:cdbe7e5d-ba31-45ae-8ecf-41899b8eeb1e","kind":"bikerack","longitude":11.6029459,"latitude":52.0829559,"name":"Fahrradabstellplatz","city":"Magdeburg","address":null,"covered":true,"access":null,"website":null,"phone":null,"source":"OpenStreetMap/way/1204907223","sourceUpdatedAt":null,"verifiedAt":null}},{"type":"Feature","geometry":{"type":"Point","coordinates":[11.6149459,52.1036156]},"properties":{"id":"bikerack:d165fbc0-b8b4-4756-a687-978717cddf3e","kind":"bikerack","longitude":11.6149459,"latitude":52.1036156,"name":"Fahrradabstellplatz","city":"Magdeburg","address":null,"covered":false,"access":null,"website":null,"phone":null,"source":"OpenStreetMap/way/1205198921","sourceUpdatedAt":null,"verifiedAt":null}},{"type":"Feature","geometry":{"type":"Point","coordinates":[11.6029262,52.0831986]},"properties":{"id":"bikerack:d2970c64-7c68-4b1f-b738-8024f57102e2","kind":"bikerack","longitude":11.6029262,"latitude":52.0831986,"name":"Fahrradabstellplatz","city":"Magdeburg","address":null,"covered":false,"access":null,"website":null,"phone":null,"source":"OpenStreetMap/node/3437194206","sourceUpdatedAt":null,"verifiedAt":null}},{"type":"Feature","geometry":{"type":"Point","coordinates":[11.6136367,52.1021297]},"properties":{"id":"bikerack:d383bacd-390b-4423-88d2-cc624f63dcc4","kind":"bikerack","longitude":11.6136367,"latitude":52.1021297,"name":"Fahrradabstellplatz","city":"Magdeburg","address":null,"covered":false,"access":null,"website":null,"phone":null,"source":"OpenStreetMap/way/1305034110","sourceUpdatedAt":null,"verifiedAt":null}},{"type":"Feature","geometry":{"type":"Point","coordinates":[11.6122643,52.089739]},"properties":{"id":"bikerack:d3871be9-b854-4e54-b529-5704a76fa77e","kind":"bikerack","longitude":11.6122643,"latitude":52.089739,"name":"Fahrradabstellplatz","city":"Magdeburg","address":null,"covered":true,"access":null,"website":null,"phone":null,"source":"OpenStreetMap/node/3066295033","sourceUpdatedAt":null,"verifiedAt":null}},{"type":"Feature","geometry":{"type":"Point","coordinates":[11.6176073,52.0998399]},"properties":{"id":"bikerack:d587f15b-8a34-4a3e-9b7d-78eb22184f9a","kind":"bikerack","longitude":11.6176073,"latitude":52.0998399,"name":"Fahrradabstellplatz","city":"Magdeburg","address":null,"covered":false,"access":null,"website":null,"phone":null,"source":"OpenStreetMap/way/1306140039","sourceUpdatedAt":null,"verifiedAt":null}},{"type":"Feature","geometry":{"type":"Point","coordinates":[11.6187786,52.1008442]},"properties":{"id":"bikerack:d5ff0f02-a2b3-4c7c-9418-830cc3209eba","kind":"bikerack","longitude":11.6187786,"latitude":52.1008442,"name":"Fahrradabstellplatz","city":"Magdeburg","address":null,"covered":false,"access":null,"website":null,"phone":null,"source":"OpenStreetMap/way/1314363006","sourceUpdatedAt":null,"verifiedAt":null}},{"type":"Feature","geometry":{"type":"Point","coordinates":[11.618536,52.1032835]},"properties":{"id":"bikerack:d96e8b79-d927-41e2-bfcd-b9e53b2ab22a","kind":"bikerack","longitude":11.618536,"latitude":52.1032835,"name":"Fahrradabstellplatz","city":"Magdeburg","address":null,"covered":false,"access":null,"website":null,"phone":null,"source":"OpenStreetMap/way/1205259868","sourceUpdatedAt":null,"verifiedAt":null}},{"type":"Feature","geometry":{"type":"Point","coordinates":[11.6051945,52.0825339]},"properties":{"id":"bikerack:dc45283f-2d8a-4499-a67a-10254d1a7e83","kind":"bikerack","longitude":11.6051945,"latitude":52.0825339,"name":"Fahrradabstellplatz","city":"Magdeburg","address":null,"covered":false,"access":null,"website":null,"phone":null,"source":"OpenStreetMap/node/5075581844","sourceUpdatedAt":null,"verifiedAt":null}},{"type":"Feature","geometry":{"type":"Point","coordinates":[11.6175767,52.1024247]},"properties":{"id":"bikerack:e4ad96b4-9ee2-4558-9619-ceb1ea2400e4","kind":"bikerack","longitude":11.6175767,"latitude":52.1024247,"name":"Fahrradabstellplatz","city":"Magdeburg","address":null,"covered":false,"access":null,"website":null,"phone":null,"source":"OpenStreetMap/node/5045984007","sourceUpdatedAt":null,"verifiedAt":null}},{"type":"Feature","geometry":{"type":"Point","coordinates":[11.6211729,52.1019057]},"properties":{"id":"bikerack:e5ff7a5c-d015-4dcb-b3a2-903ad8e5793f","kind":"bikerack","longitude":11.6211729,"latitude":52.1019057,"name":"Fahrradabstellplatz","city":"Magdeburg","address":null,"covered":false,"access":null,"website":null,"phone":null,"source":"OpenStreetMap/way/1293805949","sourceUpdatedAt":null,"verifiedAt":null}},{"type":"Feature","geometry":{"type":"Point","coordinates":[11.6373952,52.0972391]},"properties":{"id":"bikerack:e8726d39-d5d9-40e9-a00c-38aa11acc967","kind":"bikerack","longitude":11.6373952,"latitude":52.0972391,"name":"Fahrradabstellplatz","city":"Magdeburg","address":null,"covered":true,"access":null,"website":null,"phone":null,"source":"OpenStreetMap/way/430498495","sourceUpdatedAt":null,"verifiedAt":null}},{"type":"Feature","geometry":{"type":"Point","coordinates":[11.6179117,52.1033522]},"properties":{"id":"bikerack:ebfcdc05-4cc7-463a-85fc-2c6e8b9424e9","kind":"bikerack","longitude":11.6179117,"latitude":52.1033522,"name":"Fahrradabstellplatz","city":"Magdeburg","address":null,"covered":false,"access":null,"website":null,"phone":null,"source":"OpenStreetMap/node/11365996723","sourceUpdatedAt":null,"verifiedAt":null}},{"type":"Feature","geometry":{"type":"Point","coordinates":[11.6174306,52.0998354]},"properties":{"id":"bikerack:ee81d991-f656-4a68-b72f-d2a88620637e","kind":"bikerack","longitude":11.6174306,"latitude":52.0998354,"name":"Fahrradabstellplatz","city":"Magdeburg","address":null,"covered":false,"access":null,"website":null,"phone":null,"source":"OpenStreetMap/way/1306140038","sourceUpdatedAt":null,"verifiedAt":null}},{"type":"Feature","geometry":{"type":"Point","coordinates":[11.6126399,52.0894737]},"properties":{"id":"bikerack:f0375cf6-ce3b-48b0-b902-185bfc7312ad","kind":"bikerack","longitude":11.6126399,"latitude":52.0894737,"name":"Fahrradabstellplatz","city":"Magdeburg","address":null,"covered":false,"access":null,"website":null,"phone":null,"source":"OpenStreetMap/node/3066295035","sourceUpdatedAt":null,"verifiedAt":null}},{"type":"Feature","geometry":{"type":"Point","coordinates":[11.6176461,52.1009739]},"properties":{"id":"bikerack:f507e23e-82d5-4bf5-8da6-25174a39460c","kind":"bikerack","longitude":11.6176461,"latitude":52.1009739,"name":"Fahrradabstellplatz","city":"Magdeburg","address":null,"covered":false,"access":null,"website":null,"phone":null,"source":"OpenStreetMap/way/1293842961","sourceUpdatedAt":null,"verifiedAt":null}},{"type":"Feature","geometry":{"type":"Point","coordinates":[11.6179042,52.1001663]},"properties":{"id":"bikerack:f67f6f8a-8dc0-4333-ac9b-7a670ada31c9","kind":"bikerack","longitude":11.6179042,"latitude":52.1001663,"name":"Fahrradabstellplatz","city":"Magdeburg","address":null,"covered":false,"access":null,"website":null,"phone":null,"source":"OpenStreetMap/way/1304059336","sourceUpdatedAt":null,"verifiedAt":null}},{"type":"Feature","geometry":{"type":"Point","coordinates":[11.6420211,52.1017124]},"properties":{"id":"bikerack:f7487aff-36b2-4ce6-b406-44902b019eee","kind":"bikerack","longitude":11.6420211,"latitude":52.1017124,"name":"Fahrradabstellplatz","city":"Magdeburg","address":null,"covered":false,"access":null,"website":null,"phone":null,"source":"OpenStreetMap/way/1205151402","sourceUpdatedAt":null,"verifiedAt":null}},{"type":"Feature","geometry":{"type":"Point","coordinates":[11.6380826,52.0970686]},"properties":{"id":"bikerack:f7862ffd-7b1a-467b-a597-0cf68f4acd2b","kind":"bikerack","longitude":11.6380826,"latitude":52.0970686,"name":"Fahrradabstellplatz","city":"Magdeburg","address":null,"covered":true,"access":null,"website":null,"phone":null,"source":"OpenStreetMap/way/1205148378","sourceUpdatedAt":null,"verifiedAt":null}},{"type":"Feature","geometry":{"type":"Point","coordinates":[11.6166896,52.1026277]},"properties":{"id":"bikerack:fd44558f-0210-430e-854f-1a1e2fcbbc48","kind":"bikerack","longitude":11.6166896,"latitude":52.1026277,"name":"Fahrradabstellplatz","city":"Magdeburg","address":null,"covered":false,"access":null,"website":null,"phone":null,"source":"OpenStreetMap/way/1334223258","sourceUpdatedAt":null,"verifiedAt":null}},{"type":"Feature","geometry":{"type":"Point","coordinates":[11.6222088,52.1019289]},"properties":{"id":"bikerack:fe216422-1cf8-4137-a13e-830774da48dc","kind":"bikerack","longitude":11.6222088,"latitude":52.1019289,"name":"Fahrradabstellplatz","city":"Magdeburg","address":null,"covered":false,"access":null,"website":null,"phone":null,"source":"OpenStreetMap/way/1293805806","sourceUpdatedAt":null,"verifiedAt":null}},{"type":"Feature","geometry":{"type":"Point","coordinates":[11.6369301,52.0882863]},"properties":{"id":"bikerack:febc2389-c0c8-43f8-b1f9-cef44aa72ccb","kind":"bikerack","longitude":11.6369301,"latitude":52.0882863,"name":"Fahrradabstellplatz","city":"Magdeburg","address":null,"covered":true,"access":null,"website":null,"phone":null,"source":"OpenStreetMap/way/598057987","sourceUpdatedAt":null,"verifiedAt":null}},{"type":"Feature","geometry":{"type":"Point","coordinates":[11.6158296,52.102438]},"properties":{"id":"bikerack:fef336f6-54d3-4073-9fce-a966d1139c1e","kind":"bikerack","longitude":11.6158296,"latitude":52.102438,"name":"Fahrradabstellplatz","city":"Magdeburg","address":null,"covered":false,"access":null,"website":null,"phone":null,"source":"OpenStreetMap/way/1205468449","sourceUpdatedAt":null,"verifiedAt":null}},{"type":"Feature","geometry":{"type":"Point","coordinates":[11.6185615,52.1014842]},"properties":{"id":"repair:ec3733b0-bce1-4d8e-9e5d-7103efc84ff9","kind":"repair","longitude":11.6185615,"latitude":52.1014842,"name":"Fahrradreparaturstation","city":"Magdeburg","address":null,"covered":false,"access":null,"website":null,"phone":null,"source":"OpenStreetMap/node/12172293470","sourceUpdatedAt":null,"verifiedAt":null}},{"type":"Feature","geometry":{"type":"Point","coordinates":[11.6408148,52.1064358]},"properties":{"id":"service:27f816ec-d8d2-4d42-9698-2e8d94a31e77","kind":"service","longitude":11.6408148,"latitude":52.1064358,"name":"Rad der Stadt Magdeburg","city":"Magdeburg","address":null,"covered":null,"access":null,"website":null,"phone":null,"source":"OpenStreetMap/node/1279629575","sourceUpdatedAt":null,"verifiedAt":null}},{"type":"Feature","geometry":{"type":"Point","coordinates":[11.6390048,52.0884065]},"properties":{"id":"service:518f4c0c-ed66-4cf4-9436-7df608f1d5cc","kind":"service","longitude":11.6390048,"latitude":52.0884065,"name":"eBike Center Magdeburg","city":"Magdeburg","address":null,"covered":null,"access":null,"website":null,"phone":null,"source":"OpenStreetMap/node/5692889462","sourceUpdatedAt":null,"verifiedAt":null}}]}