{"type":"FeatureCollection","features":[{"type":"Feature","geometry":{"type":"Point","coordinates":[11.6401374,48.2617956]},"properties":{"id":"bikerack:0d392374-c6ea-452b-988d-7fac3916b0b5","kind":"bikerack","longitude":11.6401374,"latitude":48.2617956,"name":"Fahrradabstellplatz","city":"Garching bei Munchen","address":null,"covered":false,"access":null,"website":null,"phone":null,"source":"OpenStreetMap/node/12990255647","sourceUpdatedAt":null,"verifiedAt":null}},{"type":"Feature","geometry":{"type":"Point","coordinates":[11.6426766,48.257577]},"properties":{"id":"bikerack:0f7810d1-0d34-4b56-a031-3829dfa57dda","kind":"bikerack","longitude":11.6426766,"latitude":48.257577,"name":"Fahrradabstellplatz","city":"Garching bei Munchen","address":null,"covered":false,"access":null,"website":null,"phone":null,"source":"OpenStreetMap/node/8350113288","sourceUpdatedAt":null,"verifiedAt":null}},{"type":"Feature","geometry":{"type":"Point","coordinates":[11.6401478,48.2617554]},"properties":{"id":"bikerack:2b0813d3-53dc-4011-832a-1e5cdfa38a6c","kind":"bikerack","longitude":11.6401478,"latitude":48.2617554,"name":"Fahrradabstellplatz","city":"Garching bei Munchen","address":null,"covered":false,"access":null,"website":null,"phone":null,"source":"OpenStreetMap/node/12990177095","sourceUpdatedAt":null,"verifiedAt":null}},{"type":"Feature","geometry":{"type":"Point","coordinates":[11.6424603,48.2602956]},"properties":{"id":"bikerack:71f7ef1f-5f39-4635-b1e4-7e93208207ec","kind":"bikerack","longitude":11.6424603,"latitude":48.2602956,"name":"Fahrradabstellplatz","city":"Garching bei Munchen","address":null,"covered":false,"access":null,"website":null,"phone":null,"source":"OpenStreetMap/node/2626055112","sourceUpdatedAt":null,"verifiedAt":null}},{"type":"Feature","geometry":{"type":"Point","coordinates":[11.6406777,48.2604025]},"properties":{"id":"bikerack:829729b7-8000-406f-a0b9-0a47c70075cc","kind":"bikerack","longitude":11.6406777,"latitude":48.2604025,"name":"Fahrradabstellplatz","city":"Garching bei Munchen","address":null,"covered":false,"access":null,"website":null,"phone":null,"source":"OpenStreetMap/node/12990299203","sourceUpdatedAt":null,"verifiedAt":null}},{"type":"Feature","geometry":{"type":"Point","coordinates":[11.603275,48.2601521]},"properties":{"id":"bikerack:88362e0f-a3e7-4384-85fd-568493e1c4f5","kind":"bikerack","longitude":11.603275,"latitude":48.2601521,"name":"Fahrradabstellplatz","city":"Unterschleissheim","address":null,"covered":false,"access":null,"website":null,"phone":null,"source":"OpenStreetMap/node/13110450085","sourceUpdatedAt":null,"verifiedAt":null}},{"type":"Feature","geometry":{"type":"Point","coordinates":[11.6418063,48.2604541]},"properties":{"id":"bikerack:e313fe99-d250-4e23-88eb-99ab8c677e93","kind":"bikerack","longitude":11.6418063,"latitude":48.2604541,"name":"Fahrradabstellplatz","city":"Garching bei Munchen","address":null,"covered":false,"access":null,"website":null,"phone":null,"source":"OpenStreetMap/node/12990307250","sourceUpdatedAt":null,"verifiedAt":null}},{"type":"Feature","geometry":{"type":"Point","coordinates":[11.6403597,48.2615293]},"properties":{"id":"repair:c596a4c9-27e1-4f02-b2f0-f7407c339281","kind":"repair","longitude":11.6403597,"latitude":48.2615293,"name":"Fahrradreparaturstation","city":"Garching bei Munchen","address":null,"covered":false,"access":null,"website":null,"phone":null,"source":"OpenStreetMap/node/9876981797","sourceUpdatedAt":null,"verifiedAt":null}}]}