{"type":"FeatureCollection","features":[{"type":"Feature","geometry":{"type":"Point","coordinates":[11.6248767,48.0507733]},"properties":{"id":"bikerack:007d644b-19d6-461e-aaf1-29e4e1222b7c","kind":"bikerack","longitude":11.6248767,"latitude":48.0507733,"name":"Fahrradabstellplatz","city":"Taufkirchen","address":null,"covered":false,"access":null,"website":null,"phone":null,"source":"OpenStreetMap/way/1038726610","sourceUpdatedAt":null,"verifiedAt":null}},{"type":"Feature","geometry":{"type":"Point","coordinates":[11.6211975,48.0551525]},"properties":{"id":"bikerack:0472a55d-b05d-449a-a724-a303bf80bb1c","kind":"bikerack","longitude":11.6211975,"latitude":48.0551525,"name":"Fahrradabstellplatz","city":"Taufkirchen","address":null,"covered":false,"access":null,"website":null,"phone":null,"source":"OpenStreetMap/node/13571894537","sourceUpdatedAt":null,"verifiedAt":null}},{"type":"Feature","geometry":{"type":"Point","coordinates":[11.6215968,48.0576319]},"properties":{"id":"bikerack:05844b5b-6615-4896-add2-d641e486f3df","kind":"bikerack","longitude":11.6215968,"latitude":48.0576319,"name":"Fahrradabstellplatz","city":"Taufkirchen","address":null,"covered":false,"access":null,"website":null,"phone":null,"source":"OpenStreetMap/node/13588826625","sourceUpdatedAt":null,"verifiedAt":null}},{"type":"Feature","geometry":{"type":"Point","coordinates":[11.6335753,48.0595151]},"properties":{"id":"bikerack:089e57ad-c071-4d24-9851-2c1410d14ec6","kind":"bikerack","longitude":11.6335753,"latitude":48.0595151,"name":"Fahrradabstellplatz","city":"Unterhaching","address":null,"covered":true,"access":null,"website":null,"phone":null,"source":"OpenStreetMap/node/9680198846","sourceUpdatedAt":null,"verifiedAt":null}},{"type":"Feature","geometry":{"type":"Point","coordinates":[11.6332166,48.0595129]},"properties":{"id":"bikerack:0950903a-b2ac-4ad4-97ff-27df3a268307","kind":"bikerack","longitude":11.6332166,"latitude":48.0595129,"name":"Fahrradabstellplatz","city":"Unterhaching","address":null,"covered":true,"access":null,"website":null,"phone":null,"source":"OpenStreetMap/node/9680198847","sourceUpdatedAt":null,"verifiedAt":null}},{"type":"Feature","geometry":{"type":"Point","coordinates":[11.614924,48.0778954]},"properties":{"id":"bikerack:0f1e1fac-1b2d-4a1b-8bad-27f091208138","kind":"bikerack","longitude":11.614924,"latitude":48.0778954,"name":"Fahrradabstellplatz","city":"Unterhaching","address":null,"covered":true,"access":null,"website":null,"phone":null,"source":"OpenStreetMap/node/3672885611","sourceUpdatedAt":null,"verifiedAt":null}},{"type":"Feature","geometry":{"type":"Point","coordinates":[11.606662,48.0752349]},"properties":{"id":"bikerack:0f303a49-bdf7-428e-ab92-30bb0268e36a","kind":"bikerack","longitude":11.606662,"latitude":48.0752349,"name":"Fahrradabstellplatz","city":"Unterhaching","address":null,"covered":false,"access":null,"website":null,"phone":null,"source":"OpenStreetMap/node/11018655729","sourceUpdatedAt":null,"verifiedAt":null}},{"type":"Feature","geometry":{"type":"Point","coordinates":[11.6132569,48.0658433]},"properties":{"id":"bikerack:11c4c2f5-7cf8-4100-8ab2-cc65410bc5e3","kind":"bikerack","longitude":11.6132569,"latitude":48.0658433,"name":"Fahrradabstellplatz","city":"Unterhaching","address":null,"covered":false,"access":null,"website":null,"phone":null,"source":"OpenStreetMap/node/8932339956","sourceUpdatedAt":null,"verifiedAt":null}},{"type":"Feature","geometry":{"type":"Point","coordinates":[11.609484,48.0515416]},"properties":{"id":"bikerack:129626d3-6d85-4bb4-9e82-9e3b2f726700","kind":"bikerack","longitude":11.609484,"latitude":48.0515416,"name":"Taufkirchen (S)","city":"Taufkirchen","address":null,"covered":true,"access":null,"website":null,"phone":null,"source":"OpenStreetMap/way/337364454","sourceUpdatedAt":null,"verifiedAt":null}},{"type":"Feature","geometry":{"type":"Point","coordinates":[11.6337043,48.0775527]},"properties":{"id":"bikerack:13d68f74-4060-4a8e-84de-9e83bf950c06","kind":"bikerack","longitude":11.6337043,"latitude":48.0775527,"name":"Fahrradabstellplatz","city":"Unterhaching","address":null,"covered":false,"access":null,"website":null,"phone":null,"source":"OpenStreetMap/way/292951739","sourceUpdatedAt":null,"verifiedAt":null}},{"type":"Feature","geometry":{"type":"Point","coordinates":[11.6255817,48.0579111]},"properties":{"id":"bikerack:152d7d3c-5290-4e28-8b8c-fe8e01ba24e0","kind":"bikerack","longitude":11.6255817,"latitude":48.0579111,"name":"Fahrradabstellplatz","city":"Taufkirchen","address":null,"covered":true,"access":null,"website":null,"phone":null,"source":"OpenStreetMap/node/9983889328","sourceUpdatedAt":null,"verifiedAt":null}},{"type":"Feature","geometry":{"type":"Point","coordinates":[11.6211302,48.0621989]},"properties":{"id":"bikerack:1bbc66e2-4568-47b2-82e0-4107c0d3952d","kind":"bikerack","longitude":11.6211302,"latitude":48.0621989,"name":"Fahrrad-Parkplatz Freibad","city":"Unterhaching","address":null,"covered":false,"access":null,"website":null,"phone":null,"source":"OpenStreetMap/node/401357326","sourceUpdatedAt":null,"verifiedAt":null}},{"type":"Feature","geometry":{"type":"Point","coordinates":[11.6159036,48.0763259]},"properties":{"id":"bikerack:1d1d10b3-e024-42de-b1be-08576dba7265","kind":"bikerack","longitude":11.6159036,"latitude":48.0763259,"name":"Fahrradabstellplatz","city":"Unterhaching","address":null,"covered":true,"access":null,"website":null,"phone":null,"source":"OpenStreetMap/node/9830624069","sourceUpdatedAt":null,"verifiedAt":null}},{"type":"Feature","geometry":{"type":"Point","coordinates":[11.6171877,48.0643546]},"properties":{"id":"bikerack:26fa863d-ab15-426f-8e57-38aaebceabb4","kind":"bikerack","longitude":11.6171877,"latitude":48.0643546,"name":"Fahrradabstellplatz","city":"Unterhaching","address":null,"covered":false,"access":null,"website":null,"phone":null,"source":"OpenStreetMap/way/1125235685","sourceUpdatedAt":null,"verifiedAt":null}},{"type":"Feature","geometry":{"type":"Point","coordinates":[11.6126534,48.0659914]},"properties":{"id":"bikerack:27b0c0c4-d392-40ea-a98a-9a5ebe855a76","kind":"bikerack","longitude":11.6126534,"latitude":48.0659914,"name":"Fahrradabstellplatz","city":"Unterhaching","address":null,"covered":true,"access":null,"website":null,"phone":null,"source":"OpenStreetMap/way/225798004","sourceUpdatedAt":null,"verifiedAt":null}},{"type":"Feature","geometry":{"type":"Point","coordinates":[11.6434207,48.0780025]},"properties":{"id":"bikerack:27c466bd-a9c3-4f94-85f1-fac002ba75b9","kind":"bikerack","longitude":11.6434207,"latitude":48.0780025,"name":"Fahrradabstellplatz","city":"Neubiberg","address":null,"covered":false,"access":null,"website":null,"phone":null,"source":"OpenStreetMap/way/170004445","sourceUpdatedAt":null,"verifiedAt":null}},{"type":"Feature","geometry":{"type":"Point","coordinates":[11.6043625,48.0517652]},"properties":{"id":"bikerack:2880b4c3-20f1-4a6f-b98b-d99457722fef","kind":"bikerack","longitude":11.6043625,"latitude":48.0517652,"name":"Fahrradabstellplatz","city":"Taufkirchen","address":null,"covered":false,"access":null,"website":null,"phone":null,"source":"OpenStreetMap/way/1117765350","sourceUpdatedAt":null,"verifiedAt":null}},{"type":"Feature","geometry":{"type":"Point","coordinates":[11.6131264,48.0707819]},"properties":{"id":"bikerack:2d78019a-ae08-436d-8b05-0ad75b2e3871","kind":"bikerack","longitude":11.6131264,"latitude":48.0707819,"name":"Fahrradabstellplatz","city":"Unterhaching","address":null,"covered":false,"access":null,"website":null,"phone":null,"source":"OpenStreetMap/node/5562054526","sourceUpdatedAt":null,"verifiedAt":null}},{"type":"Feature","geometry":{"type":"Point","coordinates":[11.6041278,48.0518167]},"properties":{"id":"bikerack:2dbd7b13-e34b-4147-ac7a-a7913d2f4bdf","kind":"bikerack","longitude":11.6041278,"latitude":48.0518167,"name":"Fahrradabstellplatz","city":"Taufkirchen","address":null,"covered":false,"access":null,"website":null,"phone":null,"source":"OpenStreetMap/way/1117765347","sourceUpdatedAt":null,"verifiedAt":null}},{"type":"Feature","geometry":{"type":"Point","coordinates":[11.6120377,48.0629881]},"properties":{"id":"bikerack:31555ffe-2470-4568-980c-cf8dadf7f639","kind":"bikerack","longitude":11.6120377,"latitude":48.0629881,"name":"Fahrradabstellplatz","city":"Unterhaching","address":null,"covered":false,"access":null,"website":null,"phone":null,"source":"OpenStreetMap/node/8830468529","sourceUpdatedAt":null,"verifiedAt":null}},{"type":"Feature","geometry":{"type":"Point","coordinates":[11.6120437,48.0628761]},"properties":{"id":"bikerack:341c3149-678b-44f8-94ad-0d6e58085f31","kind":"bikerack","longitude":11.6120437,"latitude":48.0628761,"name":"Fahrradabstellplatz","city":"Unterhaching","address":null,"covered":false,"access":null,"website":null,"phone":null,"source":"OpenStreetMap/node/8830468528","sourceUpdatedAt":null,"verifiedAt":null}},{"type":"Feature","geometry":{"type":"Point","coordinates":[11.6298144,48.0771151]},"properties":{"id":"bikerack:35e4f71e-dd72-4f28-94ea-8394612b1389","kind":"bikerack","longitude":11.6298144,"latitude":48.0771151,"name":"Fahrradabstellplatz","city":"Unterhaching","address":null,"covered":false,"access":null,"website":null,"phone":null,"source":"OpenStreetMap/node/992512263","sourceUpdatedAt":null,"verifiedAt":null}},{"type":"Feature","geometry":{"type":"Point","coordinates":[11.6145384,48.0609516]},"properties":{"id":"bikerack:368b4ed7-2ebf-4a1e-80a1-5e336684cb19","kind":"bikerack","longitude":11.6145384,"latitude":48.0609516,"name":"Fahrradabstellplatz","city":"Unterhaching","address":null,"covered":false,"access":null,"website":null,"phone":null,"source":"OpenStreetMap/way/359739459","sourceUpdatedAt":null,"verifiedAt":null}},{"type":"Feature","geometry":{"type":"Point","coordinates":[11.6095659,48.0517153]},"properties":{"id":"bikerack:3a903fe6-ce78-480b-8351-b016f020d411","kind":"bikerack","longitude":11.6095659,"latitude":48.0517153,"name":"Fahrradabstellplatz","city":"Taufkirchen","address":null,"covered":true,"access":null,"website":null,"phone":null,"source":"OpenStreetMap/way/337364452","sourceUpdatedAt":null,"verifiedAt":null}},{"type":"Feature","geometry":{"type":"Point","coordinates":[11.6153054,48.0772339]},"properties":{"id":"bikerack:3d6ac444-0189-4b38-8216-73e5c4ac4a9e","kind":"bikerack","longitude":11.6153054,"latitude":48.0772339,"name":"Fahrradabstellplatz","city":"Unterhaching","address":null,"covered":true,"access":null,"website":null,"phone":null,"source":"OpenStreetMap/node/3671698067","sourceUpdatedAt":null,"verifiedAt":null}},{"type":"Feature","geometry":{"type":"Point","coordinates":[11.6414426,48.0778135]},"properties":{"id":"bikerack:3f8ac24a-3302-4693-b5e6-c3d75962aa13","kind":"bikerack","longitude":11.6414426,"latitude":48.0778135,"name":"Fahrradabstellplatz","city":"Neubiberg","address":null,"covered":false,"access":null,"website":null,"phone":null,"source":"OpenStreetMap/way/1428386951","sourceUpdatedAt":null,"verifiedAt":null}},{"type":"Feature","geometry":{"type":"Point","coordinates":[11.6044872,48.0518151]},"properties":{"id":"bikerack:41dbdd25-353f-4081-85b0-8ea8f06d8002","kind":"bikerack","longitude":11.6044872,"latitude":48.0518151,"name":"Fahrradabstellplatz","city":"Taufkirchen","address":null,"covered":false,"access":null,"website":null,"phone":null,"source":"OpenStreetMap/way/1117765351","sourceUpdatedAt":null,"verifiedAt":null}},{"type":"Feature","geometry":{"type":"Point","coordinates":[11.6120372,48.0633397]},"properties":{"id":"bikerack:45786ff3-4d72-4803-a3a1-4c9016f6ebc8","kind":"bikerack","longitude":11.6120372,"latitude":48.0633397,"name":"Fahrradabstellplatz","city":"Unterhaching","address":null,"covered":false,"access":null,"website":null,"phone":null,"source":"OpenStreetMap/node/8830468531","sourceUpdatedAt":null,"verifiedAt":null}},{"type":"Feature","geometry":{"type":"Point","coordinates":[11.6070731,48.0499975]},"properties":{"id":"bikerack:4a759604-fe83-4cfa-82de-5789c9f72bbd","kind":"bikerack","longitude":11.6070731,"latitude":48.0499975,"name":"Fahrradabstellplatz","city":"Taufkirchen","address":null,"covered":false,"access":null,"website":null,"phone":null,"source":"OpenStreetMap/way/1117765349","sourceUpdatedAt":null,"verifiedAt":null}},{"type":"Feature","geometry":{"type":"Point","coordinates":[11.615864,48.0764034]},"properties":{"id":"bikerack:4bae96c9-0ca9-4a84-af99-da65e6574213","kind":"bikerack","longitude":11.615864,"latitude":48.0764034,"name":"Fahrradabstellplatz","city":"Unterhaching","address":null,"covered":true,"access":null,"website":null,"phone":null,"source":"OpenStreetMap/node/9830624070","sourceUpdatedAt":null,"verifiedAt":null}},{"type":"Feature","geometry":{"type":"Point","coordinates":[11.6125365,48.0760793]},"properties":{"id":"bikerack:4d28e5a0-868b-4d68-b0b6-cbbdb9df1eac","kind":"bikerack","longitude":11.6125365,"latitude":48.0760793,"name":"Fahrradabstellplatz","city":"Unterhaching","address":null,"covered":false,"access":null,"website":null,"phone":null,"source":"OpenStreetMap/node/5700366212","sourceUpdatedAt":null,"verifiedAt":null}},{"type":"Feature","geometry":{"type":"Point","coordinates":[11.6192316,48.0681627]},"properties":{"id":"bikerack:4f08efbe-1b55-4302-bd53-88ed756fc66a","kind":"bikerack","longitude":11.6192316,"latitude":48.0681627,"name":"Fahrradabstellplatz","city":"Unterhaching","address":null,"covered":true,"access":null,"website":null,"phone":null,"source":"OpenStreetMap/node/4878712135","sourceUpdatedAt":null,"verifiedAt":null}},{"type":"Feature","geometry":{"type":"Point","coordinates":[11.6285482,48.0676053]},"properties":{"id":"bikerack:5102536e-16dd-43e6-a789-a4bd3d5ff855","kind":"bikerack","longitude":11.6285482,"latitude":48.0676053,"name":"Fahrradabstellplatz","city":"Unterhaching","address":null,"covered":false,"access":null,"website":null,"phone":null,"source":"OpenStreetMap/node/10730007921","sourceUpdatedAt":null,"verifiedAt":null}},{"type":"Feature","geometry":{"type":"Point","coordinates":[11.6149285,48.0768177]},"properties":{"id":"bikerack:53b5de51-582f-47b9-8351-56ad71b6833f","kind":"bikerack","longitude":11.6149285,"latitude":48.0768177,"name":"Fahrradabstellplatz","city":"Unterhaching","address":null,"covered":true,"access":null,"website":null,"phone":null,"source":"OpenStreetMap/node/10763268592","sourceUpdatedAt":null,"verifiedAt":null}},{"type":"Feature","geometry":{"type":"Point","coordinates":[11.615268,48.0772925]},"properties":{"id":"bikerack:58952603-afe1-42be-bebd-7c7411e09ebb","kind":"bikerack","longitude":11.615268,"latitude":48.0772925,"name":"Fahrradabstellplatz","city":"Unterhaching","address":null,"covered":false,"access":null,"website":null,"phone":null,"source":"OpenStreetMap/node/3674469861","sourceUpdatedAt":null,"verifiedAt":null}},{"type":"Feature","geometry":{"type":"Point","coordinates":[11.6207368,48.0733551]},"properties":{"id":"bikerack:637e76ad-29d2-4e7d-967f-50aaa75ef682","kind":"bikerack","longitude":11.6207368,"latitude":48.0733551,"name":"Fahrradabstellplatz","city":"Unterhaching","address":null,"covered":true,"access":null,"website":null,"phone":null,"source":"OpenStreetMap/way/1085781340","sourceUpdatedAt":null,"verifiedAt":null}},{"type":"Feature","geometry":{"type":"Point","coordinates":[11.6141099,48.0615932]},"properties":{"id":"bikerack:63859ffc-23ef-464a-a8b9-a06237721ab1","kind":"bikerack","longitude":11.6141099,"latitude":48.0615932,"name":"Fahrradabstellplatz","city":"Unterhaching","address":null,"covered":true,"access":null,"website":null,"phone":null,"source":"OpenStreetMap/node/9587944219","sourceUpdatedAt":null,"verifiedAt":null}},{"type":"Feature","geometry":{"type":"Point","coordinates":[11.6127595,48.0707194]},"properties":{"id":"bikerack:683db314-cb8a-4471-b50a-2f8d361b0a98","kind":"bikerack","longitude":11.6127595,"latitude":48.0707194,"name":"Fahrradabstellplatz","city":"Unterhaching","address":null,"covered":false,"access":null,"website":null,"phone":null,"source":"OpenStreetMap/node/5626778063","sourceUpdatedAt":null,"verifiedAt":null}},{"type":"Feature","geometry":{"type":"Point","coordinates":[11.6086473,48.0515399]},"properties":{"id":"bikerack:6bee47aa-3a31-463c-8d68-d3f43968da95","kind":"bikerack","longitude":11.6086473,"latitude":48.0515399,"name":"Fahrradabstellplatz","city":"Taufkirchen","address":null,"covered":true,"access":null,"website":null,"phone":null,"source":"OpenStreetMap/node/8494737585","sourceUpdatedAt":null,"verifiedAt":null}},{"type":"Feature","geometry":{"type":"Point","coordinates":[11.6132314,48.0659414]},"properties":{"id":"bikerack:6cbaa4e3-f064-4688-a5d8-752b25271639","kind":"bikerack","longitude":11.6132314,"latitude":48.0659414,"name":"Fahrradabstellplatz","city":"Unterhaching","address":null,"covered":false,"access":null,"website":null,"phone":null,"source":"OpenStreetMap/node/8932339960","sourceUpdatedAt":null,"verifiedAt":null}},{"type":"Feature","geometry":{"type":"Point","coordinates":[11.6120884,48.0647699]},"properties":{"id":"bikerack:6ed0e6c0-cb77-4ebc-9704-863616c92346","kind":"bikerack","longitude":11.6120884,"latitude":48.0647699,"name":"Unterhaching Bahnhof","city":"Unterhaching","address":null,"covered":true,"access":null,"website":null,"phone":null,"source":"OpenStreetMap/way/683218806","sourceUpdatedAt":null,"verifiedAt":null}},{"type":"Feature","geometry":{"type":"Point","coordinates":[11.6158327,48.0722745]},"properties":{"id":"bikerack:6f408035-3aeb-4f8c-a347-0177d6a55c10","kind":"bikerack","longitude":11.6158327,"latitude":48.0722745,"name":"Fahrradabstellplatz","city":"Unterhaching","address":null,"covered":true,"access":null,"website":null,"phone":null,"source":"OpenStreetMap/node/12122818802","sourceUpdatedAt":null,"verifiedAt":null}},{"type":"Feature","geometry":{"type":"Point","coordinates":[11.6236429,48.0493329]},"properties":{"id":"bikerack:6f597f69-deec-4ef5-ab1a-8da75ebb810d","kind":"bikerack","longitude":11.6236429,"latitude":48.0493329,"name":"Fahrradabstellplatz","city":"Taufkirchen","address":null,"covered":false,"access":null,"website":null,"phone":null,"source":"OpenStreetMap/node/13375397271","sourceUpdatedAt":null,"verifiedAt":null}},{"type":"Feature","geometry":{"type":"Point","coordinates":[11.615336,48.0723705]},"properties":{"id":"bikerack:6f75ac51-4b20-41cb-9acd-d5c18fcd1f7d","kind":"bikerack","longitude":11.615336,"latitude":48.0723705,"name":"Fahrradabstellplatz","city":"Unterhaching","address":null,"covered":false,"access":null,"website":null,"phone":null,"source":"OpenStreetMap/node/12122761197","sourceUpdatedAt":null,"verifiedAt":null}},{"type":"Feature","geometry":{"type":"Point","coordinates":[11.6180809,48.0702481]},"properties":{"id":"bikerack:72b7a697-cb69-433b-acda-ba475b8914d1","kind":"bikerack","longitude":11.6180809,"latitude":48.0702481,"name":"Fahrradabstellplatz","city":"Unterhaching","address":null,"covered":false,"access":null,"website":null,"phone":null,"source":"OpenStreetMap/node/10846464199","sourceUpdatedAt":null,"verifiedAt":null}},{"type":"Feature","geometry":{"type":"Point","coordinates":[11.614818,48.0760602]},"properties":{"id":"bikerack:7679c8d0-c2a2-49f0-b94f-085102a6bab5","kind":"bikerack","longitude":11.614818,"latitude":48.0760602,"name":"Fahrradabstellplatz","city":"Unterhaching","address":null,"covered":false,"access":null,"website":null,"phone":null,"source":"OpenStreetMap/node/9830624090","sourceUpdatedAt":null,"verifiedAt":null}},{"type":"Feature","geometry":{"type":"Point","coordinates":[11.6126616,48.070723]},"properties":{"id":"bikerack:7a0f2814-959f-4c0e-be87-372822bbb6f8","kind":"bikerack","longitude":11.6126616,"latitude":48.070723,"name":"Fahrradabstellplatz","city":"Unterhaching","address":null,"covered":false,"access":null,"website":null,"phone":null,"source":"OpenStreetMap/node/5626778062","sourceUpdatedAt":null,"verifiedAt":null}},{"type":"Feature","geometry":{"type":"Point","coordinates":[11.6234923,48.0493534]},"properties":{"id":"bikerack:7f323077-8401-4846-9b68-656060259ac7","kind":"bikerack","longitude":11.6234923,"latitude":48.0493534,"name":"Fahrradabstellplatz","city":"Taufkirchen","address":null,"covered":false,"access":null,"website":null,"phone":null,"source":"OpenStreetMap/node/13375403076","sourceUpdatedAt":null,"verifiedAt":null}},{"type":"Feature","geometry":{"type":"Point","coordinates":[11.6161197,48.0723308]},"properties":{"id":"bikerack:8070df41-15cb-4ffa-941c-53a8bd12abe5","kind":"bikerack","longitude":11.6161197,"latitude":48.0723308,"name":"Fahrradabstellplatz","city":"Unterhaching","address":null,"covered":true,"access":null,"website":null,"phone":null,"source":"OpenStreetMap/node/12122818804","sourceUpdatedAt":null,"verifiedAt":null}},{"type":"Feature","geometry":{"type":"Point","coordinates":[11.613757,48.0707458]},"properties":{"id":"bikerack:82b2d884-45bc-4944-8f2a-ad1151d1cb74","kind":"bikerack","longitude":11.613757,"latitude":48.0707458,"name":"Fahrradabstellplatz","city":"Unterhaching","address":null,"covered":false,"access":null,"website":null,"phone":null,"source":"OpenStreetMap/node/5653567820","sourceUpdatedAt":null,"verifiedAt":null}},{"type":"Feature","geometry":{"type":"Point","coordinates":[11.6041297,48.0517624]},"properties":{"id":"bikerack:831f7298-fcaf-482d-8bf1-c9b4748df5b3","kind":"bikerack","longitude":11.6041297,"latitude":48.0517624,"name":"Fahrradabstellplatz","city":"Taufkirchen","address":null,"covered":false,"access":null,"website":null,"phone":null,"source":"OpenStreetMap/way/1117765345","sourceUpdatedAt":null,"verifiedAt":null}},{"type":"Feature","geometry":{"type":"Point","coordinates":[11.6140918,48.0608404]},"properties":{"id":"bikerack:838f2f7b-055c-4f6e-a90a-b918033b7768","kind":"bikerack","longitude":11.6140918,"latitude":48.0608404,"name":"Fahrradabstellplatz","city":"Unterhaching","address":null,"covered":false,"access":null,"website":null,"phone":null,"source":"OpenStreetMap/way/359739460","sourceUpdatedAt":null,"verifiedAt":null}},{"type":"Feature","geometry":{"type":"Point","coordinates":[11.625283,48.0507669]},"properties":{"id":"bikerack:846afa49-77b7-4af6-bb9d-cca4e56769b0","kind":"bikerack","longitude":11.625283,"latitude":48.0507669,"name":"Fahrradabstellplatz","city":"Taufkirchen","address":null,"covered":false,"access":null,"website":null,"phone":null,"source":"OpenStreetMap/way/1038726611","sourceUpdatedAt":null,"verifiedAt":null}},{"type":"Feature","geometry":{"type":"Point","coordinates":[11.6339808,48.0775136]},"properties":{"id":"bikerack:89665ead-09fe-4ebd-aec6-d15e83e6f7a7","kind":"bikerack","longitude":11.6339808,"latitude":48.0775136,"name":"Fahrradabstellplatz","city":"Unterhaching","address":null,"covered":false,"access":null,"website":null,"phone":null,"source":"OpenStreetMap/way/292951745","sourceUpdatedAt":null,"verifiedAt":null}},{"type":"Feature","geometry":{"type":"Point","coordinates":[11.6142294,48.0771226]},"properties":{"id":"bikerack:8980bd36-08df-48bc-810c-2726428c1d3b","kind":"bikerack","longitude":11.6142294,"latitude":48.0771226,"name":"Fahrradabstellplatz","city":"Unterhaching","address":null,"covered":false,"access":null,"website":null,"phone":null,"source":"OpenStreetMap/node/3674469872","sourceUpdatedAt":null,"verifiedAt":null}},{"type":"Feature","geometry":{"type":"Point","coordinates":[11.6255415,48.058249]},"properties":{"id":"bikerack:8dc5875e-01ce-4fc2-b046-dbe943b809c8","kind":"bikerack","longitude":11.6255415,"latitude":48.058249,"name":"Fahrradabstellplatz","city":"Unterhaching","address":null,"covered":false,"access":null,"website":null,"phone":null,"source":"OpenStreetMap/node/9585815205","sourceUpdatedAt":null,"verifiedAt":null}},{"type":"Feature","geometry":{"type":"Point","coordinates":[11.6213343,48.0552042]},"properties":{"id":"bikerack:8e896133-62d5-4d5f-af62-461bfe9da380","kind":"bikerack","longitude":11.6213343,"latitude":48.0552042,"name":"Fahrradabstellplatz","city":"Taufkirchen","address":null,"covered":false,"access":null,"website":null,"phone":null,"source":"OpenStreetMap/node/13571886437","sourceUpdatedAt":null,"verifiedAt":null}},{"type":"Feature","geometry":{"type":"Point","coordinates":[11.6284758,48.0671509]},"properties":{"id":"bikerack:8f96b63a-f477-4960-9f14-12378fd28d2d","kind":"bikerack","longitude":11.6284758,"latitude":48.0671509,"name":"Fahrradabstellplatz","city":"Unterhaching","address":null,"covered":false,"access":null,"website":null,"phone":null,"source":"OpenStreetMap/node/10730007907","sourceUpdatedAt":null,"verifiedAt":null}},{"type":"Feature","geometry":{"type":"Point","coordinates":[11.6331196,48.0776328]},"properties":{"id":"bikerack:938faea9-d7ea-42f1-ab29-8d4311e8adaf","kind":"bikerack","longitude":11.6331196,"latitude":48.0776328,"name":"Fahrradabstellplatz","city":"Unterhaching","address":null,"covered":false,"access":null,"website":null,"phone":null,"source":"OpenStreetMap/way/292951741","sourceUpdatedAt":null,"verifiedAt":null}},{"type":"Feature","geometry":{"type":"Point","coordinates":[11.6028835,48.0559921]},"properties":{"id":"bikerack:957bcdc8-b543-49ac-bbfa-68721cccc7ce","kind":"bikerack","longitude":11.6028835,"latitude":48.0559921,"name":"Fahrradabstellplatz","city":"Taufkirchen","address":null,"covered":true,"access":null,"website":null,"phone":null,"source":"OpenStreetMap/way/750256270","sourceUpdatedAt":null,"verifiedAt":null}},{"type":"Feature","geometry":{"type":"Point","coordinates":[11.6181439,48.0715871]},"properties":{"id":"bikerack:960dd698-d0b4-4e0b-9b9c-06c9ff70db7d","kind":"bikerack","longitude":11.6181439,"latitude":48.0715871,"name":"Fahrradabstellplatz","city":"Unterhaching","address":null,"covered":true,"access":null,"website":null,"phone":null,"source":"OpenStreetMap/node/5653926309","sourceUpdatedAt":null,"verifiedAt":null}},{"type":"Feature","geometry":{"type":"Point","coordinates":[11.6155723,48.0723812]},"properties":{"id":"bikerack:983979bd-7eb9-4b22-9f02-935db1cf8d0d","kind":"bikerack","longitude":11.6155723,"latitude":48.0723812,"name":"Fahrradabstellplatz","city":"Unterhaching","address":null,"covered":true,"access":null,"website":null,"phone":null,"source":"OpenStreetMap/node/12122761199","sourceUpdatedAt":null,"verifiedAt":null}},{"type":"Feature","geometry":{"type":"Point","coordinates":[11.606428,48.0746892]},"properties":{"id":"bikerack:991a5ff3-3a0e-4c83-a731-e5b804542e7c","kind":"bikerack","longitude":11.606428,"latitude":48.0746892,"name":"Fahrradabstellplatz","city":"Unterhaching","address":null,"covered":false,"access":null,"website":null,"phone":null,"source":"OpenStreetMap/node/10721898014","sourceUpdatedAt":null,"verifiedAt":null}},{"type":"Feature","geometry":{"type":"Point","coordinates":[11.621047,48.0620863]},"properties":{"id":"bikerack:99686737-ff19-478d-8627-d474474f8ab2","kind":"bikerack","longitude":11.621047,"latitude":48.0620863,"name":"Fahrradabstellplatz","city":"Unterhaching","address":null,"covered":false,"access":null,"website":null,"phone":null,"source":"OpenStreetMap/node/3678970445","sourceUpdatedAt":null,"verifiedAt":null}},{"type":"Feature","geometry":{"type":"Point","coordinates":[11.6034135,48.0566455]},"properties":{"id":"bikerack:9a49bc2f-40b7-4201-8779-90b96e485cf6","kind":"bikerack","longitude":11.6034135,"latitude":48.0566455,"name":"Fahrradabstellplatz","city":"Unterhaching","address":null,"covered":false,"access":null,"website":null,"phone":null,"source":"OpenStreetMap/way/1085746554","sourceUpdatedAt":null,"verifiedAt":null}},{"type":"Feature","geometry":{"type":"Point","coordinates":[11.6140271,48.0606609]},"properties":{"id":"bikerack:9df2f21a-64aa-4829-8baa-de2e00ed6bfe","kind":"bikerack","longitude":11.6140271,"latitude":48.0606609,"name":"Fahrradabstellplatz","city":"Unterhaching","address":null,"covered":true,"access":null,"website":null,"phone":null,"source":"OpenStreetMap/node/3643970732","sourceUpdatedAt":null,"verifiedAt":null}},{"type":"Feature","geometry":{"type":"Point","coordinates":[11.6134638,48.0641234]},"properties":{"id":"bikerack:a1441640-4ab3-4158-9535-445417341cb4","kind":"bikerack","longitude":11.6134638,"latitude":48.0641234,"name":"Fahrradabstellplatz","city":"Unterhaching","address":null,"covered":false,"access":null,"website":null,"phone":null,"source":"OpenStreetMap/node/4881224437","sourceUpdatedAt":null,"verifiedAt":null}},{"type":"Feature","geometry":{"type":"Point","coordinates":[11.6134797,48.0707671]},"properties":{"id":"bikerack:a32a07c0-99df-43a9-81ee-0b9bde16d8be","kind":"bikerack","longitude":11.6134797,"latitude":48.0707671,"name":"Fahrradabstellplatz","city":"Unterhaching","address":null,"covered":false,"access":null,"website":null,"phone":null,"source":"OpenStreetMap/node/5653567819","sourceUpdatedAt":null,"verifiedAt":null}},{"type":"Feature","geometry":{"type":"Point","coordinates":[11.6326353,48.0776998]},"properties":{"id":"bikerack:a5bff013-ba92-4303-9773-85bdb5036ae2","kind":"bikerack","longitude":11.6326353,"latitude":48.0776998,"name":"Fahrradabstellplatz","city":"Unterhaching","address":null,"covered":false,"access":null,"website":null,"phone":null,"source":"OpenStreetMap/way/292951746","sourceUpdatedAt":null,"verifiedAt":null}},{"type":"Feature","geometry":{"type":"Point","coordinates":[11.6185563,48.0715151]},"properties":{"id":"bikerack:a7eb7432-35cc-44dc-874a-3baa1993abda","kind":"bikerack","longitude":11.6185563,"latitude":48.0715151,"name":"Fahrradabstellplatz","city":"Unterhaching","address":null,"covered":true,"access":null,"website":null,"phone":null,"source":"OpenStreetMap/way/592387084","sourceUpdatedAt":null,"verifiedAt":null}},{"type":"Feature","geometry":{"type":"Point","coordinates":[11.6126584,48.0655179]},"properties":{"id":"bikerack:a8b2312b-17f5-4ddb-bd78-ff17d20ae062","kind":"bikerack","longitude":11.6126584,"latitude":48.0655179,"name":"Unterhaching Bahnhof","city":"Unterhaching","address":null,"covered":true,"access":null,"website":null,"phone":null,"source":"OpenStreetMap/way/225798001","sourceUpdatedAt":null,"verifiedAt":null}},{"type":"Feature","geometry":{"type":"Point","coordinates":[11.6127133,48.0709737]},"properties":{"id":"bikerack:ac126d0e-a2ad-4ef2-9259-9920968c17ce","kind":"bikerack","longitude":11.6127133,"latitude":48.0709737,"name":"Fahrradabstellplatz","city":"Unterhaching","address":null,"covered":false,"access":null,"website":null,"phone":null,"source":"OpenStreetMap/node/5562054525","sourceUpdatedAt":null,"verifiedAt":null}},{"type":"Feature","geometry":{"type":"Point","coordinates":[11.6045659,48.0517945]},"properties":{"id":"bikerack:b011b0aa-e3ec-49ed-b406-a5f6b2331a02","kind":"bikerack","longitude":11.6045659,"latitude":48.0517945,"name":"Fahrradabstellplatz","city":"Taufkirchen","address":null,"covered":false,"access":null,"website":null,"phone":null,"source":"OpenStreetMap/way/1117765348","sourceUpdatedAt":null,"verifiedAt":null}},{"type":"Feature","geometry":{"type":"Point","coordinates":[11.6183098,48.0777636]},"properties":{"id":"bikerack:b0bdee99-6d71-463a-9619-39e0ff557c40","kind":"bikerack","longitude":11.6183098,"latitude":48.0777636,"name":"Fahrradabstellplatz","city":"Unterhaching","address":null,"covered":true,"access":null,"website":null,"phone":null,"source":"OpenStreetMap/node/3672979090","sourceUpdatedAt":null,"verifiedAt":null}},{"type":"Feature","geometry":{"type":"Point","coordinates":[11.6141168,48.0779871]},"properties":{"id":"bikerack:b0ec742e-0ef8-4c71-8a19-aa565e12e995","kind":"bikerack","longitude":11.6141168,"latitude":48.0779871,"name":"Fahrradabstellplatz","city":"Unterhaching","address":null,"covered":false,"access":null,"website":null,"phone":null,"source":"OpenStreetMap/node/3685027224","sourceUpdatedAt":null,"verifiedAt":null}},{"type":"Feature","geometry":{"type":"Point","coordinates":[11.615353,48.0779232]},"properties":{"id":"bikerack:b234a9a0-4ea3-44d8-afb0-8beeb90516f2","kind":"bikerack","longitude":11.615353,"latitude":48.0779232,"name":"Fahrradabstellplatz","city":"Unterhaching","address":null,"covered":true,"access":null,"website":null,"phone":null,"source":"OpenStreetMap/node/3672885613","sourceUpdatedAt":null,"verifiedAt":null}},{"type":"Feature","geometry":{"type":"Point","coordinates":[11.61298,48.0658523]},"properties":{"id":"bikerack:b5bbe427-0ce2-47e2-9a84-62b35084a35c","kind":"bikerack","longitude":11.61298,"latitude":48.0658523,"name":"Fahrradabstellplatz","city":"Unterhaching","address":null,"covered":false,"access":null,"website":null,"phone":null,"source":"OpenStreetMap/node/8932339955","sourceUpdatedAt":null,"verifiedAt":null}},{"type":"Feature","geometry":{"type":"Point","coordinates":[11.6260688,48.0499131]},"properties":{"id":"bikerack:b738860d-b680-41ee-acc7-049efc6a988b","kind":"bikerack","longitude":11.6260688,"latitude":48.0499131,"name":"Fahrradabstellplatz","city":"Taufkirchen","address":null,"covered":false,"access":null,"website":null,"phone":null,"source":"OpenStreetMap/node/13685958845","sourceUpdatedAt":null,"verifiedAt":null}},{"type":"Feature","geometry":{"type":"Point","coordinates":[11.6414061,48.0777781]},"properties":{"id":"bikerack:b89e20a4-ae8a-4c51-8a46-fefcd94352f3","kind":"bikerack","longitude":11.6414061,"latitude":48.0777781,"name":"Fahrradabstellplatz","city":"Neubiberg","address":null,"covered":true,"access":null,"website":null,"phone":null,"source":"OpenStreetMap/way/1428386950","sourceUpdatedAt":null,"verifiedAt":null}},{"type":"Feature","geometry":{"type":"Point","coordinates":[11.6037307,48.0753674]},"properties":{"id":"bikerack:c0affb5f-e041-4cb3-851e-9be841818d9f","kind":"bikerack","longitude":11.6037307,"latitude":48.0753674,"name":"Fahrradabstellplatz","city":"Unterhaching","address":null,"covered":false,"access":null,"website":null,"phone":null,"source":"OpenStreetMap/node/12734701428","sourceUpdatedAt":null,"verifiedAt":null}},{"type":"Feature","geometry":{"type":"Point","coordinates":[11.6413408,48.0777912]},"properties":{"id":"bikerack:c13c3a55-5141-4ba8-839a-67a544938fa9","kind":"bikerack","longitude":11.6413408,"latitude":48.0777912,"name":"Fahrradabstellplatz","city":"Neubiberg","address":null,"covered":false,"access":null,"website":null,"phone":null,"source":"OpenStreetMap/way/1428386949","sourceUpdatedAt":null,"verifiedAt":null}},{"type":"Feature","geometry":{"type":"Point","coordinates":[11.6157225,48.0772855]},"properties":{"id":"bikerack:c31ad03f-074e-417c-a07b-a54e93eefb72","kind":"bikerack","longitude":11.6157225,"latitude":48.0772855,"name":"Fahrradabstellplatz","city":"Unterhaching","address":null,"covered":true,"access":null,"website":null,"phone":null,"source":"OpenStreetMap/node/3671698068","sourceUpdatedAt":null,"verifiedAt":null}},{"type":"Feature","geometry":{"type":"Point","coordinates":[11.6124122,48.0748829]},"properties":{"id":"bikerack:c37f0623-a042-49ef-9d24-cb38dd7bee20","kind":"bikerack","longitude":11.6124122,"latitude":48.0748829,"name":"Fahrradabstellplatz","city":"Unterhaching","address":null,"covered":false,"access":null,"website":null,"phone":null,"source":"OpenStreetMap/node/12079626682","sourceUpdatedAt":null,"verifiedAt":null}},{"type":"Feature","geometry":{"type":"Point","coordinates":[11.6178947,48.0776765]},"properties":{"id":"bikerack:c4737364-ef7d-4994-af9c-3daf6b6a39f7","kind":"bikerack","longitude":11.6178947,"latitude":48.0776765,"name":"Fahrradabstellplatz","city":"Unterhaching","address":null,"covered":true,"access":null,"website":null,"phone":null,"source":"OpenStreetMap/node/3672979089","sourceUpdatedAt":null,"verifiedAt":null}},{"type":"Feature","geometry":{"type":"Point","coordinates":[11.615845,48.0723532]},"properties":{"id":"bikerack:c57e85f3-11b5-476c-97f7-750833d5044f","kind":"bikerack","longitude":11.615845,"latitude":48.0723532,"name":"Fahrradabstellplatz","city":"Unterhaching","address":null,"covered":true,"access":null,"website":null,"phone":null,"source":"OpenStreetMap/node/12122818803","sourceUpdatedAt":null,"verifiedAt":null}},{"type":"Feature","geometry":{"type":"Point","coordinates":[11.6216497,48.0574804]},"properties":{"id":"bikerack:c7327bd7-e5ca-4489-b616-292a06227253","kind":"bikerack","longitude":11.6216497,"latitude":48.0574804,"name":"Fahrradabstellplatz","city":"Taufkirchen","address":null,"covered":false,"access":null,"website":null,"phone":null,"source":"OpenStreetMap/node/13588857123","sourceUpdatedAt":null,"verifiedAt":null}},{"type":"Feature","geometry":{"type":"Point","coordinates":[11.605347,48.0556504]},"properties":{"id":"bikerack:c7c5bf64-df1e-493e-9f85-dec545d55eab","kind":"bikerack","longitude":11.605347,"latitude":48.0556504,"name":"Fahrradabstellplatz","city":"Taufkirchen","address":null,"covered":false,"access":null,"website":null,"phone":null,"source":"OpenStreetMap/node/9991322271","sourceUpdatedAt":null,"verifiedAt":null}},{"type":"Feature","geometry":{"type":"Point","coordinates":[11.6144804,48.0620962]},"properties":{"id":"bikerack:c820fc6c-f8e3-4e13-ab9f-b11718f8cfc1","kind":"bikerack","longitude":11.6144804,"latitude":48.0620962,"name":"Fahrradabstellplatz","city":"Unterhaching","address":null,"covered":false,"access":null,"website":null,"phone":null,"source":"OpenStreetMap/node/3798458689","sourceUpdatedAt":null,"verifiedAt":null}},{"type":"Feature","geometry":{"type":"Point","coordinates":[11.616104,48.0722522]},"properties":{"id":"bikerack:c8bd46b7-815b-4b18-ad8c-39c6797da4ea","kind":"bikerack","longitude":11.616104,"latitude":48.0722522,"name":"Fahrradabstellplatz","city":"Unterhaching","address":null,"covered":true,"access":null,"website":null,"phone":null,"source":"OpenStreetMap/node/12122818805","sourceUpdatedAt":null,"verifiedAt":null}},{"type":"Feature","geometry":{"type":"Point","coordinates":[11.6235478,48.0493168]},"properties":{"id":"bikerack:cdb239e7-6631-41ae-943e-416824dbc9bd","kind":"bikerack","longitude":11.6235478,"latitude":48.0493168,"name":"Fahrradabstellplatz","city":"Taufkirchen","address":null,"covered":false,"access":null,"website":null,"phone":null,"source":"OpenStreetMap/node/13375398350","sourceUpdatedAt":null,"verifiedAt":null}},{"type":"Feature","geometry":{"type":"Point","coordinates":[11.6187518,48.0778878]},"properties":{"id":"bikerack:ce2275fd-4660-4d06-a26d-a84e5cdf6507","kind":"bikerack","longitude":11.6187518,"latitude":48.0778878,"name":"Fahrradabstellplatz","city":"Unterhaching","address":null,"covered":true,"access":null,"website":null,"phone":null,"source":"OpenStreetMap/node/3672979091","sourceUpdatedAt":null,"verifiedAt":null}},{"type":"Feature","geometry":{"type":"Point","coordinates":[11.6108966,48.0658693]},"properties":{"id":"bikerack:d16a2f16-d1ca-4210-b29c-a6eab58f0796","kind":"bikerack","longitude":11.6108966,"latitude":48.0658693,"name":"Fahrradabstellplatz","city":"Unterhaching","address":null,"covered":false,"access":null,"website":null,"phone":null,"source":"OpenStreetMap/node/8930614141","sourceUpdatedAt":null,"verifiedAt":null}},{"type":"Feature","geometry":{"type":"Point","coordinates":[11.6341859,48.0774861]},"properties":{"id":"bikerack:d24dfbf6-9a33-463c-8c5f-984f710808b6","kind":"bikerack","longitude":11.6341859,"latitude":48.0774861,"name":"Fahrradabstellplatz","city":"Unterhaching","address":null,"covered":false,"access":null,"website":null,"phone":null,"source":"OpenStreetMap/way/292951740","sourceUpdatedAt":null,"verifiedAt":null}},{"type":"Feature","geometry":{"type":"Point","coordinates":[11.6234711,48.049401]},"properties":{"id":"bikerack:d351ca41-c127-41a7-9cd5-bab1400b07a2","kind":"bikerack","longitude":11.6234711,"latitude":48.049401,"name":"Fahrradabstellplatz","city":"Taufkirchen","address":null,"covered":false,"access":null,"website":null,"phone":null,"source":"OpenStreetMap/node/13375404369","sourceUpdatedAt":null,"verifiedAt":null}},{"type":"Feature","geometry":{"type":"Point","coordinates":[11.6120513,48.0631391]},"properties":{"id":"bikerack:d4fac025-b0d9-4772-9e13-688419c98ac4","kind":"bikerack","longitude":11.6120513,"latitude":48.0631391,"name":"Fahrradabstellplatz","city":"Unterhaching","address":null,"covered":false,"access":null,"website":null,"phone":null,"source":"OpenStreetMap/node/8830468530","sourceUpdatedAt":null,"verifiedAt":null}},{"type":"Feature","geometry":{"type":"Point","coordinates":[11.6297075,48.0771936]},"properties":{"id":"bikerack:d756af46-dfc6-40ff-82df-f5b1cec31b99","kind":"bikerack","longitude":11.6297075,"latitude":48.0771936,"name":"Fahrradabstellplatz","city":"Unterhaching","address":null,"covered":false,"access":null,"website":null,"phone":null,"source":"OpenStreetMap/node/2973568680","sourceUpdatedAt":null,"verifiedAt":null}},{"type":"Feature","geometry":{"type":"Point","coordinates":[11.6130343,48.0659491]},"properties":{"id":"bikerack:d821d26e-22d9-423f-a1c7-10c7898070c2","kind":"bikerack","longitude":11.6130343,"latitude":48.0659491,"name":"Fahrradabstellplatz","city":"Unterhaching","address":null,"covered":false,"access":null,"website":null,"phone":null,"source":"OpenStreetMap/node/8932339958","sourceUpdatedAt":null,"verifiedAt":null}},{"type":"Feature","geometry":{"type":"Point","coordinates":[11.6328442,48.0776707]},"properties":{"id":"bikerack:d98995da-ce3d-46fe-ba50-8427f3f45c0b","kind":"bikerack","longitude":11.6328442,"latitude":48.0776707,"name":"Fahrradabstellplatz","city":"Unterhaching","address":null,"covered":false,"access":null,"website":null,"phone":null,"source":"OpenStreetMap/way/292951743","sourceUpdatedAt":null,"verifiedAt":null}},{"type":"Feature","geometry":{"type":"Point","coordinates":[11.6157842,48.0769455]},"properties":{"id":"bikerack:db02e962-0d7a-4032-b892-d4b4f549f65c","kind":"bikerack","longitude":11.6157842,"latitude":48.0769455,"name":"Fahrradabstellplatz","city":"Unterhaching","address":null,"covered":true,"access":null,"website":null,"phone":null,"source":"OpenStreetMap/node/10763268591","sourceUpdatedAt":null,"verifiedAt":null}},{"type":"Feature","geometry":{"type":"Point","coordinates":[11.6121085,48.0650039]},"properties":{"id":"bikerack:dbd9288f-e838-4a71-ba53-0fdc97da6e08","kind":"bikerack","longitude":11.6121085,"latitude":48.0650039,"name":"Unterhaching Bahnhof","city":"Unterhaching","address":null,"covered":true,"access":null,"website":null,"phone":null,"source":"OpenStreetMap/way/331068891","sourceUpdatedAt":null,"verifiedAt":null}},{"type":"Feature","geometry":{"type":"Point","coordinates":[11.6088938,48.0512513]},"properties":{"id":"bikerack:e1b50c8b-809e-43a2-80eb-5df193b32944","kind":"bikerack","longitude":11.6088938,"latitude":48.0512513,"name":"Taufkirchen (S)","city":"Taufkirchen","address":null,"covered":true,"access":null,"website":null,"phone":null,"source":"OpenStreetMap/way/337364455","sourceUpdatedAt":null,"verifiedAt":null}},{"type":"Feature","geometry":{"type":"Point","coordinates":[11.6447465,48.077905]},"properties":{"id":"bikerack:e4967d07-de53-4a55-9558-081088a28827","kind":"bikerack","longitude":11.6447465,"latitude":48.077905,"name":"Fahrradabstellplatz","city":"Neubiberg","address":null,"covered":false,"access":null,"website":null,"phone":null,"source":"OpenStreetMap/node/12478854953","sourceUpdatedAt":null,"verifiedAt":null}},{"type":"Feature","geometry":{"type":"Point","coordinates":[11.6143773,48.0600783]},"properties":{"id":"bikerack:e49c297b-afc2-47f3-8a14-ebaceed76783","kind":"bikerack","longitude":11.6143773,"latitude":48.0600783,"name":"Fahrradabstellplatz","city":"Unterhaching","address":null,"covered":true,"access":null,"website":null,"phone":null,"source":"OpenStreetMap/way/359733161","sourceUpdatedAt":null,"verifiedAt":null}},{"type":"Feature","geometry":{"type":"Point","coordinates":[11.6131342,48.065945]},"properties":{"id":"bikerack:e4ec2b77-d4a8-4052-8678-9331c139cc73","kind":"bikerack","longitude":11.6131342,"latitude":48.065945,"name":"Fahrradabstellplatz","city":"Unterhaching","address":null,"covered":false,"access":null,"website":null,"phone":null,"source":"OpenStreetMap/node/8932339959","sourceUpdatedAt":null,"verifiedAt":null}},{"type":"Feature","geometry":{"type":"Point","coordinates":[11.6138912,48.0707368]},"properties":{"id":"bikerack:e91be87c-24fb-4211-aa8e-6e6f128f5885","kind":"bikerack","longitude":11.6138912,"latitude":48.0707368,"name":"Fahrradabstellplatz","city":"Unterhaching","address":null,"covered":false,"access":null,"website":null,"phone":null,"source":"OpenStreetMap/node/5653567921","sourceUpdatedAt":null,"verifiedAt":null}},{"type":"Feature","geometry":{"type":"Point","coordinates":[11.6303977,48.0762192]},"properties":{"id":"bikerack:edaed219-37f6-45fe-a77a-5bd4e8f58677","kind":"bikerack","longitude":11.6303977,"latitude":48.0762192,"name":"Fahrradabstellplatz","city":"Unterhaching","address":null,"covered":false,"access":null,"website":null,"phone":null,"source":"OpenStreetMap/node/9017042473","sourceUpdatedAt":null,"verifiedAt":null}},{"type":"Feature","geometry":{"type":"Point","coordinates":[11.6137344,48.0502058]},"properties":{"id":"bikerack:eec713e8-a6ea-472c-b0e2-be38dacbe53a","kind":"bikerack","longitude":11.6137344,"latitude":48.0502058,"name":"Fahrradabstellplatz","city":"Taufkirchen","address":null,"covered":false,"access":null,"website":null,"phone":null,"source":"OpenStreetMap/node/9762080065","sourceUpdatedAt":null,"verifiedAt":null}},{"type":"Feature","geometry":{"type":"Point","coordinates":[11.6269534,48.0547658]},"properties":{"id":"bikerack:ef4de187-e5d8-45e9-8af7-d8fa515c9f17","kind":"bikerack","longitude":11.6269534,"latitude":48.0547658,"name":"Fahrradabstellplatz","city":"Taufkirchen","address":null,"covered":false,"access":null,"website":null,"phone":null,"source":"OpenStreetMap/node/13513811355","sourceUpdatedAt":null,"verifiedAt":null}},{"type":"Feature","geometry":{"type":"Point","coordinates":[11.6141446,48.0608854]},"properties":{"id":"bikerack:f0f84a4d-c881-4e2f-a31f-063bbda69b82","kind":"bikerack","longitude":11.6141446,"latitude":48.0608854,"name":"Fahrradabstellplatz","city":"Unterhaching","address":null,"covered":false,"access":null,"website":null,"phone":null,"source":"OpenStreetMap/way/1443309773","sourceUpdatedAt":null,"verifiedAt":null}},{"type":"Feature","geometry":{"type":"Point","coordinates":[11.6155534,48.0723017]},"properties":{"id":"bikerack:f8ee61a2-8047-45bc-8dc8-1a134a1d0ac9","kind":"bikerack","longitude":11.6155534,"latitude":48.0723017,"name":"Fahrradabstellplatz","city":"Unterhaching","address":null,"covered":true,"access":null,"website":null,"phone":null,"source":"OpenStreetMap/node/12122761200","sourceUpdatedAt":null,"verifiedAt":null}},{"type":"Feature","geometry":{"type":"Point","coordinates":[11.6132576,48.0659078]},"properties":{"id":"bikerack:fb0490cc-9d97-4d12-8594-221e4c684ff5","kind":"bikerack","longitude":11.6132576,"latitude":48.0659078,"name":"Fahrradabstellplatz","city":"Unterhaching","address":null,"covered":false,"access":null,"website":null,"phone":null,"source":"OpenStreetMap/node/8932339957","sourceUpdatedAt":null,"verifiedAt":null}},{"type":"Feature","geometry":{"type":"Point","coordinates":[11.6128065,48.0709721]},"properties":{"id":"bikerack:fc7549bb-f5b2-4ca8-b6a1-f7e1722aaaa2","kind":"bikerack","longitude":11.6128065,"latitude":48.0709721,"name":"Fahrradabstellplatz","city":"Unterhaching","address":null,"covered":false,"access":null,"website":null,"phone":null,"source":"OpenStreetMap/node/5626778064","sourceUpdatedAt":null,"verifiedAt":null}},{"type":"Feature","geometry":{"type":"Point","coordinates":[11.6153398,48.0723966]},"properties":{"id":"bikerack:ff6d8880-1062-4c69-87d4-a10dcf362c27","kind":"bikerack","longitude":11.6153398,"latitude":48.0723966,"name":"Fahrradabstellplatz","city":"Unterhaching","address":null,"covered":false,"access":null,"website":null,"phone":null,"source":"OpenStreetMap/node/12122761198","sourceUpdatedAt":null,"verifiedAt":null}},{"type":"Feature","geometry":{"type":"Point","coordinates":[11.6130175,48.0653056]},"properties":{"id":"repair:033d4355-0ee0-40ac-960a-3d08c8ee8fc4","kind":"repair","longitude":11.6130175,"latitude":48.0653056,"name":"Fahrradreparaturstation","city":"Unterhaching","address":null,"covered":false,"access":null,"website":null,"phone":null,"source":"OpenStreetMap/node/11749823434","sourceUpdatedAt":null,"verifiedAt":null}},{"type":"Feature","geometry":{"type":"Point","coordinates":[11.6100785,48.0659562]},"properties":{"id":"repair:516edc33-8737-46f6-af8f-7b20527e4b5d","kind":"repair","longitude":11.6100785,"latitude":48.0659562,"name":"Fahrradreparaturstation","city":"Unterhaching","address":null,"covered":false,"access":null,"website":null,"phone":null,"source":"OpenStreetMap/node/9955179390","sourceUpdatedAt":null,"verifiedAt":null}},{"type":"Feature","geometry":{"type":"Point","coordinates":[11.6094728,48.0513083]},"properties":{"id":"repair:5cbb99b3-841c-4948-b1f2-d9a3c94384e3","kind":"repair","longitude":11.6094728,"latitude":48.0513083,"name":"Fahrradreparaturstation","city":"Taufkirchen","address":null,"covered":false,"access":null,"website":null,"phone":null,"source":"OpenStreetMap/node/9469170595","sourceUpdatedAt":null,"verifiedAt":null}},{"type":"Feature","geometry":{"type":"Point","coordinates":[11.6077673,48.0561073]},"properties":{"id":"service:311b7fcd-4fb3-48ed-9fbd-8e8b0954b272","kind":"service","longitude":11.6077673,"latitude":48.0561073,"name":"Amazing Shop","city":"Unterhaching","address":null,"covered":null,"access":null,"website":null,"phone":null,"source":"OpenStreetMap/node/554675288","sourceUpdatedAt":null,"verifiedAt":null}},{"type":"Feature","geometry":{"type":"Point","coordinates":[11.6219896,48.0620663]},"properties":{"id":"service:4fb92102-ebab-4754-8c7f-40d97c09d715","kind":"service","longitude":11.6219896,"latitude":48.0620663,"name":"Mybikestore","city":"Unterhaching","address":null,"covered":null,"access":null,"website":null,"phone":null,"source":"OpenStreetMap/node/5197891821","sourceUpdatedAt":null,"verifiedAt":null}},{"type":"Feature","geometry":{"type":"Point","coordinates":[11.6189407,48.0590194]},"properties":{"id":"service:5a64900b-8bc6-4590-b187-c560bc869cb1","kind":"service","longitude":11.6189407,"latitude":48.0590194,"name":"Ole Velo - Der Fahrradladen","city":"Unterhaching","address":null,"covered":null,"access":null,"website":null,"phone":null,"source":"OpenStreetMap/node/3873175784","sourceUpdatedAt":null,"verifiedAt":null}},{"type":"Feature","geometry":{"type":"Point","coordinates":[11.6280072,48.06037]},"properties":{"id":"service:7217f857-c72e-4695-a40c-9d26c8e98ee2","kind":"service","longitude":11.6280072,"latitude":48.06037,"name":"e-bikes Apelt","city":"Unterhaching","address":null,"covered":null,"access":null,"website":null,"phone":null,"source":"OpenStreetMap/node/3631506419","sourceUpdatedAt":null,"verifiedAt":null}},{"type":"Feature","geometry":{"type":"Point","coordinates":[11.6065546,48.0694165]},"properties":{"id":"service:b5c3dc90-b140-4977-8758-b1acdb6a21e1","kind":"service","longitude":11.6065546,"latitude":48.0694165,"name":"Elektrorad-Zentrale Werkstatt","city":"Unterhaching","address":null,"covered":null,"access":null,"website":null,"phone":null,"source":"OpenStreetMap/node/6585034074","sourceUpdatedAt":null,"verifiedAt":null}},{"type":"Feature","geometry":{"type":"Point","coordinates":[11.6100405,48.0687006]},"properties":{"id":"service:f944bd26-4985-401b-a17d-ae8997c0bb9f","kind":"service","longitude":11.6100405,"latitude":48.0687006,"name":"Elektrorad-Zentrale","city":"Unterhaching","address":null,"covered":null,"access":null,"website":null,"phone":null,"source":"OpenStreetMap/node/2627023623","sourceUpdatedAt":null,"verifiedAt":null}}]}