{"type":"FeatureCollection","features":[{"type":"Feature","geometry":{"type":"Point","coordinates":[11.6244573,47.2101308]},"properties":{"id":"bikerack:58188a65-b802-4a22-9994-aa0face79dc8","kind":"bikerack","longitude":11.6244573,"latitude":47.2101308,"name":"Biciklitároló","city":"Kolsass","address":null,"covered":true,"access":null,"website":null,"phone":null,"source":"OpenStreetMap/node/2998122246","sourceUpdatedAt":null,"verifiedAt":null}},{"type":"Feature","geometry":{"type":"Point","coordinates":[11.641107,47.1972925]},"properties":{"id":"water:688924b9-fe97-4cfe-9e64-5162c09eb0a7","kind":"water","longitude":11.641107,"latitude":47.1972925,"name":"Ivókút","city":"Kolsass","address":null,"covered":null,"access":null,"website":null,"phone":null,"source":"OpenStreetMap/node/1398649450","sourceUpdatedAt":null,"verifiedAt":null}},{"type":"Feature","geometry":{"type":"Point","coordinates":[11.64173,47.1988657]},"properties":{"id":"water:b23974c1-8189-49f2-a8fe-5725262b47d1","kind":"water","longitude":11.64173,"latitude":47.1988657,"name":"Ivókút","city":"Kolsass","address":null,"covered":null,"access":null,"website":null,"phone":null,"source":"OpenStreetMap/node/1398649455","sourceUpdatedAt":null,"verifiedAt":null}},{"type":"Feature","geometry":{"type":"Point","coordinates":[11.6116246,47.1998874]},"properties":{"id":"water:be727258-3c98-4576-9c48-f6071dde5535","kind":"water","longitude":11.6116246,"latitude":47.1998874,"name":"Ivókút","city":"Wattenberg","address":null,"covered":null,"access":null,"website":null,"phone":null,"source":"OpenStreetMap/node/1779313529","sourceUpdatedAt":null,"verifiedAt":null}}]}