{"type":"FeatureCollection","features":[{"type":"Feature","geometry":{"type":"Point","coordinates":[14.0442246,52.8666152]},"properties":{"id":"bikerack:0b45b148-ac1a-4f3d-8e57-7bf39dbccdca","kind":"bikerack","longitude":14.0442246,"latitude":52.8666152,"name":"Fahrradabstellplatz","city":"Oderberg","address":null,"covered":false,"access":null,"website":null,"phone":null,"source":"OpenStreetMap/node/12539168109","sourceUpdatedAt":null,"verifiedAt":null}},{"type":"Feature","geometry":{"type":"Point","coordinates":[14.0439406,52.8669264]},"properties":{"id":"bikerack:1ee5a62a-c6a4-4540-b802-b4e4b1042062","kind":"bikerack","longitude":14.0439406,"latitude":52.8669264,"name":"Fahrradabstellplatz","city":"Oderberg","address":null,"covered":false,"access":null,"website":null,"phone":null,"source":"OpenStreetMap/node/12539168106","sourceUpdatedAt":null,"verifiedAt":null}},{"type":"Feature","geometry":{"type":"Point","coordinates":[14.0298187,52.8638507]},"properties":{"id":"bikerack:37673669-c47c-46a0-aa6c-61bcbe5bd784","kind":"bikerack","longitude":14.0298187,"latitude":52.8638507,"name":"Fahrradabstellplatz","city":"Oderberg","address":null,"covered":false,"access":null,"website":null,"phone":null,"source":"OpenStreetMap/node/12595677093","sourceUpdatedAt":null,"verifiedAt":null}},{"type":"Feature","geometry":{"type":"Point","coordinates":[14.0448166,52.865711]},"properties":{"id":"bikerack:49b67c5c-09b9-44fc-8987-59a6e55590a3","kind":"bikerack","longitude":14.0448166,"latitude":52.865711,"name":"Fahrradabstellplatz","city":"Oderberg","address":null,"covered":false,"access":null,"website":null,"phone":null,"source":"OpenStreetMap/node/12554820384","sourceUpdatedAt":null,"verifiedAt":null}},{"type":"Feature","geometry":{"type":"Point","coordinates":[14.0559647,52.8755949]},"properties":{"id":"bikerack:83c64e00-cfdf-4322-ac7f-11257597fba3","kind":"bikerack","longitude":14.0559647,"latitude":52.8755949,"name":"Fahrradabstellplatz","city":"Oderberg","address":null,"covered":false,"access":null,"website":null,"phone":null,"source":"OpenStreetMap/node/12582392299","sourceUpdatedAt":null,"verifiedAt":null}},{"type":"Feature","geometry":{"type":"Point","coordinates":[14.0585052,52.8721315]},"properties":{"id":"bikerack:87282276-4db0-4d86-aded-c4e7ba0fd4af","kind":"bikerack","longitude":14.0585052,"latitude":52.8721315,"name":"Fahrradabstellplatz","city":"Oderberg","address":null,"covered":false,"access":null,"website":null,"phone":null,"source":"OpenStreetMap/node/12578296436","sourceUpdatedAt":null,"verifiedAt":null}},{"type":"Feature","geometry":{"type":"Point","coordinates":[14.0445112,52.8659427]},"properties":{"id":"bikerack:879c0472-f304-4edb-bb91-85f0141f6b6d","kind":"bikerack","longitude":14.0445112,"latitude":52.8659427,"name":"Fahrradabstellplatz","city":"Oderberg","address":null,"covered":false,"access":null,"website":null,"phone":null,"source":"OpenStreetMap/node/12543319004","sourceUpdatedAt":null,"verifiedAt":null}},{"type":"Feature","geometry":{"type":"Point","coordinates":[14.040485,52.8651824]},"properties":{"id":"bikerack:8fe76b02-6ba0-4294-b206-c5c80d1ef0cc","kind":"bikerack","longitude":14.040485,"latitude":52.8651824,"name":"Fahrradabstellplatz","city":"Oderberg","address":null,"covered":false,"access":null,"website":null,"phone":null,"source":"OpenStreetMap/node/12539658408","sourceUpdatedAt":null,"verifiedAt":null}},{"type":"Feature","geometry":{"type":"Point","coordinates":[14.0521158,52.8766371]},"properties":{"id":"bikerack:a5eafffa-b741-4ba8-8e63-24064ce513a7","kind":"bikerack","longitude":14.0521158,"latitude":52.8766371,"name":"Fahrradabstellplatz","city":"Oderberg","address":null,"covered":false,"access":null,"website":null,"phone":null,"source":"OpenStreetMap/node/12567444303","sourceUpdatedAt":null,"verifiedAt":null}},{"type":"Feature","geometry":{"type":"Point","coordinates":[14.0551041,52.8758353]},"properties":{"id":"bikerack:ab140790-38be-4467-8e0e-7169b3537d79","kind":"bikerack","longitude":14.0551041,"latitude":52.8758353,"name":"Fahrradabstellplatz","city":"Oderberg","address":null,"covered":false,"access":null,"website":null,"phone":null,"source":"OpenStreetMap/way/1366184576","sourceUpdatedAt":null,"verifiedAt":null}},{"type":"Feature","geometry":{"type":"Point","coordinates":[14.0462109,52.8635258]},"properties":{"id":"bikerack:b4ff7ac1-2ec3-40e2-9757-0acd640714fb","kind":"bikerack","longitude":14.0462109,"latitude":52.8635258,"name":"Fahrradabstellplatz","city":"Oderberg","address":null,"covered":false,"access":null,"website":null,"phone":null,"source":"OpenStreetMap/node/12116921775","sourceUpdatedAt":null,"verifiedAt":null}},{"type":"Feature","geometry":{"type":"Point","coordinates":[14.0462285,52.8633246]},"properties":{"id":"bikerack:c68bc658-53ca-4e0d-9b63-aa137941a82c","kind":"bikerack","longitude":14.0462285,"latitude":52.8633246,"name":"Fahrradabstellplatz","city":"Oderberg","address":null,"covered":false,"access":null,"website":null,"phone":null,"source":"OpenStreetMap/node/12116921781","sourceUpdatedAt":null,"verifiedAt":null}},{"type":"Feature","geometry":{"type":"Point","coordinates":[14.0581896,52.8720827]},"properties":{"id":"bikerack:c8c4736a-d58f-4a32-b30f-1894c79835c2","kind":"bikerack","longitude":14.0581896,"latitude":52.8720827,"name":"Fahrradabstellplatz","city":"Oderberg","address":null,"covered":false,"access":null,"website":null,"phone":null,"source":"OpenStreetMap/node/12578296435","sourceUpdatedAt":null,"verifiedAt":null}},{"type":"Feature","geometry":{"type":"Point","coordinates":[14.0543281,52.8750947]},"properties":{"id":"bikerack:d65c64e5-1f62-4f4e-96da-d21b3510f46f","kind":"bikerack","longitude":14.0543281,"latitude":52.8750947,"name":"Fahrradabstellplatz","city":"Oderberg","address":null,"covered":false,"access":null,"website":null,"phone":null,"source":"OpenStreetMap/node/12526447684","sourceUpdatedAt":null,"verifiedAt":null}},{"type":"Feature","geometry":{"type":"Point","coordinates":[14.0451268,52.8638464]},"properties":{"id":"bikerack:d7fa9167-9587-4877-a3c6-1021b6d389ff","kind":"bikerack","longitude":14.0451268,"latitude":52.8638464,"name":"Fahrradabstellplatz","city":"Oderberg","address":null,"covered":false,"access":null,"website":null,"phone":null,"source":"OpenStreetMap/node/12117919323","sourceUpdatedAt":null,"verifiedAt":null}},{"type":"Feature","geometry":{"type":"Point","coordinates":[14.0403753,52.8589128]},"properties":{"id":"bikerack:defd2739-6092-4f81-a086-bc031ab03910","kind":"bikerack","longitude":14.0403753,"latitude":52.8589128,"name":"Fahrradabstellplatz","city":"Oderberg","address":null,"covered":false,"access":null,"website":null,"phone":null,"source":"OpenStreetMap/node/12621382665","sourceUpdatedAt":null,"verifiedAt":null}},{"type":"Feature","geometry":{"type":"Point","coordinates":[14.0559291,52.8741296]},"properties":{"id":"bikerack:e49e649d-2fdb-426f-81b5-b5b85ea2259a","kind":"bikerack","longitude":14.0559291,"latitude":52.8741296,"name":"Fahrradabstellplatz","city":"Oderberg","address":null,"covered":false,"access":null,"website":null,"phone":null,"source":"OpenStreetMap/node/12580141246","sourceUpdatedAt":null,"verifiedAt":null}},{"type":"Feature","geometry":{"type":"Point","coordinates":[14.0520624,52.8766131]},"properties":{"id":"bikerack:eb8fcc1e-46e6-4984-bfae-7670dcf4314d","kind":"bikerack","longitude":14.0520624,"latitude":52.8766131,"name":"Fahrradabstellplatz","city":"Oderberg","address":null,"covered":false,"access":null,"website":null,"phone":null,"source":"OpenStreetMap/node/12567444302","sourceUpdatedAt":null,"verifiedAt":null}},{"type":"Feature","geometry":{"type":"Point","coordinates":[14.0440991,52.86585]},"properties":{"id":"bikerack:fb1f8dc0-74d1-4f3b-bb17-f2ee59a65c05","kind":"bikerack","longitude":14.0440991,"latitude":52.86585,"name":"Fahrradabstellplatz","city":"Oderberg","address":null,"covered":false,"access":null,"website":null,"phone":null,"source":"OpenStreetMap/node/12529594284","sourceUpdatedAt":null,"verifiedAt":null}}]}