{"type":"FeatureCollection","features":[{"type":"Feature","geometry":{"type":"Point","coordinates":[21.5718976,47.8796258]},"properties":{"id":"water:2c3333a1-87d2-4e42-928f-153abdaed874","kind":"water","longitude":21.5718976,"latitude":47.8796258,"name":"Ivókút","city":null,"address":null,"covered":null,"access":null,"website":null,"phone":null,"source":"OpenStreetMap","sourceUpdatedAt":null,"verifiedAt":null}},{"type":"Feature","geometry":{"type":"Point","coordinates":[21.5769287,47.881554]},"properties":{"id":"water:2eaf1106-0ec1-4879-82d4-4181697ae3a9","kind":"water","longitude":21.5769287,"latitude":47.881554,"name":"Ivókút","city":null,"address":null,"covered":null,"access":null,"website":null,"phone":null,"source":"OpenStreetMap","sourceUpdatedAt":null,"verifiedAt":null}},{"type":"Feature","geometry":{"type":"Point","coordinates":[21.5746347,47.8806789]},"properties":{"id":"water:c01d508e-685e-4439-8d01-c64baf42b122","kind":"water","longitude":21.5746347,"latitude":47.8806789,"name":"Ivókút","city":null,"address":null,"covered":null,"access":null,"website":null,"phone":null,"source":"OpenStreetMap","sourceUpdatedAt":null,"verifiedAt":null}}]}