{"type":"FeatureCollection","features":[{"type":"Feature","geometry":{"type":"Point","coordinates":[18.2477442,48.6233387]},"properties":{"id":"bikerack:69d67df1-fae0-48f3-9b55-cc2defb4c49a","kind":"bikerack","longitude":18.2477442,"latitude":48.6233387,"name":"Biciklitároló","city":"Banovce nad Bebravou","address":null,"covered":false,"access":null,"website":null,"phone":null,"source":"OpenStreetMap/node/10761716259","sourceUpdatedAt":null,"verifiedAt":null}},{"type":"Feature","geometry":{"type":"Point","coordinates":[18.2483338,48.6228882]},"properties":{"id":"bikerack:98440297-f223-43ac-95ba-1584a07f5894","kind":"bikerack","longitude":18.2483338,"latitude":48.6228882,"name":"Biciklitároló","city":"Banovce nad Bebravou","address":null,"covered":false,"access":null,"website":null,"phone":null,"source":"OpenStreetMap/node/10761716223","sourceUpdatedAt":null,"verifiedAt":null}},{"type":"Feature","geometry":{"type":"Point","coordinates":[18.2503713,48.6208676]},"properties":{"id":"bikerack:a2568ddf-738b-48e4-b8fd-812ed4e2eda0","kind":"bikerack","longitude":18.2503713,"latitude":48.6208676,"name":"Biciklitároló","city":"Banovce nad Bebravou","address":null,"covered":false,"access":null,"website":null,"phone":null,"source":"OpenStreetMap/node/10761716253","sourceUpdatedAt":null,"verifiedAt":null}},{"type":"Feature","geometry":{"type":"Point","coordinates":[18.2498685,48.621529]},"properties":{"id":"bikerack:cbda83c4-ed03-44a0-9cd4-a5346ca0b48d","kind":"bikerack","longitude":18.2498685,"latitude":48.621529,"name":"Biciklitároló","city":"Banovce nad Bebravou","address":null,"covered":false,"access":null,"website":null,"phone":null,"source":"OpenStreetMap/node/10761716232","sourceUpdatedAt":null,"verifiedAt":null}}]}