{"type":"FeatureCollection","features":[{"type":"Feature","geometry":{"type":"Point","coordinates":[18.2700319,45.8718064]},"properties":{"id":"bikerack:a54de44a-ae9a-41f0-9a5f-5f248720afb5","kind":"bikerack","longitude":18.2700319,"latitude":45.8718064,"name":"Biciklitároló","city":"Siklos","address":null,"covered":false,"access":null,"website":null,"phone":null,"source":"OpenStreetMap/node/8862269462","sourceUpdatedAt":null,"verifiedAt":null}},{"type":"Feature","geometry":{"type":"Point","coordinates":[18.273124,45.877138]},"properties":{"id":"water:33e57a79-4c9f-4ae7-bc3c-cc3a80877e59","kind":"water","longitude":18.273124,"latitude":45.877138,"name":"Ivókút","city":null,"address":null,"covered":null,"access":null,"website":null,"phone":null,"source":"OpenStreetMap","sourceUpdatedAt":null,"verifiedAt":null}},{"type":"Feature","geometry":{"type":"Point","coordinates":[18.2723704,45.8788739]},"properties":{"id":"water:37296513-d5f5-4aaf-9550-62fc8a1979df","kind":"water","longitude":18.2723704,"latitude":45.8788739,"name":"Ivókút","city":null,"address":null,"covered":null,"access":null,"website":null,"phone":null,"source":"OpenStreetMap","sourceUpdatedAt":null,"verifiedAt":null}},{"type":"Feature","geometry":{"type":"Point","coordinates":[18.2692031,45.8781909]},"properties":{"id":"water:7740d547-6490-4b34-935d-ea54c3fdf301","kind":"water","longitude":18.2692031,"latitude":45.8781909,"name":"Ivókút","city":null,"address":null,"covered":null,"access":null,"website":null,"phone":null,"source":"OpenStreetMap","sourceUpdatedAt":null,"verifiedAt":null}},{"type":"Feature","geometry":{"type":"Point","coordinates":[18.2741149,45.8785314]},"properties":{"id":"water:eeb971b4-0cb1-4911-a9fd-4e1506cc4b58","kind":"water","longitude":18.2741149,"latitude":45.8785314,"name":"Zarándok-kút","city":null,"address":null,"covered":null,"access":null,"website":null,"phone":null,"source":"OpenStreetMap","sourceUpdatedAt":null,"verifiedAt":null}},{"type":"Feature","geometry":{"type":"Point","coordinates":[18.2673492,45.876913]},"properties":{"id":"water:f77e7d94-3c62-4aaf-8876-7734d998317e","kind":"water","longitude":18.2673492,"latitude":45.876913,"name":"Ivókút","city":"Siklos","address":null,"covered":null,"access":null,"website":null,"phone":null,"source":"OpenStreetMap/node/13652793119","sourceUpdatedAt":null,"verifiedAt":null}}]}