{"type":"FeatureCollection","features":[{"type":"Feature","geometry":{"type":"Point","coordinates":[20.9990761,48.243272]},"properties":{"id":"bikerack:0074493c-f656-4806-87cc-835e61c8db27","kind":"bikerack","longitude":20.9990761,"latitude":48.243272,"name":"Biciklitároló","city":"Halmaj","address":null,"covered":false,"access":null,"website":null,"phone":null,"source":"OpenStreetMap/node/11093822627","sourceUpdatedAt":null,"verifiedAt":null}},{"type":"Feature","geometry":{"type":"Point","coordinates":[20.998085,48.2436123]},"properties":{"id":"bikerack:1b12bc39-0920-4db2-afb5-14e01d6f93a3","kind":"bikerack","longitude":20.998085,"latitude":48.2436123,"name":"Biciklitároló","city":"Halmaj","address":null,"covered":false,"access":null,"website":null,"phone":null,"source":"OpenStreetMap/node/11093822618","sourceUpdatedAt":null,"verifiedAt":null}},{"type":"Feature","geometry":{"type":"Point","coordinates":[21.0018964,48.2419323]},"properties":{"id":"bikerack:9bfd585b-5044-4366-a4dd-b97e4507d70f","kind":"bikerack","longitude":21.0018964,"latitude":48.2419323,"name":"Biciklitároló","city":"Halmaj","address":null,"covered":false,"access":null,"website":null,"phone":null,"source":"OpenStreetMap/node/11093822637","sourceUpdatedAt":null,"verifiedAt":null}},{"type":"Feature","geometry":{"type":"Point","coordinates":[20.998684,48.245528]},"properties":{"id":"water:172ed8d2-1d0d-4f76-b58e-98e4d6b7eabc","kind":"water","longitude":20.998684,"latitude":48.245528,"name":"Ivókút","city":null,"address":null,"covered":null,"access":null,"website":null,"phone":null,"source":"OpenStreetMap","sourceUpdatedAt":null,"verifiedAt":null}}]}