{"type":"FeatureCollection","features":[{"type":"Feature","geometry":{"type":"Point","coordinates":[9.3587677,52.4635142]},"properties":{"id":"bikerack:62e289c0-384b-44a6-9614-fbd378a11b8a","kind":"bikerack","longitude":9.3587677,"latitude":52.4635142,"name":"Fahrradabstellplatz","city":"Hagenburg","address":null,"covered":false,"access":null,"website":null,"phone":null,"source":"OpenStreetMap/node/8729202767","sourceUpdatedAt":null,"verifiedAt":null}},{"type":"Feature","geometry":{"type":"Point","coordinates":[9.3588193,52.4634231]},"properties":{"id":"bikerack:7caa7832-1e0d-4a5e-80ac-9c3a2579201a","kind":"bikerack","longitude":9.3588193,"latitude":52.4634231,"name":"Fahrradabstellplatz","city":"Hagenburg","address":null,"covered":false,"access":null,"website":null,"phone":null,"source":"OpenStreetMap/node/8729202764","sourceUpdatedAt":null,"verifiedAt":null}},{"type":"Feature","geometry":{"type":"Point","coordinates":[9.3589803,52.4634198]},"properties":{"id":"bikerack:d8fe4b1c-c0e6-4a22-a595-3054f8099f5f","kind":"bikerack","longitude":9.3589803,"latitude":52.4634198,"name":"Fahrradabstellplatz","city":"Hagenburg","address":null,"covered":false,"access":null,"website":null,"phone":null,"source":"OpenStreetMap/node/8729202766","sourceUpdatedAt":null,"verifiedAt":null}}]}