{"type":"FeatureCollection","features":[{"type":"Feature","geometry":{"type":"Point","coordinates":[9.3413117,47.2007959]},"properties":{"id":"bikerack:5eb9c881-e376-4cef-b1e7-1a4453b952a1","kind":"bikerack","longitude":9.3413117,"latitude":47.2007959,"name":"Bicycle Parking","city":"Wildhaus","address":null,"covered":false,"access":null,"website":null,"phone":null,"source":"OpenStreetMap/node/12090580982","sourceUpdatedAt":null,"verifiedAt":null}},{"type":"Feature","geometry":{"type":"Point","coordinates":[9.3565612,47.2178805]},"properties":{"id":"water:2234fba8-4e27-49f9-920f-aebc820732ec","kind":"water","longitude":9.3565612,"latitude":47.2178805,"name":"Drinking Fountain","city":"Wildhaus","address":null,"covered":null,"access":null,"website":null,"phone":null,"source":"OpenStreetMap/node/9863981277","sourceUpdatedAt":null,"verifiedAt":null}},{"type":"Feature","geometry":{"type":"Point","coordinates":[9.3565676,47.2179062]},"properties":{"id":"water:23903278-169f-4857-bc01-d389bee208ff","kind":"water","longitude":9.3565676,"latitude":47.2179062,"name":"Drinking Fountain","city":"Wildhaus","address":null,"covered":null,"access":null,"website":null,"phone":null,"source":"OpenStreetMap/node/11716089826","sourceUpdatedAt":null,"verifiedAt":null}},{"type":"Feature","geometry":{"type":"Point","coordinates":[9.3564248,47.2157688]},"properties":{"id":"water:a0c2d4a1-7866-4c9e-b6b4-3b14343329e5","kind":"water","longitude":9.3564248,"latitude":47.2157688,"name":"Drinking Fountain","city":"Wildhaus","address":null,"covered":null,"access":null,"website":null,"phone":null,"source":"OpenStreetMap/node/12117144409","sourceUpdatedAt":null,"verifiedAt":null}},{"type":"Feature","geometry":{"type":"Point","coordinates":[9.3450633,47.1916888]},"properties":{"id":"water:b54bf221-09bf-41bd-96c3-ecee4bb6940a","kind":"water","longitude":9.3450633,"latitude":47.1916888,"name":"Drinking Fountain","city":"Wildhaus","address":null,"covered":null,"access":null,"website":null,"phone":null,"source":"OpenStreetMap/node/4349727783","sourceUpdatedAt":null,"verifiedAt":null}},{"type":"Feature","geometry":{"type":"Point","coordinates":[9.3553833,47.2091774]},"properties":{"id":"water:bf1673b5-36fb-4f8f-b05f-f190ffc476a1","kind":"water","longitude":9.3553833,"latitude":47.2091774,"name":"Drinking Fountain","city":"Wildhaus","address":null,"covered":null,"access":null,"website":null,"phone":null,"source":"OpenStreetMap/node/8974240898","sourceUpdatedAt":null,"verifiedAt":null}},{"type":"Feature","geometry":{"type":"Point","coordinates":[9.3535001,47.2159295]},"properties":{"id":"water:c60e23ce-209e-4ed2-a843-26420071622e","kind":"water","longitude":9.3535001,"latitude":47.2159295,"name":"Drinking Fountain","city":"Wildhaus","address":null,"covered":null,"access":null,"website":null,"phone":null,"source":"OpenStreetMap/node/9864008451","sourceUpdatedAt":null,"verifiedAt":null}},{"type":"Feature","geometry":{"type":"Point","coordinates":[9.351283,47.203469]},"properties":{"id":"water:dadfe22d-db4c-4c8c-a50d-b4e334dda219","kind":"water","longitude":9.351283,"latitude":47.203469,"name":"Drinking Fountain","city":"Wildhaus","address":null,"covered":null,"access":null,"website":null,"phone":null,"source":"OpenStreetMap/node/6516222671","sourceUpdatedAt":null,"verifiedAt":null}},{"type":"Feature","geometry":{"type":"Point","coordinates":[9.3387152,47.2012605]},"properties":{"id":"water:f09cffa7-eea5-420f-a012-399663cf408e","kind":"water","longitude":9.3387152,"latitude":47.2012605,"name":"Drinking Fountain","city":"Wildhaus","address":null,"covered":null,"access":null,"website":null,"phone":null,"source":"OpenStreetMap/node/3617798104","sourceUpdatedAt":null,"verifiedAt":null}}]}