{"type":"FeatureCollection","features":[{"type":"Feature","geometry":{"type":"Point","coordinates":[9.3511893,46.8267876]},"properties":{"id":"bikerack:8e4c41d7-e3e3-4f22-8908-b7ed8042ce99","kind":"bikerack","longitude":9.3511893,"latitude":46.8267876,"name":"Bicycle Parking","city":"Bonaduz","address":null,"covered":true,"access":null,"website":null,"phone":null,"source":"OpenStreetMap/node/12256210690","sourceUpdatedAt":null,"verifiedAt":null}},{"type":"Feature","geometry":{"type":"Point","coordinates":[9.3518874,46.8265954]},"properties":{"id":"water:1fce09bb-4163-4a00-a768-2d6a41119798","kind":"water","longitude":9.3518874,"latitude":46.8265954,"name":"Drinking Fountain","city":"Bonaduz","address":null,"covered":null,"access":null,"website":null,"phone":null,"source":"OpenStreetMap/node/5836735337","sourceUpdatedAt":null,"verifiedAt":null}},{"type":"Feature","geometry":{"type":"Point","coordinates":[9.3335363,46.8215119]},"properties":{"id":"water:230adbea-ddac-425f-97be-48414c9ceaa7","kind":"water","longitude":9.3335363,"latitude":46.8215119,"name":"Drinking Fountain","city":"Flims","address":null,"covered":null,"access":null,"website":null,"phone":null,"source":"OpenStreetMap/node/3265973947","sourceUpdatedAt":null,"verifiedAt":null}},{"type":"Feature","geometry":{"type":"Point","coordinates":[9.335479,46.8292307]},"properties":{"id":"water:33846044-330d-4801-9b8d-f8402c28fe2c","kind":"water","longitude":9.335479,"latitude":46.8292307,"name":"Drinking Fountain","city":"Flims","address":null,"covered":null,"access":null,"website":null,"phone":null,"source":"OpenStreetMap/node/12114183454","sourceUpdatedAt":null,"verifiedAt":null}},{"type":"Feature","geometry":{"type":"Point","coordinates":[9.3480834,46.8218826]},"properties":{"id":"water:51665c57-633d-4090-ac2b-2b33d2b6ade1","kind":"water","longitude":9.3480834,"latitude":46.8218826,"name":"Drinking Fountain","city":"Bonaduz","address":null,"covered":null,"access":null,"website":null,"phone":null,"source":"OpenStreetMap/node/6087914282","sourceUpdatedAt":null,"verifiedAt":null}},{"type":"Feature","geometry":{"type":"Point","coordinates":[9.3558937,46.8249175]},"properties":{"id":"water:53f50115-98a4-47d2-96a7-ebb808f11117","kind":"water","longitude":9.3558937,"latitude":46.8249175,"name":"Drinking Fountain","city":"Bonaduz","address":null,"covered":null,"access":null,"website":null,"phone":null,"source":"OpenStreetMap/node/6100531251","sourceUpdatedAt":null,"verifiedAt":null}},{"type":"Feature","geometry":{"type":"Point","coordinates":[9.3520419,46.822045]},"properties":{"id":"water:6698c471-367f-4d33-a6d5-81812932eef1","kind":"water","longitude":9.3520419,"latitude":46.822045,"name":"Drinking Fountain","city":"Bonaduz","address":null,"covered":null,"access":null,"website":null,"phone":null,"source":"OpenStreetMap/node/6005556726","sourceUpdatedAt":null,"verifiedAt":null}},{"type":"Feature","geometry":{"type":"Point","coordinates":[9.3374447,46.8229228]},"properties":{"id":"water:7836cea0-233e-4e23-80c6-a977fcc4dad9","kind":"water","longitude":9.3374447,"latitude":46.8229228,"name":"Drinking Fountain","city":"Flims","address":null,"covered":null,"access":null,"website":null,"phone":null,"source":"OpenStreetMap/node/3265973944","sourceUpdatedAt":null,"verifiedAt":null}},{"type":"Feature","geometry":{"type":"Point","coordinates":[9.3556938,46.8243141]},"properties":{"id":"water:7e08e3d1-c8ac-4102-ac45-e1e254bb76df","kind":"water","longitude":9.3556938,"latitude":46.8243141,"name":"Drinking Fountain","city":"Bonaduz","address":null,"covered":null,"access":null,"website":null,"phone":null,"source":"OpenStreetMap/node/6005556725","sourceUpdatedAt":null,"verifiedAt":null}},{"type":"Feature","geometry":{"type":"Point","coordinates":[9.3181809,46.8131758]},"properties":{"id":"water:7e4004b2-9c68-4aaa-9398-230adecb4c79","kind":"water","longitude":9.3181809,"latitude":46.8131758,"name":"Drinking Fountain","city":"Flims","address":null,"covered":null,"access":null,"website":null,"phone":null,"source":"OpenStreetMap/node/7873238774","sourceUpdatedAt":null,"verifiedAt":null}},{"type":"Feature","geometry":{"type":"Point","coordinates":[9.3328538,46.8191686]},"properties":{"id":"water:7f34c534-c8d0-4332-b468-76efb0051889","kind":"water","longitude":9.3328538,"latitude":46.8191686,"name":"Drinking Fountain","city":"Flims","address":null,"covered":null,"access":null,"website":null,"phone":null,"source":"OpenStreetMap/node/6005556988","sourceUpdatedAt":null,"verifiedAt":null}},{"type":"Feature","geometry":{"type":"Point","coordinates":[9.3488144,46.8261377]},"properties":{"id":"water:a328fa27-d195-4aa7-bcaa-67d7cecb8eef","kind":"water","longitude":9.3488144,"latitude":46.8261377,"name":"Drinking Fountain","city":"Bonaduz","address":null,"covered":null,"access":null,"website":null,"phone":null,"source":"OpenStreetMap/node/9160183396","sourceUpdatedAt":null,"verifiedAt":null}},{"type":"Feature","geometry":{"type":"Point","coordinates":[9.3593469,46.8011926]},"properties":{"id":"water:a92f7dad-fc94-4fa5-9be6-a1ee0750907b","kind":"water","longitude":9.3593469,"latitude":46.8011926,"name":"Drinking Fountain","city":"Rhazuns","address":null,"covered":null,"access":null,"website":null,"phone":null,"source":"OpenStreetMap/node/8934827000","sourceUpdatedAt":null,"verifiedAt":null}},{"type":"Feature","geometry":{"type":"Point","coordinates":[9.3548615,46.8233656]},"properties":{"id":"water:ad039177-c411-49ac-af19-9274bc2aa083","kind":"water","longitude":9.3548615,"latitude":46.8233656,"name":"Drinking Fountain","city":"Bonaduz","address":null,"covered":null,"access":null,"website":null,"phone":null,"source":"OpenStreetMap/node/6005556905","sourceUpdatedAt":null,"verifiedAt":null}},{"type":"Feature","geometry":{"type":"Point","coordinates":[9.3552133,46.8253816]},"properties":{"id":"water:adaf12bf-5055-4f58-9ab4-4e212521c1ab","kind":"water","longitude":9.3552133,"latitude":46.8253816,"name":"Drinking Fountain","city":"Bonaduz","address":null,"covered":null,"access":null,"website":null,"phone":null,"source":"OpenStreetMap/node/7567218219","sourceUpdatedAt":null,"verifiedAt":null}},{"type":"Feature","geometry":{"type":"Point","coordinates":[9.3320991,46.8171182]},"properties":{"id":"water:ae7fd454-f043-4239-a8ee-a2e8b5658e68","kind":"water","longitude":9.3320991,"latitude":46.8171182,"name":"Drinking Fountain","city":"Flims","address":null,"covered":null,"access":null,"website":null,"phone":null,"source":"OpenStreetMap/node/6005556728","sourceUpdatedAt":null,"verifiedAt":null}},{"type":"Feature","geometry":{"type":"Point","coordinates":[9.3225848,46.8064593]},"properties":{"id":"water:d6be2936-f33d-4476-9d98-a578735004cd","kind":"water","longitude":9.3225848,"latitude":46.8064593,"name":"Drinking Fountain","city":"Flims","address":null,"covered":null,"access":null,"website":null,"phone":null,"source":"OpenStreetMap/node/7884631804","sourceUpdatedAt":null,"verifiedAt":null}},{"type":"Feature","geometry":{"type":"Point","coordinates":[9.3407497,46.8284296]},"properties":{"id":"water:ddf44dbb-2aab-4143-bda1-4ff5fa2c6293","kind":"water","longitude":9.3407497,"latitude":46.8284296,"name":"Drinking Fountain","city":"Flims","address":null,"covered":null,"access":null,"website":null,"phone":null,"source":"OpenStreetMap/node/1877360775","sourceUpdatedAt":null,"verifiedAt":null}},{"type":"Feature","geometry":{"type":"Point","coordinates":[9.3555173,46.8235775]},"properties":{"id":"water:e8fb739a-1ff3-49c5-9f33-398c731fabe9","kind":"water","longitude":9.3555173,"latitude":46.8235775,"name":"Drinking Fountain","city":"Bonaduz","address":null,"covered":null,"access":null,"website":null,"phone":null,"source":"OpenStreetMap/node/12114183463","sourceUpdatedAt":null,"verifiedAt":null}},{"type":"Feature","geometry":{"type":"Point","coordinates":[9.3594174,46.8167564]},"properties":{"id":"water:f38aca9d-0577-4676-8323-e667469ea9a2","kind":"water","longitude":9.3594174,"latitude":46.8167564,"name":"Drinking Fountain","city":"Bonaduz","address":null,"covered":null,"access":null,"website":null,"phone":null,"source":"OpenStreetMap/node/9023407405","sourceUpdatedAt":null,"verifiedAt":null}},{"type":"Feature","geometry":{"type":"Point","coordinates":[9.3329547,46.8203526]},"properties":{"id":"water:f68d9381-a246-4673-8688-ce9ccda7154e","kind":"water","longitude":9.3329547,"latitude":46.8203526,"name":"Drinking Fountain","city":"Flims","address":null,"covered":null,"access":null,"website":null,"phone":null,"source":"OpenStreetMap/node/6005556908","sourceUpdatedAt":null,"verifiedAt":null}},{"type":"Feature","geometry":{"type":"Point","coordinates":[9.3543761,46.8289312]},"properties":{"id":"water:fd927962-2a06-4a89-8d3f-56fe2e9d21f0","kind":"water","longitude":9.3543761,"latitude":46.8289312,"name":"Drinking Fountain","city":"Bonaduz","address":null,"covered":null,"access":null,"website":null,"phone":null,"source":"OpenStreetMap/node/12114183462","sourceUpdatedAt":null,"verifiedAt":null}}]}