{"type":"FeatureCollection","features":[{"type":"Feature","geometry":{"type":"Point","coordinates":[9.3350672,46.7434043]},"properties":{"id":"water:0bbc25e0-e972-4255-a4dc-7848799091f6","kind":"water","longitude":9.3350672,"latitude":46.7434043,"name":"Drinking Fountain","city":"Rhazuns","address":null,"covered":null,"access":null,"website":null,"phone":null,"source":"OpenStreetMap/node/7728920070","sourceUpdatedAt":null,"verifiedAt":null}},{"type":"Feature","geometry":{"type":"Point","coordinates":[9.3339889,46.742618]},"properties":{"id":"water:23023081-d1ea-4c11-bdf4-e17ee89b49bd","kind":"water","longitude":9.3339889,"latitude":46.742618,"name":"Drinking Fountain","city":"Rhazuns","address":null,"covered":null,"access":null,"website":null,"phone":null,"source":"OpenStreetMap/node/7728920072","sourceUpdatedAt":null,"verifiedAt":null}},{"type":"Feature","geometry":{"type":"Point","coordinates":[9.3421361,46.7503047]},"properties":{"id":"water:d45875bb-9641-4c22-8a9f-2a5a7adc9e3c","kind":"water","longitude":9.3421361,"latitude":46.7503047,"name":"Drinking Fountain","city":"Rhazuns","address":null,"covered":null,"access":null,"website":null,"phone":null,"source":"OpenStreetMap/node/13511877241","sourceUpdatedAt":null,"verifiedAt":null}}]}