{"type":"FeatureCollection","features":[{"type":"Feature","geometry":{"type":"Point","coordinates":[9.3484228,46.1641398]},"properties":{"id":"repair:2a11902e-2176-4dde-8389-7f0d5ec68487","kind":"repair","longitude":9.3484228,"latitude":46.1641398,"name":"Stazione di riparazione bici","city":"Trezzone","address":null,"covered":false,"access":null,"website":null,"phone":null,"source":"OpenStreetMap/node/13644713692","sourceUpdatedAt":null,"verifiedAt":null}},{"type":"Feature","geometry":{"type":"Point","coordinates":[9.332931,46.1590401]},"properties":{"id":"water:0cd7c943-3fb3-4664-ac96-50f19eda7736","kind":"water","longitude":9.332931,"latitude":46.1590401,"name":"Fontanella","city":"Vercana","address":null,"covered":null,"access":null,"website":null,"phone":null,"source":"OpenStreetMap/node/6761166267","sourceUpdatedAt":null,"verifiedAt":null}},{"type":"Feature","geometry":{"type":"Point","coordinates":[9.3337923,46.1616308]},"properties":{"id":"water:36603189-1168-4bba-8fa8-2d14435e555c","kind":"water","longitude":9.3337923,"latitude":46.1616308,"name":"Fontanella","city":"Vercana","address":null,"covered":null,"access":null,"website":null,"phone":null,"source":"OpenStreetMap/node/8990284725","sourceUpdatedAt":null,"verifiedAt":null}},{"type":"Feature","geometry":{"type":"Point","coordinates":[9.3342411,46.1600735]},"properties":{"id":"water:3b5a2085-5bca-4c8d-afe3-4dd1d33e9373","kind":"water","longitude":9.3342411,"latitude":46.1600735,"name":"Fontanella","city":"Vercana","address":null,"covered":null,"access":null,"website":null,"phone":null,"source":"OpenStreetMap/node/7833003423","sourceUpdatedAt":null,"verifiedAt":null}},{"type":"Feature","geometry":{"type":"Point","coordinates":[9.3274732,46.1501668]},"properties":{"id":"water:436a44d8-d368-4847-809c-2e31c5e7f5ab","kind":"water","longitude":9.3274732,"latitude":46.1501668,"name":"Fontanella","city":"Domaso","address":null,"covered":null,"access":null,"website":null,"phone":null,"source":"OpenStreetMap/node/1349158309","sourceUpdatedAt":null,"verifiedAt":null}},{"type":"Feature","geometry":{"type":"Point","coordinates":[9.3380409,46.1560635]},"properties":{"id":"water:6311438a-8024-4b5a-be2d-76e9cb78fd8d","kind":"water","longitude":9.3380409,"latitude":46.1560635,"name":"Fontanella","city":"Vercana","address":null,"covered":null,"access":null,"website":null,"phone":null,"source":"OpenStreetMap/node/1415670862","sourceUpdatedAt":null,"verifiedAt":null}},{"type":"Feature","geometry":{"type":"Point","coordinates":[9.3332635,46.1589738]},"properties":{"id":"water:656c8c66-5407-4f7d-a46a-6f8ee7f4b6ff","kind":"water","longitude":9.3332635,"latitude":46.1589738,"name":"Fontanella","city":"Vercana","address":null,"covered":null,"access":null,"website":null,"phone":null,"source":"OpenStreetMap/node/7833003388","sourceUpdatedAt":null,"verifiedAt":null}},{"type":"Feature","geometry":{"type":"Point","coordinates":[9.3264976,46.1619705]},"properties":{"id":"water:88ea2ae8-bf1c-4ad7-a110-717c45b73b02","kind":"water","longitude":9.3264976,"latitude":46.1619705,"name":"Fontanella","city":"Vercana","address":null,"covered":null,"access":null,"website":null,"phone":null,"source":"OpenStreetMap/node/6766839194","sourceUpdatedAt":null,"verifiedAt":null}},{"type":"Feature","geometry":{"type":"Point","coordinates":[9.3329401,46.1593815]},"properties":{"id":"water:9f952e3c-44fd-460d-bb36-6a5fe15b85e7","kind":"water","longitude":9.3329401,"latitude":46.1593815,"name":"Fontanella","city":"Vercana","address":null,"covered":null,"access":null,"website":null,"phone":null,"source":"OpenStreetMap/node/9967725080","sourceUpdatedAt":null,"verifiedAt":null}},{"type":"Feature","geometry":{"type":"Point","coordinates":[9.3205529,46.1519707]},"properties":{"id":"water:a167691a-f820-4c82-99ce-71243ffb4ea3","kind":"water","longitude":9.3205529,"latitude":46.1519707,"name":"Fontanella","city":"Domaso","address":null,"covered":null,"access":null,"website":null,"phone":null,"source":"OpenStreetMap/node/11445062614","sourceUpdatedAt":null,"verifiedAt":null}},{"type":"Feature","geometry":{"type":"Point","coordinates":[9.3371614,46.1507211]},"properties":{"id":"water:b9b315ff-945c-4a65-a5db-ddc3b964ba0c","kind":"water","longitude":9.3371614,"latitude":46.1507211,"name":"Fontanella","city":"Domaso","address":null,"covered":null,"access":null,"website":null,"phone":null,"source":"OpenStreetMap/node/6390336879","sourceUpdatedAt":null,"verifiedAt":null}},{"type":"Feature","geometry":{"type":"Point","coordinates":[9.3272199,46.1517844]},"properties":{"id":"water:dc43f698-2f7c-4f66-b660-709bb1ae02f1","kind":"water","longitude":9.3272199,"latitude":46.1517844,"name":"Fontanella","city":"Domaso","address":null,"covered":null,"access":null,"website":null,"phone":null,"source":"OpenStreetMap/node/7089465185","sourceUpdatedAt":null,"verifiedAt":null}},{"type":"Feature","geometry":{"type":"Point","coordinates":[9.3309759,46.1489056]},"properties":{"id":"water:e95a3689-76cf-4f9c-bd36-6ebc9d7974de","kind":"water","longitude":9.3309759,"latitude":46.1489056,"name":"Fontanella","city":"Domaso","address":null,"covered":null,"access":null,"website":null,"phone":null,"source":"OpenStreetMap/node/6761528132","sourceUpdatedAt":null,"verifiedAt":null}},{"type":"Feature","geometry":{"type":"Point","coordinates":[9.3361902,46.1634247]},"properties":{"id":"water:f3df4018-c4b9-485e-970e-581c2054b864","kind":"water","longitude":9.3361902,"latitude":46.1634247,"name":"Fontanella","city":"Vercana","address":null,"covered":null,"access":null,"website":null,"phone":null,"source":"OpenStreetMap/node/2414748636","sourceUpdatedAt":null,"verifiedAt":null}},{"type":"Feature","geometry":{"type":"Point","coordinates":[9.331145,46.1598767]},"properties":{"id":"water:f8ead0ff-4095-4e24-a194-5346f32a0793","kind":"water","longitude":9.331145,"latitude":46.1598767,"name":"Fontanella","city":"Vercana","address":null,"covered":null,"access":null,"website":null,"phone":null,"source":"OpenStreetMap/node/10002187146","sourceUpdatedAt":null,"verifiedAt":null}}]}