{"type":"FeatureCollection","features":[{"type":"Feature","geometry":{"type":"Point","coordinates":[9.3554929,45.5977248]},"properties":{"id":"bikerack:071a292b-aa62-4d83-9df5-a50eb034f347","kind":"bikerack","longitude":9.3554929,"latitude":45.5977248,"name":"Parcheggio bici","city":"Vimercate","address":null,"covered":false,"access":null,"website":null,"phone":null,"source":"OpenStreetMap/way/352313269","sourceUpdatedAt":null,"verifiedAt":null}},{"type":"Feature","geometry":{"type":"Point","coordinates":[9.3299163,45.5882774]},"properties":{"id":"bikerack:86620fa0-1f50-48e7-900b-d30fa8cec0b7","kind":"bikerack","longitude":9.3299163,"latitude":45.5882774,"name":"Parcheggio bici","city":"Concorezzo","address":null,"covered":false,"access":null,"website":null,"phone":null,"source":"OpenStreetMap/node/3885069744","sourceUpdatedAt":null,"verifiedAt":null}},{"type":"Feature","geometry":{"type":"Point","coordinates":[9.3577606,45.6085724]},"properties":{"id":"bikerack:e445f690-87d5-4a84-bd18-9edaec708cbd","kind":"bikerack","longitude":9.3577606,"latitude":45.6085724,"name":"Parcheggio bici","city":"Vimercate","address":null,"covered":false,"access":null,"website":null,"phone":null,"source":"OpenStreetMap/way/473851468","sourceUpdatedAt":null,"verifiedAt":null}},{"type":"Feature","geometry":{"type":"Point","coordinates":[9.3363904,45.5917909]},"properties":{"id":"water:2ec12756-7a0c-4a33-9079-3b76f17b04c0","kind":"water","longitude":9.3363904,"latitude":45.5917909,"name":"Fontanella","city":"Concorezzo","address":null,"covered":null,"access":null,"website":null,"phone":null,"source":"OpenStreetMap/node/12974826237","sourceUpdatedAt":null,"verifiedAt":null}},{"type":"Feature","geometry":{"type":"Point","coordinates":[9.3429174,45.5955782]},"properties":{"id":"water:b33a8abd-66e4-4238-9b8f-23a1027480bc","kind":"water","longitude":9.3429174,"latitude":45.5955782,"name":"Fontanella","city":"Concorezzo","address":null,"covered":null,"access":null,"website":null,"phone":null,"source":"OpenStreetMap/node/12923120259","sourceUpdatedAt":null,"verifiedAt":null}},{"type":"Feature","geometry":{"type":"Point","coordinates":[9.3448244,45.5953505]},"properties":{"id":"water:bf80bc71-152b-41ed-8143-03adc4e954c7","kind":"water","longitude":9.3448244,"latitude":45.5953505,"name":"Fontanella","city":"Concorezzo","address":null,"covered":null,"access":null,"website":null,"phone":null,"source":"OpenStreetMap/node/6054229822","sourceUpdatedAt":null,"verifiedAt":null}}]}