{"type":"FeatureCollection","features":[{"type":"Feature","geometry":{"type":"Point","coordinates":[9.3305189,45.5215192]},"properties":{"id":"bikerack:29b3f52e-80b3-43c0-8214-6ba48074a2f5","kind":"bikerack","longitude":9.3305189,"latitude":45.5215192,"name":"Parcheggio bici","city":"Cernusco sul Naviglio","address":null,"covered":false,"access":null,"website":null,"phone":null,"source":"OpenStreetMap/node/2223188117","sourceUpdatedAt":null,"verifiedAt":null}},{"type":"Feature","geometry":{"type":"Point","coordinates":[9.360117,45.5179595]},"properties":{"id":"bikerack:439e25d7-43be-4c1e-bf78-8cb2059b3db9","kind":"bikerack","longitude":9.360117,"latitude":45.5179595,"name":"Parcheggio bici","city":"Cassina de' Pecchi","address":null,"covered":false,"access":null,"website":null,"phone":null,"source":"OpenStreetMap/node/1749918162","sourceUpdatedAt":null,"verifiedAt":null}},{"type":"Feature","geometry":{"type":"Point","coordinates":[9.3325163,45.4999021]},"properties":{"id":"bikerack:7c8b037c-93f5-4d9d-a2f1-8915fc82a2de","kind":"bikerack","longitude":9.3325163,"latitude":45.4999021,"name":"Parcheggio bici","city":"Pioltello","address":null,"covered":false,"access":null,"website":null,"phone":null,"source":"OpenStreetMap/node/6064139947","sourceUpdatedAt":null,"verifiedAt":null}},{"type":"Feature","geometry":{"type":"Point","coordinates":[9.3306438,45.5195364]},"properties":{"id":"bikerack:87415aa7-651e-4350-a32a-38381b722b5a","kind":"bikerack","longitude":9.3306438,"latitude":45.5195364,"name":"Parcheggio bici","city":"Cernusco sul Naviglio","address":null,"covered":false,"access":null,"website":null,"phone":null,"source":"OpenStreetMap/node/2223187834","sourceUpdatedAt":null,"verifiedAt":null}},{"type":"Feature","geometry":{"type":"Point","coordinates":[9.3306506,45.5196409]},"properties":{"id":"bikerack:a829ed53-67f7-49f5-8420-e4b0c003debb","kind":"bikerack","longitude":9.3306506,"latitude":45.5196409,"name":"Parcheggio bici","city":"Cernusco sul Naviglio","address":null,"covered":false,"access":null,"website":null,"phone":null,"source":"OpenStreetMap/node/4747140146","sourceUpdatedAt":null,"verifiedAt":null}},{"type":"Feature","geometry":{"type":"Point","coordinates":[9.3462243,45.5207368]},"properties":{"id":"bikerack:a8e7bbb2-983b-4bc7-bf07-c49683d56eee","kind":"bikerack","longitude":9.3462243,"latitude":45.5207368,"name":"Parcheggio bici","city":"Cassina de' Pecchi","address":null,"covered":true,"access":null,"website":null,"phone":null,"source":"OpenStreetMap/node/1627359025","sourceUpdatedAt":null,"verifiedAt":null}},{"type":"Feature","geometry":{"type":"Point","coordinates":[9.3268725,45.4998703]},"properties":{"id":"bikerack:b0c9c145-13e7-48a7-8b3b-ee254d1cc237","kind":"bikerack","longitude":9.3268725,"latitude":45.4998703,"name":"Parcheggio bici","city":"Pioltello","address":null,"covered":false,"access":null,"website":null,"phone":null,"source":"OpenStreetMap/node/5924053927","sourceUpdatedAt":null,"verifiedAt":null}},{"type":"Feature","geometry":{"type":"Point","coordinates":[9.3541987,45.5180092]},"properties":{"id":"bikerack:b69f654c-e778-4f10-be28-682ebb129387","kind":"bikerack","longitude":9.3541987,"latitude":45.5180092,"name":"Parcheggio bici","city":"Cassina de' Pecchi","address":null,"covered":false,"access":null,"website":null,"phone":null,"source":"OpenStreetMap/way/731069927","sourceUpdatedAt":null,"verifiedAt":null}},{"type":"Feature","geometry":{"type":"Point","coordinates":[9.3312222,45.521473]},"properties":{"id":"bikerack:ec452776-165b-4fff-8d2d-67a22d5b8505","kind":"bikerack","longitude":9.3312222,"latitude":45.521473,"name":"Parcheggio custodito per biciclette","city":"Cernusco sul Naviglio","address":null,"covered":true,"access":null,"website":null,"phone":null,"source":"OpenStreetMap/way/167571843","sourceUpdatedAt":null,"verifiedAt":null}},{"type":"Feature","geometry":{"type":"Point","coordinates":[9.3536316,45.5171875]},"properties":{"id":"service:e8df3677-e111-4102-8b0f-e8dc590daf64","kind":"service","longitude":9.3536316,"latitude":45.5171875,"name":"Centro della Bicicletta","city":"Cassina de' Pecchi","address":null,"covered":null,"access":null,"website":null,"phone":null,"source":"OpenStreetMap/node/2413897564","sourceUpdatedAt":null,"verifiedAt":null}},{"type":"Feature","geometry":{"type":"Point","coordinates":[9.3221082,45.4915268]},"properties":{"id":"water:05f0b662-d0cc-4a39-95a9-c0c3327b6911","kind":"water","longitude":9.3221082,"latitude":45.4915268,"name":"Fontanella","city":"Pioltello","address":null,"covered":null,"access":null,"website":null,"phone":null,"source":"OpenStreetMap/node/1784398908","sourceUpdatedAt":null,"verifiedAt":null}},{"type":"Feature","geometry":{"type":"Point","coordinates":[9.3299381,45.4981434]},"properties":{"id":"water:410e577d-e828-4da4-95e1-f0bc34e69d54","kind":"water","longitude":9.3299381,"latitude":45.4981434,"name":"Fontanella","city":"Pioltello","address":null,"covered":null,"access":null,"website":null,"phone":null,"source":"OpenStreetMap/node/9676545301","sourceUpdatedAt":null,"verifiedAt":null}},{"type":"Feature","geometry":{"type":"Point","coordinates":[9.3256337,45.5171399]},"properties":{"id":"water:5dc22632-b6d3-406a-9b72-41dc9008f4c0","kind":"water","longitude":9.3256337,"latitude":45.5171399,"name":"Fontanella","city":"Cernusco sul Naviglio","address":null,"covered":null,"access":null,"website":null,"phone":null,"source":"OpenStreetMap/node/12139084646","sourceUpdatedAt":null,"verifiedAt":null}},{"type":"Feature","geometry":{"type":"Point","coordinates":[9.3287265,45.5214561]},"properties":{"id":"water:637c07b5-1340-449b-9b05-bc4fb003a32a","kind":"water","longitude":9.3287265,"latitude":45.5214561,"name":"Fontanella","city":"Cernusco sul Naviglio","address":null,"covered":null,"access":null,"website":null,"phone":null,"source":"OpenStreetMap/node/6840157847","sourceUpdatedAt":null,"verifiedAt":null}},{"type":"Feature","geometry":{"type":"Point","coordinates":[9.3278625,45.5213617]},"properties":{"id":"water:c0d195ab-615b-4e08-8b48-6a8cfe0a2edd","kind":"water","longitude":9.3278625,"latitude":45.5213617,"name":"Fontanella","city":"Cernusco sul Naviglio","address":null,"covered":null,"access":null,"website":null,"phone":null,"source":"OpenStreetMap/node/4800507678","sourceUpdatedAt":null,"verifiedAt":null}}]}