{"type":"FeatureCollection","features":[{"type":"Feature","geometry":{"type":"Point","coordinates":[9.3394608,45.3281963]},"properties":{"id":"water:9f7cf8cb-fbd3-4217-bd45-3eed538aa90a","kind":"water","longitude":9.3394608,"latitude":45.3281963,"name":"Fontanella","city":"Cerro al Lambro","address":null,"covered":null,"access":null,"website":null,"phone":null,"source":"OpenStreetMap/node/9579133115","sourceUpdatedAt":null,"verifiedAt":null}},{"type":"Feature","geometry":{"type":"Point","coordinates":[9.3437306,45.3317687]},"properties":{"id":"water:eea89c1f-24bf-444f-ac9a-008617878e29","kind":"water","longitude":9.3437306,"latitude":45.3317687,"name":"Fontanella","city":"Cerro al Lambro","address":null,"covered":null,"access":null,"website":null,"phone":null,"source":"OpenStreetMap/node/7386116106","sourceUpdatedAt":null,"verifiedAt":null}}]}