{"type":"FeatureCollection","features":[{"type":"Feature","geometry":{"type":"Point","coordinates":[22.6092506,47.9606359]},"properties":{"id":"water:010fedec-9ffa-4f87-a6b3-cdf25830472f","kind":"water","longitude":22.6092506,"latitude":47.9606359,"name":"Ivókút","city":null,"address":null,"covered":null,"access":null,"website":null,"phone":null,"source":"OpenStreetMap","sourceUpdatedAt":null,"verifiedAt":null}},{"type":"Feature","geometry":{"type":"Point","coordinates":[22.606167,47.965383]},"properties":{"id":"water:1bc8b4c5-db33-423c-aea2-818aa57d90a9","kind":"water","longitude":22.606167,"latitude":47.965383,"name":"Ivókút","city":null,"address":null,"covered":null,"access":null,"website":null,"phone":null,"source":"OpenStreetMap","sourceUpdatedAt":null,"verifiedAt":null}},{"type":"Feature","geometry":{"type":"Point","coordinates":[22.6041019,47.9684667]},"properties":{"id":"water:1c84f84d-c61a-4e6b-ac82-108914acf34e","kind":"water","longitude":22.6041019,"latitude":47.9684667,"name":"Ivókút","city":null,"address":null,"covered":null,"access":null,"website":null,"phone":null,"source":"OpenStreetMap","sourceUpdatedAt":null,"verifiedAt":null}},{"type":"Feature","geometry":{"type":"Point","coordinates":[22.605633,47.96965]},"properties":{"id":"water:228a8292-169e-4830-a8f7-a4b21ee6c42c","kind":"water","longitude":22.605633,"latitude":47.96965,"name":"Ivókút","city":null,"address":null,"covered":null,"access":null,"website":null,"phone":null,"source":"OpenStreetMap","sourceUpdatedAt":null,"verifiedAt":null}},{"type":"Feature","geometry":{"type":"Point","coordinates":[22.6069,47.964567]},"properties":{"id":"water:391d5709-50ca-49b5-86a3-b69f1dbafff4","kind":"water","longitude":22.6069,"latitude":47.964567,"name":"Ivókút","city":null,"address":null,"covered":null,"access":null,"website":null,"phone":null,"source":"OpenStreetMap","sourceUpdatedAt":null,"verifiedAt":null}},{"type":"Feature","geometry":{"type":"Point","coordinates":[22.6149139,47.9641508]},"properties":{"id":"water:3f853d64-6a6d-4df7-80d5-653143d0d442","kind":"water","longitude":22.6149139,"latitude":47.9641508,"name":"Ivókút","city":null,"address":null,"covered":null,"access":null,"website":null,"phone":null,"source":"OpenStreetMap","sourceUpdatedAt":null,"verifiedAt":null}},{"type":"Feature","geometry":{"type":"Point","coordinates":[22.6294776,47.9666398]},"properties":{"id":"water:422188e1-a945-46af-a86f-d06db5434c15","kind":"water","longitude":22.6294776,"latitude":47.9666398,"name":"Ivókút","city":null,"address":null,"covered":null,"access":null,"website":null,"phone":null,"source":"OpenStreetMap","sourceUpdatedAt":null,"verifiedAt":null}},{"type":"Feature","geometry":{"type":"Point","coordinates":[22.6123,47.96369]},"properties":{"id":"water:61d03618-45e6-428d-8c54-edaf5b89b1ac","kind":"water","longitude":22.6123,"latitude":47.96369,"name":"Ivókút","city":null,"address":null,"covered":null,"access":null,"website":null,"phone":null,"source":"OpenStreetMap","sourceUpdatedAt":null,"verifiedAt":null}},{"type":"Feature","geometry":{"type":"Point","coordinates":[22.62645,47.989383]},"properties":{"id":"water:71fb3746-5a50-4301-9d3d-46b4978b0543","kind":"water","longitude":22.62645,"latitude":47.989383,"name":"Ivókút","city":null,"address":null,"covered":null,"access":null,"website":null,"phone":null,"source":"OpenStreetMap","sourceUpdatedAt":null,"verifiedAt":null}},{"type":"Feature","geometry":{"type":"Point","coordinates":[22.606,47.967033]},"properties":{"id":"water:88ec5033-83a6-4d61-8f1c-c4301421fc82","kind":"water","longitude":22.606,"latitude":47.967033,"name":"Ivókút","city":null,"address":null,"covered":null,"access":null,"website":null,"phone":null,"source":"OpenStreetMap","sourceUpdatedAt":null,"verifiedAt":null}},{"type":"Feature","geometry":{"type":"Point","coordinates":[22.603033,47.969433]},"properties":{"id":"water:9043d9cb-93f2-4605-bc4c-a5d9073771ae","kind":"water","longitude":22.603033,"latitude":47.969433,"name":"Ivókút","city":null,"address":null,"covered":null,"access":null,"website":null,"phone":null,"source":"OpenStreetMap","sourceUpdatedAt":null,"verifiedAt":null}},{"type":"Feature","geometry":{"type":"Point","coordinates":[22.60715,47.963433]},"properties":{"id":"water:943112ae-2354-4997-bab1-ab2e34c2a01e","kind":"water","longitude":22.60715,"latitude":47.963433,"name":"Ivókút","city":null,"address":null,"covered":null,"access":null,"website":null,"phone":null,"source":"OpenStreetMap","sourceUpdatedAt":null,"verifiedAt":null}},{"type":"Feature","geometry":{"type":"Point","coordinates":[22.6297867,47.9684254]},"properties":{"id":"water:a7ab184b-e25d-4bda-8524-a967bc5c19af","kind":"water","longitude":22.6297867,"latitude":47.9684254,"name":"Ivókút","city":null,"address":null,"covered":null,"access":null,"website":null,"phone":null,"source":"OpenStreetMap","sourceUpdatedAt":null,"verifiedAt":null}},{"type":"Feature","geometry":{"type":"Point","coordinates":[22.608417,47.9643493]},"properties":{"id":"water:b678a03f-111e-4104-8769-bef13f96e35d","kind":"water","longitude":22.608417,"latitude":47.9643493,"name":"Ivókút","city":null,"address":null,"covered":null,"access":null,"website":null,"phone":null,"source":"OpenStreetMap","sourceUpdatedAt":null,"verifiedAt":null}},{"type":"Feature","geometry":{"type":"Point","coordinates":[22.623583,47.965067]},"properties":{"id":"water:cdb2eacc-a302-4e59-be09-e7eecf6887b8","kind":"water","longitude":22.623583,"latitude":47.965067,"name":"Ivókút","city":null,"address":null,"covered":null,"access":null,"website":null,"phone":null,"source":"OpenStreetMap","sourceUpdatedAt":null,"verifiedAt":null}},{"type":"Feature","geometry":{"type":"Point","coordinates":[22.6078253,47.962427]},"properties":{"id":"water:dab40637-91c3-4878-915c-3456a1b7058e","kind":"water","longitude":22.6078253,"latitude":47.962427,"name":"Ivókút","city":null,"address":null,"covered":null,"access":null,"website":null,"phone":null,"source":"OpenStreetMap","sourceUpdatedAt":null,"verifiedAt":null}},{"type":"Feature","geometry":{"type":"Point","coordinates":[22.6079495,47.9716984]},"properties":{"id":"water:ef86a702-a033-4b74-bfb5-99c4614ee972","kind":"water","longitude":22.6079495,"latitude":47.9716984,"name":"Ivókút","city":null,"address":null,"covered":null,"access":null,"website":null,"phone":null,"source":"OpenStreetMap","sourceUpdatedAt":null,"verifiedAt":null}}]}