{"type":"FeatureCollection","features":[{"type":"Feature","geometry":{"type":"Point","coordinates":[17.956901,49.4247006]},"properties":{"id":"bikerack:2bcc36b6-d169-4f28-867d-fec2f253b3e2","kind":"bikerack","longitude":17.956901,"latitude":49.4247006,"name":"Bicycle Parking","city":"Jablunka","address":null,"covered":false,"access":null,"website":null,"phone":null,"source":"OpenStreetMap/node/12883986648","sourceUpdatedAt":null,"verifiedAt":null}},{"type":"Feature","geometry":{"type":"Point","coordinates":[17.945001,49.4161355]},"properties":{"id":"repair:26938d90-4b70-44b4-8c18-9c1c911a837c","kind":"repair","longitude":17.945001,"latitude":49.4161355,"name":"Samoobslužný cykloservis","city":"Jablunka","address":null,"covered":false,"access":null,"website":null,"phone":null,"source":"OpenStreetMap/node/7837950687","sourceUpdatedAt":null,"verifiedAt":null}}]}