{"type":"FeatureCollection","features":[{"type":"Feature","geometry":{"type":"Point","coordinates":[17.9466404,47.1423845]},"properties":{"id":"bikerack:13d38a0f-8401-431d-88b4-5a0c3e59ff6e","kind":"bikerack","longitude":17.9466404,"latitude":47.1423845,"name":"Biciklitároló","city":"Veszprem","address":null,"covered":false,"access":null,"website":null,"phone":null,"source":"OpenStreetMap/node/13398730017","sourceUpdatedAt":null,"verifiedAt":null}},{"type":"Feature","geometry":{"type":"Point","coordinates":[17.9491763,47.1437207]},"properties":{"id":"bikerack:3a5eb5d6-44da-4c02-b9a1-9b455f7f5109","kind":"bikerack","longitude":17.9491763,"latitude":47.1437207,"name":"Biciklitároló","city":"Veszprem","address":null,"covered":false,"access":null,"website":null,"phone":null,"source":"OpenStreetMap/node/13324576039","sourceUpdatedAt":null,"verifiedAt":null}},{"type":"Feature","geometry":{"type":"Point","coordinates":[17.9458194,47.1499345]},"properties":{"id":"bikerack:5459eb52-da1a-4cf7-bde3-7f0ad88bb2ff","kind":"bikerack","longitude":17.9458194,"latitude":47.1499345,"name":"Biciklitároló","city":"Veszprem","address":null,"covered":false,"access":null,"website":null,"phone":null,"source":"OpenStreetMap/node/10848465362","sourceUpdatedAt":null,"verifiedAt":null}},{"type":"Feature","geometry":{"type":"Point","coordinates":[17.9458398,47.1499017]},"properties":{"id":"bikerack:6534ee85-60ed-4944-ba1f-049e20b55547","kind":"bikerack","longitude":17.9458398,"latitude":47.1499017,"name":"Biciklitároló","city":"Veszprem","address":null,"covered":false,"access":null,"website":null,"phone":null,"source":"OpenStreetMap/node/10848465366","sourceUpdatedAt":null,"verifiedAt":null}},{"type":"Feature","geometry":{"type":"Point","coordinates":[17.9474048,47.1368367]},"properties":{"id":"bikerack:adbb7065-52f8-454f-b586-643ca635669f","kind":"bikerack","longitude":17.9474048,"latitude":47.1368367,"name":"Biciklitároló","city":"Veszprem","address":null,"covered":false,"access":null,"website":null,"phone":null,"source":"OpenStreetMap/node/13324924893","sourceUpdatedAt":null,"verifiedAt":null}},{"type":"Feature","geometry":{"type":"Point","coordinates":[17.9464623,47.1501578]},"properties":{"id":"water:5218b631-2476-486b-a984-e74594a83b05","kind":"water","longitude":17.9464623,"latitude":47.1501578,"name":"Ivókút","city":null,"address":null,"covered":null,"access":null,"website":null,"phone":null,"source":"OpenStreetMap","sourceUpdatedAt":null,"verifiedAt":null}},{"type":"Feature","geometry":{"type":"Point","coordinates":[17.9541131,47.1473929]},"properties":{"id":"water:5d0bf612-2928-4ce3-8ea9-4648b8d26cb2","kind":"water","longitude":17.9541131,"latitude":47.1473929,"name":"Ivókút","city":null,"address":null,"covered":null,"access":null,"website":null,"phone":null,"source":"OpenStreetMap","sourceUpdatedAt":null,"verifiedAt":null}},{"type":"Feature","geometry":{"type":"Point","coordinates":[17.94829,47.145768]},"properties":{"id":"water:64dde2a4-e3f5-489e-9193-fbaa423dd117","kind":"water","longitude":17.94829,"latitude":47.145768,"name":"Ivókút","city":null,"address":null,"covered":null,"access":null,"website":null,"phone":null,"source":"OpenStreetMap","sourceUpdatedAt":null,"verifiedAt":null}},{"type":"Feature","geometry":{"type":"Point","coordinates":[17.9458324,47.1499176]},"properties":{"id":"water:6550a013-afbc-4d32-ac30-b83bb7a2efb0","kind":"water","longitude":17.9458324,"latitude":47.1499176,"name":"Ivókút","city":null,"address":null,"covered":null,"access":null,"website":null,"phone":null,"source":"OpenStreetMap","sourceUpdatedAt":null,"verifiedAt":null}},{"type":"Feature","geometry":{"type":"Point","coordinates":[17.9458691,47.1453697]},"properties":{"id":"water:858e4448-fbfa-4a4a-9d02-be7849576a19","kind":"water","longitude":17.9458691,"latitude":47.1453697,"name":"Ivókút","city":null,"address":null,"covered":null,"access":null,"website":null,"phone":null,"source":"OpenStreetMap","sourceUpdatedAt":null,"verifiedAt":null}},{"type":"Feature","geometry":{"type":"Point","coordinates":[17.9441179,47.1375827]},"properties":{"id":"water:b17f5e74-fdbf-4545-a5be-cd138feb1c82","kind":"water","longitude":17.9441179,"latitude":47.1375827,"name":"Ivókút","city":null,"address":null,"covered":null,"access":null,"website":null,"phone":null,"source":"OpenStreetMap","sourceUpdatedAt":null,"verifiedAt":null}},{"type":"Feature","geometry":{"type":"Point","coordinates":[17.9482507,47.1397997]},"properties":{"id":"water:b4915605-646f-496f-8ccf-c707b05dba23","kind":"water","longitude":17.9482507,"latitude":47.1397997,"name":"Ivókút","city":null,"address":null,"covered":null,"access":null,"website":null,"phone":null,"source":"OpenStreetMap","sourceUpdatedAt":null,"verifiedAt":null}},{"type":"Feature","geometry":{"type":"Point","coordinates":[17.9460588,47.149386]},"properties":{"id":"water:d01ad5cd-c2e2-409d-8f86-bdf07bfc3e30","kind":"water","longitude":17.9460588,"latitude":47.149386,"name":"Ivókút","city":null,"address":null,"covered":null,"access":null,"website":null,"phone":null,"source":"OpenStreetMap","sourceUpdatedAt":null,"verifiedAt":null}},{"type":"Feature","geometry":{"type":"Point","coordinates":[17.9522414,47.1465281]},"properties":{"id":"water:ef4bea89-dbd2-47e2-becd-98e70910eb98","kind":"water","longitude":17.9522414,"latitude":47.1465281,"name":"Ivókút","city":null,"address":null,"covered":null,"access":null,"website":null,"phone":null,"source":"OpenStreetMap","sourceUpdatedAt":null,"verifiedAt":null}}]}