{"type":"FeatureCollection","features":[{"type":"Feature","geometry":{"type":"Point","coordinates":[17.9327837,46.968042]},"properties":{"id":"bikerack:0cc5f343-dbad-423a-b4c8-fb8215077c83","kind":"bikerack","longitude":17.9327837,"latitude":46.968042,"name":"Biciklitároló","city":"Csopak","address":null,"covered":false,"access":null,"website":null,"phone":null,"source":"OpenStreetMap/node/12305083785","sourceUpdatedAt":null,"verifiedAt":null}},{"type":"Feature","geometry":{"type":"Point","coordinates":[17.9391681,46.9722797]},"properties":{"id":"bikerack:2a5fbe63-657f-4ee4-a238-ef55d780480a","kind":"bikerack","longitude":17.9391681,"latitude":46.9722797,"name":"Biciklitároló","city":"Csopak","address":null,"covered":false,"access":null,"website":null,"phone":null,"source":"OpenStreetMap/node/10845907897","sourceUpdatedAt":null,"verifiedAt":null}},{"type":"Feature","geometry":{"type":"Point","coordinates":[17.9623786,46.9741948]},"properties":{"id":"bikerack:6554a31c-0afd-45b3-9aa2-98b24eda760a","kind":"bikerack","longitude":17.9623786,"latitude":46.9741948,"name":"Biciklitároló","city":"Csopak","address":null,"covered":false,"access":null,"website":null,"phone":null,"source":"OpenStreetMap/node/12809429202","sourceUpdatedAt":null,"verifiedAt":null}},{"type":"Feature","geometry":{"type":"Point","coordinates":[17.9388832,46.9705881]},"properties":{"id":"bikerack:aa6d30c1-7113-4cd9-9b5e-c725a25e60df","kind":"bikerack","longitude":17.9388832,"latitude":46.9705881,"name":"Biciklitároló","city":"Csopak","address":null,"covered":false,"access":null,"website":null,"phone":null,"source":"OpenStreetMap/node/10845840856","sourceUpdatedAt":null,"verifiedAt":null}},{"type":"Feature","geometry":{"type":"Point","coordinates":[17.9389374,46.9706109]},"properties":{"id":"bikerack:b69e5361-4edc-4514-81d9-fdad2979a3ce","kind":"bikerack","longitude":17.9389374,"latitude":46.9706109,"name":"Biciklitároló","city":"Csopak","address":null,"covered":false,"access":null,"website":null,"phone":null,"source":"OpenStreetMap/node/10845840863","sourceUpdatedAt":null,"verifiedAt":null}},{"type":"Feature","geometry":{"type":"Point","coordinates":[17.9392234,46.9723569]},"properties":{"id":"bikerack:d04f05fb-7ec4-47b1-9255-b8b9cea94d2c","kind":"bikerack","longitude":17.9392234,"latitude":46.9723569,"name":"Biciklitároló","city":"Csopak","address":null,"covered":false,"access":null,"website":null,"phone":null,"source":"OpenStreetMap/node/10845907886","sourceUpdatedAt":null,"verifiedAt":null}},{"type":"Feature","geometry":{"type":"Point","coordinates":[17.9392051,46.9722961]},"properties":{"id":"bikerack:d2f36334-f7a4-4912-902c-dfa50827e89a","kind":"bikerack","longitude":17.9392051,"latitude":46.9722961,"name":"Biciklitároló","city":"Csopak","address":null,"covered":false,"access":null,"website":null,"phone":null,"source":"OpenStreetMap/node/10845907885","sourceUpdatedAt":null,"verifiedAt":null}},{"type":"Feature","geometry":{"type":"Point","coordinates":[17.9391557,46.9722993]},"properties":{"id":"bikerack:e1c9b104-b3fa-4dda-81d5-c37b2ae20ba9","kind":"bikerack","longitude":17.9391557,"latitude":46.9722993,"name":"Biciklitároló","city":"Csopak","address":null,"covered":false,"access":null,"website":null,"phone":null,"source":"OpenStreetMap/node/10845907899","sourceUpdatedAt":null,"verifiedAt":null}},{"type":"Feature","geometry":{"type":"Point","coordinates":[17.944623,46.9791174]},"properties":{"id":"bikerack:e4dac6cf-fae0-409c-89b2-dba51d6bb956","kind":"bikerack","longitude":17.944623,"latitude":46.9791174,"name":"Biciklitároló","city":"Csopak","address":null,"covered":false,"access":null,"website":null,"phone":null,"source":"OpenStreetMap/node/10845946241","sourceUpdatedAt":null,"verifiedAt":null}},{"type":"Feature","geometry":{"type":"Point","coordinates":[17.933912,46.9720655]},"properties":{"id":"service:65677663-ce59-4f80-a04b-1ae4696c2309","kind":"service","longitude":17.933912,"latitude":46.9720655,"name":"Buborék","city":"Csopak","address":null,"covered":null,"access":null,"website":null,"phone":null,"source":"OpenStreetMap/node/9236479536","sourceUpdatedAt":null,"verifiedAt":null}},{"type":"Feature","geometry":{"type":"Point","coordinates":[17.9354365,46.9694127]},"properties":{"id":"water:12599c37-323f-4a3d-aa43-c9b7e4afd5aa","kind":"water","longitude":17.9354365,"latitude":46.9694127,"name":"István és Gizella díszkút","city":null,"address":null,"covered":null,"access":null,"website":null,"phone":null,"source":"OpenStreetMap","sourceUpdatedAt":null,"verifiedAt":null}},{"type":"Feature","geometry":{"type":"Point","coordinates":[17.9444451,46.97905]},"properties":{"id":"water:49041d92-0dcd-41a2-a392-9ae570da4100","kind":"water","longitude":17.9444451,"latitude":46.97905,"name":"Ivókút","city":null,"address":null,"covered":null,"access":null,"website":null,"phone":null,"source":"OpenStreetMap","sourceUpdatedAt":null,"verifiedAt":null}},{"type":"Feature","geometry":{"type":"Point","coordinates":[17.9353671,46.9690873]},"properties":{"id":"water:540bf83c-5ed3-428a-b534-fae72f0568de","kind":"water","longitude":17.9353671,"latitude":46.9690873,"name":"Ivókút","city":null,"address":null,"covered":null,"access":null,"website":null,"phone":null,"source":"OpenStreetMap","sourceUpdatedAt":null,"verifiedAt":null}},{"type":"Feature","geometry":{"type":"Point","coordinates":[17.933624,46.9717654]},"properties":{"id":"water:5b0882f6-627e-48e8-a3a6-e11bdb0069dd","kind":"water","longitude":17.933624,"latitude":46.9717654,"name":"Ivókút","city":null,"address":null,"covered":null,"access":null,"website":null,"phone":null,"source":"OpenStreetMap","sourceUpdatedAt":null,"verifiedAt":null}}]}