{"type":"FeatureCollection","features":[{"type":"Feature","geometry":{"type":"Point","coordinates":[11.7209675,47.766872]},"properties":{"id":"bikerack:23de9952-34e8-4428-9adf-7ae0e11befb9","kind":"bikerack","longitude":11.7209675,"latitude":47.766872,"name":"Fahrradabstellplatz","city":"Gmund am Tegernsee","address":null,"covered":true,"access":null,"website":null,"phone":null,"source":"OpenStreetMap/way/1269070445","sourceUpdatedAt":null,"verifiedAt":null}},{"type":"Feature","geometry":{"type":"Point","coordinates":[11.7205499,47.7678262]},"properties":{"id":"bikerack:90072bfc-c56e-44c6-b64c-e40b8be5f1db","kind":"bikerack","longitude":11.7205499,"latitude":47.7678262,"name":"Fahrradabstellplatz","city":"Gmund am Tegernsee","address":null,"covered":false,"access":null,"website":null,"phone":null,"source":"OpenStreetMap/way/460766501","sourceUpdatedAt":null,"verifiedAt":null}}]}