{"type":"FeatureCollection","features":[{"type":"Feature","geometry":{"type":"Point","coordinates":[11.7252793,47.3653478]},"properties":{"id":"bikerack:3ec6b2ae-367d-471a-998e-ab05ff59f34f","kind":"bikerack","longitude":11.7252793,"latitude":47.3653478,"name":"Biciklitároló","city":"Stans","address":null,"covered":true,"access":null,"website":null,"phone":null,"source":"OpenStreetMap/way/1358690631","sourceUpdatedAt":null,"verifiedAt":null}},{"type":"Feature","geometry":{"type":"Point","coordinates":[11.7015078,47.3502681]},"properties":{"id":"bikerack:61c86d11-9194-4d7f-9975-8cbc8ee8d6a9","kind":"bikerack","longitude":11.7015078,"latitude":47.3502681,"name":"Biciklitároló","city":"Schwaz","address":null,"covered":true,"access":null,"website":null,"phone":null,"source":"OpenStreetMap/way/1075106366","sourceUpdatedAt":null,"verifiedAt":null}},{"type":"Feature","geometry":{"type":"Point","coordinates":[11.7075868,47.3429939]},"properties":{"id":"bikerack:780278f6-e142-4bd4-8cdc-2c815fb84f6c","kind":"bikerack","longitude":11.7075868,"latitude":47.3429939,"name":"Biciklitároló","city":"Schwaz","address":null,"covered":false,"access":null,"website":null,"phone":null,"source":"OpenStreetMap/node/3265432332","sourceUpdatedAt":null,"verifiedAt":null}},{"type":"Feature","geometry":{"type":"Point","coordinates":[11.7068097,47.3479968]},"properties":{"id":"bikerack:7e890257-dab2-4f21-a882-4c5244a3b869","kind":"bikerack","longitude":11.7068097,"latitude":47.3479968,"name":"Biciklitároló","city":"Schwaz","address":null,"covered":true,"access":null,"website":null,"phone":null,"source":"OpenStreetMap/node/10713168494","sourceUpdatedAt":null,"verifiedAt":null}},{"type":"Feature","geometry":{"type":"Point","coordinates":[11.7042534,47.3516436]},"properties":{"id":"bikerack:c5b1534f-dafe-41ab-a9dd-5d023bd0b7b9","kind":"bikerack","longitude":11.7042534,"latitude":47.3516436,"name":"Biciklitároló","city":"Schwaz","address":null,"covered":false,"access":null,"website":null,"phone":null,"source":"OpenStreetMap/node/11181490337","sourceUpdatedAt":null,"verifiedAt":null}},{"type":"Feature","geometry":{"type":"Point","coordinates":[11.7022518,47.3498162]},"properties":{"id":"bikerack:dcaa88dc-7f5a-4e2c-abdc-a6fbd2d528d4","kind":"bikerack","longitude":11.7022518,"latitude":47.3498162,"name":"Biciklitároló","city":"Schwaz","address":null,"covered":true,"access":null,"website":null,"phone":null,"source":"OpenStreetMap/way/319566737","sourceUpdatedAt":null,"verifiedAt":null}},{"type":"Feature","geometry":{"type":"Point","coordinates":[11.7074301,47.3480164]},"properties":{"id":"bikerack:e42521f8-c830-42d3-893b-b8595a4135d0","kind":"bikerack","longitude":11.7074301,"latitude":47.3480164,"name":"Biciklitároló","city":"Schwaz","address":null,"covered":false,"access":null,"website":null,"phone":null,"source":"OpenStreetMap/way/319676162","sourceUpdatedAt":null,"verifiedAt":null}},{"type":"Feature","geometry":{"type":"Point","coordinates":[11.7042691,47.3517198]},"properties":{"id":"bikerack:e837781e-7835-4e95-bee2-2e18ac6b8e72","kind":"bikerack","longitude":11.7042691,"latitude":47.3517198,"name":"Biciklitároló","city":"Schwaz","address":null,"covered":false,"access":null,"website":null,"phone":null,"source":"OpenStreetMap/node/11181490338","sourceUpdatedAt":null,"verifiedAt":null}},{"type":"Feature","geometry":{"type":"Point","coordinates":[11.7095048,47.3473829]},"properties":{"id":"service:33fb1a0e-2bd6-4ea0-8efc-7c4b0b64cc65","kind":"service","longitude":11.7095048,"latitude":47.3473829,"name":"Probike Schwaz","city":"Schwaz","address":null,"covered":null,"access":null,"website":null,"phone":null,"source":"OpenStreetMap/node/6898844371","sourceUpdatedAt":null,"verifiedAt":null}},{"type":"Feature","geometry":{"type":"Point","coordinates":[11.7050456,47.3469444]},"properties":{"id":"service:f332541e-f631-40ac-9670-a1bd5d43ead8","kind":"service","longitude":11.7050456,"latitude":47.3469444,"name":"Bergböcke","city":"Schwaz","address":null,"covered":null,"access":null,"website":null,"phone":null,"source":"OpenStreetMap/node/8115290325","sourceUpdatedAt":null,"verifiedAt":null}},{"type":"Feature","geometry":{"type":"Point","coordinates":[11.7019659,47.3495372]},"properties":{"id":"water:0b00c5d7-4b6f-46ca-82b4-a0ffe39abbf5","kind":"water","longitude":11.7019659,"latitude":47.3495372,"name":"Ivókút","city":"Schwaz","address":null,"covered":null,"access":null,"website":null,"phone":null,"source":"OpenStreetMap/node/13046444584","sourceUpdatedAt":null,"verifiedAt":null}},{"type":"Feature","geometry":{"type":"Point","coordinates":[11.7090837,47.3390207]},"properties":{"id":"water:2ed07f28-7007-41c2-9070-6ba99e340569","kind":"water","longitude":11.7090837,"latitude":47.3390207,"name":"Ivókút","city":"Schwaz","address":null,"covered":null,"access":null,"website":null,"phone":null,"source":"OpenStreetMap/node/8194521417","sourceUpdatedAt":null,"verifiedAt":null}},{"type":"Feature","geometry":{"type":"Point","coordinates":[11.7136721,47.3454839]},"properties":{"id":"water:2f08465a-afc5-44d8-9323-32d03322a0f6","kind":"water","longitude":11.7136721,"latitude":47.3454839,"name":"Ivókút","city":"Schwaz","address":null,"covered":null,"access":null,"website":null,"phone":null,"source":"OpenStreetMap/node/13112786778","sourceUpdatedAt":null,"verifiedAt":null}},{"type":"Feature","geometry":{"type":"Point","coordinates":[11.7095194,47.3472697]},"properties":{"id":"water:536ea6cf-d7a2-48c3-ba22-6f05a6df2f4f","kind":"water","longitude":11.7095194,"latitude":47.3472697,"name":"Ivókút","city":"Schwaz","address":null,"covered":null,"access":null,"website":null,"phone":null,"source":"OpenStreetMap/node/13112790212","sourceUpdatedAt":null,"verifiedAt":null}},{"type":"Feature","geometry":{"type":"Point","coordinates":[11.7089181,47.346332]},"properties":{"id":"water:54b17338-7de3-492b-903d-5e73b9fb8e82","kind":"water","longitude":11.7089181,"latitude":47.346332,"name":"Ivókút","city":"Schwaz","address":null,"covered":null,"access":null,"website":null,"phone":null,"source":"OpenStreetMap/node/13112722992","sourceUpdatedAt":null,"verifiedAt":null}},{"type":"Feature","geometry":{"type":"Point","coordinates":[11.6923183,47.3456648]},"properties":{"id":"water:6269aa3c-12b5-4eba-ba9a-7fc0f40fe00a","kind":"water","longitude":11.6923183,"latitude":47.3456648,"name":"Ivókút","city":"Vomp","address":null,"covered":null,"access":null,"website":null,"phone":null,"source":"OpenStreetMap/node/5897726985","sourceUpdatedAt":null,"verifiedAt":null}},{"type":"Feature","geometry":{"type":"Point","coordinates":[11.7272679,47.3494633]},"properties":{"id":"water:85e8b24d-7e4d-4214-aa9a-2df557eaf5e2","kind":"water","longitude":11.7272679,"latitude":47.3494633,"name":"Ivókút","city":"Schwaz","address":null,"covered":null,"access":null,"website":null,"phone":null,"source":"OpenStreetMap/node/9869958071","sourceUpdatedAt":null,"verifiedAt":null}},{"type":"Feature","geometry":{"type":"Point","coordinates":[11.7142153,47.3509395]},"properties":{"id":"water:86dbfdd7-4bc5-4e12-b66e-b7f15453cc47","kind":"water","longitude":11.7142153,"latitude":47.3509395,"name":"Unterer Dorfbrunnen","city":"Schwaz","address":null,"covered":null,"access":null,"website":null,"phone":null,"source":"OpenStreetMap/node/1434313672","sourceUpdatedAt":null,"verifiedAt":null}},{"type":"Feature","geometry":{"type":"Point","coordinates":[11.7074288,47.3431231]},"properties":{"id":"water:8ae42511-fb41-466c-abda-dec9ac2442b0","kind":"water","longitude":11.7074288,"latitude":47.3431231,"name":"Ivókút","city":"Schwaz","address":null,"covered":null,"access":null,"website":null,"phone":null,"source":"OpenStreetMap/node/3260071787","sourceUpdatedAt":null,"verifiedAt":null}},{"type":"Feature","geometry":{"type":"Point","coordinates":[11.7214748,47.3493566]},"properties":{"id":"water:8e29a062-9c67-4bf5-9349-cedb85101e45","kind":"water","longitude":11.7214748,"latitude":47.3493566,"name":"Ivókút","city":"Schwaz","address":null,"covered":null,"access":null,"website":null,"phone":null,"source":"OpenStreetMap/node/9892344331","sourceUpdatedAt":null,"verifiedAt":null}},{"type":"Feature","geometry":{"type":"Point","coordinates":[11.6942198,47.3579131]},"properties":{"id":"water:8f51ec33-2c9b-458f-8fc4-768af3f9046b","kind":"water","longitude":11.6942198,"latitude":47.3579131,"name":"Ivókút","city":"Schwaz","address":null,"covered":null,"access":null,"website":null,"phone":null,"source":"OpenStreetMap/node/1389889149","sourceUpdatedAt":null,"verifiedAt":null}},{"type":"Feature","geometry":{"type":"Point","coordinates":[11.7105013,47.3469292]},"properties":{"id":"water:92867d6e-22d5-480b-8f5c-273b25ae7cc6","kind":"water","longitude":11.7105013,"latitude":47.3469292,"name":"Ivókút","city":"Schwaz","address":null,"covered":null,"access":null,"website":null,"phone":null,"source":"OpenStreetMap/node/6011146036","sourceUpdatedAt":null,"verifiedAt":null}},{"type":"Feature","geometry":{"type":"Point","coordinates":[11.704226,47.3516801]},"properties":{"id":"water:92ee2e70-2d9d-4321-b817-f72c0b0223c9","kind":"water","longitude":11.704226,"latitude":47.3516801,"name":"Ivókút","city":"Schwaz","address":null,"covered":null,"access":null,"website":null,"phone":null,"source":"OpenStreetMap/node/11181462836","sourceUpdatedAt":null,"verifiedAt":null}},{"type":"Feature","geometry":{"type":"Point","coordinates":[11.6927389,47.3455341]},"properties":{"id":"water:9b688720-33de-43ab-b74e-604f6c293162","kind":"water","longitude":11.6927389,"latitude":47.3455341,"name":"Ivókút","city":"Vomp","address":null,"covered":null,"access":null,"website":null,"phone":null,"source":"OpenStreetMap/node/5897715586","sourceUpdatedAt":null,"verifiedAt":null}},{"type":"Feature","geometry":{"type":"Point","coordinates":[11.7170692,47.3459112]},"properties":{"id":"water:a2c6c147-8713-4774-b36c-fa70ad22c99e","kind":"water","longitude":11.7170692,"latitude":47.3459112,"name":"Ivókút","city":"Schwaz","address":null,"covered":null,"access":null,"website":null,"phone":null,"source":"OpenStreetMap/node/12774658814","sourceUpdatedAt":null,"verifiedAt":null}},{"type":"Feature","geometry":{"type":"Point","coordinates":[11.6960174,47.3547386]},"properties":{"id":"water:a5648403-d168-4b63-b72b-009824853aed","kind":"water","longitude":11.6960174,"latitude":47.3547386,"name":"Ivókút","city":"Schwaz","address":null,"covered":null,"access":null,"website":null,"phone":null,"source":"OpenStreetMap/node/2641468232","sourceUpdatedAt":null,"verifiedAt":null}},{"type":"Feature","geometry":{"type":"Point","coordinates":[11.715052,47.3502123]},"properties":{"id":"water:a726ae31-d6c4-4f77-812b-eeb005337ef4","kind":"water","longitude":11.715052,"latitude":47.3502123,"name":"Oberer Dorfbrunnen","city":"Schwaz","address":null,"covered":null,"access":null,"website":null,"phone":null,"source":"OpenStreetMap/node/2713786756","sourceUpdatedAt":null,"verifiedAt":null}},{"type":"Feature","geometry":{"type":"Point","coordinates":[11.7213164,47.3685771]},"properties":{"id":"water:bdedcd15-5cb2-4609-98e8-bb63c84b3c63","kind":"water","longitude":11.7213164,"latitude":47.3685771,"name":"Ivókút","city":"Stans","address":null,"covered":null,"access":null,"website":null,"phone":null,"source":"OpenStreetMap/node/11006049009","sourceUpdatedAt":null,"verifiedAt":null}},{"type":"Feature","geometry":{"type":"Point","coordinates":[11.7152952,47.3682308]},"properties":{"id":"water:c26ed195-e36a-4384-b6ad-7f4c6a99cfc1","kind":"water","longitude":11.7152952,"latitude":47.3682308,"name":"Ivókút","city":"Stans","address":null,"covered":null,"access":null,"website":null,"phone":null,"source":"OpenStreetMap/node/1323368140","sourceUpdatedAt":null,"verifiedAt":null}},{"type":"Feature","geometry":{"type":"Point","coordinates":[11.6929515,47.3578]},"properties":{"id":"water:d343709c-32bc-40a4-b9d5-790d52bbdb6b","kind":"water","longitude":11.6929515,"latitude":47.3578,"name":"Ivókút","city":"Schwaz","address":null,"covered":null,"access":null,"website":null,"phone":null,"source":"OpenStreetMap/node/1389888062","sourceUpdatedAt":null,"verifiedAt":null}},{"type":"Feature","geometry":{"type":"Point","coordinates":[11.7146352,47.3469451]},"properties":{"id":"water:d828d384-cd78-4e8f-b0a7-4d566b34f77e","kind":"water","longitude":11.7146352,"latitude":47.3469451,"name":"Ivókút","city":"Schwaz","address":null,"covered":null,"access":null,"website":null,"phone":null,"source":"OpenStreetMap/node/13112786777","sourceUpdatedAt":null,"verifiedAt":null}}]}