{"type":"FeatureCollection","features":[{"type":"Feature","geometry":{"type":"Point","coordinates":[11.7301804,46.1525138]},"properties":{"id":"water:83f49a54-37ec-4e5a-a415-139cb0bc09b9","kind":"water","longitude":11.7301804,"latitude":46.1525138,"name":"Fontanella","city":"Canal San Bovo","address":null,"covered":null,"access":null,"website":null,"phone":null,"source":"OpenStreetMap/node/9217792162","sourceUpdatedAt":null,"verifiedAt":null}},{"type":"Feature","geometry":{"type":"Point","coordinates":[11.7304729,46.155264]},"properties":{"id":"water:a73b666a-baea-4712-b4df-67366cb9e1be","kind":"water","longitude":11.7304729,"latitude":46.155264,"name":"Fontanella","city":"Canal San Bovo","address":null,"covered":null,"access":null,"website":null,"phone":null,"source":"OpenStreetMap/node/6851542198","sourceUpdatedAt":null,"verifiedAt":null}},{"type":"Feature","geometry":{"type":"Point","coordinates":[11.7237906,46.156345]},"properties":{"id":"water:c4367499-6963-4ca2-89e6-0fb4fba494aa","kind":"water","longitude":11.7237906,"latitude":46.156345,"name":"Fontanella","city":"Canal San Bovo","address":null,"covered":null,"access":null,"website":null,"phone":null,"source":"OpenStreetMap/node/9217812647","sourceUpdatedAt":null,"verifiedAt":null}},{"type":"Feature","geometry":{"type":"Point","coordinates":[11.7308949,46.1565118]},"properties":{"id":"water:d1c4ba27-5f15-4b79-b677-62385d0743ab","kind":"water","longitude":11.7308949,"latitude":46.1565118,"name":"Fontanella","city":"Canal San Bovo","address":null,"covered":null,"access":null,"website":null,"phone":null,"source":"OpenStreetMap/node/6851542199","sourceUpdatedAt":null,"verifiedAt":null}},{"type":"Feature","geometry":{"type":"Point","coordinates":[11.7328738,46.1549481]},"properties":{"id":"water:f052bafe-4af1-4228-bded-62fe19e2d377","kind":"water","longitude":11.7328738,"latitude":46.1549481,"name":"Fontanella","city":"Canal San Bovo","address":null,"covered":null,"access":null,"website":null,"phone":null,"source":"OpenStreetMap/node/5841290546","sourceUpdatedAt":null,"verifiedAt":null}}]}