{"type":"FeatureCollection","features":[{"type":"Feature","geometry":{"type":"Point","coordinates":[11.7178029,46.0442186]},"properties":{"id":"water:0aaa37c4-fbff-4833-8fd5-ccdf841cdc2f","kind":"water","longitude":11.7178029,"latitude":46.0442186,"name":"Fontanella","city":"Lamon","address":null,"covered":null,"access":null,"website":null,"phone":null,"source":"OpenStreetMap/node/4318747480","sourceUpdatedAt":null,"verifiedAt":null}},{"type":"Feature","geometry":{"type":"Point","coordinates":[11.699389,46.0591744]},"properties":{"id":"water:4e5c61e1-67a0-4829-b0a0-49ee89fc4998","kind":"water","longitude":11.699389,"latitude":46.0591744,"name":"Fontanella","city":"Lamon","address":null,"covered":null,"access":null,"website":null,"phone":null,"source":"OpenStreetMap/node/6965835843","sourceUpdatedAt":null,"verifiedAt":null}},{"type":"Feature","geometry":{"type":"Point","coordinates":[11.7040608,46.0618485]},"properties":{"id":"water:89847362-2cd3-4a59-bb57-360a513a0cc0","kind":"water","longitude":11.7040608,"latitude":46.0618485,"name":"Fontanella","city":"Lamon","address":null,"covered":null,"access":null,"website":null,"phone":null,"source":"OpenStreetMap/node/4439767439","sourceUpdatedAt":null,"verifiedAt":null}},{"type":"Feature","geometry":{"type":"Point","coordinates":[11.7103465,46.0441399]},"properties":{"id":"water:bd4fb417-d601-46ae-b5fd-d073a9ae0934","kind":"water","longitude":11.7103465,"latitude":46.0441399,"name":"Fontanella","city":"Lamon","address":null,"covered":null,"access":null,"website":null,"phone":null,"source":"OpenStreetMap/node/4318747479","sourceUpdatedAt":null,"verifiedAt":null}},{"type":"Feature","geometry":{"type":"Point","coordinates":[11.7046498,46.0546997]},"properties":{"id":"water:d3396bdf-c367-4456-9374-b655aaf1b68a","kind":"water","longitude":11.7046498,"latitude":46.0546997,"name":"Fontanella","city":"Lamon","address":null,"covered":null,"access":null,"website":null,"phone":null,"source":"OpenStreetMap/node/6965835839","sourceUpdatedAt":null,"verifiedAt":null}}]}