{"type":"FeatureCollection","features":[{"type":"Feature","geometry":{"type":"Point","coordinates":[19.4208758,50.6216016]},"properties":{"id":"bikerack:327889d0-3edb-47b2-843d-f6e301700868","kind":"bikerack","longitude":19.4208758,"latitude":50.6216016,"name":"Biciklitároló","city":"Zarki","address":null,"covered":false,"access":null,"website":null,"phone":null,"source":"OpenStreetMap/node/11227501464","sourceUpdatedAt":null,"verifiedAt":null}},{"type":"Feature","geometry":{"type":"Point","coordinates":[19.3963896,50.6226836]},"properties":{"id":"bikerack:77a3c872-8d3f-4e46-9028-e3d27a4e653f","kind":"bikerack","longitude":19.3963896,"latitude":50.6226836,"name":"Biciklitároló","city":"Zarki","address":null,"covered":false,"access":null,"website":null,"phone":null,"source":"OpenStreetMap/node/11227501465","sourceUpdatedAt":null,"verifiedAt":null}}]}