{"type":"FeatureCollection","features":[{"type":"Feature","geometry":{"type":"Point","coordinates":[19.4059767,50.1434876]},"properties":{"id":"bikerack:0268b12c-1041-492a-9c19-a9201d8dbc61","kind":"bikerack","longitude":19.4059767,"latitude":50.1434876,"name":"Biciklitároló","city":"Chrzanow","address":null,"covered":false,"access":null,"website":null,"phone":null,"source":"OpenStreetMap/node/10612467869","sourceUpdatedAt":null,"verifiedAt":null}},{"type":"Feature","geometry":{"type":"Point","coordinates":[19.4143957,50.1416909]},"properties":{"id":"bikerack:053048fc-5744-41aa-a5e5-405f4eb88ee6","kind":"bikerack","longitude":19.4143957,"latitude":50.1416909,"name":"Biciklitároló","city":"Chrzanow","address":null,"covered":false,"access":null,"website":null,"phone":null,"source":"OpenStreetMap/node/5627270481","sourceUpdatedAt":null,"verifiedAt":null}},{"type":"Feature","geometry":{"type":"Point","coordinates":[19.406733,50.1442022]},"properties":{"id":"bikerack:09ec8f93-5840-4da9-8744-f04799569794","kind":"bikerack","longitude":19.406733,"latitude":50.1442022,"name":"Biciklitároló","city":"Chrzanow","address":null,"covered":false,"access":null,"website":null,"phone":null,"source":"OpenStreetMap/node/4268430077","sourceUpdatedAt":null,"verifiedAt":null}},{"type":"Feature","geometry":{"type":"Point","coordinates":[19.4150297,50.1437267]},"properties":{"id":"bikerack:18f9d74d-9536-46c5-ab4a-ce8bd37f680f","kind":"bikerack","longitude":19.4150297,"latitude":50.1437267,"name":"Biciklitároló","city":"Chrzanow","address":null,"covered":false,"access":null,"website":null,"phone":null,"source":"OpenStreetMap/node/2541127111","sourceUpdatedAt":null,"verifiedAt":null}},{"type":"Feature","geometry":{"type":"Point","coordinates":[19.4122218,50.1328662]},"properties":{"id":"bikerack:1f833ae9-9262-463b-bda7-b7096ee567bb","kind":"bikerack","longitude":19.4122218,"latitude":50.1328662,"name":"Biciklitároló","city":"Chrzanow","address":null,"covered":false,"access":null,"website":null,"phone":null,"source":"OpenStreetMap/node/11153679257","sourceUpdatedAt":null,"verifiedAt":null}},{"type":"Feature","geometry":{"type":"Point","coordinates":[19.4064553,50.1433885]},"properties":{"id":"bikerack:200c1d9a-16f2-4243-ba00-ccd179bc7659","kind":"bikerack","longitude":19.4064553,"latitude":50.1433885,"name":"Biciklitároló","city":"Chrzanow","address":null,"covered":false,"access":null,"website":null,"phone":null,"source":"OpenStreetMap/node/8578904771","sourceUpdatedAt":null,"verifiedAt":null}},{"type":"Feature","geometry":{"type":"Point","coordinates":[19.3823388,50.1228709]},"properties":{"id":"bikerack:20c56f1b-8581-472b-9b83-7a290248de62","kind":"bikerack","longitude":19.3823388,"latitude":50.1228709,"name":"Biciklitároló","city":"Chrzanow","address":null,"covered":false,"access":null,"website":null,"phone":null,"source":"OpenStreetMap/node/7681069911","sourceUpdatedAt":null,"verifiedAt":null}},{"type":"Feature","geometry":{"type":"Point","coordinates":[19.414325,50.1416172]},"properties":{"id":"bikerack:20e6fb58-6541-479b-b1e8-72b031848118","kind":"bikerack","longitude":19.414325,"latitude":50.1416172,"name":"Biciklitároló","city":"Chrzanow","address":null,"covered":false,"access":null,"website":null,"phone":null,"source":"OpenStreetMap/node/5627270480","sourceUpdatedAt":null,"verifiedAt":null}},{"type":"Feature","geometry":{"type":"Point","coordinates":[19.4102648,50.1435846]},"properties":{"id":"bikerack:2f430e07-e1d9-4d80-a774-b6756cb442f0","kind":"bikerack","longitude":19.4102648,"latitude":50.1435846,"name":"Biciklitároló","city":"Chrzanow","address":null,"covered":true,"access":null,"website":null,"phone":null,"source":"OpenStreetMap/node/8237404653","sourceUpdatedAt":null,"verifiedAt":null}},{"type":"Feature","geometry":{"type":"Point","coordinates":[19.4005955,50.1358095]},"properties":{"id":"bikerack:31350ba4-a619-4196-8635-5db434e99aff","kind":"bikerack","longitude":19.4005955,"latitude":50.1358095,"name":"Biciklitároló","city":"Chrzanow","address":null,"covered":false,"access":null,"website":null,"phone":null,"source":"OpenStreetMap/node/3610902461","sourceUpdatedAt":null,"verifiedAt":null}},{"type":"Feature","geometry":{"type":"Point","coordinates":[19.4067725,50.1260236]},"properties":{"id":"bikerack:317bd4a7-56db-4e8f-a409-6cd30a1d054c","kind":"bikerack","longitude":19.4067725,"latitude":50.1260236,"name":"Biciklitároló","city":"Chrzanow","address":null,"covered":false,"access":null,"website":null,"phone":null,"source":"OpenStreetMap/node/5784960660","sourceUpdatedAt":null,"verifiedAt":null}},{"type":"Feature","geometry":{"type":"Point","coordinates":[19.4125572,50.1438839]},"properties":{"id":"bikerack:34d5ad8f-45fb-4a03-a43f-9fee62a680ef","kind":"bikerack","longitude":19.4125572,"latitude":50.1438839,"name":"Biciklitároló","city":"Chrzanow","address":null,"covered":false,"access":null,"website":null,"phone":null,"source":"OpenStreetMap/node/6807958990","sourceUpdatedAt":null,"verifiedAt":null}},{"type":"Feature","geometry":{"type":"Point","coordinates":[19.4028465,50.1415873]},"properties":{"id":"bikerack:36c489cc-6f33-4c73-821d-98b629269800","kind":"bikerack","longitude":19.4028465,"latitude":50.1415873,"name":"Biciklitároló","city":"Chrzanow","address":null,"covered":false,"access":null,"website":null,"phone":null,"source":"OpenStreetMap/node/7730209131","sourceUpdatedAt":null,"verifiedAt":null}},{"type":"Feature","geometry":{"type":"Point","coordinates":[19.4017348,50.1411823]},"properties":{"id":"bikerack:3780c407-ff9d-417a-9bad-41421ece93a1","kind":"bikerack","longitude":19.4017348,"latitude":50.1411823,"name":"Biciklitároló","city":"Chrzanow","address":null,"covered":false,"access":null,"website":null,"phone":null,"source":"OpenStreetMap/node/4708892579","sourceUpdatedAt":null,"verifiedAt":null}},{"type":"Feature","geometry":{"type":"Point","coordinates":[19.4112057,50.1445616]},"properties":{"id":"bikerack:38ce7fd8-3722-472b-9a18-e09bb87d12cd","kind":"bikerack","longitude":19.4112057,"latitude":50.1445616,"name":"Biciklitároló","city":"Chrzanow","address":null,"covered":false,"access":null,"website":null,"phone":null,"source":"OpenStreetMap/node/8446364840","sourceUpdatedAt":null,"verifiedAt":null}},{"type":"Feature","geometry":{"type":"Point","coordinates":[19.4060632,50.1285695]},"properties":{"id":"bikerack:3b106390-0c98-4c8b-9aed-712d269e2626","kind":"bikerack","longitude":19.4060632,"latitude":50.1285695,"name":"Biciklitároló","city":"Chrzanow","address":null,"covered":false,"access":null,"website":null,"phone":null,"source":"OpenStreetMap/node/11484006895","sourceUpdatedAt":null,"verifiedAt":null}},{"type":"Feature","geometry":{"type":"Point","coordinates":[19.4085136,50.143037]},"properties":{"id":"bikerack:3c625970-ea90-4772-b569-a41c9632059c","kind":"bikerack","longitude":19.4085136,"latitude":50.143037,"name":"Biciklitároló","city":"Chrzanow","address":null,"covered":false,"access":null,"website":null,"phone":null,"source":"OpenStreetMap/node/11297975602","sourceUpdatedAt":null,"verifiedAt":null}},{"type":"Feature","geometry":{"type":"Point","coordinates":[19.4063197,50.1283819]},"properties":{"id":"bikerack:3e29033d-82ee-4708-a530-57017cc3307f","kind":"bikerack","longitude":19.4063197,"latitude":50.1283819,"name":"Biciklitároló","city":"Chrzanow","address":null,"covered":false,"access":null,"website":null,"phone":null,"source":"OpenStreetMap/node/10313212761","sourceUpdatedAt":null,"verifiedAt":null}},{"type":"Feature","geometry":{"type":"Point","coordinates":[19.4209374,50.1459914]},"properties":{"id":"bikerack:3ff55b3d-a9e2-41b6-a595-4d7fd7859995","kind":"bikerack","longitude":19.4209374,"latitude":50.1459914,"name":"Biciklitároló","city":"Chrzanow","address":null,"covered":false,"access":null,"website":null,"phone":null,"source":"OpenStreetMap/node/4895243290","sourceUpdatedAt":null,"verifiedAt":null}},{"type":"Feature","geometry":{"type":"Point","coordinates":[19.416209,50.1343343]},"properties":{"id":"bikerack:462fb72e-8f2c-4aed-a63e-821105a4b726","kind":"bikerack","longitude":19.416209,"latitude":50.1343343,"name":"Biciklitároló","city":"Chrzanow","address":null,"covered":false,"access":null,"website":null,"phone":null,"source":"OpenStreetMap/node/9672086000","sourceUpdatedAt":null,"verifiedAt":null}},{"type":"Feature","geometry":{"type":"Point","coordinates":[19.4081739,50.1349642]},"properties":{"id":"bikerack:4888d51d-87de-4a85-8fef-8c115ccafa4e","kind":"bikerack","longitude":19.4081739,"latitude":50.1349642,"name":"Biciklitároló","city":"Chrzanow","address":null,"covered":true,"access":null,"website":null,"phone":null,"source":"OpenStreetMap/node/5206898930","sourceUpdatedAt":null,"verifiedAt":null}},{"type":"Feature","geometry":{"type":"Point","coordinates":[19.4008633,50.1396147]},"properties":{"id":"bikerack:53fbc3e6-b2bd-476f-9069-6c9bdbe01bfe","kind":"bikerack","longitude":19.4008633,"latitude":50.1396147,"name":"Biciklitároló","city":"Chrzanow","address":null,"covered":false,"access":null,"website":null,"phone":null,"source":"OpenStreetMap/node/9987690847","sourceUpdatedAt":null,"verifiedAt":null}},{"type":"Feature","geometry":{"type":"Point","coordinates":[19.4020533,50.1435292]},"properties":{"id":"bikerack:5ac59698-41b5-4339-8123-6cb4712e5b7a","kind":"bikerack","longitude":19.4020533,"latitude":50.1435292,"name":"Biciklitároló","city":"Chrzanow","address":null,"covered":false,"access":null,"website":null,"phone":null,"source":"OpenStreetMap/node/5751127296","sourceUpdatedAt":null,"verifiedAt":null}},{"type":"Feature","geometry":{"type":"Point","coordinates":[19.4062331,50.1433909]},"properties":{"id":"bikerack:6531ca8e-ff1c-46e3-86ba-eac88c9c708b","kind":"bikerack","longitude":19.4062331,"latitude":50.1433909,"name":"Biciklitároló","city":"Chrzanow","address":null,"covered":false,"access":null,"website":null,"phone":null,"source":"OpenStreetMap/node/7711729839","sourceUpdatedAt":null,"verifiedAt":null}},{"type":"Feature","geometry":{"type":"Point","coordinates":[19.3950918,50.1241182]},"properties":{"id":"bikerack:665f640c-c14b-4778-98d5-29da70472a9a","kind":"bikerack","longitude":19.3950918,"latitude":50.1241182,"name":"Biciklitároló","city":"Chrzanow","address":null,"covered":false,"access":null,"website":null,"phone":null,"source":"OpenStreetMap/node/4321918733","sourceUpdatedAt":null,"verifiedAt":null}},{"type":"Feature","geometry":{"type":"Point","coordinates":[19.3999133,50.1389805]},"properties":{"id":"bikerack:67d97b4a-aecc-4b9f-85a2-f10baa8da351","kind":"bikerack","longitude":19.3999133,"latitude":50.1389805,"name":"Biciklitároló","city":"Chrzanow","address":null,"covered":false,"access":null,"website":null,"phone":null,"source":"OpenStreetMap/node/5206907950","sourceUpdatedAt":null,"verifiedAt":null}},{"type":"Feature","geometry":{"type":"Point","coordinates":[19.3988849,50.1341188]},"properties":{"id":"bikerack:6d8a4395-f3d9-4f45-9b8a-e33834710378","kind":"bikerack","longitude":19.3988849,"latitude":50.1341188,"name":"Biciklitároló","city":"Chrzanow","address":null,"covered":false,"access":null,"website":null,"phone":null,"source":"OpenStreetMap/node/9990174746","sourceUpdatedAt":null,"verifiedAt":null}},{"type":"Feature","geometry":{"type":"Point","coordinates":[19.4084914,50.1434156]},"properties":{"id":"bikerack:71af294d-2783-40db-b17a-c246f86a556c","kind":"bikerack","longitude":19.4084914,"latitude":50.1434156,"name":"Biciklitároló","city":"Chrzanow","address":null,"covered":false,"access":null,"website":null,"phone":null,"source":"OpenStreetMap/node/7649695579","sourceUpdatedAt":null,"verifiedAt":null}},{"type":"Feature","geometry":{"type":"Point","coordinates":[19.4213224,50.1403141]},"properties":{"id":"bikerack:72d5b5e2-42e7-40bd-bf07-c8f807cf3f14","kind":"bikerack","longitude":19.4213224,"latitude":50.1403141,"name":"Biciklitároló","city":"Chrzanow","address":null,"covered":false,"access":null,"website":null,"phone":null,"source":"OpenStreetMap/node/8650896916","sourceUpdatedAt":null,"verifiedAt":null}},{"type":"Feature","geometry":{"type":"Point","coordinates":[19.4057507,50.1423634]},"properties":{"id":"bikerack:74166efd-10eb-48d4-aa02-409efef72df6","kind":"bikerack","longitude":19.4057507,"latitude":50.1423634,"name":"Biciklitároló","city":"Chrzanow","address":null,"covered":false,"access":null,"website":null,"phone":null,"source":"OpenStreetMap/node/4119663112","sourceUpdatedAt":null,"verifiedAt":null}},{"type":"Feature","geometry":{"type":"Point","coordinates":[19.4079873,50.1369614]},"properties":{"id":"bikerack:782d827c-72bd-4dbe-ac64-2c2e5e574f15","kind":"bikerack","longitude":19.4079873,"latitude":50.1369614,"name":"Biciklitároló","city":"Chrzanow","address":null,"covered":false,"access":null,"website":null,"phone":null,"source":"OpenStreetMap/node/11781216670","sourceUpdatedAt":null,"verifiedAt":null}},{"type":"Feature","geometry":{"type":"Point","coordinates":[19.4025345,50.1409777]},"properties":{"id":"bikerack:7ac611fa-7fd5-4657-a4c6-8bb749896b23","kind":"bikerack","longitude":19.4025345,"latitude":50.1409777,"name":"Biciklitároló","city":"Chrzanow","address":null,"covered":false,"access":null,"website":null,"phone":null,"source":"OpenStreetMap/node/13248980397","sourceUpdatedAt":null,"verifiedAt":null}},{"type":"Feature","geometry":{"type":"Point","coordinates":[19.4138584,50.1437559]},"properties":{"id":"bikerack:81d681b8-7b9a-408d-993a-010cfdaa9fa5","kind":"bikerack","longitude":19.4138584,"latitude":50.1437559,"name":"Biciklitároló","city":"Chrzanow","address":null,"covered":false,"access":null,"website":null,"phone":null,"source":"OpenStreetMap/node/13002788727","sourceUpdatedAt":null,"verifiedAt":null}},{"type":"Feature","geometry":{"type":"Point","coordinates":[19.4017651,50.1412467]},"properties":{"id":"bikerack:9319499f-d098-452f-91ca-00297223af7e","kind":"bikerack","longitude":19.4017651,"latitude":50.1412467,"name":"Biciklitároló","city":"Chrzanow","address":null,"covered":false,"access":null,"website":null,"phone":null,"source":"OpenStreetMap/node/4708892580","sourceUpdatedAt":null,"verifiedAt":null}},{"type":"Feature","geometry":{"type":"Point","coordinates":[19.4061193,50.1417776]},"properties":{"id":"bikerack:96e3cd8c-c78a-477d-b794-3091e0a941cf","kind":"bikerack","longitude":19.4061193,"latitude":50.1417776,"name":"Biciklitároló","city":"Chrzanow","address":null,"covered":false,"access":null,"website":null,"phone":null,"source":"OpenStreetMap/node/7547246907","sourceUpdatedAt":null,"verifiedAt":null}},{"type":"Feature","geometry":{"type":"Point","coordinates":[19.4063229,50.1442411]},"properties":{"id":"bikerack:9c3ec2d9-7aa3-403e-8c51-5ff99c2e33cc","kind":"bikerack","longitude":19.4063229,"latitude":50.1442411,"name":"Biciklitároló","city":"Chrzanow","address":null,"covered":false,"access":null,"website":null,"phone":null,"source":"OpenStreetMap/node/6068414013","sourceUpdatedAt":null,"verifiedAt":null}},{"type":"Feature","geometry":{"type":"Point","coordinates":[19.4079486,50.1423467]},"properties":{"id":"bikerack:9ce36b13-2461-4a3c-ab63-0ec4b6bb0fda","kind":"bikerack","longitude":19.4079486,"latitude":50.1423467,"name":"Biciklitároló","city":"Chrzanow","address":null,"covered":false,"access":null,"website":null,"phone":null,"source":"OpenStreetMap/node/4034938803","sourceUpdatedAt":null,"verifiedAt":null}},{"type":"Feature","geometry":{"type":"Point","coordinates":[19.3835721,50.144235]},"properties":{"id":"bikerack:9dd9edb5-48f6-4170-b4d6-7de6a499eb6c","kind":"bikerack","longitude":19.3835721,"latitude":50.144235,"name":"Biciklitároló","city":"Chrzanow","address":null,"covered":false,"access":null,"website":null,"phone":null,"source":"OpenStreetMap/node/6274408543","sourceUpdatedAt":null,"verifiedAt":null}},{"type":"Feature","geometry":{"type":"Point","coordinates":[19.3974617,50.1444252]},"properties":{"id":"bikerack:a3dbb1f5-0a4a-4772-b1b2-826d87194a88","kind":"bikerack","longitude":19.3974617,"latitude":50.1444252,"name":"Biciklitároló","city":"Chrzanow","address":null,"covered":false,"access":null,"website":null,"phone":null,"source":"OpenStreetMap/node/5153306775","sourceUpdatedAt":null,"verifiedAt":null}},{"type":"Feature","geometry":{"type":"Point","coordinates":[19.4081536,50.134891]},"properties":{"id":"bikerack:ac6f4ce7-935c-415b-a46a-7c36da9768c3","kind":"bikerack","longitude":19.4081536,"latitude":50.134891,"name":"Biciklitároló","city":"Chrzanow","address":null,"covered":false,"access":null,"website":null,"phone":null,"source":"OpenStreetMap/node/12959284226","sourceUpdatedAt":null,"verifiedAt":null}},{"type":"Feature","geometry":{"type":"Point","coordinates":[19.4080285,50.1429109]},"properties":{"id":"bikerack:afe2f3bd-053c-4069-ba9f-c3292dea6469","kind":"bikerack","longitude":19.4080285,"latitude":50.1429109,"name":"Biciklitároló","city":"Chrzanow","address":null,"covered":false,"access":null,"website":null,"phone":null,"source":"OpenStreetMap/node/7600324017","sourceUpdatedAt":null,"verifiedAt":null}},{"type":"Feature","geometry":{"type":"Point","coordinates":[19.4133094,50.1437899]},"properties":{"id":"bikerack:bcf78b6f-4aff-4640-98ae-a7ec0d0906f8","kind":"bikerack","longitude":19.4133094,"latitude":50.1437899,"name":"Biciklitároló","city":"Chrzanow","address":null,"covered":false,"access":null,"website":null,"phone":null,"source":"OpenStreetMap/node/13267604295","sourceUpdatedAt":null,"verifiedAt":null}},{"type":"Feature","geometry":{"type":"Point","coordinates":[19.4112004,50.1453126]},"properties":{"id":"bikerack:c33ecb23-2612-41a2-988c-33e1c58bf60e","kind":"bikerack","longitude":19.4112004,"latitude":50.1453126,"name":"Biciklitároló","city":"Chrzanow","address":null,"covered":false,"access":null,"website":null,"phone":null,"source":"OpenStreetMap/node/11348606007","sourceUpdatedAt":null,"verifiedAt":null}},{"type":"Feature","geometry":{"type":"Point","coordinates":[19.4222155,50.1372172]},"properties":{"id":"bikerack:c3e709ee-8ea9-4725-867f-09b46af2038c","kind":"bikerack","longitude":19.4222155,"latitude":50.1372172,"name":"Biciklitároló","city":"Chrzanow","address":null,"covered":false,"access":null,"website":null,"phone":null,"source":"OpenStreetMap/node/7595527378","sourceUpdatedAt":null,"verifiedAt":null}},{"type":"Feature","geometry":{"type":"Point","coordinates":[19.4146759,50.1414256]},"properties":{"id":"bikerack:c912ba65-087c-4403-bf63-1608f8c02c9d","kind":"bikerack","longitude":19.4146759,"latitude":50.1414256,"name":"Biciklitároló","city":"Chrzanow","address":null,"covered":true,"access":null,"website":null,"phone":null,"source":"OpenStreetMap/node/4551062909","sourceUpdatedAt":null,"verifiedAt":null}},{"type":"Feature","geometry":{"type":"Point","coordinates":[19.4129475,50.1419614]},"properties":{"id":"bikerack:cf471df8-225a-405f-9466-4faf388c52cd","kind":"bikerack","longitude":19.4129475,"latitude":50.1419614,"name":"Biciklitároló","city":"Chrzanow","address":null,"covered":false,"access":null,"website":null,"phone":null,"source":"OpenStreetMap/node/4712309664","sourceUpdatedAt":null,"verifiedAt":null}},{"type":"Feature","geometry":{"type":"Point","coordinates":[19.399015,50.1364709]},"properties":{"id":"bikerack:db39d8d8-ec29-49ae-884a-0d4dacb86fc8","kind":"bikerack","longitude":19.399015,"latitude":50.1364709,"name":"Biciklitároló","city":"Chrzanow","address":null,"covered":false,"access":null,"website":null,"phone":null,"source":"OpenStreetMap/node/10605006579","sourceUpdatedAt":null,"verifiedAt":null}},{"type":"Feature","geometry":{"type":"Point","coordinates":[19.4149507,50.1433323]},"properties":{"id":"bikerack:dd3a8feb-90e3-409e-a3c4-3bd4fda3675c","kind":"bikerack","longitude":19.4149507,"latitude":50.1433323,"name":"Biciklitároló","city":"Chrzanow","address":null,"covered":true,"access":null,"website":null,"phone":null,"source":"OpenStreetMap/node/2613569064","sourceUpdatedAt":null,"verifiedAt":null}},{"type":"Feature","geometry":{"type":"Point","coordinates":[19.4134743,50.1418299]},"properties":{"id":"bikerack:df88a4c4-756f-4207-b9c7-7584b673cb4c","kind":"bikerack","longitude":19.4134743,"latitude":50.1418299,"name":"Biciklitároló","city":"Chrzanow","address":null,"covered":true,"access":null,"website":null,"phone":null,"source":"OpenStreetMap/node/5222911755","sourceUpdatedAt":null,"verifiedAt":null}},{"type":"Feature","geometry":{"type":"Point","coordinates":[19.4079915,50.1288829]},"properties":{"id":"bikerack:e366e9cf-ce5a-4cbf-a93a-57ee195dd468","kind":"bikerack","longitude":19.4079915,"latitude":50.1288829,"name":"Biciklitároló","city":"Chrzanow","address":null,"covered":false,"access":null,"website":null,"phone":null,"source":"OpenStreetMap/node/9465807757","sourceUpdatedAt":null,"verifiedAt":null}},{"type":"Feature","geometry":{"type":"Point","coordinates":[19.4177073,50.1421349]},"properties":{"id":"bikerack:e48e434f-d3fc-49a4-b86b-c6f5f5e89365","kind":"bikerack","longitude":19.4177073,"latitude":50.1421349,"name":"Biciklitároló","city":"Chrzanow","address":null,"covered":false,"access":null,"website":null,"phone":null,"source":"OpenStreetMap/node/8868712274","sourceUpdatedAt":null,"verifiedAt":null}},{"type":"Feature","geometry":{"type":"Point","coordinates":[19.4133203,50.1438229]},"properties":{"id":"bikerack:e5698f91-7d39-4858-bdc0-f88e2b90bd8f","kind":"bikerack","longitude":19.4133203,"latitude":50.1438229,"name":"Biciklitároló","city":"Chrzanow","address":null,"covered":false,"access":null,"website":null,"phone":null,"source":"OpenStreetMap/node/13267604294","sourceUpdatedAt":null,"verifiedAt":null}},{"type":"Feature","geometry":{"type":"Point","coordinates":[19.3830794,50.1229443]},"properties":{"id":"bikerack:e96d5937-e230-44c9-8625-9e222074cd57","kind":"bikerack","longitude":19.3830794,"latitude":50.1229443,"name":"Biciklitároló","city":"Chrzanow","address":null,"covered":false,"access":null,"website":null,"phone":null,"source":"OpenStreetMap/node/10235584850","sourceUpdatedAt":null,"verifiedAt":null}},{"type":"Feature","geometry":{"type":"Point","coordinates":[19.413908,50.1423389]},"properties":{"id":"bikerack:edc00e98-b87a-48fa-8181-2d710287cc1e","kind":"bikerack","longitude":19.413908,"latitude":50.1423389,"name":"Biciklitároló","city":"Chrzanow","address":null,"covered":false,"access":null,"website":null,"phone":null,"source":"OpenStreetMap/node/4268448307","sourceUpdatedAt":null,"verifiedAt":null}},{"type":"Feature","geometry":{"type":"Point","coordinates":[19.3972266,50.1367125]},"properties":{"id":"bikerack:effd4969-7d2f-495b-bf45-0bb46f73d780","kind":"bikerack","longitude":19.3972266,"latitude":50.1367125,"name":"Biciklitároló","city":"Chrzanow","address":null,"covered":false,"access":null,"website":null,"phone":null,"source":"OpenStreetMap/node/4734387815","sourceUpdatedAt":null,"verifiedAt":null}},{"type":"Feature","geometry":{"type":"Point","coordinates":[19.4065767,50.1260357]},"properties":{"id":"bikerack:f0b43bd9-2f5b-4f1c-be0c-b12507e514b9","kind":"bikerack","longitude":19.4065767,"latitude":50.1260357,"name":"Biciklitároló","city":"Chrzanow","address":null,"covered":false,"access":null,"website":null,"phone":null,"source":"OpenStreetMap/node/5784960661","sourceUpdatedAt":null,"verifiedAt":null}},{"type":"Feature","geometry":{"type":"Point","coordinates":[19.4125034,50.1421004]},"properties":{"id":"bikerack:f0e61d93-dd6e-4956-9935-c8de98afbe5b","kind":"bikerack","longitude":19.4125034,"latitude":50.1421004,"name":"Biciklitároló","city":"Chrzanow","address":null,"covered":false,"access":null,"website":null,"phone":null,"source":"OpenStreetMap/node/4712305322","sourceUpdatedAt":null,"verifiedAt":null}},{"type":"Feature","geometry":{"type":"Point","coordinates":[19.4130749,50.1323576]},"properties":{"id":"bikerack:f12e4a42-0d6a-4093-a71a-7e123d564eda","kind":"bikerack","longitude":19.4130749,"latitude":50.1323576,"name":"Biciklitároló","city":"Chrzanow","address":null,"covered":false,"access":null,"website":null,"phone":null,"source":"OpenStreetMap/node/3666737478","sourceUpdatedAt":null,"verifiedAt":null}},{"type":"Feature","geometry":{"type":"Point","coordinates":[19.4080696,50.1423079]},"properties":{"id":"bikerack:f2edda65-a2bd-4564-a9f0-ac8cdd4f93d2","kind":"bikerack","longitude":19.4080696,"latitude":50.1423079,"name":"Biciklitároló","city":"Chrzanow","address":null,"covered":false,"access":null,"website":null,"phone":null,"source":"OpenStreetMap/node/3650424953","sourceUpdatedAt":null,"verifiedAt":null}},{"type":"Feature","geometry":{"type":"Point","coordinates":[19.40921,50.1291615]},"properties":{"id":"bikerack:fb81ce7c-5d36-4024-aff9-ddd4e790c12c","kind":"bikerack","longitude":19.40921,"latitude":50.1291615,"name":"Biciklitároló","city":"Chrzanow","address":null,"covered":false,"access":null,"website":null,"phone":null,"source":"OpenStreetMap/node/4864746406","sourceUpdatedAt":null,"verifiedAt":null}},{"type":"Feature","geometry":{"type":"Point","coordinates":[19.3958348,50.1414219]},"properties":{"id":"bikerack:fe29d99b-6e8d-49da-9821-6cd3c731b73d","kind":"bikerack","longitude":19.3958348,"latitude":50.1414219,"name":"Biciklitároló","city":"Chrzanow","address":null,"covered":false,"access":null,"website":null,"phone":null,"source":"OpenStreetMap/node/4217230485","sourceUpdatedAt":null,"verifiedAt":null}},{"type":"Feature","geometry":{"type":"Point","coordinates":[19.4177073,50.1421805]},"properties":{"id":"repair:0a747499-f21a-48c9-813f-c619250d9969","kind":"repair","longitude":19.4177073,"latitude":50.1421805,"name":"Kerékpár szervizállomás","city":"Chrzanow","address":null,"covered":false,"access":null,"website":null,"phone":null,"source":"OpenStreetMap/node/8868712275","sourceUpdatedAt":null,"verifiedAt":null}},{"type":"Feature","geometry":{"type":"Point","coordinates":[19.4132835,50.1443225]},"properties":{"id":"repair:5695ceb0-958d-42d2-bce3-dd2a713c1855","kind":"repair","longitude":19.4132835,"latitude":50.1443225,"name":"Kerékpár szervizállomás","city":"Chrzanow","address":null,"covered":false,"access":null,"website":null,"phone":null,"source":"OpenStreetMap/node/9238266308","sourceUpdatedAt":null,"verifiedAt":null}},{"type":"Feature","geometry":{"type":"Point","coordinates":[19.4139165,50.142307]},"properties":{"id":"repair:5b75f907-4759-4701-a1b9-3d73666083e5","kind":"repair","longitude":19.4139165,"latitude":50.142307,"name":"Kerékpár szervizállomás","city":"Chrzanow","address":null,"covered":false,"access":null,"website":null,"phone":null,"source":"OpenStreetMap/node/5723925653","sourceUpdatedAt":null,"verifiedAt":null}},{"type":"Feature","geometry":{"type":"Point","coordinates":[19.3958383,50.1414284]},"properties":{"id":"repair:e30f3cfc-eea9-481a-8dd1-0f5c23e91e2b","kind":"repair","longitude":19.3958383,"latitude":50.1414284,"name":"Kerékpár szervizállomás","city":"Chrzanow","address":null,"covered":false,"access":null,"website":null,"phone":null,"source":"OpenStreetMap/node/3664906017","sourceUpdatedAt":null,"verifiedAt":null}},{"type":"Feature","geometry":{"type":"Point","coordinates":[19.4053514,50.139761]},"properties":{"id":"service:15519eba-4123-4a54-a32c-4c1838c20cd5","kind":"service","longitude":19.4053514,"latitude":50.139761,"name":"Autobike","city":"Chrzanów","address":null,"covered":null,"access":null,"website":null,"phone":null,"source":"OpenStreetMap/node/3179801320","sourceUpdatedAt":null,"verifiedAt":null}},{"type":"Feature","geometry":{"type":"Point","coordinates":[19.4028481,50.1424443]},"properties":{"id":"service:7ccebb0b-39d4-437a-ad3b-d76e28e93afa","kind":"service","longitude":19.4028481,"latitude":50.1424443,"name":"BikeCheck","city":"Chrzanów","address":null,"covered":null,"access":null,"website":null,"phone":null,"source":"OpenStreetMap/node/12397587967","sourceUpdatedAt":null,"verifiedAt":null}},{"type":"Feature","geometry":{"type":"Point","coordinates":[19.404636,50.1474201]},"properties":{"id":"water:1557284d-9148-4b91-a8af-91a871198464","kind":"water","longitude":19.404636,"latitude":50.1474201,"name":"Ivókút","city":"Chrzanow","address":null,"covered":null,"access":null,"website":null,"phone":null,"source":"OpenStreetMap/node/2516349350","sourceUpdatedAt":null,"verifiedAt":null}},{"type":"Feature","geometry":{"type":"Point","coordinates":[19.4049826,50.1422338]},"properties":{"id":"water:5d51f536-4c46-4048-8029-dbb045f19064","kind":"water","longitude":19.4049826,"latitude":50.1422338,"name":"Ivókút","city":"Chrzanow","address":null,"covered":null,"access":null,"website":null,"phone":null,"source":"OpenStreetMap/node/2605318541","sourceUpdatedAt":null,"verifiedAt":null}},{"type":"Feature","geometry":{"type":"Point","coordinates":[19.4156506,50.1322597]},"properties":{"id":"water:a605de4f-0fde-4881-b5e4-5c867f3ed834","kind":"water","longitude":19.4156506,"latitude":50.1322597,"name":"Ivókút","city":"Chrzanow","address":null,"covered":null,"access":null,"website":null,"phone":null,"source":"OpenStreetMap/node/6549208269","sourceUpdatedAt":null,"verifiedAt":null}},{"type":"Feature","geometry":{"type":"Point","coordinates":[19.4068964,50.1432684]},"properties":{"id":"water:a80a977d-7b3d-4c90-a936-08784b69c911","kind":"water","longitude":19.4068964,"latitude":50.1432684,"name":"Ivókút","city":"Chrzanow","address":null,"covered":null,"access":null,"website":null,"phone":null,"source":"OpenStreetMap/node/5627289337","sourceUpdatedAt":null,"verifiedAt":null}}]}