{"type":"FeatureCollection","features":[{"type":"Feature","geometry":{"type":"Point","coordinates":[23.1719885,50.9862843]},"properties":{"id":"bikerack:1880deb2-64e2-4b0d-a1c2-b68be5122159","kind":"bikerack","longitude":23.1719885,"latitude":50.9862843,"name":"Biciklitároló","city":"Krasnystaw","address":null,"covered":false,"access":null,"website":null,"phone":null,"source":"OpenStreetMap/node/13131154564","sourceUpdatedAt":null,"verifiedAt":null}},{"type":"Feature","geometry":{"type":"Point","coordinates":[23.17208,50.9861463]},"properties":{"id":"bikerack:1bc5813d-0a20-461d-b0f2-e62f849d1021","kind":"bikerack","longitude":23.17208,"latitude":50.9861463,"name":"Biciklitároló","city":"Krasnystaw","address":null,"covered":true,"access":null,"website":null,"phone":null,"source":"OpenStreetMap/node/13133102833","sourceUpdatedAt":null,"verifiedAt":null}},{"type":"Feature","geometry":{"type":"Point","coordinates":[23.1709246,50.9862733]},"properties":{"id":"bikerack:f96bfb30-3c14-4a68-b935-99f2653bf4a6","kind":"bikerack","longitude":23.1709246,"latitude":50.9862733,"name":"Biciklitároló","city":"Krasnystaw","address":null,"covered":false,"access":null,"website":null,"phone":null,"source":"OpenStreetMap/node/13132960806","sourceUpdatedAt":null,"verifiedAt":null}}]}