{"type":"FeatureCollection","features":[{"type":"Feature","geometry":{"type":"Point","coordinates":[20.0335916,49.9504236]},"properties":{"id":"bikerack:1f141d34-abf1-4fab-864b-0e620d5058fc","kind":"bikerack","longitude":20.0335916,"latitude":49.9504236,"name":"Biciklitároló","city":"Pawlikowice","address":null,"covered":false,"access":null,"website":null,"phone":null,"source":"OpenStreetMap/node/11063518494","sourceUpdatedAt":null,"verifiedAt":null}},{"type":"Feature","geometry":{"type":"Point","coordinates":[20.0296268,49.9289109]},"properties":{"id":"bikerack:8c0835ba-d977-48d6-85f0-762c4aa704f8","kind":"bikerack","longitude":20.0296268,"latitude":49.9289109,"name":"Biciklitároló","city":"Pawlikowice","address":null,"covered":false,"access":null,"website":null,"phone":null,"source":"OpenStreetMap/node/12475441671","sourceUpdatedAt":null,"verifiedAt":null}},{"type":"Feature","geometry":{"type":"Point","coordinates":[20.0299886,49.9340596]},"properties":{"id":"bikerack:f9aea13a-3abc-4376-9d18-187ceaa9da0c","kind":"bikerack","longitude":20.0299886,"latitude":49.9340596,"name":"Biciklitároló","city":"Pawlikowice","address":null,"covered":false,"access":null,"website":null,"phone":null,"source":"OpenStreetMap/node/12479162478","sourceUpdatedAt":null,"verifiedAt":null}}]}