{"type":"FeatureCollection","features":[{"type":"Feature","geometry":{"type":"Point","coordinates":[20.00463,48.512108]},"properties":{"id":"bikerack:16a31869-05bb-492b-a4f9-6004d2b86f11","kind":"bikerack","longitude":20.00463,"latitude":48.512108,"name":"Biciklitároló","city":"Rimavska Sobota","address":null,"covered":false,"access":null,"website":null,"phone":null,"source":"OpenStreetMap/node/13111830538","sourceUpdatedAt":null,"verifiedAt":null}},{"type":"Feature","geometry":{"type":"Point","coordinates":[20.0242272,48.4924899]},"properties":{"id":"water:99394285-d1c3-40d4-9932-b68d0fef679d","kind":"water","longitude":20.0242272,"latitude":48.4924899,"name":"Ivókút","city":"Rimavska Sobota","address":null,"covered":null,"access":null,"website":null,"phone":null,"source":"OpenStreetMap/node/13110858402","sourceUpdatedAt":null,"verifiedAt":null}}]}