{"type":"FeatureCollection","features":[{"type":"Feature","geometry":{"type":"Point","coordinates":[20.0040721,46.2414129]},"properties":{"id":"bikerack:1bfd2ea0-7c27-4d44-b4cf-cfee9f1ec5cf","kind":"bikerack","longitude":20.0040721,"latitude":46.2414129,"name":"Biciklitároló","city":"Domaszek","address":null,"covered":true,"access":null,"website":null,"phone":null,"source":"OpenStreetMap/node/8706894633","sourceUpdatedAt":null,"verifiedAt":null}},{"type":"Feature","geometry":{"type":"Point","coordinates":[20.0032545,46.2452747]},"properties":{"id":"bikerack:27e38a02-d591-4e47-9c74-15389ddde172","kind":"bikerack","longitude":20.0032545,"latitude":46.2452747,"name":"B+R","city":"Domaszek","address":null,"covered":true,"access":null,"website":null,"phone":null,"source":"OpenStreetMap/node/4771029003","sourceUpdatedAt":null,"verifiedAt":null}},{"type":"Feature","geometry":{"type":"Point","coordinates":[20.0032554,46.244044]},"properties":{"id":"water:8c605a27-ee30-4a4c-bad4-efa247aa853b","kind":"water","longitude":20.0032554,"latitude":46.244044,"name":"Ivókút","city":null,"address":null,"covered":null,"access":null,"website":null,"phone":null,"source":"OpenStreetMap","sourceUpdatedAt":null,"verifiedAt":null}},{"type":"Feature","geometry":{"type":"Point","coordinates":[20.003917,46.2447362]},"properties":{"id":"water:cc7192a1-3d4b-4f88-939e-6984710f4117","kind":"water","longitude":20.003917,"latitude":46.2447362,"name":"Ivókút","city":null,"address":null,"covered":null,"access":null,"website":null,"phone":null,"source":"OpenStreetMap","sourceUpdatedAt":null,"verifiedAt":null}},{"type":"Feature","geometry":{"type":"Point","coordinates":[20.0034289,46.2508642]},"properties":{"id":"water:ed603940-7355-4f7c-8fea-66d57fb7d3bc","kind":"water","longitude":20.0034289,"latitude":46.2508642,"name":"Ivókút","city":null,"address":null,"covered":null,"access":null,"website":null,"phone":null,"source":"OpenStreetMap","sourceUpdatedAt":null,"verifiedAt":null}},{"type":"Feature","geometry":{"type":"Point","coordinates":[20.0246787,46.2527442]},"properties":{"id":"water:efbcbca7-5f9a-40e8-a179-aa6f0abcf031","kind":"water","longitude":20.0246787,"latitude":46.2527442,"name":"Ivókút","city":null,"address":null,"covered":null,"access":null,"website":null,"phone":null,"source":"OpenStreetMap","sourceUpdatedAt":null,"verifiedAt":null}}]}