{"type":"FeatureCollection","features":[{"type":"Feature","geometry":{"type":"Point","coordinates":[19.0255603,54.0390494]},"properties":{"id":"bikerack:09c0500c-78f9-4d59-8720-0d901eca117e","kind":"bikerack","longitude":19.0255603,"latitude":54.0390494,"name":"Biciklitároló","city":"Malbork","address":null,"covered":false,"access":null,"website":null,"phone":null,"source":"OpenStreetMap/node/10896570087","sourceUpdatedAt":null,"verifiedAt":null}},{"type":"Feature","geometry":{"type":"Point","coordinates":[19.0246662,54.0462487]},"properties":{"id":"bikerack:4596aa25-eb0b-41ad-b716-1947bf7e68ed","kind":"bikerack","longitude":19.0246662,"latitude":54.0462487,"name":"Biciklitároló","city":"Malbork","address":null,"covered":false,"access":null,"website":null,"phone":null,"source":"OpenStreetMap/way/1305714207","sourceUpdatedAt":null,"verifiedAt":null}},{"type":"Feature","geometry":{"type":"Point","coordinates":[19.0251633,54.0383699]},"properties":{"id":"bikerack:4b1ed7c4-50a1-4dfc-920e-4b63308ac786","kind":"bikerack","longitude":19.0251633,"latitude":54.0383699,"name":"Biciklitároló","city":"Malbork","address":null,"covered":false,"access":null,"website":null,"phone":null,"source":"OpenStreetMap/node/10896605315","sourceUpdatedAt":null,"verifiedAt":null}},{"type":"Feature","geometry":{"type":"Point","coordinates":[19.0254484,54.0388618]},"properties":{"id":"bikerack:52a42b1a-461d-4af5-b710-d65c167adae7","kind":"bikerack","longitude":19.0254484,"latitude":54.0388618,"name":"Biciklitároló","city":"Malbork","address":null,"covered":false,"access":null,"website":null,"phone":null,"source":"OpenStreetMap/node/10896570089","sourceUpdatedAt":null,"verifiedAt":null}},{"type":"Feature","geometry":{"type":"Point","coordinates":[19.024694,54.035733]},"properties":{"id":"bikerack:6abdeee2-a214-4abf-8764-28263bf1cdb8","kind":"bikerack","longitude":19.024694,"latitude":54.035733,"name":"Biciklitároló","city":"Malbork","address":null,"covered":false,"access":null,"website":null,"phone":null,"source":"OpenStreetMap/node/12120638769","sourceUpdatedAt":null,"verifiedAt":null}},{"type":"Feature","geometry":{"type":"Point","coordinates":[19.0246992,54.0466757]},"properties":{"id":"bikerack:81800bd8-5891-4184-a737-278887d92f26","kind":"bikerack","longitude":19.0246992,"latitude":54.0466757,"name":"Biciklitároló","city":"Malbork","address":null,"covered":false,"access":null,"website":null,"phone":null,"source":"OpenStreetMap/node/9927680253","sourceUpdatedAt":null,"verifiedAt":null}},{"type":"Feature","geometry":{"type":"Point","coordinates":[19.0253498,54.0386904]},"properties":{"id":"bikerack:edc9ff8f-2ff0-4dce-9a33-19fd1e683250","kind":"bikerack","longitude":19.0253498,"latitude":54.0386904,"name":"Biciklitároló","city":"Malbork","address":null,"covered":false,"access":null,"website":null,"phone":null,"source":"OpenStreetMap/node/10896570092","sourceUpdatedAt":null,"verifiedAt":null}},{"type":"Feature","geometry":{"type":"Point","coordinates":[19.0246932,54.0463]},"properties":{"id":"repair:1c4a4b18-50b7-49f8-85e4-2458e9c66c08","kind":"repair","longitude":19.0246932,"latitude":54.0463,"name":"Kerékpár szervizállomás","city":"Malbork","address":null,"covered":false,"access":null,"website":null,"phone":null,"source":"OpenStreetMap/node/10681603909","sourceUpdatedAt":null,"verifiedAt":null}}]}