{"type":"FeatureCollection","features":[{"type":"Feature","geometry":{"type":"Point","coordinates":[18.9860272,51.2384034]},"properties":{"id":"bikerack:0082d30f-8f6e-4856-9560-4641a56457ad","kind":"bikerack","longitude":18.9860272,"latitude":51.2384034,"name":"Biciklitároló","city":"Rusiec","address":null,"covered":false,"access":null,"website":null,"phone":null,"source":"OpenStreetMap/node/13386452234","sourceUpdatedAt":null,"verifiedAt":null}},{"type":"Feature","geometry":{"type":"Point","coordinates":[18.9929835,51.2377463]},"properties":{"id":"bikerack:71f005ca-5343-4bf4-a792-44afbb049946","kind":"bikerack","longitude":18.9929835,"latitude":51.2377463,"name":"Biciklitároló","city":"Rusiec","address":null,"covered":false,"access":null,"website":null,"phone":null,"source":"OpenStreetMap/node/9397262041","sourceUpdatedAt":null,"verifiedAt":null}},{"type":"Feature","geometry":{"type":"Point","coordinates":[18.9860901,51.2386384]},"properties":{"id":"bikerack:eccbb817-a73c-4a78-bb41-587ec21ca8cd","kind":"bikerack","longitude":18.9860901,"latitude":51.2386384,"name":"Biciklitároló","city":"Rusiec","address":null,"covered":false,"access":null,"website":null,"phone":null,"source":"OpenStreetMap/node/13386452291","sourceUpdatedAt":null,"verifiedAt":null}},{"type":"Feature","geometry":{"type":"Point","coordinates":[18.9860892,51.2385203]},"properties":{"id":"water:5c16b58f-d673-4148-909c-e6e5e6f01a9c","kind":"water","longitude":18.9860892,"latitude":51.2385203,"name":"Ivókút","city":"Rusiec","address":null,"covered":null,"access":null,"website":null,"phone":null,"source":"OpenStreetMap/node/13386452226","sourceUpdatedAt":null,"verifiedAt":null}}]}