{"type":"FeatureCollection","features":[{"type":"Feature","geometry":{"type":"Point","coordinates":[19.0072864,47.8676926]},"properties":{"id":"water:144b84e3-786a-466f-8c5b-e4eedf8a677f","kind":"water","longitude":19.0072864,"latitude":47.8676926,"name":"Ivókút","city":null,"address":null,"covered":null,"access":null,"website":null,"phone":null,"source":"OpenStreetMap","sourceUpdatedAt":null,"verifiedAt":null}},{"type":"Feature","geometry":{"type":"Point","coordinates":[19.0073186,47.867707]},"properties":{"id":"water:172bfad0-a60d-42fa-b39b-8566c018f21c","kind":"water","longitude":19.0073186,"latitude":47.867707,"name":"Ivókút","city":null,"address":null,"covered":null,"access":null,"website":null,"phone":null,"source":"OpenStreetMap","sourceUpdatedAt":null,"verifiedAt":null}},{"type":"Feature","geometry":{"type":"Point","coordinates":[19.0010758,47.8703835]},"properties":{"id":"water:4ab333b6-8279-42ec-aca3-0c739d7933cb","kind":"water","longitude":19.0010758,"latitude":47.8703835,"name":"Ivókút","city":null,"address":null,"covered":null,"access":null,"website":null,"phone":null,"source":"OpenStreetMap","sourceUpdatedAt":null,"verifiedAt":null}},{"type":"Feature","geometry":{"type":"Point","coordinates":[18.998591,47.845981]},"properties":{"id":"water:4d79d8b5-a309-46e7-aae9-48b0aeeb6044","kind":"water","longitude":18.998591,"latitude":47.845981,"name":"Ivókút","city":null,"address":null,"covered":null,"access":null,"website":null,"phone":null,"source":"OpenStreetMap","sourceUpdatedAt":null,"verifiedAt":null}},{"type":"Feature","geometry":{"type":"Point","coordinates":[19.003776,47.846306]},"properties":{"id":"water:5d52c3c6-75ea-458f-8352-a8c62820039d","kind":"water","longitude":19.003776,"latitude":47.846306,"name":"Ivókút","city":null,"address":null,"covered":null,"access":null,"website":null,"phone":null,"source":"OpenStreetMap","sourceUpdatedAt":null,"verifiedAt":null}},{"type":"Feature","geometry":{"type":"Point","coordinates":[19.000628,47.8665529]},"properties":{"id":"water:6b7b7567-77e5-42ef-885b-3a05d0db7937","kind":"water","longitude":19.000628,"latitude":47.8665529,"name":"Ivókút","city":null,"address":null,"covered":null,"access":null,"website":null,"phone":null,"source":"OpenStreetMap","sourceUpdatedAt":null,"verifiedAt":null}},{"type":"Feature","geometry":{"type":"Point","coordinates":[19.001944,47.842851]},"properties":{"id":"water:7020bbbb-372f-44ef-8bb4-eebb402891ea","kind":"water","longitude":19.001944,"latitude":47.842851,"name":"Ivókút","city":null,"address":null,"covered":null,"access":null,"website":null,"phone":null,"source":"OpenStreetMap","sourceUpdatedAt":null,"verifiedAt":null}},{"type":"Feature","geometry":{"type":"Point","coordinates":[19.0168345,47.8670318]},"properties":{"id":"water:79998380-c271-4b84-a0d1-2198b8e7b743","kind":"water","longitude":19.0168345,"latitude":47.8670318,"name":"Ivókút","city":null,"address":null,"covered":null,"access":null,"website":null,"phone":null,"source":"OpenStreetMap","sourceUpdatedAt":null,"verifiedAt":null}},{"type":"Feature","geometry":{"type":"Point","coordinates":[19.0076476,47.8695302]},"properties":{"id":"water:a472408d-6259-478d-b75a-c6dc3d7a7aa7","kind":"water","longitude":19.0076476,"latitude":47.8695302,"name":"Ivókút","city":null,"address":null,"covered":null,"access":null,"website":null,"phone":null,"source":"OpenStreetMap","sourceUpdatedAt":null,"verifiedAt":null}},{"type":"Feature","geometry":{"type":"Point","coordinates":[19.0031742,47.868873]},"properties":{"id":"water:bd11e5c5-368e-443d-8a9c-30d53b3c5371","kind":"water","longitude":19.0031742,"latitude":47.868873,"name":"Ivókút","city":null,"address":null,"covered":null,"access":null,"website":null,"phone":null,"source":"OpenStreetMap","sourceUpdatedAt":null,"verifiedAt":null}}]}