{"type":"FeatureCollection","features":[{"type":"Feature","geometry":{"type":"Point","coordinates":[19.0267251,46.6951321]},"properties":{"id":"bikerack:7dab8d30-1d97-4682-bb04-6a28e896e4fb","kind":"bikerack","longitude":19.0267251,"latitude":46.6951321,"name":"Biciklitároló","city":"Harta","address":null,"covered":false,"access":null,"website":null,"phone":null,"source":"OpenStreetMap/node/12167675959","sourceUpdatedAt":null,"verifiedAt":null}},{"type":"Feature","geometry":{"type":"Point","coordinates":[19.0100598,46.692502]},"properties":{"id":"water:8ce22c56-8667-4c50-9307-dd51f1e1d57f","kind":"water","longitude":19.0100598,"latitude":46.692502,"name":"Ivókút","city":null,"address":null,"covered":null,"access":null,"website":null,"phone":null,"source":"OpenStreetMap","sourceUpdatedAt":null,"verifiedAt":null}}]}