{"type":"FeatureCollection","features":[{"type":"Feature","geometry":{"type":"Point","coordinates":[18.9936909,46.1010013]},"properties":{"id":"water:ba20ea40-87f5-4256-b5e0-1f098d1888fd","kind":"water","longitude":18.9936909,"latitude":46.1010013,"name":"Ivókút","city":null,"address":null,"covered":null,"access":null,"website":null,"phone":null,"source":"OpenStreetMap","sourceUpdatedAt":null,"verifiedAt":null}},{"type":"Feature","geometry":{"type":"Point","coordinates":[18.9891757,46.1033483]},"properties":{"id":"water:f387857e-e178-4644-850e-4269c1f5595c","kind":"water","longitude":18.9891757,"latitude":46.1033483,"name":"Ivókút","city":null,"address":null,"covered":null,"access":null,"website":null,"phone":null,"source":"OpenStreetMap","sourceUpdatedAt":null,"verifiedAt":null}}]}