{"type":"FeatureCollection","features":[{"type":"Feature","geometry":{"type":"Point","coordinates":[10.8144921,53.9878279]},"properties":{"id":"bikerack:043dd98c-440d-4d5e-bf70-5fc931121ee6","kind":"bikerack","longitude":10.8144921,"latitude":53.9878279,"name":"Fahrradabstellplatz","city":"Timmendorfer Strand","address":null,"covered":false,"access":null,"website":null,"phone":null,"source":"OpenStreetMap/node/12071810938","sourceUpdatedAt":null,"verifiedAt":null}},{"type":"Feature","geometry":{"type":"Point","coordinates":[10.8251032,53.9935831]},"properties":{"id":"bikerack:06efa5ec-20eb-499b-a4e8-28f46efb15f8","kind":"bikerack","longitude":10.8251032,"latitude":53.9935831,"name":"Fahrradabstellplatz","city":"Timmendorfer Strand","address":null,"covered":false,"access":null,"website":null,"phone":null,"source":"OpenStreetMap/node/1682245403","sourceUpdatedAt":null,"verifiedAt":null}},{"type":"Feature","geometry":{"type":"Point","coordinates":[10.8179476,53.9942962]},"properties":{"id":"bikerack:07cc8d65-a224-425d-b17b-ce249691afbd","kind":"bikerack","longitude":10.8179476,"latitude":53.9942962,"name":"Fahrradabstellplatz","city":"Timmendorfer Strand","address":null,"covered":false,"access":null,"website":null,"phone":null,"source":"OpenStreetMap/node/1841465983","sourceUpdatedAt":null,"verifiedAt":null}},{"type":"Feature","geometry":{"type":"Point","coordinates":[10.824353,53.9936939]},"properties":{"id":"bikerack:07e52311-d0d8-4597-b006-68f49e1785d0","kind":"bikerack","longitude":10.824353,"latitude":53.9936939,"name":"Fahrradabstellplatz","city":"Timmendorfer Strand","address":null,"covered":false,"access":null,"website":null,"phone":null,"source":"OpenStreetMap/node/2451681188","sourceUpdatedAt":null,"verifiedAt":null}},{"type":"Feature","geometry":{"type":"Point","coordinates":[10.8192343,53.9942246]},"properties":{"id":"bikerack:0add9e0a-8e3f-4834-a759-2b437dcff029","kind":"bikerack","longitude":10.8192343,"latitude":53.9942246,"name":"Fahrradabstellplatz","city":"Timmendorfer Strand","address":null,"covered":false,"access":null,"website":null,"phone":null,"source":"OpenStreetMap/node/1841465976","sourceUpdatedAt":null,"verifiedAt":null}},{"type":"Feature","geometry":{"type":"Point","coordinates":[10.8214832,53.9941119]},"properties":{"id":"bikerack:194c85cb-f694-42cb-9585-459ed86f171f","kind":"bikerack","longitude":10.8214832,"latitude":53.9941119,"name":"Fahrradabstellplatz","city":"Timmendorfer Strand","address":null,"covered":false,"access":null,"website":null,"phone":null,"source":"OpenStreetMap/node/1841465956","sourceUpdatedAt":null,"verifiedAt":null}},{"type":"Feature","geometry":{"type":"Point","coordinates":[10.8274775,53.988324]},"properties":{"id":"bikerack:25ba96b5-565d-4dff-91fd-3238ec96f16b","kind":"bikerack","longitude":10.8274775,"latitude":53.988324,"name":"Fahrradabstellplatz","city":"Travemuende","address":null,"covered":false,"access":null,"website":null,"phone":null,"source":"OpenStreetMap/node/4880738828","sourceUpdatedAt":null,"verifiedAt":null}},{"type":"Feature","geometry":{"type":"Point","coordinates":[10.814768,53.9940261]},"properties":{"id":"bikerack:302c04a7-633e-4a98-bfc6-74269dd8adf2","kind":"bikerack","longitude":10.814768,"latitude":53.9940261,"name":"Fahrradabstellplatz","city":"Timmendorfer Strand","address":null,"covered":false,"access":null,"website":null,"phone":null,"source":"OpenStreetMap/node/9658989911","sourceUpdatedAt":null,"verifiedAt":null}},{"type":"Feature","geometry":{"type":"Point","coordinates":[10.8156952,53.992826]},"properties":{"id":"bikerack:30f24084-fc8e-4f88-9323-4c7791fc755f","kind":"bikerack","longitude":10.8156952,"latitude":53.992826,"name":"Fahrradabstellplatz","city":"Timmendorfer Strand","address":null,"covered":false,"access":null,"website":null,"phone":null,"source":"OpenStreetMap/node/1841465929","sourceUpdatedAt":null,"verifiedAt":null}},{"type":"Feature","geometry":{"type":"Point","coordinates":[10.828708,53.9926388]},"properties":{"id":"bikerack:32b670aa-e92c-4363-90c4-f80a5fa0e590","kind":"bikerack","longitude":10.828708,"latitude":53.9926388,"name":"Fahrradabstellplatz","city":"Travemuende","address":null,"covered":false,"access":null,"website":null,"phone":null,"source":"OpenStreetMap/node/8076033034","sourceUpdatedAt":null,"verifiedAt":null}},{"type":"Feature","geometry":{"type":"Point","coordinates":[10.830059,53.9925049]},"properties":{"id":"bikerack:3cc7478e-b3f6-4140-ad97-1b42c7f5aaaa","kind":"bikerack","longitude":10.830059,"latitude":53.9925049,"name":"Fahrradabstellplatz","city":"Travemuende","address":null,"covered":false,"access":null,"website":null,"phone":null,"source":"OpenStreetMap/node/2451681152","sourceUpdatedAt":null,"verifiedAt":null}},{"type":"Feature","geometry":{"type":"Point","coordinates":[10.8324994,53.9919006]},"properties":{"id":"bikerack:416a5b6a-dbf0-4622-a8dc-940e78f1296a","kind":"bikerack","longitude":10.8324994,"latitude":53.9919006,"name":"Fahrradabstellplatz","city":"Travemuende","address":null,"covered":false,"access":null,"website":null,"phone":null,"source":"OpenStreetMap/node/7373635154","sourceUpdatedAt":null,"verifiedAt":null}},{"type":"Feature","geometry":{"type":"Point","coordinates":[10.8291024,53.9927095]},"properties":{"id":"bikerack:42103c80-98a7-4485-b919-4e2de4455228","kind":"bikerack","longitude":10.8291024,"latitude":53.9927095,"name":"Fahrradabstellplatz","city":"Travemuende","address":null,"covered":false,"access":null,"website":null,"phone":null,"source":"OpenStreetMap/node/2451681158","sourceUpdatedAt":null,"verifiedAt":null}},{"type":"Feature","geometry":{"type":"Point","coordinates":[10.8283553,53.9928459]},"properties":{"id":"bikerack:49eec254-61b4-4e9d-b8b8-7fc7dda7c33e","kind":"bikerack","longitude":10.8283553,"latitude":53.9928459,"name":"Fahrradabstellplatz","city":"Timmendorfer Strand","address":null,"covered":false,"access":null,"website":null,"phone":null,"source":"OpenStreetMap/node/4880709549","sourceUpdatedAt":null,"verifiedAt":null}},{"type":"Feature","geometry":{"type":"Point","coordinates":[10.818409,53.9942674]},"properties":{"id":"bikerack:4d1bfe13-ad94-46b3-920a-a3a9bf2ef46c","kind":"bikerack","longitude":10.818409,"latitude":53.9942674,"name":"Fahrradabstellplatz","city":"Timmendorfer Strand","address":null,"covered":false,"access":null,"website":null,"phone":null,"source":"OpenStreetMap/node/4383874972","sourceUpdatedAt":null,"verifiedAt":null}},{"type":"Feature","geometry":{"type":"Point","coordinates":[10.8267421,53.9931893]},"properties":{"id":"bikerack:4e4c542f-73b9-4c5d-b000-52325565ab81","kind":"bikerack","longitude":10.8267421,"latitude":53.9931893,"name":"Fahrradabstellplatz","city":"Timmendorfer Strand","address":null,"covered":false,"access":null,"website":null,"phone":null,"source":"OpenStreetMap/node/8076033031","sourceUpdatedAt":null,"verifiedAt":null}},{"type":"Feature","geometry":{"type":"Point","coordinates":[10.8336978,53.991548]},"properties":{"id":"bikerack:524a25f5-9216-4ab6-9538-48f7319502a9","kind":"bikerack","longitude":10.8336978,"latitude":53.991548,"name":"Fahrradabstellplatz","city":"Travemuende","address":null,"covered":true,"access":null,"website":null,"phone":null,"source":"OpenStreetMap/node/3495483694","sourceUpdatedAt":null,"verifiedAt":null}},{"type":"Feature","geometry":{"type":"Point","coordinates":[10.831861,53.9920299]},"properties":{"id":"bikerack:535f27e3-f816-4bce-8f6a-a3d3dd3fe325","kind":"bikerack","longitude":10.831861,"latitude":53.9920299,"name":"Fahrradabstellplatz","city":"Travemuende","address":null,"covered":false,"access":null,"website":null,"phone":null,"source":"OpenStreetMap/node/7373635153","sourceUpdatedAt":null,"verifiedAt":null}},{"type":"Feature","geometry":{"type":"Point","coordinates":[10.8271505,53.993103]},"properties":{"id":"bikerack:5a505220-cec5-4248-9675-1546fbd01fe7","kind":"bikerack","longitude":10.8271505,"latitude":53.993103,"name":"Fahrradabstellplatz","city":"Timmendorfer Strand","address":null,"covered":false,"access":null,"website":null,"phone":null,"source":"OpenStreetMap/node/2451681175","sourceUpdatedAt":null,"verifiedAt":null}},{"type":"Feature","geometry":{"type":"Point","coordinates":[10.8275807,53.9883308]},"properties":{"id":"bikerack:6415f14b-2f84-48be-95fe-bd5fe287a378","kind":"bikerack","longitude":10.8275807,"latitude":53.9883308,"name":"Fahrradabstellplatz","city":"Travemuende","address":null,"covered":false,"access":null,"website":null,"phone":null,"source":"OpenStreetMap/node/4880738826","sourceUpdatedAt":null,"verifiedAt":null}},{"type":"Feature","geometry":{"type":"Point","coordinates":[10.8344563,53.9917057]},"properties":{"id":"bikerack:74abfaac-afb1-48fd-a46f-928be48d7916","kind":"bikerack","longitude":10.8344563,"latitude":53.9917057,"name":"Fahrradabstellplatz","city":"Travemuende","address":null,"covered":false,"access":null,"website":null,"phone":null,"source":"OpenStreetMap/node/4769664056","sourceUpdatedAt":null,"verifiedAt":null}},{"type":"Feature","geometry":{"type":"Point","coordinates":[10.8199402,53.9941992]},"properties":{"id":"bikerack:7638adab-1043-449b-b285-7aabae813639","kind":"bikerack","longitude":10.8199402,"latitude":53.9941992,"name":"Fahrradabstellplatz","city":"Timmendorfer Strand","address":null,"covered":false,"access":null,"website":null,"phone":null,"source":"OpenStreetMap/node/1841465964","sourceUpdatedAt":null,"verifiedAt":null}},{"type":"Feature","geometry":{"type":"Point","coordinates":[10.8275444,53.99302]},"properties":{"id":"bikerack:858538d3-0beb-4fd3-af2f-4d1dc9d5197a","kind":"bikerack","longitude":10.8275444,"latitude":53.99302,"name":"Fahrradabstellplatz","city":"Timmendorfer Strand","address":null,"covered":false,"access":null,"website":null,"phone":null,"source":"OpenStreetMap/node/2451681173","sourceUpdatedAt":null,"verifiedAt":null}},{"type":"Feature","geometry":{"type":"Point","coordinates":[10.8223295,53.994003]},"properties":{"id":"bikerack:8b8e7af1-20ba-4827-9d32-6ecb9f930c00","kind":"bikerack","longitude":10.8223295,"latitude":53.994003,"name":"Fahrradabstellplatz","city":"Timmendorfer Strand","address":null,"covered":false,"access":null,"website":null,"phone":null,"source":"OpenStreetMap/node/4391973629","sourceUpdatedAt":null,"verifiedAt":null}},{"type":"Feature","geometry":{"type":"Point","coordinates":[10.8506382,53.9927087]},"properties":{"id":"bikerack:93358f1f-fdb8-42b2-807c-1a3aed9ffcd0","kind":"bikerack","longitude":10.8506382,"latitude":53.9927087,"name":"Fahrradabstellplatz","city":"Travemuende","address":null,"covered":false,"access":null,"website":null,"phone":null,"source":"OpenStreetMap/node/6181658796","sourceUpdatedAt":null,"verifiedAt":null}},{"type":"Feature","geometry":{"type":"Point","coordinates":[10.8125277,53.9938634]},"properties":{"id":"bikerack:9a337646-7061-4368-aad8-4dc1c71b29b4","kind":"bikerack","longitude":10.8125277,"latitude":53.9938634,"name":"Fahrradabstellplatz","city":"Timmendorfer Strand","address":null,"covered":false,"access":null,"website":null,"phone":null,"source":"OpenStreetMap/node/3123713234","sourceUpdatedAt":null,"verifiedAt":null}},{"type":"Feature","geometry":{"type":"Point","coordinates":[10.816315,53.9942149]},"properties":{"id":"bikerack:9a46ee00-1435-4997-a18a-11bd6088e41c","kind":"bikerack","longitude":10.816315,"latitude":53.9942149,"name":"Fahrradabstellplatz","city":"Timmendorfer Strand","address":null,"covered":false,"access":null,"website":null,"phone":null,"source":"OpenStreetMap/node/1841465970","sourceUpdatedAt":null,"verifiedAt":null}},{"type":"Feature","geometry":{"type":"Point","coordinates":[10.8269438,53.9926944]},"properties":{"id":"bikerack:9d678904-034f-4b15-a313-67665482a5eb","kind":"bikerack","longitude":10.8269438,"latitude":53.9926944,"name":"Fahrradabstellplatz","city":"Timmendorfer Strand","address":null,"covered":false,"access":null,"website":null,"phone":null,"source":"OpenStreetMap/node/4975143509","sourceUpdatedAt":null,"verifiedAt":null}},{"type":"Feature","geometry":{"type":"Point","coordinates":[10.826563,53.9932291]},"properties":{"id":"bikerack:cadc3bcb-6289-4ff1-9efa-33388cda47b4","kind":"bikerack","longitude":10.826563,"latitude":53.9932291,"name":"Fahrradabstellplatz","city":"Timmendorfer Strand","address":null,"covered":false,"access":null,"website":null,"phone":null,"source":"OpenStreetMap/node/8076033030","sourceUpdatedAt":null,"verifiedAt":null}},{"type":"Feature","geometry":{"type":"Point","coordinates":[10.8280351,53.9929168]},"properties":{"id":"bikerack:d77ca195-1829-4a38-be4c-0881ced9ad94","kind":"bikerack","longitude":10.8280351,"latitude":53.9929168,"name":"Fahrradabstellplatz","city":"Timmendorfer Strand","address":null,"covered":false,"access":null,"website":null,"phone":null,"source":"OpenStreetMap/node/4880709548","sourceUpdatedAt":null,"verifiedAt":null}},{"type":"Feature","geometry":{"type":"Point","coordinates":[10.8123959,53.9937022]},"properties":{"id":"bikerack:dfa5f811-a36b-4e0d-a6d0-28175749bca5","kind":"bikerack","longitude":10.8123959,"latitude":53.9937022,"name":"Fahrradabstellplatz","city":"Timmendorfer Strand","address":null,"covered":false,"access":null,"website":null,"phone":null,"source":"OpenStreetMap/node/3123713233","sourceUpdatedAt":null,"verifiedAt":null}},{"type":"Feature","geometry":{"type":"Point","coordinates":[10.8251828,53.9907342]},"properties":{"id":"bikerack:e5923b00-cfc3-476a-a748-14b74fb3f00b","kind":"bikerack","longitude":10.8251828,"latitude":53.9907342,"name":"Fahrradabstellplatz","city":"Timmendorfer Strand","address":null,"covered":false,"access":null,"website":null,"phone":null,"source":"OpenStreetMap/node/4876663922","sourceUpdatedAt":null,"verifiedAt":null}},{"type":"Feature","geometry":{"type":"Point","coordinates":[10.8232185,53.9939404]},"properties":{"id":"bikerack:ecd77212-490d-4dbe-9e82-b6d6be674d9d","kind":"bikerack","longitude":10.8232185,"latitude":53.9939404,"name":"Fahrradabstellplatz","city":"Timmendorfer Strand","address":null,"covered":false,"access":null,"website":null,"phone":null,"source":"OpenStreetMap/node/2451681190","sourceUpdatedAt":null,"verifiedAt":null}},{"type":"Feature","geometry":{"type":"Point","coordinates":[10.8338616,53.9914796]},"properties":{"id":"bikerack:f1b8a92d-2b65-4a3b-a758-9adc0b681508","kind":"bikerack","longitude":10.8338616,"latitude":53.9914796,"name":"Fahrradabstellplatz","city":"Travemuende","address":null,"covered":false,"access":null,"website":null,"phone":null,"source":"OpenStreetMap/node/5186322001","sourceUpdatedAt":null,"verifiedAt":null}},{"type":"Feature","geometry":{"type":"Point","coordinates":[10.8259152,53.9933612]},"properties":{"id":"bikerack:f6552560-038b-4565-93f8-3f52e46b8482","kind":"bikerack","longitude":10.8259152,"latitude":53.9933612,"name":"Fahrradabstellplatz","city":"Timmendorfer Strand","address":null,"covered":false,"access":null,"website":null,"phone":null,"source":"OpenStreetMap/node/2451681177","sourceUpdatedAt":null,"verifiedAt":null}},{"type":"Feature","geometry":{"type":"Point","coordinates":[10.8203392,53.9941456]},"properties":{"id":"bikerack:fac96043-f78d-48da-b26f-72e21fb4b159","kind":"bikerack","longitude":10.8203392,"latitude":53.9941456,"name":"Fahrradabstellplatz","city":"Timmendorfer Strand","address":null,"covered":false,"access":null,"website":null,"phone":null,"source":"OpenStreetMap/node/1841465961","sourceUpdatedAt":null,"verifiedAt":null}},{"type":"Feature","geometry":{"type":"Point","coordinates":[10.814676,53.9941028]},"properties":{"id":"bikerack:fc366bb3-9b64-4eee-8936-26ba687546d0","kind":"bikerack","longitude":10.814676,"latitude":53.9941028,"name":"Fahrradabstellplatz","city":"Timmendorfer Strand","address":null,"covered":false,"access":null,"website":null,"phone":null,"source":"OpenStreetMap/node/9658989910","sourceUpdatedAt":null,"verifiedAt":null}},{"type":"Feature","geometry":{"type":"Point","coordinates":[10.8155717,53.9925755]},"properties":{"id":"bikerack:fd6b8ed7-c9b2-40d9-8c90-6d9737ddb2fb","kind":"bikerack","longitude":10.8155717,"latitude":53.9925755,"name":"Fahrradabstellplatz","city":"Timmendorfer Strand","address":null,"covered":false,"access":null,"website":null,"phone":null,"source":"OpenStreetMap/node/1841465925","sourceUpdatedAt":null,"verifiedAt":null}},{"type":"Feature","geometry":{"type":"Point","coordinates":[10.8287102,53.9926737]},"properties":{"id":"repair:121ccd48-e833-46a6-ab89-1f14d1b2675d","kind":"repair","longitude":10.8287102,"latitude":53.9926737,"name":"Fahrradreparaturstation","city":"Travemuende","address":null,"covered":false,"access":null,"website":null,"phone":null,"source":"OpenStreetMap/node/9879643572","sourceUpdatedAt":null,"verifiedAt":null}},{"type":"Feature","geometry":{"type":"Point","coordinates":[10.8150578,53.992666]},"properties":{"id":"repair:1babb5e1-90cf-4d93-98bc-a1dff94d42d4","kind":"repair","longitude":10.8150578,"latitude":53.992666,"name":"Fahrradreparaturstation","city":"Timmendorfer Strand","address":null,"covered":false,"access":null,"website":null,"phone":null,"source":"OpenStreetMap/node/12404912474","sourceUpdatedAt":null,"verifiedAt":null}},{"type":"Feature","geometry":{"type":"Point","coordinates":[10.8309506,53.9909789]},"properties":{"id":"repair:e730680f-b4b8-4305-922e-f1bc399f1dd9","kind":"repair","longitude":10.8309506,"latitude":53.9909789,"name":"Fahrradreparaturstation","city":"Travemuende","address":null,"covered":false,"access":null,"website":null,"phone":null,"source":"OpenStreetMap/node/9879643573","sourceUpdatedAt":null,"verifiedAt":null}},{"type":"Feature","geometry":{"type":"Point","coordinates":[10.8167446,53.9928202]},"properties":{"id":"service:114433c4-ee53-4718-b9ba-5b1fb5f70be9","kind":"service","longitude":10.8167446,"latitude":53.9928202,"name":"Fahrrad Lemnitz","city":"Timmendorfer Strand","address":null,"covered":null,"access":null,"website":null,"phone":null,"source":"OpenStreetMap/node/300625620","sourceUpdatedAt":null,"verifiedAt":null}}]}