{"type":"FeatureCollection","features":[{"type":"Feature","geometry":{"type":"Point","coordinates":[10.832856,52.292265]},"properties":{"id":"bikerack:1badad9d-68b7-41c4-a687-849d2cc0282f","kind":"bikerack","longitude":10.832856,"latitude":52.292265,"name":"Fahrradabstellplatz","city":"Konigslutter am Elm","address":null,"covered":true,"access":null,"website":null,"phone":null,"source":"OpenStreetMap/node/3595091550","sourceUpdatedAt":null,"verifiedAt":null}},{"type":"Feature","geometry":{"type":"Point","coordinates":[10.8399235,52.2943498]},"properties":{"id":"bikerack:247d0feb-abeb-417e-9673-488b4b5436fa","kind":"bikerack","longitude":10.8399235,"latitude":52.2943498,"name":"Fahrradabstellplatz","city":"Konigslutter am Elm","address":null,"covered":false,"access":null,"website":null,"phone":null,"source":"OpenStreetMap/node/11366818318","sourceUpdatedAt":null,"verifiedAt":null}},{"type":"Feature","geometry":{"type":"Point","coordinates":[10.8327482,52.2922174]},"properties":{"id":"bikerack:673c1222-1fac-46e2-9a30-87028e0056ad","kind":"bikerack","longitude":10.8327482,"latitude":52.2922174,"name":"Fahrradabstellplatz","city":"Konigslutter am Elm","address":null,"covered":false,"access":null,"website":null,"phone":null,"source":"OpenStreetMap/node/13096038695","sourceUpdatedAt":null,"verifiedAt":null}},{"type":"Feature","geometry":{"type":"Point","coordinates":[10.8405662,52.2943879]},"properties":{"id":"bikerack:7e2a392b-8142-4307-8069-c81dc69de4c4","kind":"bikerack","longitude":10.8405662,"latitude":52.2943879,"name":"Fahrradabstellplatz","city":"Konigslutter am Elm","address":null,"covered":false,"access":null,"website":null,"phone":null,"source":"OpenStreetMap/node/1802221340","sourceUpdatedAt":null,"verifiedAt":null}}]}