{"type":"FeatureCollection","features":[{"type":"Feature","geometry":{"type":"Point","coordinates":[10.8496615,50.9024307]},"properties":{"id":"bikerack:5ab38009-d564-483a-a532-b071bdbb1d8a","kind":"bikerack","longitude":10.8496615,"latitude":50.9024307,"name":"Fahrradabstellplatz","city":"Wandersleben","address":null,"covered":false,"access":null,"website":null,"phone":null,"source":"OpenStreetMap/node/5761917831","sourceUpdatedAt":null,"verifiedAt":null}},{"type":"Feature","geometry":{"type":"Point","coordinates":[10.8472701,50.8972055]},"properties":{"id":"bikerack:67796304-749b-4b65-8679-9f4a54313068","kind":"bikerack","longitude":10.8472701,"latitude":50.8972055,"name":"Fahrradabstellplatz","city":"Wandersleben","address":null,"covered":false,"access":null,"website":null,"phone":null,"source":"OpenStreetMap/node/13037939530","sourceUpdatedAt":null,"verifiedAt":null}},{"type":"Feature","geometry":{"type":"Point","coordinates":[10.8502448,50.9022817]},"properties":{"id":"bikerack:9c2c57ae-b18a-4222-986f-af2ff820d9ae","kind":"bikerack","longitude":10.8502448,"latitude":50.9022817,"name":"Fahrradabstellplatz","city":"Wandersleben","address":null,"covered":false,"access":null,"website":null,"phone":null,"source":"OpenStreetMap/node/9807296300","sourceUpdatedAt":null,"verifiedAt":null}},{"type":"Feature","geometry":{"type":"Point","coordinates":[10.8513714,50.9023046]},"properties":{"id":"bikerack:d765bbed-9239-4d06-82c6-610914e44bdd","kind":"bikerack","longitude":10.8513714,"latitude":50.9023046,"name":"Fahrradabstellplatz","city":"Wandersleben","address":null,"covered":false,"access":null,"website":null,"phone":null,"source":"OpenStreetMap/node/5761917836","sourceUpdatedAt":null,"verifiedAt":null}},{"type":"Feature","geometry":{"type":"Point","coordinates":[10.8467681,50.8997051]},"properties":{"id":"bikerack:ffd811cb-0f94-4c27-99e8-7a2af209856f","kind":"bikerack","longitude":10.8467681,"latitude":50.8997051,"name":"Fahrradabstellplatz","city":"Wandersleben","address":null,"covered":false,"access":null,"website":null,"phone":null,"source":"OpenStreetMap/node/5761917830","sourceUpdatedAt":null,"verifiedAt":null}}]}