{"type":"FeatureCollection","features":[{"type":"Feature","geometry":{"type":"Point","coordinates":[10.8294415,49.9116942]},"properties":{"id":"bikerack:17f6d1d5-147a-4ce6-aeb1-c37854e91c86","kind":"bikerack","longitude":10.8294415,"latitude":49.9116942,"name":"Fahrradabstellplatz","city":"Bischberg","address":null,"covered":true,"access":null,"website":null,"phone":null,"source":"OpenStreetMap/way/705085186","sourceUpdatedAt":null,"verifiedAt":null}},{"type":"Feature","geometry":{"type":"Point","coordinates":[10.8516745,49.8983094]},"properties":{"id":"bikerack:2d918213-40f9-4fb4-96c8-d905f3fac666","kind":"bikerack","longitude":10.8516745,"latitude":49.8983094,"name":"Fahrradabstellplatz","city":"Bischberg","address":null,"covered":false,"access":null,"website":null,"phone":null,"source":"OpenStreetMap/node/9931941465","sourceUpdatedAt":null,"verifiedAt":null}},{"type":"Feature","geometry":{"type":"Point","coordinates":[10.8518603,49.9023828]},"properties":{"id":"bikerack:47a8ff3b-b90f-4662-98de-a6ecf6fa5098","kind":"bikerack","longitude":10.8518603,"latitude":49.9023828,"name":"Fahrradabstellplatz","city":"Bischberg","address":null,"covered":false,"access":null,"website":null,"phone":null,"source":"OpenStreetMap/node/9640443934","sourceUpdatedAt":null,"verifiedAt":null}},{"type":"Feature","geometry":{"type":"Point","coordinates":[10.8517436,49.8984584]},"properties":{"id":"bikerack:80bdcdae-fa8a-4f9f-bbb6-3096dad53d20","kind":"bikerack","longitude":10.8517436,"latitude":49.8984584,"name":"Fahrradabstellplatz","city":"Bischberg","address":null,"covered":false,"access":null,"website":null,"phone":null,"source":"OpenStreetMap/node/9931941466","sourceUpdatedAt":null,"verifiedAt":null}},{"type":"Feature","geometry":{"type":"Point","coordinates":[10.851292,49.9011574]},"properties":{"id":"bikerack:bb431866-f7d3-4e29-a5a7-97379835f2c8","kind":"bikerack","longitude":10.851292,"latitude":49.9011574,"name":"Fahrradabstellplatz","city":"Bischberg","address":null,"covered":false,"access":null,"website":null,"phone":null,"source":"OpenStreetMap/way/1080456154","sourceUpdatedAt":null,"verifiedAt":null}},{"type":"Feature","geometry":{"type":"Point","coordinates":[10.8327793,49.9105491]},"properties":{"id":"bikerack:c81c9217-420f-49ee-9563-a4f3a01b5e07","kind":"bikerack","longitude":10.8327793,"latitude":49.9105491,"name":"Fahrradabstellplatz","city":"Bischberg","address":null,"covered":false,"access":null,"website":null,"phone":null,"source":"OpenStreetMap/node/11117434401","sourceUpdatedAt":null,"verifiedAt":null}},{"type":"Feature","geometry":{"type":"Point","coordinates":[10.8515954,49.8981626]},"properties":{"id":"bikerack:e2dde2b5-b564-4864-af55-158636701b20","kind":"bikerack","longitude":10.8515954,"latitude":49.8981626,"name":"Fahrradabstellplatz","city":"Bischberg","address":null,"covered":false,"access":null,"website":null,"phone":null,"source":"OpenStreetMap/node/9931941464","sourceUpdatedAt":null,"verifiedAt":null}},{"type":"Feature","geometry":{"type":"Point","coordinates":[10.8335489,49.9123317]},"properties":{"id":"repair:aa6ff15e-76cb-4149-9712-0ddab2bed580","kind":"repair","longitude":10.8335489,"latitude":49.9123317,"name":"Fahrradreparaturstation","city":"Bischberg","address":null,"covered":false,"access":null,"website":null,"phone":null,"source":"OpenStreetMap/node/12957209195","sourceUpdatedAt":null,"verifiedAt":null}}]}