{"type":"FeatureCollection","features":[{"type":"Feature","geometry":{"type":"Point","coordinates":[10.8437779,49.3749165]},"properties":{"id":"bikerack:5f477570-5112-4c62-ba39-57d58ce585df","kind":"bikerack","longitude":10.8437779,"latitude":49.3749165,"name":"Fahrradabstellplatz","city":"Rohr","address":null,"covered":false,"access":null,"website":null,"phone":null,"source":"OpenStreetMap/way/479008770","sourceUpdatedAt":null,"verifiedAt":null}},{"type":"Feature","geometry":{"type":"Point","coordinates":[10.8438385,49.3749117]},"properties":{"id":"bikerack:8179c61a-3ba8-4826-8f0e-e28752f6be2a","kind":"bikerack","longitude":10.8438385,"latitude":49.3749117,"name":"Fahrradabstellplatz","city":"Rohr","address":null,"covered":true,"access":null,"website":null,"phone":null,"source":"OpenStreetMap/way/450540713","sourceUpdatedAt":null,"verifiedAt":null}}]}