{"type":"FeatureCollection","features":[{"type":"Feature","geometry":{"type":"Point","coordinates":[10.825092,48.6601678]},"properties":{"id":"bikerack:2b96ba61-1acc-4086-a49e-7650a49ffd07","kind":"bikerack","longitude":10.825092,"latitude":48.6601678,"name":"Fahrradabstellplatz","city":"Mertingen","address":null,"covered":true,"access":null,"website":null,"phone":null,"source":"OpenStreetMap/way/460002690","sourceUpdatedAt":null,"verifiedAt":null}},{"type":"Feature","geometry":{"type":"Point","coordinates":[10.8254642,48.6605148]},"properties":{"id":"bikerack:6d275bbe-4fd8-4dcb-b133-69a3554e04f4","kind":"bikerack","longitude":10.8254642,"latitude":48.6605148,"name":"Bahnhof Mertingen","city":"Mertingen","address":null,"covered":true,"access":null,"website":null,"phone":null,"source":"OpenStreetMap/way/455296068","sourceUpdatedAt":null,"verifiedAt":null}},{"type":"Feature","geometry":{"type":"Point","coordinates":[10.8251918,48.6600513]},"properties":{"id":"bikerack:7ad976a9-745c-46fc-a9e4-8e1ca891597a","kind":"bikerack","longitude":10.8251918,"latitude":48.6600513,"name":"Fahrradabstellplatz","city":"Mertingen","address":null,"covered":true,"access":null,"website":null,"phone":null,"source":"OpenStreetMap/way/460002692","sourceUpdatedAt":null,"verifiedAt":null}},{"type":"Feature","geometry":{"type":"Point","coordinates":[10.8251583,48.660096]},"properties":{"id":"bikerack:addef7b7-d72f-43a6-bfd9-e47b55e37623","kind":"bikerack","longitude":10.8251583,"latitude":48.660096,"name":"Fahrradabstellplatz","city":"Mertingen","address":null,"covered":true,"access":null,"website":null,"phone":null,"source":"OpenStreetMap/way/460002691","sourceUpdatedAt":null,"verifiedAt":null}},{"type":"Feature","geometry":{"type":"Point","coordinates":[10.8252251,48.6600066]},"properties":{"id":"bikerack:d5d36051-9ec4-4783-ac69-1aad83793514","kind":"bikerack","longitude":10.8252251,"latitude":48.6600066,"name":"Fahrradabstellplatz","city":"Mertingen","address":null,"covered":true,"access":null,"website":null,"phone":null,"source":"OpenStreetMap/way/460002693","sourceUpdatedAt":null,"verifiedAt":null}},{"type":"Feature","geometry":{"type":"Point","coordinates":[10.8250592,48.6602116]},"properties":{"id":"bikerack:e843ea7d-8f73-4b03-9ebe-e8fab396a97c","kind":"bikerack","longitude":10.8250592,"latitude":48.6602116,"name":"Fahrradabstellplatz","city":"Mertingen","address":null,"covered":true,"access":null,"website":null,"phone":null,"source":"OpenStreetMap/way/460002689","sourceUpdatedAt":null,"verifiedAt":null}}]}