{"type":"FeatureCollection","features":[{"type":"Feature","geometry":{"type":"Point","coordinates":[15.5352878,51.5648638]},"properties":{"id":"bikerack:df88f797-a65d-4dd2-8704-6c4b5d8b72f0","kind":"bikerack","longitude":15.5352878,"latitude":51.5648638,"name":"Dworzec rowerowy","city":"Szprotawa","address":null,"covered":false,"access":null,"website":null,"phone":null,"source":"OpenStreetMap/way/1448622029","sourceUpdatedAt":null,"verifiedAt":null}},{"type":"Feature","geometry":{"type":"Point","coordinates":[15.5352924,51.564835]},"properties":{"id":"repair:5ed36e04-f3ef-498a-908b-3ad9e2c14615","kind":"repair","longitude":15.5352924,"latitude":51.564835,"name":"Kerékpár szervizállomás","city":"Szprotawa","address":null,"covered":false,"access":null,"website":null,"phone":null,"source":"OpenStreetMap/node/13290813501","sourceUpdatedAt":null,"verifiedAt":null}},{"type":"Feature","geometry":{"type":"Point","coordinates":[15.5386747,51.5650151]},"properties":{"id":"repair:7cea380d-4da1-4345-b08e-4b88a73a1229","kind":"repair","longitude":15.5386747,"latitude":51.5650151,"name":"Kerékpár szervizállomás","city":"Szprotawa","address":null,"covered":false,"access":null,"website":null,"phone":null,"source":"OpenStreetMap/node/12796065532","sourceUpdatedAt":null,"verifiedAt":null}},{"type":"Feature","geometry":{"type":"Point","coordinates":[15.5420478,51.5654355]},"properties":{"id":"service:294232c9-46b6-4742-81cc-e9b0e5f13731","kind":"service","longitude":15.5420478,"latitude":51.5654355,"name":"Bicikli szervíz","city":"Szprotawa","address":null,"covered":null,"access":null,"website":null,"phone":null,"source":"OpenStreetMap/node/3813580185","sourceUpdatedAt":null,"verifiedAt":null}},{"type":"Feature","geometry":{"type":"Point","coordinates":[15.5405735,51.5644651]},"properties":{"id":"service:bfe583e7-4dbe-4362-b62b-0bead9baf769","kind":"service","longitude":15.5405735,"latitude":51.5644651,"name":"Bicikli szervíz","city":"Szprotawa","address":null,"covered":null,"access":null,"website":null,"phone":null,"source":"OpenStreetMap/node/12391575197","sourceUpdatedAt":null,"verifiedAt":null}}]}