{"type":"FeatureCollection","features":[{"type":"Feature","geometry":{"type":"Point","coordinates":[18.5489734,54.5591193]},"properties":{"id":"bikerack:170f4da9-69fc-4b63-b9ee-458f9164dff9","kind":"bikerack","longitude":18.5489734,"latitude":54.5591193,"name":"Biciklitároló","city":"Gdynia","address":null,"covered":false,"access":null,"website":null,"phone":null,"source":"OpenStreetMap/node/5643459930","sourceUpdatedAt":null,"verifiedAt":null}},{"type":"Feature","geometry":{"type":"Point","coordinates":[18.5518524,54.5589236]},"properties":{"id":"bikerack:71096e6a-053e-486c-8817-23cf517416a4","kind":"bikerack","longitude":18.5518524,"latitude":54.5589236,"name":"Biciklitároló","city":"Gdynia","address":null,"covered":false,"access":null,"website":null,"phone":null,"source":"OpenStreetMap/node/10177816977","sourceUpdatedAt":null,"verifiedAt":null}},{"type":"Feature","geometry":{"type":"Point","coordinates":[18.5496083,54.56189]},"properties":{"id":"bikerack:883cf24e-8e8c-412f-819d-60fcdd87efbc","kind":"bikerack","longitude":18.5496083,"latitude":54.56189,"name":"Biciklitároló","city":"Gdynia","address":null,"covered":false,"access":null,"website":null,"phone":null,"source":"OpenStreetMap/node/8297195722","sourceUpdatedAt":null,"verifiedAt":null}},{"type":"Feature","geometry":{"type":"Point","coordinates":[18.5463398,54.5490222]},"properties":{"id":"bikerack:b187b714-cb61-4d46-adc8-e4e6e12d0305","kind":"bikerack","longitude":18.5463398,"latitude":54.5490222,"name":"Biciklitároló","city":"Gdynia","address":null,"covered":false,"access":null,"website":null,"phone":null,"source":"OpenStreetMap/node/9350907736","sourceUpdatedAt":null,"verifiedAt":null}},{"type":"Feature","geometry":{"type":"Point","coordinates":[18.5498416,54.5611311]},"properties":{"id":"bikerack:e99ad46f-1046-4019-a3a5-b7208c99faf5","kind":"bikerack","longitude":18.5498416,"latitude":54.5611311,"name":"Biciklitároló","city":"Gdynia","address":null,"covered":false,"access":null,"website":null,"phone":null,"source":"OpenStreetMap/node/8297195720","sourceUpdatedAt":null,"verifiedAt":null}}]}