{"type":"FeatureCollection","features":[{"type":"Feature","geometry":{"type":"Point","coordinates":[8.1085193,48.7247223]},"properties":{"id":"bikerack:4e8a4c53-96db-483c-950d-54f7a4ae0737","kind":"bikerack","longitude":8.1085193,"latitude":48.7247223,"name":"Fahrradabstellplatz","city":"Ottenhofen","address":null,"covered":false,"access":null,"website":null,"phone":null,"source":"OpenStreetMap/node/12863071994","sourceUpdatedAt":null,"verifiedAt":null}},{"type":"Feature","geometry":{"type":"Point","coordinates":[8.1081365,48.724792]},"properties":{"id":"bikerack:6175173e-4659-4b79-99a1-16ec09b11a29","kind":"bikerack","longitude":8.1081365,"latitude":48.724792,"name":"Fahrradabstellplatz","city":"Ottenhofen","address":null,"covered":false,"access":null,"website":null,"phone":null,"source":"OpenStreetMap/node/12863071992","sourceUpdatedAt":null,"verifiedAt":null}},{"type":"Feature","geometry":{"type":"Point","coordinates":[8.108972,48.7246418]},"properties":{"id":"bikerack:65a3acf1-a73d-4e0c-87c4-c5f1d1acd821","kind":"bikerack","longitude":8.108972,"latitude":48.7246418,"name":"Fahrradabstellplatz","city":"Ottenhofen","address":null,"covered":false,"access":null,"website":null,"phone":null,"source":"OpenStreetMap/node/12863071995","sourceUpdatedAt":null,"verifiedAt":null}},{"type":"Feature","geometry":{"type":"Point","coordinates":[8.1092152,48.7246024]},"properties":{"id":"bikerack:6a52892d-267a-473b-842f-d4809cd21782","kind":"bikerack","longitude":8.1092152,"latitude":48.7246024,"name":"Fahrradabstellplatz","city":"Ottenhofen","address":null,"covered":false,"access":null,"website":null,"phone":null,"source":"OpenStreetMap/node/12863072000","sourceUpdatedAt":null,"verifiedAt":null}},{"type":"Feature","geometry":{"type":"Point","coordinates":[8.1087202,48.7246829]},"properties":{"id":"bikerack:8ec21d5e-7825-47f3-bd31-febefa1af4fb","kind":"bikerack","longitude":8.1087202,"latitude":48.7246829,"name":"Fahrradabstellplatz","city":"Ottenhofen","address":null,"covered":false,"access":null,"website":null,"phone":null,"source":"OpenStreetMap/node/12863071996","sourceUpdatedAt":null,"verifiedAt":null}},{"type":"Feature","geometry":{"type":"Point","coordinates":[8.109475,48.7245521]},"properties":{"id":"bikerack:b0cffefd-cfc4-4606-941d-40e091e53a46","kind":"bikerack","longitude":8.109475,"latitude":48.7245521,"name":"Fahrradabstellplatz","city":"Ottenhofen","address":null,"covered":false,"access":null,"website":null,"phone":null,"source":"OpenStreetMap/node/12863076901","sourceUpdatedAt":null,"verifiedAt":null}},{"type":"Feature","geometry":{"type":"Point","coordinates":[8.1097884,48.7242408]},"properties":{"id":"bikerack:d029c7e8-4f56-4ae8-bc3a-a4c455a0846b","kind":"bikerack","longitude":8.1097884,"latitude":48.7242408,"name":"Fahrradabstellplatz","city":"Ottenhofen","address":null,"covered":false,"access":null,"website":null,"phone":null,"source":"OpenStreetMap/node/12863071990","sourceUpdatedAt":null,"verifiedAt":null}},{"type":"Feature","geometry":{"type":"Point","coordinates":[8.0940226,48.7280899]},"properties":{"id":"service:aa7c45a9-cdbc-49f5-8f10-f41095707510","kind":"service","longitude":8.0940226,"latitude":48.7280899,"name":"Zweirad Fuhr","city":"Ottenhofen","address":null,"covered":null,"access":null,"website":null,"phone":null,"source":"OpenStreetMap/way/1006819412","sourceUpdatedAt":null,"verifiedAt":null}}]}