{"type":"FeatureCollection","features":[{"type":"Feature","geometry":{"type":"Point","coordinates":[8.1030955,46.9382116]},"properties":{"id":"water:0abccbd7-2fac-477b-876e-6916df41c65b","kind":"water","longitude":8.1030955,"latitude":46.9382116,"name":"Drinking Fountain","city":"Hasle","address":null,"covered":null,"access":null,"website":null,"phone":null,"source":"OpenStreetMap/node/2392720269","sourceUpdatedAt":null,"verifiedAt":null}},{"type":"Feature","geometry":{"type":"Point","coordinates":[8.1010127,46.9370462]},"properties":{"id":"water:8a6419a0-2630-42dc-92cc-8a3457b97049","kind":"water","longitude":8.1010127,"latitude":46.9370462,"name":"Schimbrig Bad","city":"Hasle","address":null,"covered":null,"access":null,"website":null,"phone":null,"source":"OpenStreetMap/node/1885374770","sourceUpdatedAt":null,"verifiedAt":null}},{"type":"Feature","geometry":{"type":"Point","coordinates":[8.104653,46.9406318]},"properties":{"id":"water:e416066f-8843-44f1-9780-2c24a2e35f73","kind":"water","longitude":8.104653,"latitude":46.9406318,"name":"Drinking Fountain","city":"Hasle","address":null,"covered":null,"access":null,"website":null,"phone":null,"source":"OpenStreetMap/node/2392720277","sourceUpdatedAt":null,"verifiedAt":null}},{"type":"Feature","geometry":{"type":"Point","coordinates":[8.1158199,46.9459906]},"properties":{"id":"water:f9d9af40-6931-499d-8893-40e6c54d2784","kind":"water","longitude":8.1158199,"latitude":46.9459906,"name":"Drinking Fountain","city":"Hasle","address":null,"covered":null,"access":null,"website":null,"phone":null,"source":"OpenStreetMap/node/2392720297","sourceUpdatedAt":null,"verifiedAt":null}}]}