{"type":"FeatureCollection","features":[{"type":"Feature","geometry":{"type":"Point","coordinates":[8.1203527,45.3074371]},"properties":{"id":"water:46551e53-1ec5-4c8a-9b58-65cdd1f6dd6b","kind":"water","longitude":8.1203527,"latitude":45.3074371,"name":"Fontanella","city":"Bianze","address":null,"covered":null,"access":null,"website":null,"phone":null,"source":"OpenStreetMap/node/13316264610","sourceUpdatedAt":null,"verifiedAt":null}},{"type":"Feature","geometry":{"type":"Point","coordinates":[8.1159252,45.3092736]},"properties":{"id":"water:687a22a2-86ec-4571-812a-0117f97c88bd","kind":"water","longitude":8.1159252,"latitude":45.3092736,"name":"Fontanella","city":"Bianze","address":null,"covered":null,"access":null,"website":null,"phone":null,"source":"OpenStreetMap/node/13313841479","sourceUpdatedAt":null,"verifiedAt":null}},{"type":"Feature","geometry":{"type":"Point","coordinates":[8.1216699,45.3070854]},"properties":{"id":"water:bf85dd27-45b1-464f-9e84-4ab73fe1ca36","kind":"water","longitude":8.1216699,"latitude":45.3070854,"name":"Fontanella","city":"Bianze","address":null,"covered":null,"access":null,"website":null,"phone":null,"source":"OpenStreetMap/node/9610708415","sourceUpdatedAt":null,"verifiedAt":null}},{"type":"Feature","geometry":{"type":"Point","coordinates":[8.11525,45.3090265]},"properties":{"id":"water:ea7e32bc-3c29-4900-b823-2e03839b15ff","kind":"water","longitude":8.11525,"latitude":45.3090265,"name":"Fontanella","city":"Bianze","address":null,"covered":null,"access":null,"website":null,"phone":null,"source":"OpenStreetMap/node/9610708545","sourceUpdatedAt":null,"verifiedAt":null}}]}