{"type":"FeatureCollection","features":[{"type":"Feature","geometry":{"type":"Point","coordinates":[8.1126689,45.0081403]},"properties":{"id":"water:0556e562-fc07-4a5b-addd-4b92b28bf0f1","kind":"water","longitude":8.1126689,"latitude":45.0081403,"name":"Fontanella","city":"Montechiaro d'Asti","address":null,"covered":null,"access":null,"website":null,"phone":null,"source":"OpenStreetMap/node/5061094070","sourceUpdatedAt":null,"verifiedAt":null}},{"type":"Feature","geometry":{"type":"Point","coordinates":[8.0875435,45.0140744]},"properties":{"id":"water:445e151f-d194-4395-ad78-4536441cc79b","kind":"water","longitude":8.0875435,"latitude":45.0140744,"name":"Fontanella","city":"Cortanze","address":null,"covered":null,"access":null,"website":null,"phone":null,"source":"OpenStreetMap/node/9866793744","sourceUpdatedAt":null,"verifiedAt":null}},{"type":"Feature","geometry":{"type":"Point","coordinates":[8.1100411,45.008253]},"properties":{"id":"water:720530f3-a304-4413-af33-66f503f4b889","kind":"water","longitude":8.1100411,"latitude":45.008253,"name":"Fontanella","city":"Montechiaro d'Asti","address":null,"covered":null,"access":null,"website":null,"phone":null,"source":"OpenStreetMap/node/5061089712","sourceUpdatedAt":null,"verifiedAt":null}},{"type":"Feature","geometry":{"type":"Point","coordinates":[8.1143562,45.0064313]},"properties":{"id":"water:c6e8dec6-98eb-4e8f-a5c9-08758917580a","kind":"water","longitude":8.1143562,"latitude":45.0064313,"name":"Fontanella","city":"Montechiaro d'Asti","address":null,"covered":null,"access":null,"website":null,"phone":null,"source":"OpenStreetMap/node/7221257736","sourceUpdatedAt":null,"verifiedAt":null}}]}