{"type":"FeatureCollection","features":[{"type":"Feature","geometry":{"type":"Point","coordinates":[14.5656529,50.8610238]},"properties":{"id":"bikerack:22967f10-3b47-40ec-8de4-c72bcc111562","kind":"bikerack","longitude":14.5656529,"latitude":50.8610238,"name":"Bicycle Parking","city":"Dolni Podluzi","address":null,"covered":false,"access":null,"website":null,"phone":null,"source":"OpenStreetMap/node/5004331473","sourceUpdatedAt":null,"verifiedAt":null}},{"type":"Feature","geometry":{"type":"Point","coordinates":[14.5754338,50.8752862]},"properties":{"id":"bikerack:e40577ee-9161-4874-bcda-70028a4e1fb8","kind":"bikerack","longitude":14.5754338,"latitude":50.8752862,"name":"Bicycle Parking","city":"Dolni Podluzi","address":null,"covered":false,"access":null,"website":null,"phone":null,"source":"OpenStreetMap/node/8908315018","sourceUpdatedAt":null,"verifiedAt":null}},{"type":"Feature","geometry":{"type":"Point","coordinates":[14.5740201,50.874453]},"properties":{"id":"water:69365c1a-5120-4fc5-86fb-155f69b902e3","kind":"water","longitude":14.5740201,"latitude":50.874453,"name":"Drinking Fountain","city":"Dolni Podluzi","address":null,"covered":null,"access":null,"website":null,"phone":null,"source":"OpenStreetMap/node/8997168507","sourceUpdatedAt":null,"verifiedAt":null}},{"type":"Feature","geometry":{"type":"Point","coordinates":[14.5697693,50.8702877]},"properties":{"id":"water:cc6f7bf5-222c-46eb-acc5-b75243b3ed4c","kind":"water","longitude":14.5697693,"latitude":50.8702877,"name":"Drinking Fountain","city":"Dolni Podluzi","address":null,"covered":null,"access":null,"website":null,"phone":null,"source":"OpenStreetMap/node/2420579937","sourceUpdatedAt":null,"verifiedAt":null}}]}