{"type":"FeatureCollection","features":[{"type":"Feature","geometry":{"type":"Point","coordinates":[14.5801838,46.6390515]},"properties":{"id":"water:20264dc5-e360-4dda-801a-3cf573ac2953","kind":"water","longitude":14.5801838,"latitude":46.6390515,"name":"Ivókút","city":"Voelkermarkt","address":null,"covered":null,"access":null,"website":null,"phone":null,"source":"OpenStreetMap/node/5878276293","sourceUpdatedAt":null,"verifiedAt":null}},{"type":"Feature","geometry":{"type":"Point","coordinates":[14.5478566,46.6194801]},"properties":{"id":"water:c8d44274-68a7-44d1-85c1-c1b302059ea8","kind":"water","longitude":14.5478566,"latitude":46.6194801,"name":"Ivókút","city":"Gallizien","address":null,"covered":null,"access":null,"website":null,"phone":null,"source":"OpenStreetMap/node/2383387041","sourceUpdatedAt":null,"verifiedAt":null}}]}