{"type":"FeatureCollection","features":[{"type":"Feature","geometry":{"type":"Point","coordinates":[18.7078129,53.0083317]},"properties":{"id":"bikerack:14264d12-7544-4e23-af08-4cd31cebd7cf","kind":"bikerack","longitude":18.7078129,"latitude":53.0083317,"name":"Biciklitároló","city":"Lubicz Dolny","address":null,"covered":false,"access":null,"website":null,"phone":null,"source":"OpenStreetMap/node/3929065976","sourceUpdatedAt":null,"verifiedAt":null}},{"type":"Feature","geometry":{"type":"Point","coordinates":[18.7052229,53.0055248]},"properties":{"id":"bikerack:7435b1c0-5678-4f2d-91c3-83b04a2567b1","kind":"bikerack","longitude":18.7052229,"latitude":53.0055248,"name":"Biciklitároló","city":"Lubicz Dolny","address":null,"covered":false,"access":null,"website":null,"phone":null,"source":"OpenStreetMap/node/3929065975","sourceUpdatedAt":null,"verifiedAt":null}},{"type":"Feature","geometry":{"type":"Point","coordinates":[18.6996707,53.0029602]},"properties":{"id":"bikerack:a0285980-3623-4235-9da6-506d986eecff","kind":"bikerack","longitude":18.6996707,"latitude":53.0029602,"name":"Biciklitároló","city":"Lubicz Dolny","address":null,"covered":false,"access":null,"website":null,"phone":null,"source":"OpenStreetMap/way/1223269549","sourceUpdatedAt":null,"verifiedAt":null}},{"type":"Feature","geometry":{"type":"Point","coordinates":[18.7002281,53.0027484]},"properties":{"id":"bikerack:f9c72aa3-fd1c-4858-aab6-26a86fc886b7","kind":"bikerack","longitude":18.7002281,"latitude":53.0027484,"name":"Biciklitároló","city":"Lubicz Dolny","address":null,"covered":false,"access":null,"website":null,"phone":null,"source":"OpenStreetMap/way/1223269563","sourceUpdatedAt":null,"verifiedAt":null}},{"type":"Feature","geometry":{"type":"Point","coordinates":[18.7096881,52.9941053]},"properties":{"id":"service:f13447a6-544e-45c3-a2f7-7f8f2f755ee2","kind":"service","longitude":18.7096881,"latitude":52.9941053,"name":"Bicikli szervíz","city":"Lubicz Dolny","address":null,"covered":null,"access":null,"website":null,"phone":null,"source":"OpenStreetMap/node/12042440753","sourceUpdatedAt":null,"verifiedAt":null}}]}