{"type":"FeatureCollection","features":[{"type":"Feature","geometry":{"type":"Point","coordinates":[18.7072438,52.8638608]},"properties":{"id":"bikerack:00caf595-bd40-4999-bb96-0e574f5d37dc","kind":"bikerack","longitude":18.7072438,"latitude":52.8638608,"name":"Biciklitároló","city":"Aleksandrow Kujawski","address":null,"covered":false,"access":null,"website":null,"phone":null,"source":"OpenStreetMap/way/1210693693","sourceUpdatedAt":null,"verifiedAt":null}},{"type":"Feature","geometry":{"type":"Point","coordinates":[18.6854273,52.8719871]},"properties":{"id":"bikerack:03b5c024-4c35-4225-990c-3be7e42c43bc","kind":"bikerack","longitude":18.6854273,"latitude":52.8719871,"name":"Biciklitároló","city":"Aleksandrow Kujawski","address":null,"covered":false,"access":null,"website":null,"phone":null,"source":"OpenStreetMap/node/12103070485","sourceUpdatedAt":null,"verifiedAt":null}},{"type":"Feature","geometry":{"type":"Point","coordinates":[18.7037858,52.8766556]},"properties":{"id":"bikerack:059670ab-f4ef-461a-a7fc-0542fcda6e72","kind":"bikerack","longitude":18.7037858,"latitude":52.8766556,"name":"Biciklitároló","city":"Aleksandrow Kujawski","address":null,"covered":false,"access":null,"website":null,"phone":null,"source":"OpenStreetMap/node/12686644724","sourceUpdatedAt":null,"verifiedAt":null}},{"type":"Feature","geometry":{"type":"Point","coordinates":[18.7024843,52.8724345]},"properties":{"id":"bikerack:06b83143-94b7-4425-bcac-7fd87d1c8853","kind":"bikerack","longitude":18.7024843,"latitude":52.8724345,"name":"Biciklitároló","city":"Aleksandrow Kujawski","address":null,"covered":false,"access":null,"website":null,"phone":null,"source":"OpenStreetMap/node/9671869725","sourceUpdatedAt":null,"verifiedAt":null}},{"type":"Feature","geometry":{"type":"Point","coordinates":[18.6988246,52.8778483]},"properties":{"id":"bikerack:0a64e7a9-b85f-488d-8ece-a5130426a743","kind":"bikerack","longitude":18.6988246,"latitude":52.8778483,"name":"Biciklitároló","city":"Aleksandrow Kujawski","address":null,"covered":false,"access":null,"website":null,"phone":null,"source":"OpenStreetMap/node/12564189783","sourceUpdatedAt":null,"verifiedAt":null}},{"type":"Feature","geometry":{"type":"Point","coordinates":[18.7175145,52.87539]},"properties":{"id":"bikerack:1429897b-5f3a-4d9b-92e9-ca6408962ada","kind":"bikerack","longitude":18.7175145,"latitude":52.87539,"name":"Biciklitároló","city":"Aleksandrow Kujawski","address":null,"covered":false,"access":null,"website":null,"phone":null,"source":"OpenStreetMap/node/12448388854","sourceUpdatedAt":null,"verifiedAt":null}},{"type":"Feature","geometry":{"type":"Point","coordinates":[18.701239,52.8705346]},"properties":{"id":"bikerack:1df5f1e8-1365-46f5-8a7b-956baf2fd84b","kind":"bikerack","longitude":18.701239,"latitude":52.8705346,"name":"Biciklitároló","city":"Aleksandrow Kujawski","address":null,"covered":false,"access":null,"website":null,"phone":null,"source":"OpenStreetMap/way/1221494989","sourceUpdatedAt":null,"verifiedAt":null}},{"type":"Feature","geometry":{"type":"Point","coordinates":[18.6926031,52.8779819]},"properties":{"id":"bikerack:250cc1b6-71c7-4c03-b64b-2b1e773d7f8b","kind":"bikerack","longitude":18.6926031,"latitude":52.8779819,"name":"Biciklitároló","city":"Aleksandrow Kujawski","address":null,"covered":false,"access":null,"website":null,"phone":null,"source":"OpenStreetMap/node/12253802718","sourceUpdatedAt":null,"verifiedAt":null}},{"type":"Feature","geometry":{"type":"Point","coordinates":[18.6889983,52.8753017]},"properties":{"id":"bikerack:25f05dc7-dbc9-4177-9be6-e5afcc5ca3e7","kind":"bikerack","longitude":18.6889983,"latitude":52.8753017,"name":"Biciklitároló","city":"Aleksandrow Kujawski","address":null,"covered":false,"access":null,"website":null,"phone":null,"source":"OpenStreetMap/node/12702424301","sourceUpdatedAt":null,"verifiedAt":null}},{"type":"Feature","geometry":{"type":"Point","coordinates":[18.7038108,52.8807398]},"properties":{"id":"bikerack:2b8de978-4dc2-43de-a614-6ae5b1060f81","kind":"bikerack","longitude":18.7038108,"latitude":52.8807398,"name":"Biciklitároló","city":"Aleksandrow Kujawski","address":null,"covered":false,"access":null,"website":null,"phone":null,"source":"OpenStreetMap/node/12508221858","sourceUpdatedAt":null,"verifiedAt":null}},{"type":"Feature","geometry":{"type":"Point","coordinates":[18.6969262,52.874778]},"properties":{"id":"bikerack:330baaaa-ab0f-4032-b9ee-3ce9d458a7b6","kind":"bikerack","longitude":18.6969262,"latitude":52.874778,"name":"Biciklitároló","city":"Aleksandrow Kujawski","address":null,"covered":false,"access":null,"website":null,"phone":null,"source":"OpenStreetMap/node/12685554023","sourceUpdatedAt":null,"verifiedAt":null}},{"type":"Feature","geometry":{"type":"Point","coordinates":[18.6876518,52.8717412]},"properties":{"id":"bikerack:382ece68-1de3-4dc5-8ee4-e46a72c3ef39","kind":"bikerack","longitude":18.6876518,"latitude":52.8717412,"name":"Biciklitároló","city":"Aleksandrow Kujawski","address":null,"covered":false,"access":null,"website":null,"phone":null,"source":"OpenStreetMap/node/11353650620","sourceUpdatedAt":null,"verifiedAt":null}},{"type":"Feature","geometry":{"type":"Point","coordinates":[18.6956598,52.8821798]},"properties":{"id":"bikerack:3b0b607e-3981-45eb-8a50-c977ca9fa677","kind":"bikerack","longitude":18.6956598,"latitude":52.8821798,"name":"Biciklitároló","city":"Aleksandrow Kujawski","address":null,"covered":false,"access":null,"website":null,"phone":null,"source":"OpenStreetMap/node/11180506146","sourceUpdatedAt":null,"verifiedAt":null}},{"type":"Feature","geometry":{"type":"Point","coordinates":[18.6842747,52.8735769]},"properties":{"id":"bikerack:40b2c018-b9e3-4c3f-beda-e8ea9fda7d71","kind":"bikerack","longitude":18.6842747,"latitude":52.8735769,"name":"Biciklitároló","city":"Aleksandrow Kujawski","address":null,"covered":false,"access":null,"website":null,"phone":null,"source":"OpenStreetMap/node/12708636832","sourceUpdatedAt":null,"verifiedAt":null}},{"type":"Feature","geometry":{"type":"Point","coordinates":[18.6940689,52.8760357]},"properties":{"id":"bikerack:426397c0-4eb5-429f-9441-7d8eaf4b45ac","kind":"bikerack","longitude":18.6940689,"latitude":52.8760357,"name":"Biciklitároló","city":"Aleksandrow Kujawski","address":null,"covered":false,"access":null,"website":null,"phone":null,"source":"OpenStreetMap/node/13392726054","sourceUpdatedAt":null,"verifiedAt":null}},{"type":"Feature","geometry":{"type":"Point","coordinates":[18.6980889,52.8765754]},"properties":{"id":"bikerack:5333947c-8408-407b-85e0-81753575cd90","kind":"bikerack","longitude":18.6980889,"latitude":52.8765754,"name":"Biciklitároló","city":"Aleksandrow Kujawski","address":null,"covered":false,"access":null,"website":null,"phone":null,"source":"OpenStreetMap/way/1236330619","sourceUpdatedAt":null,"verifiedAt":null}},{"type":"Feature","geometry":{"type":"Point","coordinates":[18.6899021,52.8756862]},"properties":{"id":"bikerack:5a49cc3b-7f43-445d-bb9d-a129c0ceafe2","kind":"bikerack","longitude":18.6899021,"latitude":52.8756862,"name":"Biciklitároló","city":"Aleksandrow Kujawski","address":null,"covered":false,"access":null,"website":null,"phone":null,"source":"OpenStreetMap/node/11810031571","sourceUpdatedAt":null,"verifiedAt":null}},{"type":"Feature","geometry":{"type":"Point","coordinates":[18.7055042,52.8673943]},"properties":{"id":"bikerack:6815485e-0e26-4316-8084-577362a48560","kind":"bikerack","longitude":18.7055042,"latitude":52.8673943,"name":"Biciklitároló","city":"Aleksandrow Kujawski","address":null,"covered":false,"access":null,"website":null,"phone":null,"source":"OpenStreetMap/node/11328902208","sourceUpdatedAt":null,"verifiedAt":null}},{"type":"Feature","geometry":{"type":"Point","coordinates":[18.6960597,52.8742464]},"properties":{"id":"bikerack:69033145-32ad-41f5-91ba-cba4bcdbb295","kind":"bikerack","longitude":18.6960597,"latitude":52.8742464,"name":"Biciklitároló","city":"Aleksandrow Kujawski","address":null,"covered":false,"access":null,"website":null,"phone":null,"source":"OpenStreetMap/node/12655911041","sourceUpdatedAt":null,"verifiedAt":null}},{"type":"Feature","geometry":{"type":"Point","coordinates":[18.6981084,52.8754182]},"properties":{"id":"bikerack:70d633f2-d58b-432b-a5fe-909fadebcf98","kind":"bikerack","longitude":18.6981084,"latitude":52.8754182,"name":"Biciklitároló","city":"Aleksandrow Kujawski","address":null,"covered":false,"access":null,"website":null,"phone":null,"source":"OpenStreetMap/way/1208537245","sourceUpdatedAt":null,"verifiedAt":null}},{"type":"Feature","geometry":{"type":"Point","coordinates":[18.7008581,52.8767728]},"properties":{"id":"bikerack:788b5af6-833d-4bb6-8970-e117c3a1e667","kind":"bikerack","longitude":18.7008581,"latitude":52.8767728,"name":"Biciklitároló","city":"Aleksandrow Kujawski","address":null,"covered":false,"access":null,"website":null,"phone":null,"source":"OpenStreetMap/node/12596158504","sourceUpdatedAt":null,"verifiedAt":null}},{"type":"Feature","geometry":{"type":"Point","coordinates":[18.6914359,52.8790759]},"properties":{"id":"bikerack:79336eb7-abb1-474f-86d4-632197523d81","kind":"bikerack","longitude":18.6914359,"latitude":52.8790759,"name":"Biciklitároló","city":"Aleksandrow Kujawski","address":null,"covered":false,"access":null,"website":null,"phone":null,"source":"OpenStreetMap/node/11438625056","sourceUpdatedAt":null,"verifiedAt":null}},{"type":"Feature","geometry":{"type":"Point","coordinates":[18.6860932,52.8709787]},"properties":{"id":"bikerack:8a77e393-ae60-4d45-9d50-7a14377ce5d6","kind":"bikerack","longitude":18.6860932,"latitude":52.8709787,"name":"Biciklitároló","city":"Aleksandrow Kujawski","address":null,"covered":false,"access":null,"website":null,"phone":null,"source":"OpenStreetMap/node/11773724765","sourceUpdatedAt":null,"verifiedAt":null}},{"type":"Feature","geometry":{"type":"Point","coordinates":[18.6902731,52.8708678]},"properties":{"id":"bikerack:8f5c8dd7-ad8c-4cb5-b716-277dcef3496e","kind":"bikerack","longitude":18.6902731,"latitude":52.8708678,"name":"Biciklitároló","city":"Aleksandrow Kujawski","address":null,"covered":false,"access":null,"website":null,"phone":null,"source":"OpenStreetMap/node/12345930725","sourceUpdatedAt":null,"verifiedAt":null}},{"type":"Feature","geometry":{"type":"Point","coordinates":[18.7047998,52.8680178]},"properties":{"id":"bikerack:9899ff72-80ef-4925-99c8-cb4ddbbeb1c9","kind":"bikerack","longitude":18.7047998,"latitude":52.8680178,"name":"Biciklitároló","city":"Aleksandrow Kujawski","address":null,"covered":false,"access":null,"website":null,"phone":null,"source":"OpenStreetMap/node/11328902253","sourceUpdatedAt":null,"verifiedAt":null}},{"type":"Feature","geometry":{"type":"Point","coordinates":[18.6918335,52.8760648]},"properties":{"id":"bikerack:a4a8f635-e50c-4d6e-960b-3862993dfce2","kind":"bikerack","longitude":18.6918335,"latitude":52.8760648,"name":"Biciklitároló","city":"Aleksandrow Kujawski","address":null,"covered":false,"access":null,"website":null,"phone":null,"source":"OpenStreetMap/node/12133920944","sourceUpdatedAt":null,"verifiedAt":null}},{"type":"Feature","geometry":{"type":"Point","coordinates":[18.7037687,52.8763759]},"properties":{"id":"bikerack:aaeff98b-8899-4d3c-99be-b9fb43cd08e4","kind":"bikerack","longitude":18.7037687,"latitude":52.8763759,"name":"Biciklitároló","city":"Aleksandrow Kujawski","address":null,"covered":false,"access":null,"website":null,"phone":null,"source":"OpenStreetMap/node/12686644725","sourceUpdatedAt":null,"verifiedAt":null}},{"type":"Feature","geometry":{"type":"Point","coordinates":[18.687852,52.8716996]},"properties":{"id":"bikerack:aaf41871-13c8-4b15-a02a-a86cfe55d37c","kind":"bikerack","longitude":18.687852,"latitude":52.8716996,"name":"Biciklitároló","city":"Aleksandrow Kujawski","address":null,"covered":false,"access":null,"website":null,"phone":null,"source":"OpenStreetMap/node/11353650619","sourceUpdatedAt":null,"verifiedAt":null}},{"type":"Feature","geometry":{"type":"Point","coordinates":[18.6995772,52.8775056]},"properties":{"id":"bikerack:b40c2c78-2f6d-494f-81eb-527557fb00e2","kind":"bikerack","longitude":18.6995772,"latitude":52.8775056,"name":"Biciklitároló","city":"Aleksandrow Kujawski","address":null,"covered":false,"access":null,"website":null,"phone":null,"source":"OpenStreetMap/node/12098491087","sourceUpdatedAt":null,"verifiedAt":null}},{"type":"Feature","geometry":{"type":"Point","coordinates":[18.697991,52.8795391]},"properties":{"id":"bikerack:bb686a9d-7bdc-40b4-8353-9c07e289c315","kind":"bikerack","longitude":18.697991,"latitude":52.8795391,"name":"Biciklitároló","city":"Aleksandrow Kujawski","address":null,"covered":false,"access":null,"website":null,"phone":null,"source":"OpenStreetMap/node/12925735444","sourceUpdatedAt":null,"verifiedAt":null}},{"type":"Feature","geometry":{"type":"Point","coordinates":[18.6927203,52.8770548]},"properties":{"id":"bikerack:c385f4eb-a41d-4d5b-81f1-6cad5a3f42a9","kind":"bikerack","longitude":18.6927203,"latitude":52.8770548,"name":"Biciklitároló","city":"Aleksandrow Kujawski","address":null,"covered":true,"access":null,"website":null,"phone":null,"source":"OpenStreetMap/node/12219402481","sourceUpdatedAt":null,"verifiedAt":null}},{"type":"Feature","geometry":{"type":"Point","coordinates":[18.705823,52.8671188]},"properties":{"id":"bikerack:c5f83a71-59ef-4dc8-bc54-6f6cdc6899d5","kind":"bikerack","longitude":18.705823,"latitude":52.8671188,"name":"Biciklitároló","city":"Aleksandrow Kujawski","address":null,"covered":false,"access":null,"website":null,"phone":null,"source":"OpenStreetMap/node/12846784235","sourceUpdatedAt":null,"verifiedAt":null}},{"type":"Feature","geometry":{"type":"Point","coordinates":[18.6923534,52.8664036]},"properties":{"id":"bikerack:c7fa7aef-f6c3-4c1e-8875-6eb8b9e00966","kind":"bikerack","longitude":18.6923534,"latitude":52.8664036,"name":"Biciklitároló","city":"Aleksandrow Kujawski","address":null,"covered":false,"access":null,"website":null,"phone":null,"source":"OpenStreetMap/node/11093159461","sourceUpdatedAt":null,"verifiedAt":null}},{"type":"Feature","geometry":{"type":"Point","coordinates":[18.6988895,52.8767263]},"properties":{"id":"bikerack:cb9d2b59-107b-4fc7-8e7c-99e6e50e4ac2","kind":"bikerack","longitude":18.6988895,"latitude":52.8767263,"name":"Biciklitároló","city":"Aleksandrow Kujawski","address":null,"covered":false,"access":null,"website":null,"phone":null,"source":"OpenStreetMap/way/1236330617","sourceUpdatedAt":null,"verifiedAt":null}},{"type":"Feature","geometry":{"type":"Point","coordinates":[18.7009226,52.8711931]},"properties":{"id":"bikerack:d1d7cd03-97a0-4fe3-80ab-fb629466b7db","kind":"bikerack","longitude":18.7009226,"latitude":52.8711931,"name":"Biciklitároló","city":"Aleksandrow Kujawski","address":null,"covered":false,"access":null,"website":null,"phone":null,"source":"OpenStreetMap/node/11328902730","sourceUpdatedAt":null,"verifiedAt":null}},{"type":"Feature","geometry":{"type":"Point","coordinates":[18.701495,52.8771435]},"properties":{"id":"bikerack:d35a9ff2-7332-4097-af70-63f61afedf32","kind":"bikerack","longitude":18.701495,"latitude":52.8771435,"name":"Biciklitároló","city":"Aleksandrow Kujawski","address":null,"covered":false,"access":null,"website":null,"phone":null,"source":"OpenStreetMap/way/1273892896","sourceUpdatedAt":null,"verifiedAt":null}},{"type":"Feature","geometry":{"type":"Point","coordinates":[18.6959765,52.8799777]},"properties":{"id":"bikerack:d945d07f-108b-497a-9cc0-5021b472b277","kind":"bikerack","longitude":18.6959765,"latitude":52.8799777,"name":"Biciklitároló","city":"Aleksandrow Kujawski","address":null,"covered":false,"access":null,"website":null,"phone":null,"source":"OpenStreetMap/node/12953421418","sourceUpdatedAt":null,"verifiedAt":null}},{"type":"Feature","geometry":{"type":"Point","coordinates":[18.6911536,52.8792315]},"properties":{"id":"bikerack:dfc2d6b7-efa1-416e-83bd-3afc40e5300e","kind":"bikerack","longitude":18.6911536,"latitude":52.8792315,"name":"Biciklitároló","city":"Aleksandrow Kujawski","address":null,"covered":false,"access":null,"website":null,"phone":null,"source":"OpenStreetMap/node/11438625036","sourceUpdatedAt":null,"verifiedAt":null}},{"type":"Feature","geometry":{"type":"Point","coordinates":[18.7061064,52.8782282]},"properties":{"id":"bikerack:e345a204-4618-402e-8153-a01366879c90","kind":"bikerack","longitude":18.7061064,"latitude":52.8782282,"name":"Biciklitároló","city":"Aleksandrow Kujawski","address":null,"covered":false,"access":null,"website":null,"phone":null,"source":"OpenStreetMap/way/1302464136","sourceUpdatedAt":null,"verifiedAt":null}},{"type":"Feature","geometry":{"type":"Point","coordinates":[18.7034514,52.8807278]},"properties":{"id":"bikerack:e975d35a-2f36-4e07-913a-5d5c8c50cca1","kind":"bikerack","longitude":18.7034514,"latitude":52.8807278,"name":"Biciklitároló","city":"Aleksandrow Kujawski","address":null,"covered":false,"access":null,"website":null,"phone":null,"source":"OpenStreetMap/node/12508221857","sourceUpdatedAt":null,"verifiedAt":null}},{"type":"Feature","geometry":{"type":"Point","coordinates":[18.6930242,52.8763617]},"properties":{"id":"bikerack:eba918e8-8e3c-4cb2-a1ef-d9d8f70f4fa1","kind":"bikerack","longitude":18.6930242,"latitude":52.8763617,"name":"Biciklitároló","city":"Aleksandrow Kujawski","address":null,"covered":false,"access":null,"website":null,"phone":null,"source":"OpenStreetMap/node/12133920937","sourceUpdatedAt":null,"verifiedAt":null}},{"type":"Feature","geometry":{"type":"Point","coordinates":[18.7001516,52.8715442]},"properties":{"id":"bikerack:efaa42b2-ae06-4e26-9157-2ec28c94ca1d","kind":"bikerack","longitude":18.7001516,"latitude":52.8715442,"name":"Biciklitároló","city":"Aleksandrow Kujawski","address":null,"covered":false,"access":null,"website":null,"phone":null,"source":"OpenStreetMap/node/12168404554","sourceUpdatedAt":null,"verifiedAt":null}},{"type":"Feature","geometry":{"type":"Point","coordinates":[18.6924294,52.8762745]},"properties":{"id":"bikerack:efacc8ec-f987-49f4-8384-fd0b26a7e1a2","kind":"bikerack","longitude":18.6924294,"latitude":52.8762745,"name":"Biciklitároló","city":"Aleksandrow Kujawski","address":null,"covered":false,"access":null,"website":null,"phone":null,"source":"OpenStreetMap/node/12133920942","sourceUpdatedAt":null,"verifiedAt":null}},{"type":"Feature","geometry":{"type":"Point","coordinates":[18.6971258,52.878852]},"properties":{"id":"bikerack:f90fb2fc-2439-4050-979d-ad2389b4e8e8","kind":"bikerack","longitude":18.6971258,"latitude":52.878852,"name":"Biciklitároló","city":"Aleksandrow Kujawski","address":null,"covered":false,"access":null,"website":null,"phone":null,"source":"OpenStreetMap/way/1251088641","sourceUpdatedAt":null,"verifiedAt":null}},{"type":"Feature","geometry":{"type":"Point","coordinates":[18.7073485,52.8638454]},"properties":{"id":"bikerack:f9259da7-97e7-4546-81d4-1fa7eb9a0a11","kind":"bikerack","longitude":18.7073485,"latitude":52.8638454,"name":"Biciklitároló","city":"Aleksandrow Kujawski","address":null,"covered":false,"access":null,"website":null,"phone":null,"source":"OpenStreetMap/way/1210693692","sourceUpdatedAt":null,"verifiedAt":null}},{"type":"Feature","geometry":{"type":"Point","coordinates":[18.6912748,52.875943]},"properties":{"id":"bikerack:fb444e00-c592-43c5-8e6c-fc323ff4c796","kind":"bikerack","longitude":18.6912748,"latitude":52.875943,"name":"Fryderyka Chopina 16 – Biciklitároló","city":"Aleksandrów Kujawski","address":null,"covered":false,"access":null,"website":null,"phone":null,"source":"OpenStreetMap/node/13395854867","sourceUpdatedAt":null,"verifiedAt":null}},{"type":"Feature","geometry":{"type":"Point","coordinates":[18.7015683,52.877559]},"properties":{"id":"bikerack:fc35344c-dc23-43a4-a7f6-51addaba1a43","kind":"bikerack","longitude":18.7015683,"latitude":52.877559,"name":"Biciklitároló","city":"Aleksandrow Kujawski","address":null,"covered":false,"access":null,"website":null,"phone":null,"source":"OpenStreetMap/node/11659389118","sourceUpdatedAt":null,"verifiedAt":null}},{"type":"Feature","geometry":{"type":"Point","coordinates":[18.6981501,52.8755417]},"properties":{"id":"repair:b2293ad8-8dd9-499e-9216-8c32acee5d60","kind":"repair","longitude":18.6981501,"latitude":52.8755417,"name":"Kerékpár szervizállomás","city":"Aleksandrow Kujawski","address":null,"covered":false,"access":null,"website":null,"phone":null,"source":"OpenStreetMap/node/11198131859","sourceUpdatedAt":null,"verifiedAt":null}},{"type":"Feature","geometry":{"type":"Point","coordinates":[18.6965677,52.8772315]},"properties":{"id":"water:ed40b736-91ff-4700-a920-b8f9ef94da71","kind":"water","longitude":18.6965677,"latitude":52.8772315,"name":"Punkt Poboru Wody nr 1","city":"Aleksandrow Kujawski","address":null,"covered":null,"access":null,"website":null,"phone":null,"source":"OpenStreetMap/node/12083828629","sourceUpdatedAt":null,"verifiedAt":null}}]}