{"type":"FeatureCollection","features":[{"type":"Feature","geometry":{"type":"Point","coordinates":[18.6875977,46.1987287]},"properties":{"id":"water:34568c13-5474-4cbd-aecf-b7de0235c61e","kind":"water","longitude":18.6875977,"latitude":46.1987287,"name":"Ivókút","city":null,"address":null,"covered":null,"access":null,"website":null,"phone":null,"source":"OpenStreetMap","sourceUpdatedAt":null,"verifiedAt":null}},{"type":"Feature","geometry":{"type":"Point","coordinates":[18.712227,46.201346]},"properties":{"id":"water:66c1299d-5701-4650-b627-662ebf7579c8","kind":"water","longitude":18.712227,"latitude":46.201346,"name":"Ivókút","city":null,"address":null,"covered":null,"access":null,"website":null,"phone":null,"source":"OpenStreetMap","sourceUpdatedAt":null,"verifiedAt":null}}]}