{"type":"FeatureCollection","features":[{"type":"Feature","geometry":{"type":"Point","coordinates":[16.9660026,52.7610806]},"properties":{"id":"bikerack:1d8baf53-8d77-4976-812f-16d143be4c8f","kind":"bikerack","longitude":16.9660026,"latitude":52.7610806,"name":"Biciklitároló","city":"Rogozno","address":null,"covered":false,"access":null,"website":null,"phone":null,"source":"OpenStreetMap/node/10208208983","sourceUpdatedAt":null,"verifiedAt":null}},{"type":"Feature","geometry":{"type":"Point","coordinates":[16.9763473,52.7507343]},"properties":{"id":"bikerack:c0794213-408d-429e-acdd-35da4a77a2cd","kind":"bikerack","longitude":16.9763473,"latitude":52.7507343,"name":"Biciklitároló","city":"Rogozno","address":null,"covered":false,"access":null,"website":null,"phone":null,"source":"OpenStreetMap/node/12310181476","sourceUpdatedAt":null,"verifiedAt":null}},{"type":"Feature","geometry":{"type":"Point","coordinates":[16.9916137,52.752358]},"properties":{"id":"bikerack:f5d12311-5e7f-4863-8925-267587e09412","kind":"bikerack","longitude":16.9916137,"latitude":52.752358,"name":"Biciklitároló","city":"Rogozno","address":null,"covered":false,"access":null,"website":null,"phone":null,"source":"OpenStreetMap/node/12265718835","sourceUpdatedAt":null,"verifiedAt":null}},{"type":"Feature","geometry":{"type":"Point","coordinates":[16.9750071,52.7572186]},"properties":{"id":"service:f9fbf3a8-6ec6-4b84-bbc9-aa9451f98e79","kind":"service","longitude":16.9750071,"latitude":52.7572186,"name":"Sklep Rowerowy","city":"Rogozno","address":null,"covered":null,"access":null,"website":null,"phone":null,"source":"OpenStreetMap/node/4382250120","sourceUpdatedAt":null,"verifiedAt":null}}]}