{"type":"FeatureCollection","features":[{"type":"Feature","geometry":{"type":"Point","coordinates":[17.0036096,52.4100642]},"properties":{"id":"bikerack:03f7b1f3-9579-46ed-b4bd-378be8e10817","kind":"bikerack","longitude":17.0036096,"latitude":52.4100642,"name":"Hop & go","city":"Czerwonak","address":null,"covered":false,"access":null,"website":null,"phone":null,"source":"OpenStreetMap/node/6542234043","sourceUpdatedAt":null,"verifiedAt":null}},{"type":"Feature","geometry":{"type":"Point","coordinates":[16.9792581,52.4028871]},"properties":{"id":"bikerack:046c3359-a9b7-4b29-b6aa-44179f3a2b30","kind":"bikerack","longitude":16.9792581,"latitude":52.4028871,"name":"Biciklitároló","city":"Poznan","address":null,"covered":false,"access":null,"website":null,"phone":null,"source":"OpenStreetMap/node/6489180286","sourceUpdatedAt":null,"verifiedAt":null}},{"type":"Feature","geometry":{"type":"Point","coordinates":[16.9651558,52.4156017]},"properties":{"id":"bikerack:0915fb51-5526-49c5-8a7d-6ee1af5b3100","kind":"bikerack","longitude":16.9651558,"latitude":52.4156017,"name":"Biciklitároló","city":"Poznan","address":null,"covered":true,"access":null,"website":null,"phone":null,"source":"OpenStreetMap/way/310148533","sourceUpdatedAt":null,"verifiedAt":null}},{"type":"Feature","geometry":{"type":"Point","coordinates":[17.0032149,52.4093339]},"properties":{"id":"bikerack:0f02fd67-90ff-4cfb-83e9-1b673054d64b","kind":"bikerack","longitude":17.0032149,"latitude":52.4093339,"name":"Biciklitároló","city":"Czerwonak","address":null,"covered":false,"access":null,"website":null,"phone":null,"source":"OpenStreetMap/node/9091852393","sourceUpdatedAt":null,"verifiedAt":null}},{"type":"Feature","geometry":{"type":"Point","coordinates":[16.9929179,52.4096818]},"properties":{"id":"bikerack:11fba99f-6cb8-45b0-a7bd-8b80a388673b","kind":"bikerack","longitude":16.9929179,"latitude":52.4096818,"name":"Hop & go","city":"Czerwonak","address":null,"covered":false,"access":null,"website":null,"phone":null,"source":"OpenStreetMap/node/6542234044","sourceUpdatedAt":null,"verifiedAt":null}},{"type":"Feature","geometry":{"type":"Point","coordinates":[16.9708916,52.4212864]},"properties":{"id":"bikerack:18bf28c9-03b5-4506-9c7a-f6b4d9035e4e","kind":"bikerack","longitude":16.9708916,"latitude":52.4212864,"name":"Hop & go","city":"Poznan","address":null,"covered":false,"access":null,"website":null,"phone":null,"source":"OpenStreetMap/node/4686939595","sourceUpdatedAt":null,"verifiedAt":null}},{"type":"Feature","geometry":{"type":"Point","coordinates":[16.9648642,52.4190171]},"properties":{"id":"bikerack:1a13db5d-0e58-4a05-b3f1-fc64101bf8af","kind":"bikerack","longitude":16.9648642,"latitude":52.4190171,"name":"Biciklitároló","city":"Poznan","address":null,"covered":false,"access":null,"website":null,"phone":null,"source":"OpenStreetMap/way/1432636468","sourceUpdatedAt":null,"verifiedAt":null}},{"type":"Feature","geometry":{"type":"Point","coordinates":[16.9706011,52.4083201]},"properties":{"id":"bikerack:26d756a3-4a01-43d1-9a99-ba172c9cfd29","kind":"bikerack","longitude":16.9706011,"latitude":52.4083201,"name":"Biciklitároló","city":"Poznan","address":null,"covered":false,"access":null,"website":null,"phone":null,"source":"OpenStreetMap/node/5062709815","sourceUpdatedAt":null,"verifiedAt":null}},{"type":"Feature","geometry":{"type":"Point","coordinates":[16.9937016,52.4094308]},"properties":{"id":"bikerack:27c61188-5cd0-4670-b1cf-504b8360418e","kind":"bikerack","longitude":16.9937016,"latitude":52.4094308,"name":"Biciklitároló","city":"Czerwonak","address":null,"covered":false,"access":null,"website":null,"phone":null,"source":"OpenStreetMap/node/11626947246","sourceUpdatedAt":null,"verifiedAt":null}},{"type":"Feature","geometry":{"type":"Point","coordinates":[16.9960875,52.4060094]},"properties":{"id":"bikerack:4cefa0e3-dadd-4f09-ae95-213ccb702f96","kind":"bikerack","longitude":16.9960875,"latitude":52.4060094,"name":"Biciklitároló","city":"Czerwonak","address":null,"covered":false,"access":null,"website":null,"phone":null,"source":"OpenStreetMap/node/10775977660","sourceUpdatedAt":null,"verifiedAt":null}},{"type":"Feature","geometry":{"type":"Point","coordinates":[16.9955253,52.404661]},"properties":{"id":"bikerack:4d7d2fc3-93c7-4f30-ba85-efabdf29c875","kind":"bikerack","longitude":16.9955253,"latitude":52.404661,"name":"Biciklitároló","city":"Czerwonak","address":null,"covered":false,"access":null,"website":null,"phone":null,"source":"OpenStreetMap/node/7606549545","sourceUpdatedAt":null,"verifiedAt":null}},{"type":"Feature","geometry":{"type":"Point","coordinates":[16.9788403,52.4265401]},"properties":{"id":"bikerack:5b58b759-f45a-4fc8-bd5c-c77ca6a71ebe","kind":"bikerack","longitude":16.9788403,"latitude":52.4265401,"name":"Hop & go","city":"Czerwonak","address":null,"covered":false,"access":null,"website":null,"phone":null,"source":"OpenStreetMap/node/8329004125","sourceUpdatedAt":null,"verifiedAt":null}},{"type":"Feature","geometry":{"type":"Point","coordinates":[16.974939,52.4050431]},"properties":{"id":"bikerack:622adc56-2054-435e-a384-a82ad058a0c8","kind":"bikerack","longitude":16.974939,"latitude":52.4050431,"name":"Biciklitároló","city":"Poznan","address":null,"covered":false,"access":null,"website":null,"phone":null,"source":"OpenStreetMap/node/9484641917","sourceUpdatedAt":null,"verifiedAt":null}},{"type":"Feature","geometry":{"type":"Point","coordinates":[16.9704119,52.4083504]},"properties":{"id":"bikerack:685be197-9246-45b2-849a-24baf93ec8eb","kind":"bikerack","longitude":16.9704119,"latitude":52.4083504,"name":"Biciklitároló","city":"Poznan","address":null,"covered":false,"access":null,"website":null,"phone":null,"source":"OpenStreetMap/node/5062709816","sourceUpdatedAt":null,"verifiedAt":null}},{"type":"Feature","geometry":{"type":"Point","coordinates":[16.9782312,52.4032624]},"properties":{"id":"bikerack:6884c780-4a53-460f-b32a-a81af7ba260f","kind":"bikerack","longitude":16.9782312,"latitude":52.4032624,"name":"Biciklitároló","city":"Poznan","address":null,"covered":false,"access":null,"website":null,"phone":null,"source":"OpenStreetMap/node/9406332658","sourceUpdatedAt":null,"verifiedAt":null}},{"type":"Feature","geometry":{"type":"Point","coordinates":[16.9748997,52.4052646]},"properties":{"id":"bikerack:68c61c06-2001-43f7-8cbf-0721ac5b9d19","kind":"bikerack","longitude":16.9748997,"latitude":52.4052646,"name":"Biciklitároló","city":"Poznan","address":null,"covered":false,"access":null,"website":null,"phone":null,"source":"OpenStreetMap/node/9484641818","sourceUpdatedAt":null,"verifiedAt":null}},{"type":"Feature","geometry":{"type":"Point","coordinates":[16.9887014,52.4062608]},"properties":{"id":"bikerack:70fee550-c83d-47dd-9215-e0f8272f8a7c","kind":"bikerack","longitude":16.9887014,"latitude":52.4062608,"name":"Biciklitároló","city":"Czerwonak","address":null,"covered":false,"access":null,"website":null,"phone":null,"source":"OpenStreetMap/node/9098519771","sourceUpdatedAt":null,"verifiedAt":null}},{"type":"Feature","geometry":{"type":"Point","coordinates":[16.9743659,52.4192334]},"properties":{"id":"bikerack:74a9cde5-a2c4-4d82-b6f8-8d67f9cd89e5","kind":"bikerack","longitude":16.9743659,"latitude":52.4192334,"name":"Biciklitároló","city":"Czerwonak","address":null,"covered":false,"access":null,"website":null,"phone":null,"source":"OpenStreetMap/node/3627196217","sourceUpdatedAt":null,"verifiedAt":null}},{"type":"Feature","geometry":{"type":"Point","coordinates":[16.9816728,52.4093612]},"properties":{"id":"bikerack:80285732-c3ba-4126-866c-52ee1fe82939","kind":"bikerack","longitude":16.9816728,"latitude":52.4093612,"name":"Hop & go","city":"Poznan","address":null,"covered":false,"access":null,"website":null,"phone":null,"source":"OpenStreetMap/node/6542234045","sourceUpdatedAt":null,"verifiedAt":null}},{"type":"Feature","geometry":{"type":"Point","coordinates":[16.9703848,52.407778]},"properties":{"id":"bikerack:a259d369-140a-49ef-91a5-bf1ece508155","kind":"bikerack","longitude":16.9703848,"latitude":52.407778,"name":"Biciklitároló","city":"Poznan","address":null,"covered":false,"access":null,"website":null,"phone":null,"source":"OpenStreetMap/node/5064004015","sourceUpdatedAt":null,"verifiedAt":null}},{"type":"Feature","geometry":{"type":"Point","coordinates":[16.96483,52.4192065]},"properties":{"id":"bikerack:a564d34d-917f-4ec0-9bf1-480469b20be1","kind":"bikerack","longitude":16.96483,"latitude":52.4192065,"name":"Biciklitároló","city":"Poznan","address":null,"covered":false,"access":null,"website":null,"phone":null,"source":"OpenStreetMap/way/1432636470","sourceUpdatedAt":null,"verifiedAt":null}},{"type":"Feature","geometry":{"type":"Point","coordinates":[16.9707909,52.4082916]},"properties":{"id":"bikerack:a7830a5e-2811-42e7-a4e3-22354f711d98","kind":"bikerack","longitude":16.9707909,"latitude":52.4082916,"name":"Biciklitároló","city":"Poznan","address":null,"covered":false,"access":null,"website":null,"phone":null,"source":"OpenStreetMap/node/5062709814","sourceUpdatedAt":null,"verifiedAt":null}},{"type":"Feature","geometry":{"type":"Point","coordinates":[16.994489,52.4028224]},"properties":{"id":"bikerack:a86ba95e-a33e-4dce-bda0-f356f2287015","kind":"bikerack","longitude":16.994489,"latitude":52.4028224,"name":"Biciklitároló","city":"Czerwonak","address":null,"covered":false,"access":null,"website":null,"phone":null,"source":"OpenStreetMap/node/7606549548","sourceUpdatedAt":null,"verifiedAt":null}},{"type":"Feature","geometry":{"type":"Point","coordinates":[16.9774617,52.4036119]},"properties":{"id":"bikerack:ad85033f-99ff-47ba-9948-d44b85f1e01f","kind":"bikerack","longitude":16.9774617,"latitude":52.4036119,"name":"Biciklitároló","city":"Poznan","address":null,"covered":false,"access":null,"website":null,"phone":null,"source":"OpenStreetMap/node/8554925193","sourceUpdatedAt":null,"verifiedAt":null}},{"type":"Feature","geometry":{"type":"Point","coordinates":[16.9659684,52.4234219]},"properties":{"id":"bikerack:b0a6c330-870b-4ec5-a07a-e3d0e5fc02d2","kind":"bikerack","longitude":16.9659684,"latitude":52.4234219,"name":"Biciklitároló","city":"Poznan","address":null,"covered":false,"access":null,"website":null,"phone":null,"source":"OpenStreetMap/way/793140941","sourceUpdatedAt":null,"verifiedAt":null}},{"type":"Feature","geometry":{"type":"Point","coordinates":[16.9658528,52.4228234]},"properties":{"id":"bikerack:d6bac2ba-5bf2-4c13-8495-4cf69a00c2db","kind":"bikerack","longitude":16.9658528,"latitude":52.4228234,"name":"Hop & go","city":"Poznan","address":null,"covered":false,"access":null,"website":null,"phone":null,"source":"OpenStreetMap/node/8329004134","sourceUpdatedAt":null,"verifiedAt":null}},{"type":"Feature","geometry":{"type":"Point","coordinates":[16.9685922,52.4197863]},"properties":{"id":"bikerack:df54e67c-7c20-4f3f-8361-63a2bcf389fd","kind":"bikerack","longitude":16.9685922,"latitude":52.4197863,"name":"Biciklitároló","city":"Poznan","address":null,"covered":false,"access":null,"website":null,"phone":null,"source":"OpenStreetMap/node/3627196238","sourceUpdatedAt":null,"verifiedAt":null}},{"type":"Feature","geometry":{"type":"Point","coordinates":[16.9748837,52.4057563]},"properties":{"id":"bikerack:e287fbec-a717-4787-9dc9-1f543bb5905b","kind":"bikerack","longitude":16.9748837,"latitude":52.4057563,"name":"Biciklitároló","city":"Poznan","address":null,"covered":false,"access":null,"website":null,"phone":null,"source":"OpenStreetMap/node/9022926439","sourceUpdatedAt":null,"verifiedAt":null}},{"type":"Feature","geometry":{"type":"Point","coordinates":[16.9715916,52.4086079]},"properties":{"id":"bikerack:f4fe2dca-8174-4600-b1e1-4b12943bdba6","kind":"bikerack","longitude":16.9715916,"latitude":52.4086079,"name":"Biciklitároló","city":"Poznan","address":null,"covered":false,"access":null,"website":null,"phone":null,"source":"OpenStreetMap/node/5062709813","sourceUpdatedAt":null,"verifiedAt":null}},{"type":"Feature","geometry":{"type":"Point","coordinates":[17.0035364,52.4101287]},"properties":{"id":"repair:7b84955e-49b9-4696-94b0-1335953280ba","kind":"repair","longitude":17.0035364,"latitude":52.4101287,"name":"Kerékpár szervizállomás","city":"Czerwonak","address":null,"covered":false,"access":null,"website":null,"phone":null,"source":"OpenStreetMap/node/10916471296","sourceUpdatedAt":null,"verifiedAt":null}},{"type":"Feature","geometry":{"type":"Point","coordinates":[16.975203,52.4055892]},"properties":{"id":"service:3c4f4982-0f87-41a8-9ce3-0778d27bdfd8","kind":"service","longitude":16.975203,"latitude":52.4055892,"name":"Rybczyński Bikes","city":"Poznan","address":null,"covered":null,"access":null,"website":null,"phone":null,"source":"OpenStreetMap/node/3642649141","sourceUpdatedAt":null,"verifiedAt":null}},{"type":"Feature","geometry":{"type":"Point","coordinates":[16.969699,52.420083]},"properties":{"id":"service:54e0941e-8514-41e3-9db2-099188a31f39","kind":"service","longitude":16.969699,"latitude":52.420083,"name":"Rowerowa Holandia","city":"Poznan","address":null,"covered":null,"access":null,"website":null,"phone":null,"source":"OpenStreetMap/node/10268543900","sourceUpdatedAt":null,"verifiedAt":null}}]}