{"type":"FeatureCollection","features":[{"type":"Feature","geometry":{"type":"Point","coordinates":[16.9704822,48.5026063]},"properties":{"id":"bikerack:a5678dc5-6057-41fd-bfff-7cd150b3f7f7","kind":"bikerack","longitude":16.9704822,"latitude":48.5026063,"name":"Biciklitároló","city":"Drosing","address":null,"covered":false,"access":null,"website":null,"phone":null,"source":"OpenStreetMap/node/10171225925","sourceUpdatedAt":null,"verifiedAt":null}},{"type":"Feature","geometry":{"type":"Point","coordinates":[16.9918628,48.503301]},"properties":{"id":"water:9f52854d-2c8a-4006-80c6-ab0626b58ddf","kind":"water","longitude":16.9918628,"latitude":48.503301,"name":"Ivókút","city":"Malacky","address":null,"covered":null,"access":null,"website":null,"phone":null,"source":"OpenStreetMap/node/8266663658","sourceUpdatedAt":null,"verifiedAt":null}}]}