{"type":"FeatureCollection","features":[{"type":"Feature","geometry":{"type":"Point","coordinates":[20.8685358,51.8537198]},"properties":{"id":"bikerack:6bf3517b-19fa-4528-bd1f-e065a40a896a","kind":"bikerack","longitude":20.8685358,"latitude":51.8537198,"name":"Biciklitároló","city":"Grojec","address":null,"covered":false,"access":null,"website":null,"phone":null,"source":"OpenStreetMap/node/5230909997","sourceUpdatedAt":null,"verifiedAt":null}},{"type":"Feature","geometry":{"type":"Point","coordinates":[20.867408,51.8626022]},"properties":{"id":"bikerack:d3077494-99ab-4168-a7f3-90d9ed857c4f","kind":"bikerack","longitude":20.867408,"latitude":51.8626022,"name":"Biciklitároló","city":"Grojec","address":null,"covered":false,"access":null,"website":null,"phone":null,"source":"OpenStreetMap/node/10932040962","sourceUpdatedAt":null,"verifiedAt":null}},{"type":"Feature","geometry":{"type":"Point","coordinates":[20.8686274,51.8530185]},"properties":{"id":"bikerack:efca7104-3aeb-45cf-b292-88f57f04e68c","kind":"bikerack","longitude":20.8686274,"latitude":51.8530185,"name":"Biciklitároló","city":"Grojec","address":null,"covered":false,"access":null,"website":null,"phone":null,"source":"OpenStreetMap/node/5230909998","sourceUpdatedAt":null,"verifiedAt":null}},{"type":"Feature","geometry":{"type":"Point","coordinates":[20.8689616,51.8616734]},"properties":{"id":"service:fdd99c33-a189-4463-86f2-a2e06dcbbb30","kind":"service","longitude":20.8689616,"latitude":51.8616734,"name":"TUNDRA","city":"Grójec","address":null,"covered":null,"access":null,"website":null,"phone":null,"source":"OpenStreetMap/way/923764749","sourceUpdatedAt":null,"verifiedAt":null}}]}