{"type":"FeatureCollection","features":[{"type":"Feature","geometry":{"type":"Point","coordinates":[20.8716127,49.9704155]},"properties":{"id":"bikerack:8168acb9-4ace-4397-8f4d-cafeee9af68a","kind":"bikerack","longitude":20.8716127,"latitude":49.9704155,"name":"Biciklitároló","city":"Wojnicz","address":null,"covered":false,"access":null,"website":null,"phone":null,"source":"OpenStreetMap/way/1263917991","sourceUpdatedAt":null,"verifiedAt":null}},{"type":"Feature","geometry":{"type":"Point","coordinates":[20.8491454,49.9605758]},"properties":{"id":"bikerack:a8c8c5d2-6f5a-4100-ba61-b534e614216a","kind":"bikerack","longitude":20.8491454,"latitude":49.9605758,"name":"Biciklitároló","city":"Wojnicz","address":null,"covered":true,"access":null,"website":null,"phone":null,"source":"OpenStreetMap/way/1219491215","sourceUpdatedAt":null,"verifiedAt":null}},{"type":"Feature","geometry":{"type":"Point","coordinates":[20.8717292,49.9701952]},"properties":{"id":"bikerack:afd606e7-51e7-42c4-b37d-4e46173a6ab3","kind":"bikerack","longitude":20.8717292,"latitude":49.9701952,"name":"Biciklitároló","city":"Wojnicz","address":null,"covered":false,"access":null,"website":null,"phone":null,"source":"OpenStreetMap/node/11742697620","sourceUpdatedAt":null,"verifiedAt":null}},{"type":"Feature","geometry":{"type":"Point","coordinates":[20.8486927,49.9544268]},"properties":{"id":"service:fc8d4357-0bcf-4e78-8112-ba07087387da","kind":"service","longitude":20.8486927,"latitude":49.9544268,"name":"Serwis Rowerowy Grzegorz Grzybowski","city":"Wojnicz","address":null,"covered":null,"access":null,"website":null,"phone":null,"source":"OpenStreetMap/node/11697752850","sourceUpdatedAt":null,"verifiedAt":null}}]}