{"type":"FeatureCollection","features":[{"type":"Feature","geometry":{"type":"Point","coordinates":[20.8662053,48.4992102]},"properties":{"id":"water:33a7b2af-187a-42d0-83c0-2529ce0cc2d7","kind":"water","longitude":20.8662053,"latitude":48.4992102,"name":"Ivókút","city":null,"address":null,"covered":null,"access":null,"website":null,"phone":null,"source":"OpenStreetMap","sourceUpdatedAt":null,"verifiedAt":null}},{"type":"Feature","geometry":{"type":"Point","coordinates":[20.8673947,48.501517]},"properties":{"id":"water:49c6c929-e26d-4532-854e-6758f1be68d3","kind":"water","longitude":20.8673947,"latitude":48.501517,"name":"Ivókút","city":null,"address":null,"covered":null,"access":null,"website":null,"phone":null,"source":"OpenStreetMap","sourceUpdatedAt":null,"verifiedAt":null}},{"type":"Feature","geometry":{"type":"Point","coordinates":[20.8662607,48.5001968]},"properties":{"id":"water:8a5419cc-a0a9-4ff6-8a98-ece9566442bd","kind":"water","longitude":20.8662607,"latitude":48.5001968,"name":"Ivókút","city":null,"address":null,"covered":null,"access":null,"website":null,"phone":null,"source":"OpenStreetMap","sourceUpdatedAt":null,"verifiedAt":null}},{"type":"Feature","geometry":{"type":"Point","coordinates":[20.8666154,48.4981506]},"properties":{"id":"water:966854fb-51b3-4c32-8cac-bc98ee8f7ded","kind":"water","longitude":20.8666154,"latitude":48.4981506,"name":"Ivókút","city":null,"address":null,"covered":null,"access":null,"website":null,"phone":null,"source":"OpenStreetMap","sourceUpdatedAt":null,"verifiedAt":null}},{"type":"Feature","geometry":{"type":"Point","coordinates":[20.8666318,48.5009763]},"properties":{"id":"water:a470aa8e-a3b7-459e-a906-ae9df452ffb6","kind":"water","longitude":20.8666318,"latitude":48.5009763,"name":"Ivókút","city":null,"address":null,"covered":null,"access":null,"website":null,"phone":null,"source":"OpenStreetMap","sourceUpdatedAt":null,"verifiedAt":null}},{"type":"Feature","geometry":{"type":"Point","coordinates":[20.8657756,48.4995522]},"properties":{"id":"water:cd999b13-83b4-4a08-b2c0-9a2f83888396","kind":"water","longitude":20.8657756,"latitude":48.4995522,"name":"Ivókút","city":null,"address":null,"covered":null,"access":null,"website":null,"phone":null,"source":"OpenStreetMap","sourceUpdatedAt":null,"verifiedAt":null}},{"type":"Feature","geometry":{"type":"Point","coordinates":[20.8684585,48.5023194]},"properties":{"id":"water:eeab19fa-8894-46d2-a0b2-b24e7e4794ee","kind":"water","longitude":20.8684585,"latitude":48.5023194,"name":"Ivókút","city":null,"address":null,"covered":null,"access":null,"website":null,"phone":null,"source":"OpenStreetMap","sourceUpdatedAt":null,"verifiedAt":null}}]}