{"type":"FeatureCollection","features":[{"type":"Feature","geometry":{"type":"Point","coordinates":[11.7429414,48.5576735]},"properties":{"id":"bikerack:46d329ab-9da3-430b-a72a-ae3f9c13d35a","kind":"bikerack","longitude":11.7429414,"latitude":48.5576735,"name":"Fahrradabstellplatz","city":"Au in der Hallertau","address":null,"covered":false,"access":null,"website":null,"phone":null,"source":"OpenStreetMap/node/8804870655","sourceUpdatedAt":null,"verifiedAt":null}},{"type":"Feature","geometry":{"type":"Point","coordinates":[11.7428746,48.5576284]},"properties":{"id":"water:d61a1f17-5b1c-455a-b059-ce24cd756a47","kind":"water","longitude":11.7428746,"latitude":48.5576284,"name":"Trinkwasser","city":"Au in der Hallertau","address":null,"covered":null,"access":null,"website":null,"phone":null,"source":"OpenStreetMap/node/12815090885","sourceUpdatedAt":null,"verifiedAt":null}}]}