{"type":"FeatureCollection","features":[{"type":"Feature","geometry":{"type":"Point","coordinates":[11.7699322,48.4093572]},"properties":{"id":"bikerack:01c974df-64d7-49f5-beaa-a152ad6ff043","kind":"bikerack","longitude":11.7699322,"latitude":48.4093572,"name":"Fahrradabstellplatz","city":"Freising","address":null,"covered":false,"access":null,"website":null,"phone":null,"source":"OpenStreetMap/node/7508225904","sourceUpdatedAt":null,"verifiedAt":null}},{"type":"Feature","geometry":{"type":"Point","coordinates":[11.7477916,48.4072499]},"properties":{"id":"bikerack:028ff521-c0d7-45bd-9b87-e92408735af5","kind":"bikerack","longitude":11.7477916,"latitude":48.4072499,"name":"Fahrradabstellplatz","city":"Freising","address":null,"covered":false,"access":null,"website":null,"phone":null,"source":"OpenStreetMap/node/6702620167","sourceUpdatedAt":null,"verifiedAt":null}},{"type":"Feature","geometry":{"type":"Point","coordinates":[11.7561097,48.404215]},"properties":{"id":"bikerack:0468f5f4-2049-421a-9687-cdfbb9a1f4fb","kind":"bikerack","longitude":11.7561097,"latitude":48.404215,"name":"Fahrradabstellplatz","city":"Freising","address":null,"covered":true,"access":null,"website":null,"phone":null,"source":"OpenStreetMap/way/715308997","sourceUpdatedAt":null,"verifiedAt":null}},{"type":"Feature","geometry":{"type":"Point","coordinates":[11.7426294,48.4011428]},"properties":{"id":"bikerack:059c8632-3a30-482a-9adc-e0493783487c","kind":"bikerack","longitude":11.7426294,"latitude":48.4011428,"name":"Fahrradabstellplatz","city":"Freising","address":null,"covered":false,"access":null,"website":null,"phone":null,"source":"OpenStreetMap/node/6703916031","sourceUpdatedAt":null,"verifiedAt":null}},{"type":"Feature","geometry":{"type":"Point","coordinates":[11.7435758,48.4007463]},"properties":{"id":"bikerack:070b3bce-9abe-4272-a8b7-744c909cf019","kind":"bikerack","longitude":11.7435758,"latitude":48.4007463,"name":"Fahrradabstellplatz","city":"Freising","address":null,"covered":false,"access":null,"website":null,"phone":null,"source":"OpenStreetMap/node/7177255212","sourceUpdatedAt":null,"verifiedAt":null}},{"type":"Feature","geometry":{"type":"Point","coordinates":[11.7413534,48.4027707]},"properties":{"id":"bikerack:08814589-4312-4bf9-8bd2-b6da4a618c1a","kind":"bikerack","longitude":11.7413534,"latitude":48.4027707,"name":"Fahrradabstellplatz","city":"Freising","address":null,"covered":false,"access":null,"website":null,"phone":null,"source":"OpenStreetMap/way/196008068","sourceUpdatedAt":null,"verifiedAt":null}},{"type":"Feature","geometry":{"type":"Point","coordinates":[11.7473388,48.4025208]},"properties":{"id":"bikerack:09025338-1390-4034-a4b6-1191af20e903","kind":"bikerack","longitude":11.7473388,"latitude":48.4025208,"name":"Fahrradabstellplatz","city":"Freising","address":null,"covered":false,"access":null,"website":null,"phone":null,"source":"OpenStreetMap/node/7177274570","sourceUpdatedAt":null,"verifiedAt":null}},{"type":"Feature","geometry":{"type":"Point","coordinates":[11.7477112,48.4070253]},"properties":{"id":"bikerack:0a2ce2ea-288e-419d-963d-100434c144fc","kind":"bikerack","longitude":11.7477112,"latitude":48.4070253,"name":"Fahrradabstellplatz","city":"Freising","address":null,"covered":false,"access":null,"website":null,"phone":null,"source":"OpenStreetMap/node/6702620157","sourceUpdatedAt":null,"verifiedAt":null}},{"type":"Feature","geometry":{"type":"Point","coordinates":[11.7608258,48.4062444]},"properties":{"id":"bikerack:0c95e56c-0cdf-4505-9da2-83d8354323ff","kind":"bikerack","longitude":11.7608258,"latitude":48.4062444,"name":"Fahrradabstellplatz","city":"Freising","address":null,"covered":false,"access":null,"website":null,"phone":null,"source":"OpenStreetMap/node/9427929800","sourceUpdatedAt":null,"verifiedAt":null}},{"type":"Feature","geometry":{"type":"Point","coordinates":[11.7512451,48.4111969]},"properties":{"id":"bikerack:0f58d563-33c9-4f5f-9608-3ef8660efff7","kind":"bikerack","longitude":11.7512451,"latitude":48.4111969,"name":"Fahrradabstellplatz","city":"Freising","address":null,"covered":false,"access":null,"website":null,"phone":null,"source":"OpenStreetMap/way/917896578","sourceUpdatedAt":null,"verifiedAt":null}},{"type":"Feature","geometry":{"type":"Point","coordinates":[11.7487841,48.4084497]},"properties":{"id":"bikerack:1109194f-a012-4b2a-921d-9a0c928d2073","kind":"bikerack","longitude":11.7487841,"latitude":48.4084497,"name":"Fahrradabstellplatz","city":"Freising","address":null,"covered":false,"access":null,"website":null,"phone":null,"source":"OpenStreetMap/way/1096721463","sourceUpdatedAt":null,"verifiedAt":null}},{"type":"Feature","geometry":{"type":"Point","coordinates":[11.7531982,48.4033406]},"properties":{"id":"bikerack:15ee0824-0016-4a83-b036-dc11ee75472c","kind":"bikerack","longitude":11.7531982,"latitude":48.4033406,"name":"Fahrradabstellplatz","city":"Freising","address":null,"covered":false,"access":null,"website":null,"phone":null,"source":"OpenStreetMap/node/6700938506","sourceUpdatedAt":null,"verifiedAt":null}},{"type":"Feature","geometry":{"type":"Point","coordinates":[11.7490753,48.4102244]},"properties":{"id":"bikerack:16f20967-869b-4314-b7aa-b0f80047bf6f","kind":"bikerack","longitude":11.7490753,"latitude":48.4102244,"name":"Fahrradabstellplatz","city":"Freising","address":null,"covered":false,"access":null,"website":null,"phone":null,"source":"OpenStreetMap/way/977778696","sourceUpdatedAt":null,"verifiedAt":null}},{"type":"Feature","geometry":{"type":"Point","coordinates":[11.7389275,48.4025379]},"properties":{"id":"bikerack:17530f73-525d-4e61-a77d-632a362ee54a","kind":"bikerack","longitude":11.7389275,"latitude":48.4025379,"name":"Fahrradabstellplatz","city":"Freising","address":null,"covered":false,"access":null,"website":null,"phone":null,"source":"OpenStreetMap/way/958111384","sourceUpdatedAt":null,"verifiedAt":null}},{"type":"Feature","geometry":{"type":"Point","coordinates":[11.748208,48.4001138]},"properties":{"id":"bikerack:183450fc-3d47-4748-a9b3-e85ed40b926f","kind":"bikerack","longitude":11.748208,"latitude":48.4001138,"name":"Fahrradabstellplatz","city":"Freising","address":null,"covered":false,"access":null,"website":null,"phone":null,"source":"OpenStreetMap/node/6782143913","sourceUpdatedAt":null,"verifiedAt":null}},{"type":"Feature","geometry":{"type":"Point","coordinates":[11.7494706,48.4102906]},"properties":{"id":"bikerack:1bd9a3a6-5c6f-4c44-8cbc-56b86871b3e2","kind":"bikerack","longitude":11.7494706,"latitude":48.4102906,"name":"Fahrradabstellplatz","city":"Freising","address":null,"covered":false,"access":null,"website":null,"phone":null,"source":"OpenStreetMap/node/7533770934","sourceUpdatedAt":null,"verifiedAt":null}},{"type":"Feature","geometry":{"type":"Point","coordinates":[11.7364234,48.4015162]},"properties":{"id":"bikerack:1c0bcc84-994e-4212-b4aa-f059c7c923e0","kind":"bikerack","longitude":11.7364234,"latitude":48.4015162,"name":"Fahrradabstellplatz","city":"Freising","address":null,"covered":false,"access":null,"website":null,"phone":null,"source":"OpenStreetMap/node/6703449792","sourceUpdatedAt":null,"verifiedAt":null}},{"type":"Feature","geometry":{"type":"Point","coordinates":[11.7678718,48.4087037]},"properties":{"id":"bikerack:1f2b658b-0333-4851-9358-21f5372a1800","kind":"bikerack","longitude":11.7678718,"latitude":48.4087037,"name":"Fahrradabstellplatz","city":"Freising","address":null,"covered":true,"access":null,"website":null,"phone":null,"source":"OpenStreetMap/way/998176515","sourceUpdatedAt":null,"verifiedAt":null}},{"type":"Feature","geometry":{"type":"Point","coordinates":[11.759844,48.4058842]},"properties":{"id":"bikerack:2123d686-ac88-4f50-bf8c-b96d7b905674","kind":"bikerack","longitude":11.759844,"latitude":48.4058842,"name":"Fahrradabstellplatz","city":"Freising","address":null,"covered":true,"access":null,"website":null,"phone":null,"source":"OpenStreetMap/way/1083980399","sourceUpdatedAt":null,"verifiedAt":null}},{"type":"Feature","geometry":{"type":"Point","coordinates":[11.7372477,48.4080313]},"properties":{"id":"bikerack:24af615e-57ca-481e-b6d1-31ddc9cf52d2","kind":"bikerack","longitude":11.7372477,"latitude":48.4080313,"name":"Fahrradabstellplatz","city":"Freising","address":null,"covered":false,"access":null,"website":null,"phone":null,"source":"OpenStreetMap/node/9179887824","sourceUpdatedAt":null,"verifiedAt":null}},{"type":"Feature","geometry":{"type":"Point","coordinates":[11.7630475,48.4066056]},"properties":{"id":"bikerack:25e72ad3-9695-4137-991d-1740e28bd62a","kind":"bikerack","longitude":11.7630475,"latitude":48.4066056,"name":"Fahrradabstellplatz","city":"Freising","address":null,"covered":false,"access":null,"website":null,"phone":null,"source":"OpenStreetMap/way/1021645043","sourceUpdatedAt":null,"verifiedAt":null}},{"type":"Feature","geometry":{"type":"Point","coordinates":[11.7580668,48.4069329]},"properties":{"id":"bikerack:2693d5a1-2044-48e5-86f5-1aca82066462","kind":"bikerack","longitude":11.7580668,"latitude":48.4069329,"name":"Fahrradabstellplatz","city":"Freising","address":null,"covered":false,"access":null,"website":null,"phone":null,"source":"OpenStreetMap/node/6781235956","sourceUpdatedAt":null,"verifiedAt":null}},{"type":"Feature","geometry":{"type":"Point","coordinates":[11.7373254,48.4078319]},"properties":{"id":"bikerack:27dd89de-4be9-4a9e-abbc-d40a07867ea2","kind":"bikerack","longitude":11.7373254,"latitude":48.4078319,"name":"Fahrradabstellplatz","city":"Freising","address":null,"covered":false,"access":null,"website":null,"phone":null,"source":"OpenStreetMap/node/9179853816","sourceUpdatedAt":null,"verifiedAt":null}},{"type":"Feature","geometry":{"type":"Point","coordinates":[11.7485096,48.4100596]},"properties":{"id":"bikerack:2ab711e3-9ed0-4181-b4d8-b584e79f80ca","kind":"bikerack","longitude":11.7485096,"latitude":48.4100596,"name":"Fahrradabstellplatz","city":"Freising","address":null,"covered":false,"access":null,"website":null,"phone":null,"source":"OpenStreetMap/node/7533770933","sourceUpdatedAt":null,"verifiedAt":null}},{"type":"Feature","geometry":{"type":"Point","coordinates":[11.7563552,48.4055415]},"properties":{"id":"bikerack:2ad0a5e0-d517-4113-890b-d7459fb529a2","kind":"bikerack","longitude":11.7563552,"latitude":48.4055415,"name":"Fahrradabstellplatz","city":"Freising","address":null,"covered":false,"access":null,"website":null,"phone":null,"source":"OpenStreetMap/way/1020477461","sourceUpdatedAt":null,"verifiedAt":null}},{"type":"Feature","geometry":{"type":"Point","coordinates":[11.7509975,48.4104265]},"properties":{"id":"bikerack:2de57397-9ca9-4a9d-b1b8-6bb6e5294359","kind":"bikerack","longitude":11.7509975,"latitude":48.4104265,"name":"Fahrradabstellplatz","city":"Freising","address":null,"covered":true,"access":null,"website":null,"phone":null,"source":"OpenStreetMap/way/977491779","sourceUpdatedAt":null,"verifiedAt":null}},{"type":"Feature","geometry":{"type":"Point","coordinates":[11.7367599,48.4177215]},"properties":{"id":"bikerack:36cad70a-32ee-4cfd-9f01-f3be8a8f5458","kind":"bikerack","longitude":11.7367599,"latitude":48.4177215,"name":"Fahrradabstellplatz","city":"Freising","address":null,"covered":true,"access":null,"website":null,"phone":null,"source":"OpenStreetMap/way/1064248658","sourceUpdatedAt":null,"verifiedAt":null}},{"type":"Feature","geometry":{"type":"Point","coordinates":[11.7513514,48.4109618]},"properties":{"id":"bikerack:37a7f7f4-c9cb-4c24-99fe-eb6ffbd9ad9f","kind":"bikerack","longitude":11.7513514,"latitude":48.4109618,"name":"Fahrradabstellplatz","city":"Freising","address":null,"covered":false,"access":null,"website":null,"phone":null,"source":"OpenStreetMap/way/977491701","sourceUpdatedAt":null,"verifiedAt":null}},{"type":"Feature","geometry":{"type":"Point","coordinates":[11.747409,48.4073927]},"properties":{"id":"bikerack:399c6559-cf4e-4948-b69d-a89e724cd299","kind":"bikerack","longitude":11.747409,"latitude":48.4073927,"name":"Fahrradabstellplatz","city":"Freising","address":null,"covered":false,"access":null,"website":null,"phone":null,"source":"OpenStreetMap/node/6702533867","sourceUpdatedAt":null,"verifiedAt":null}},{"type":"Feature","geometry":{"type":"Point","coordinates":[11.7466839,48.4119592]},"properties":{"id":"bikerack:39d5374c-a588-4826-b398-501126da9daa","kind":"bikerack","longitude":11.7466839,"latitude":48.4119592,"name":"Fahrradabstellplatz","city":"Freising","address":null,"covered":false,"access":null,"website":null,"phone":null,"source":"OpenStreetMap/way/1068763665","sourceUpdatedAt":null,"verifiedAt":null}},{"type":"Feature","geometry":{"type":"Point","coordinates":[11.7569784,48.4058182]},"properties":{"id":"bikerack:3a5cf3cf-8ab0-4234-be3c-5724d115f86a","kind":"bikerack","longitude":11.7569784,"latitude":48.4058182,"name":"Fahrradabstellplatz","city":"Freising","address":null,"covered":true,"access":null,"website":null,"phone":null,"source":"OpenStreetMap/node/6781260529","sourceUpdatedAt":null,"verifiedAt":null}},{"type":"Feature","geometry":{"type":"Point","coordinates":[11.738124,48.4040039]},"properties":{"id":"bikerack:3b25c48e-e152-44e6-9558-f1e99a13e6c0","kind":"bikerack","longitude":11.738124,"latitude":48.4040039,"name":"Fahrradabstellplatz","city":"Freising","address":null,"covered":true,"access":null,"website":null,"phone":null,"source":"OpenStreetMap/way/195775663","sourceUpdatedAt":null,"verifiedAt":null}},{"type":"Feature","geometry":{"type":"Point","coordinates":[11.7491038,48.4001102]},"properties":{"id":"bikerack:3b5f5952-e118-449e-8f0a-2d6a0c5f4b8a","kind":"bikerack","longitude":11.7491038,"latitude":48.4001102,"name":"Fahrradabstellplatz","city":"Freising","address":null,"covered":true,"access":null,"website":null,"phone":null,"source":"OpenStreetMap/node/6782143912","sourceUpdatedAt":null,"verifiedAt":null}},{"type":"Feature","geometry":{"type":"Point","coordinates":[11.7521344,48.4107522]},"properties":{"id":"bikerack:3e1b4f65-8eed-4c65-94e4-c5412a41c202","kind":"bikerack","longitude":11.7521344,"latitude":48.4107522,"name":"Fahrradabstellplatz","city":"Freising","address":null,"covered":false,"access":null,"website":null,"phone":null,"source":"OpenStreetMap/way/756485066","sourceUpdatedAt":null,"verifiedAt":null}},{"type":"Feature","geometry":{"type":"Point","coordinates":[11.7486185,48.4014298]},"properties":{"id":"bikerack:401ba2df-dc0d-4725-94e9-ae357596cce8","kind":"bikerack","longitude":11.7486185,"latitude":48.4014298,"name":"Fahrradabstellplatz","city":"Freising","address":null,"covered":false,"access":null,"website":null,"phone":null,"source":"OpenStreetMap/way/759340933","sourceUpdatedAt":null,"verifiedAt":null}},{"type":"Feature","geometry":{"type":"Point","coordinates":[11.7414003,48.4032817]},"properties":{"id":"bikerack:4118b901-c637-483d-a617-379cd3f46c0c","kind":"bikerack","longitude":11.7414003,"latitude":48.4032817,"name":"Fahrradabstellplatz","city":"Freising","address":null,"covered":false,"access":null,"website":null,"phone":null,"source":"OpenStreetMap/way/958560754","sourceUpdatedAt":null,"verifiedAt":null}},{"type":"Feature","geometry":{"type":"Point","coordinates":[11.7416581,48.406239]},"properties":{"id":"bikerack:41317011-e30b-4419-ae81-4cd06272a8d2","kind":"bikerack","longitude":11.7416581,"latitude":48.406239,"name":"Fahrradabstellplatz","city":"Freising","address":null,"covered":true,"access":null,"website":null,"phone":null,"source":"OpenStreetMap/node/12415960231","sourceUpdatedAt":null,"verifiedAt":null}},{"type":"Feature","geometry":{"type":"Point","coordinates":[11.745421,48.4022918]},"properties":{"id":"bikerack:41dee36c-dccb-47d9-8071-b1ffa9859cf2","kind":"bikerack","longitude":11.745421,"latitude":48.4022918,"name":"Fahrradabstellplatz","city":"Freising","address":null,"covered":false,"access":null,"website":null,"phone":null,"source":"OpenStreetMap/node/7177276051","sourceUpdatedAt":null,"verifiedAt":null}},{"type":"Feature","geometry":{"type":"Point","coordinates":[11.7424165,48.4011009]},"properties":{"id":"bikerack:446bd5e8-7eb3-4141-9a6d-c0acae9f02f3","kind":"bikerack","longitude":11.7424165,"latitude":48.4011009,"name":"Fahrradabstellplatz","city":"Freising","address":null,"covered":false,"access":null,"website":null,"phone":null,"source":"OpenStreetMap/node/6774014018","sourceUpdatedAt":null,"verifiedAt":null}},{"type":"Feature","geometry":{"type":"Point","coordinates":[11.7487488,48.4093164]},"properties":{"id":"bikerack:45734ffc-a658-45b0-865a-db1d7a877924","kind":"bikerack","longitude":11.7487488,"latitude":48.4093164,"name":"Fahrradabstellplatz","city":"Freising","address":null,"covered":false,"access":null,"website":null,"phone":null,"source":"OpenStreetMap/node/8377564266","sourceUpdatedAt":null,"verifiedAt":null}},{"type":"Feature","geometry":{"type":"Point","coordinates":[11.7498085,48.4020903]},"properties":{"id":"bikerack:47fd4987-ca9b-437b-a043-45f52fffae4e","kind":"bikerack","longitude":11.7498085,"latitude":48.4020903,"name":"Fahrradabstellplatz","city":"Freising","address":null,"covered":false,"access":null,"website":null,"phone":null,"source":"OpenStreetMap/node/7177281706","sourceUpdatedAt":null,"verifiedAt":null}},{"type":"Feature","geometry":{"type":"Point","coordinates":[11.7363939,48.401829]},"properties":{"id":"bikerack:488299ba-c791-4401-96eb-de500d35703d","kind":"bikerack","longitude":11.7363939,"latitude":48.401829,"name":"Fahrradabstellplatz","city":"Freising","address":null,"covered":false,"access":null,"website":null,"phone":null,"source":"OpenStreetMap/node/6703347669","sourceUpdatedAt":null,"verifiedAt":null}},{"type":"Feature","geometry":{"type":"Point","coordinates":[11.7474552,48.4076816]},"properties":{"id":"bikerack:496069fc-46ab-409c-b77a-c22aef4e4eb7","kind":"bikerack","longitude":11.7474552,"latitude":48.4076816,"name":"Fahrradabstellplatz","city":"Freising","address":null,"covered":false,"access":null,"website":null,"phone":null,"source":"OpenStreetMap/node/6702533878","sourceUpdatedAt":null,"verifiedAt":null}},{"type":"Feature","geometry":{"type":"Point","coordinates":[11.7487583,48.401871]},"properties":{"id":"bikerack:499cf052-3e4e-4945-bba2-2a9546309778","kind":"bikerack","longitude":11.7487583,"latitude":48.401871,"name":"Fahrradabstellplatz","city":"Freising","address":null,"covered":false,"access":null,"website":null,"phone":null,"source":"OpenStreetMap/way/759340936","sourceUpdatedAt":null,"verifiedAt":null}},{"type":"Feature","geometry":{"type":"Point","coordinates":[11.7523588,48.4080645]},"properties":{"id":"bikerack:4b8c35c8-0556-444a-aab1-43f2430e69fc","kind":"bikerack","longitude":11.7523588,"latitude":48.4080645,"name":"Fahrradabstellplatz","city":"Freising","address":null,"covered":false,"access":null,"website":null,"phone":null,"source":"OpenStreetMap/way/1091600392","sourceUpdatedAt":null,"verifiedAt":null}},{"type":"Feature","geometry":{"type":"Point","coordinates":[11.7451739,48.4011272]},"properties":{"id":"bikerack:4c985707-c6f6-4498-90f1-0b9ae8c598b7","kind":"bikerack","longitude":11.7451739,"latitude":48.4011272,"name":"Fahrradabstellplatz","city":"Freising","address":null,"covered":false,"access":null,"website":null,"phone":null,"source":"OpenStreetMap/node/13684485355","sourceUpdatedAt":null,"verifiedAt":null}},{"type":"Feature","geometry":{"type":"Point","coordinates":[11.7382654,48.4055661]},"properties":{"id":"bikerack:4cd6c6c7-cac9-4566-9489-43d909be3d77","kind":"bikerack","longitude":11.7382654,"latitude":48.4055661,"name":"Fahrradabstellplatz","city":"Freising","address":null,"covered":false,"access":null,"website":null,"phone":null,"source":"OpenStreetMap/node/6779008727","sourceUpdatedAt":null,"verifiedAt":null}},{"type":"Feature","geometry":{"type":"Point","coordinates":[11.7504392,48.4104451]},"properties":{"id":"bikerack:4f231c80-a0bd-4c4a-b678-e63926fbc1ef","kind":"bikerack","longitude":11.7504392,"latitude":48.4104451,"name":"Fahrradabstellplatz","city":"Freising","address":null,"covered":false,"access":null,"website":null,"phone":null,"source":"OpenStreetMap/way/977491785","sourceUpdatedAt":null,"verifiedAt":null}},{"type":"Feature","geometry":{"type":"Point","coordinates":[11.7421565,48.4047171]},"properties":{"id":"bikerack:50ca2967-1a89-4cb7-bfe9-67dac80a22bb","kind":"bikerack","longitude":11.7421565,"latitude":48.4047171,"name":"Fahrradabstellplatz","city":"Freising","address":null,"covered":true,"access":null,"website":null,"phone":null,"source":"OpenStreetMap/node/6703541233","sourceUpdatedAt":null,"verifiedAt":null}},{"type":"Feature","geometry":{"type":"Point","coordinates":[11.7540383,48.4119771]},"properties":{"id":"bikerack:5139c073-113b-4a6a-a6ee-bace121c24e9","kind":"bikerack","longitude":11.7540383,"latitude":48.4119771,"name":"Fahrradabstellplatz","city":"Freising","address":null,"covered":true,"access":null,"website":null,"phone":null,"source":"OpenStreetMap/node/7533836860","sourceUpdatedAt":null,"verifiedAt":null}},{"type":"Feature","geometry":{"type":"Point","coordinates":[11.7372583,48.4075523]},"properties":{"id":"bikerack:51571de4-2712-4aec-a27f-6e8cbdbd9d6f","kind":"bikerack","longitude":11.7372583,"latitude":48.4075523,"name":"Fahrradabstellplatz","city":"Freising","address":null,"covered":false,"access":null,"website":null,"phone":null,"source":"OpenStreetMap/node/9179887822","sourceUpdatedAt":null,"verifiedAt":null}},{"type":"Feature","geometry":{"type":"Point","coordinates":[11.7416064,48.4033312]},"properties":{"id":"bikerack:533f08a1-b259-4243-9521-03ab28098f51","kind":"bikerack","longitude":11.7416064,"latitude":48.4033312,"name":"Fahrradabstellplatz","city":"Freising","address":null,"covered":false,"access":null,"website":null,"phone":null,"source":"OpenStreetMap/way/958560752","sourceUpdatedAt":null,"verifiedAt":null}},{"type":"Feature","geometry":{"type":"Point","coordinates":[11.749582,48.4117114]},"properties":{"id":"bikerack:537f6654-4c35-4ad2-83d1-fdd686007862","kind":"bikerack","longitude":11.749582,"latitude":48.4117114,"name":"Fahrradabstellplatz","city":"Freising","address":null,"covered":false,"access":null,"website":null,"phone":null,"source":"OpenStreetMap/way/756496500","sourceUpdatedAt":null,"verifiedAt":null}},{"type":"Feature","geometry":{"type":"Point","coordinates":[11.7365218,48.4016497]},"properties":{"id":"bikerack:567ba3e6-5db6-4cf9-bd21-95e4c26998ad","kind":"bikerack","longitude":11.7365218,"latitude":48.4016497,"name":"Fahrradabstellplatz","city":"Freising","address":null,"covered":false,"access":null,"website":null,"phone":null,"source":"OpenStreetMap/way/956080687","sourceUpdatedAt":null,"verifiedAt":null}},{"type":"Feature","geometry":{"type":"Point","coordinates":[11.7486514,48.4079275]},"properties":{"id":"bikerack:56a3ba74-3175-444a-aac7-dfa3792a4e43","kind":"bikerack","longitude":11.7486514,"latitude":48.4079275,"name":"Fahrradabstellplatz","city":"Freising","address":null,"covered":false,"access":null,"website":null,"phone":null,"source":"OpenStreetMap/way/1096721482","sourceUpdatedAt":null,"verifiedAt":null}},{"type":"Feature","geometry":{"type":"Point","coordinates":[11.7516175,48.411795]},"properties":{"id":"bikerack:56c6cf29-55a7-4356-b3a1-ad7089d40a87","kind":"bikerack","longitude":11.7516175,"latitude":48.411795,"name":"Fahrradabstellplatz","city":"Freising","address":null,"covered":false,"access":null,"website":null,"phone":null,"source":"OpenStreetMap/way/977502033","sourceUpdatedAt":null,"verifiedAt":null}},{"type":"Feature","geometry":{"type":"Point","coordinates":[11.7419956,48.4029769]},"properties":{"id":"bikerack:56d849a0-0891-408b-a91f-d3df55822173","kind":"bikerack","longitude":11.7419956,"latitude":48.4029769,"name":"Fahrradabstellplatz","city":"Freising","address":null,"covered":false,"access":null,"website":null,"phone":null,"source":"OpenStreetMap/way/958560750","sourceUpdatedAt":null,"verifiedAt":null}},{"type":"Feature","geometry":{"type":"Point","coordinates":[11.7469358,48.4118397]},"properties":{"id":"bikerack:57481b9c-f271-4f4a-9099-7df1050d7dcd","kind":"bikerack","longitude":11.7469358,"latitude":48.4118397,"name":"Fahrradabstellplatz","city":"Freising","address":null,"covered":false,"access":null,"website":null,"phone":null,"source":"OpenStreetMap/way/1068763663","sourceUpdatedAt":null,"verifiedAt":null}},{"type":"Feature","geometry":{"type":"Point","coordinates":[11.7454696,48.4018987]},"properties":{"id":"bikerack:5cc99a24-17a5-498a-bdbf-e93618010f1d","kind":"bikerack","longitude":11.7454696,"latitude":48.4018987,"name":"Fahrradabstellplatz","city":"Freising","address":null,"covered":false,"access":null,"website":null,"phone":null,"source":"OpenStreetMap/way/772880606","sourceUpdatedAt":null,"verifiedAt":null}},{"type":"Feature","geometry":{"type":"Point","coordinates":[11.7518804,48.4038661]},"properties":{"id":"bikerack:5d6ae56d-d599-46eb-828e-c573e54a3ae0","kind":"bikerack","longitude":11.7518804,"latitude":48.4038661,"name":"Fahrradabstellplatz","city":"Freising","address":null,"covered":false,"access":null,"website":null,"phone":null,"source":"OpenStreetMap/way/1017346553","sourceUpdatedAt":null,"verifiedAt":null}},{"type":"Feature","geometry":{"type":"Point","coordinates":[11.7418114,48.4033775]},"properties":{"id":"bikerack:5e15b19b-8d0f-493c-9bab-73ae61f71737","kind":"bikerack","longitude":11.7418114,"latitude":48.4033775,"name":"Fahrradabstellplatz","city":"Freising","address":null,"covered":false,"access":null,"website":null,"phone":null,"source":"OpenStreetMap/way/958560753","sourceUpdatedAt":null,"verifiedAt":null}},{"type":"Feature","geometry":{"type":"Point","coordinates":[11.7369405,48.4175436]},"properties":{"id":"bikerack:5e849c78-41b6-432f-acb7-0f3f40555485","kind":"bikerack","longitude":11.7369405,"latitude":48.4175436,"name":"Fahrradabstellplatz","city":"Freising","address":null,"covered":true,"access":null,"website":null,"phone":null,"source":"OpenStreetMap/way/1064248666","sourceUpdatedAt":null,"verifiedAt":null}},{"type":"Feature","geometry":{"type":"Point","coordinates":[11.757981,48.4058165]},"properties":{"id":"bikerack:60696fdc-f2e3-40ac-a676-f3ab3d4c5280","kind":"bikerack","longitude":11.757981,"latitude":48.4058165,"name":"Fahrradabstellplatz","city":"Freising","address":null,"covered":false,"access":null,"website":null,"phone":null,"source":"OpenStreetMap/way/769248724","sourceUpdatedAt":null,"verifiedAt":null}},{"type":"Feature","geometry":{"type":"Point","coordinates":[11.7478561,48.4074811]},"properties":{"id":"bikerack:60d27f7d-832f-440d-b6e8-37442bdc93d8","kind":"bikerack","longitude":11.7478561,"latitude":48.4074811,"name":"Fahrradabstellplatz","city":"Freising","address":null,"covered":false,"access":null,"website":null,"phone":null,"source":"OpenStreetMap/node/6702533843","sourceUpdatedAt":null,"verifiedAt":null}},{"type":"Feature","geometry":{"type":"Point","coordinates":[11.755698,48.4003381]},"properties":{"id":"bikerack:60eab756-4a31-4100-8d85-5840ea9a6ad2","kind":"bikerack","longitude":11.755698,"latitude":48.4003381,"name":"Fahrradabstellplatz","city":"Freising","address":null,"covered":false,"access":null,"website":null,"phone":null,"source":"OpenStreetMap/node/7504371344","sourceUpdatedAt":null,"verifiedAt":null}},{"type":"Feature","geometry":{"type":"Point","coordinates":[11.7599833,48.4059138]},"properties":{"id":"bikerack:65dcfa26-b01f-4001-bf67-d4ab7f66a69f","kind":"bikerack","longitude":11.7599833,"latitude":48.4059138,"name":"Fahrradabstellplatz","city":"Freising","address":null,"covered":true,"access":null,"website":null,"phone":null,"source":"OpenStreetMap/way/1083980398","sourceUpdatedAt":null,"verifiedAt":null}},{"type":"Feature","geometry":{"type":"Point","coordinates":[11.7466587,48.4014577]},"properties":{"id":"bikerack:69263008-6c96-4669-b1b8-44dcce8c3e08","kind":"bikerack","longitude":11.7466587,"latitude":48.4014577,"name":"Fahrradabstellplatz","city":"Freising","address":null,"covered":false,"access":null,"website":null,"phone":null,"source":"OpenStreetMap/way/1167503021","sourceUpdatedAt":null,"verifiedAt":null}},{"type":"Feature","geometry":{"type":"Point","coordinates":[11.7419303,48.4050347]},"properties":{"id":"bikerack:6b23f2ac-4cc6-4fa7-a898-78fc601b9b0b","kind":"bikerack","longitude":11.7419303,"latitude":48.4050347,"name":"Fahrradabstellplatz","city":"Freising","address":null,"covered":false,"access":null,"website":null,"phone":null,"source":"OpenStreetMap/way/376518270","sourceUpdatedAt":null,"verifiedAt":null}},{"type":"Feature","geometry":{"type":"Point","coordinates":[11.75052,48.4104461]},"properties":{"id":"bikerack:6c5c18ee-1911-4131-94d3-42c4dc19f109","kind":"bikerack","longitude":11.75052,"latitude":48.4104461,"name":"Fahrradabstellplatz","city":"Freising","address":null,"covered":false,"access":null,"website":null,"phone":null,"source":"OpenStreetMap/way/977491788","sourceUpdatedAt":null,"verifiedAt":null}},{"type":"Feature","geometry":{"type":"Point","coordinates":[11.7557703,48.4002659]},"properties":{"id":"bikerack:6ee98952-b2d2-4d3a-9cf0-8ef4c63f2a0b","kind":"bikerack","longitude":11.7557703,"latitude":48.4002659,"name":"Fahrradabstellplatz","city":"Freising","address":null,"covered":false,"access":null,"website":null,"phone":null,"source":"OpenStreetMap/node/7504371341","sourceUpdatedAt":null,"verifiedAt":null}},{"type":"Feature","geometry":{"type":"Point","coordinates":[11.7358585,48.402131]},"properties":{"id":"bikerack:704cac5c-4c5e-44e7-add3-2eb64d7a2275","kind":"bikerack","longitude":11.7358585,"latitude":48.402131,"name":"Fahrradabstellplatz","city":"Freising","address":null,"covered":false,"access":null,"website":null,"phone":null,"source":"OpenStreetMap/way/1099776001","sourceUpdatedAt":null,"verifiedAt":null}},{"type":"Feature","geometry":{"type":"Point","coordinates":[11.7496371,48.4022235]},"properties":{"id":"bikerack:70d1cb8a-f4c3-448f-a375-5330316b32bf","kind":"bikerack","longitude":11.7496371,"latitude":48.4022235,"name":"Fahrradabstellplatz","city":"Freising","address":null,"covered":false,"access":null,"website":null,"phone":null,"source":"OpenStreetMap/node/12744512805","sourceUpdatedAt":null,"verifiedAt":null}},{"type":"Feature","geometry":{"type":"Point","coordinates":[11.7511119,48.4081748]},"properties":{"id":"bikerack:70e9db69-13a3-4d96-b89f-9d7dcd0e55db","kind":"bikerack","longitude":11.7511119,"latitude":48.4081748,"name":"Fahrradabstellplatz","city":"Freising","address":null,"covered":false,"access":null,"website":null,"phone":null,"source":"OpenStreetMap/way/1096663029","sourceUpdatedAt":null,"verifiedAt":null}},{"type":"Feature","geometry":{"type":"Point","coordinates":[11.7528373,48.4039497]},"properties":{"id":"bikerack:71fa4845-76b6-4f98-b545-7f7d3acdded6","kind":"bikerack","longitude":11.7528373,"latitude":48.4039497,"name":"Fahrradabstellplatz","city":"Freising","address":null,"covered":true,"access":null,"website":null,"phone":null,"source":"OpenStreetMap/way/769252971","sourceUpdatedAt":null,"verifiedAt":null}},{"type":"Feature","geometry":{"type":"Point","coordinates":[11.7565312,48.4070369]},"properties":{"id":"bikerack:72a20f49-f6b9-4387-bba6-d15553d0c072","kind":"bikerack","longitude":11.7565312,"latitude":48.4070369,"name":"Fahrradabstellplatz","city":"Freising","address":null,"covered":true,"access":null,"website":null,"phone":null,"source":"OpenStreetMap/way/1026025845","sourceUpdatedAt":null,"verifiedAt":null}},{"type":"Feature","geometry":{"type":"Point","coordinates":[11.7371069,48.4090304]},"properties":{"id":"bikerack:72ee7a5c-b9b8-414a-92b3-5fe7e52bb04f","kind":"bikerack","longitude":11.7371069,"latitude":48.4090304,"name":"Fahrradabstellplatz","city":"Freising","address":null,"covered":false,"access":null,"website":null,"phone":null,"source":"OpenStreetMap/way/756935649","sourceUpdatedAt":null,"verifiedAt":null}},{"type":"Feature","geometry":{"type":"Point","coordinates":[11.7678705,48.40876]},"properties":{"id":"bikerack:7411d037-ee57-452f-a891-a304c21a95ff","kind":"bikerack","longitude":11.7678705,"latitude":48.40876,"name":"Fahrradabstellplatz","city":"Freising","address":null,"covered":false,"access":null,"website":null,"phone":null,"source":"OpenStreetMap/way/998176514","sourceUpdatedAt":null,"verifiedAt":null}},{"type":"Feature","geometry":{"type":"Point","coordinates":[11.7473461,48.4026322]},"properties":{"id":"bikerack:7415e77b-5fd8-4dbe-ba07-66dcf97781f5","kind":"bikerack","longitude":11.7473461,"latitude":48.4026322,"name":"Fahrradabstellplatz","city":"Freising","address":null,"covered":false,"access":null,"website":null,"phone":null,"source":"OpenStreetMap/node/7177241891","sourceUpdatedAt":null,"verifiedAt":null}},{"type":"Feature","geometry":{"type":"Point","coordinates":[11.7488291,48.4116175]},"properties":{"id":"bikerack:74468f95-8d8b-4306-9c56-3cdf7a667f44","kind":"bikerack","longitude":11.7488291,"latitude":48.4116175,"name":"Fahrradabstellplatz","city":"Freising","address":null,"covered":false,"access":null,"website":null,"phone":null,"source":"OpenStreetMap/way/1101410116","sourceUpdatedAt":null,"verifiedAt":null}},{"type":"Feature","geometry":{"type":"Point","coordinates":[11.7492756,48.4112515]},"properties":{"id":"bikerack:763ed149-f41e-41d0-9429-805ab46a4076","kind":"bikerack","longitude":11.7492756,"latitude":48.4112515,"name":"Fahrradabstellplatz","city":"Freising","address":null,"covered":false,"access":null,"website":null,"phone":null,"source":"OpenStreetMap/way/1101419626","sourceUpdatedAt":null,"verifiedAt":null}},{"type":"Feature","geometry":{"type":"Point","coordinates":[11.7438627,48.4056443]},"properties":{"id":"bikerack:798a8116-33ce-40fd-8c34-d509760593e9","kind":"bikerack","longitude":11.7438627,"latitude":48.4056443,"name":"Fahrradabstellplatz","city":"Freising","address":null,"covered":true,"access":null,"website":null,"phone":null,"source":"OpenStreetMap/way/958766680","sourceUpdatedAt":null,"verifiedAt":null}},{"type":"Feature","geometry":{"type":"Point","coordinates":[11.7469776,48.4115972]},"properties":{"id":"bikerack:7ae88957-2640-48fa-b4ba-ab0351721a93","kind":"bikerack","longitude":11.7469776,"latitude":48.4115972,"name":"Fahrradabstellplatz","city":"Freising","address":null,"covered":false,"access":null,"website":null,"phone":null,"source":"OpenStreetMap/way/1068763660","sourceUpdatedAt":null,"verifiedAt":null}},{"type":"Feature","geometry":{"type":"Point","coordinates":[11.7493226,48.4080408]},"properties":{"id":"bikerack:7e0bd90e-bbe1-474d-a782-334a184a6ca0","kind":"bikerack","longitude":11.7493226,"latitude":48.4080408,"name":"Fahrradabstellplatz","city":"Freising","address":null,"covered":false,"access":null,"website":null,"phone":null,"source":"OpenStreetMap/way/1096721472","sourceUpdatedAt":null,"verifiedAt":null}},{"type":"Feature","geometry":{"type":"Point","coordinates":[11.7425451,48.4109103]},"properties":{"id":"bikerack:80ab9bf1-c999-4ace-b12f-dd02fff776bd","kind":"bikerack","longitude":11.7425451,"latitude":48.4109103,"name":"Fahrradabstellplatz","city":"Freising","address":null,"covered":true,"access":null,"website":null,"phone":null,"source":"OpenStreetMap/way/1068903228","sourceUpdatedAt":null,"verifiedAt":null}},{"type":"Feature","geometry":{"type":"Point","coordinates":[11.7493322,48.4109282]},"properties":{"id":"bikerack:830da8a1-6d1d-407b-90ec-efca8b944a41","kind":"bikerack","longitude":11.7493322,"latitude":48.4109282,"name":"Fahrradabstellplatz","city":"Freising","address":null,"covered":false,"access":null,"website":null,"phone":null,"source":"OpenStreetMap/way/1101419625","sourceUpdatedAt":null,"verifiedAt":null}},{"type":"Feature","geometry":{"type":"Point","coordinates":[11.7520587,48.4103798]},"properties":{"id":"bikerack:86563015-775a-45a9-a918-a9b7056aa220","kind":"bikerack","longitude":11.7520587,"latitude":48.4103798,"name":"Fahrradabstellplatz","city":"Freising","address":null,"covered":false,"access":null,"website":null,"phone":null,"source":"OpenStreetMap/way/721540726","sourceUpdatedAt":null,"verifiedAt":null}},{"type":"Feature","geometry":{"type":"Point","coordinates":[11.7517436,48.411239]},"properties":{"id":"bikerack:86d27b4f-d36a-401a-8c38-1dd18aa2fbd4","kind":"bikerack","longitude":11.7517436,"latitude":48.411239,"name":"Fahrradabstellplatz","city":"Freising","address":null,"covered":false,"access":null,"website":null,"phone":null,"source":"OpenStreetMap/way/917896569","sourceUpdatedAt":null,"verifiedAt":null}},{"type":"Feature","geometry":{"type":"Point","coordinates":[11.7445128,48.4027679]},"properties":{"id":"bikerack:8a13cc02-17e7-489f-b99a-8610e84534a4","kind":"bikerack","longitude":11.7445128,"latitude":48.4027679,"name":"Fahrradabstellplatz","city":"Freising","address":null,"covered":false,"access":null,"website":null,"phone":null,"source":"OpenStreetMap/way/1164401963","sourceUpdatedAt":null,"verifiedAt":null}},{"type":"Feature","geometry":{"type":"Point","coordinates":[11.7560166,48.4043398]},"properties":{"id":"bikerack:8a52b0a4-0e0e-4630-a80c-25eb0c47306f","kind":"bikerack","longitude":11.7560166,"latitude":48.4043398,"name":"Fahrradabstellplatz","city":"Freising","address":null,"covered":false,"access":null,"website":null,"phone":null,"source":"OpenStreetMap/way/1020509675","sourceUpdatedAt":null,"verifiedAt":null}},{"type":"Feature","geometry":{"type":"Point","coordinates":[11.7493022,48.4110647]},"properties":{"id":"bikerack:8d31bfb8-eb08-4010-9d50-61c96e841c8b","kind":"bikerack","longitude":11.7493022,"latitude":48.4110647,"name":"Fahrradabstellplatz","city":"Freising","address":null,"covered":false,"access":null,"website":null,"phone":null,"source":"OpenStreetMap/way/1101419617","sourceUpdatedAt":null,"verifiedAt":null}},{"type":"Feature","geometry":{"type":"Point","coordinates":[11.7489882,48.4084531]},"properties":{"id":"bikerack:8f1c220a-a9c0-457f-afcc-099a302ea1ab","kind":"bikerack","longitude":11.7489882,"latitude":48.4084531,"name":"Fahrradabstellplatz","city":"Freising","address":null,"covered":false,"access":null,"website":null,"phone":null,"source":"OpenStreetMap/way/1096721464","sourceUpdatedAt":null,"verifiedAt":null}},{"type":"Feature","geometry":{"type":"Point","coordinates":[11.7484461,48.4050254]},"properties":{"id":"bikerack:8f68b155-6ac1-4b41-8b93-0b4d27a34ace","kind":"bikerack","longitude":11.7484461,"latitude":48.4050254,"name":"Fahrradabstellplatz","city":"Freising","address":null,"covered":false,"access":null,"website":null,"phone":null,"source":"OpenStreetMap/node/10023839781","sourceUpdatedAt":null,"verifiedAt":null}},{"type":"Feature","geometry":{"type":"Point","coordinates":[11.7414428,48.4031404]},"properties":{"id":"bikerack:8f9e5c5c-3b8d-4d2e-bf16-6bebca3e5167","kind":"bikerack","longitude":11.7414428,"latitude":48.4031404,"name":"Fahrradabstellplatz","city":"Freising","address":null,"covered":false,"access":null,"website":null,"phone":null,"source":"OpenStreetMap/way/958557869","sourceUpdatedAt":null,"verifiedAt":null}},{"type":"Feature","geometry":{"type":"Point","coordinates":[11.7515661,48.4097648]},"properties":{"id":"bikerack:93444d0f-413d-45a9-958e-e4cda06be8da","kind":"bikerack","longitude":11.7515661,"latitude":48.4097648,"name":"Fahrradabstellplatz","city":"Freising","address":null,"covered":false,"access":null,"website":null,"phone":null,"source":"OpenStreetMap/way/977491847","sourceUpdatedAt":null,"verifiedAt":null}},{"type":"Feature","geometry":{"type":"Point","coordinates":[11.7546446,48.4044855]},"properties":{"id":"bikerack:944a7845-3d8f-4ce9-9f46-1a44e12703b8","kind":"bikerack","longitude":11.7546446,"latitude":48.4044855,"name":"Fahrradabstellplatz","city":"Freising","address":null,"covered":false,"access":null,"website":null,"phone":null,"source":"OpenStreetMap/node/7176904642","sourceUpdatedAt":null,"verifiedAt":null}},{"type":"Feature","geometry":{"type":"Point","coordinates":[11.7491718,48.4083184]},"properties":{"id":"bikerack:9729a79f-081e-4a14-aabd-8ba7e0a03ef6","kind":"bikerack","longitude":11.7491718,"latitude":48.4083184,"name":"Fahrradabstellplatz","city":"Freising","address":null,"covered":false,"access":null,"website":null,"phone":null,"source":"OpenStreetMap/way/1096721470","sourceUpdatedAt":null,"verifiedAt":null}},{"type":"Feature","geometry":{"type":"Point","coordinates":[11.7527603,48.4019978]},"properties":{"id":"bikerack:98dbace9-4103-4aad-a946-c7326d4796a0","kind":"bikerack","longitude":11.7527603,"latitude":48.4019978,"name":"Fahrradabstellplatz","city":"Freising","address":null,"covered":false,"access":null,"website":null,"phone":null,"source":"OpenStreetMap/node/6776942561","sourceUpdatedAt":null,"verifiedAt":null}},{"type":"Feature","geometry":{"type":"Point","coordinates":[11.7484308,48.4015002]},"properties":{"id":"bikerack:9a1aeb64-6ea9-4da3-9719-74fa7c8e281d","kind":"bikerack","longitude":11.7484308,"latitude":48.4015002,"name":"Fahrradabstellplatz","city":"Freising","address":null,"covered":false,"access":null,"website":null,"phone":null,"source":"OpenStreetMap/way/759340935","sourceUpdatedAt":null,"verifiedAt":null}},{"type":"Feature","geometry":{"type":"Point","coordinates":[11.7542431,48.4003292]},"properties":{"id":"bikerack:9a1b708a-6f96-44a5-9caa-b9a6a89986af","kind":"bikerack","longitude":11.7542431,"latitude":48.4003292,"name":"Park & Bike","city":"Freising","address":null,"covered":false,"access":null,"website":null,"phone":null,"source":"OpenStreetMap/way/1098780965","sourceUpdatedAt":null,"verifiedAt":null}},{"type":"Feature","geometry":{"type":"Point","coordinates":[11.7480275,48.4015253]},"properties":{"id":"bikerack:9b401ba0-f0b7-4449-82ed-7136e546da3c","kind":"bikerack","longitude":11.7480275,"latitude":48.4015253,"name":"Fahrradabstellplatz","city":"Freising","address":null,"covered":false,"access":null,"website":null,"phone":null,"source":"OpenStreetMap/way/1167503406","sourceUpdatedAt":null,"verifiedAt":null}},{"type":"Feature","geometry":{"type":"Point","coordinates":[11.7364343,48.40178]},"properties":{"id":"bikerack:9b739b4c-bb73-4eca-95b5-220bb5bea7c1","kind":"bikerack","longitude":11.7364343,"latitude":48.40178,"name":"Fahrradabstellplatz","city":"Freising","address":null,"covered":false,"access":null,"website":null,"phone":null,"source":"OpenStreetMap/way/713092138","sourceUpdatedAt":null,"verifiedAt":null}},{"type":"Feature","geometry":{"type":"Point","coordinates":[11.7452524,48.4018653]},"properties":{"id":"bikerack:9e873ac4-bac2-422e-bc75-60e8d1ee1ebd","kind":"bikerack","longitude":11.7452524,"latitude":48.4018653,"name":"Fahrradabstellplatz","city":"Freising","address":null,"covered":false,"access":null,"website":null,"phone":null,"source":"OpenStreetMap/way/769362052","sourceUpdatedAt":null,"verifiedAt":null}},{"type":"Feature","geometry":{"type":"Point","coordinates":[11.7355803,48.4020569]},"properties":{"id":"bikerack:9fd174d0-6860-485c-bd27-9f5535b8ec45","kind":"bikerack","longitude":11.7355803,"latitude":48.4020569,"name":"Fahrradabstellplatz","city":"Freising","address":null,"covered":false,"access":null,"website":null,"phone":null,"source":"OpenStreetMap/node/8856612546","sourceUpdatedAt":null,"verifiedAt":null}},{"type":"Feature","geometry":{"type":"Point","coordinates":[11.7445911,48.4008346]},"properties":{"id":"bikerack:a06f5c48-e189-4b9b-9c1d-c07c003d7354","kind":"bikerack","longitude":11.7445911,"latitude":48.4008346,"name":"Fahrradabstellplatz","city":"Freising","address":null,"covered":false,"access":null,"website":null,"phone":null,"source":"OpenStreetMap/node/13684485333","sourceUpdatedAt":null,"verifiedAt":null}},{"type":"Feature","geometry":{"type":"Point","coordinates":[11.7531367,48.4111706]},"properties":{"id":"bikerack:a1ac02c6-cd89-4b8d-ba15-1d79c981bfeb","kind":"bikerack","longitude":11.7531367,"latitude":48.4111706,"name":"Fahrradabstellplatz","city":"Freising","address":null,"covered":false,"access":null,"website":null,"phone":null,"source":"OpenStreetMap/way/977885284","sourceUpdatedAt":null,"verifiedAt":null}},{"type":"Feature","geometry":{"type":"Point","coordinates":[11.7473082,48.4025565]},"properties":{"id":"bikerack:a3701b3b-7a9e-4845-a309-ff2ec162fbf9","kind":"bikerack","longitude":11.7473082,"latitude":48.4025565,"name":"Fahrradabstellplatz","city":"Freising","address":null,"covered":false,"access":null,"website":null,"phone":null,"source":"OpenStreetMap/node/7177274574","sourceUpdatedAt":null,"verifiedAt":null}},{"type":"Feature","geometry":{"type":"Point","coordinates":[11.7511104,48.4107814]},"properties":{"id":"bikerack:a5b2f15d-09dc-4864-81fb-198d85e4017e","kind":"bikerack","longitude":11.7511104,"latitude":48.4107814,"name":"Fahrradabstellplatz","city":"Freising","address":null,"covered":false,"access":null,"website":null,"phone":null,"source":"OpenStreetMap/way/917896567","sourceUpdatedAt":null,"verifiedAt":null}},{"type":"Feature","geometry":{"type":"Point","coordinates":[11.7526148,48.4020442]},"properties":{"id":"bikerack:a61d3bbf-15f1-4175-a8e0-77e94c5159ea","kind":"bikerack","longitude":11.7526148,"latitude":48.4020442,"name":"Fahrradabstellplatz","city":"Freising","address":null,"covered":false,"access":null,"website":null,"phone":null,"source":"OpenStreetMap/node/6776942558","sourceUpdatedAt":null,"verifiedAt":null}},{"type":"Feature","geometry":{"type":"Point","coordinates":[11.7507535,48.4022079]},"properties":{"id":"bikerack:a7025989-4202-45b4-b074-1d65bdc37095","kind":"bikerack","longitude":11.7507535,"latitude":48.4022079,"name":"Fahrradabstellplatz","city":"Freising","address":null,"covered":false,"access":null,"website":null,"phone":null,"source":"OpenStreetMap/node/8633103826","sourceUpdatedAt":null,"verifiedAt":null}},{"type":"Feature","geometry":{"type":"Point","coordinates":[11.7491835,48.4080383]},"properties":{"id":"bikerack:ada3ee59-5f30-4324-82c4-bc9b3b09da22","kind":"bikerack","longitude":11.7491835,"latitude":48.4080383,"name":"Fahrradabstellplatz","city":"Freising","address":null,"covered":false,"access":null,"website":null,"phone":null,"source":"OpenStreetMap/way/1096721471","sourceUpdatedAt":null,"verifiedAt":null}},{"type":"Feature","geometry":{"type":"Point","coordinates":[11.7587444,48.4056529]},"properties":{"id":"bikerack:ae6b9af4-50e3-458d-b45c-3c23afe49c7b","kind":"bikerack","longitude":11.7587444,"latitude":48.4056529,"name":"Fahrradabstellplatz","city":"Freising","address":null,"covered":false,"access":null,"website":null,"phone":null,"source":"OpenStreetMap/way/1083991401","sourceUpdatedAt":null,"verifiedAt":null}},{"type":"Feature","geometry":{"type":"Point","coordinates":[11.749692,48.4112073]},"properties":{"id":"bikerack:b21de3ac-c470-49d1-a186-f388182bcf53","kind":"bikerack","longitude":11.749692,"latitude":48.4112073,"name":"Fahrradabstellplatz","city":"Freising","address":null,"covered":true,"access":null,"website":null,"phone":null,"source":"OpenStreetMap/way/977491757","sourceUpdatedAt":null,"verifiedAt":null}},{"type":"Feature","geometry":{"type":"Point","coordinates":[11.7420439,48.4061192]},"properties":{"id":"bikerack:b25261bd-1fbe-4a5a-ad1f-9fcfbd2a072f","kind":"bikerack","longitude":11.7420439,"latitude":48.4061192,"name":"Fahrradabstellplatz","city":"Freising","address":null,"covered":false,"access":null,"website":null,"phone":null,"source":"OpenStreetMap/node/8871390146","sourceUpdatedAt":null,"verifiedAt":null}},{"type":"Feature","geometry":{"type":"Point","coordinates":[11.7489727,48.4049949]},"properties":{"id":"bikerack:b3d47c30-a758-4d76-a85a-b759e2b17644","kind":"bikerack","longitude":11.7489727,"latitude":48.4049949,"name":"Fahrradabstellplatz","city":"Freising","address":null,"covered":false,"access":null,"website":null,"phone":null,"source":"OpenStreetMap/node/10023839782","sourceUpdatedAt":null,"verifiedAt":null}},{"type":"Feature","geometry":{"type":"Point","coordinates":[11.7435954,48.400391]},"properties":{"id":"bikerack:b7aa3ea9-21c3-4297-a198-1240e8af7762","kind":"bikerack","longitude":11.7435954,"latitude":48.400391,"name":"Fahrradabstellplatz","city":"Freising","address":null,"covered":false,"access":null,"website":null,"phone":null,"source":"OpenStreetMap/node/13684572557","sourceUpdatedAt":null,"verifiedAt":null}},{"type":"Feature","geometry":{"type":"Point","coordinates":[11.7484536,48.4002775]},"properties":{"id":"bikerack:b94f33e0-567c-4001-bdf4-8ee6b638f74e","kind":"bikerack","longitude":11.7484536,"latitude":48.4002775,"name":"Fahrradabstellplatz","city":"Freising","address":null,"covered":false,"access":null,"website":null,"phone":null,"source":"OpenStreetMap/node/6782144725","sourceUpdatedAt":null,"verifiedAt":null}},{"type":"Feature","geometry":{"type":"Point","coordinates":[11.7481183,48.4102551]},"properties":{"id":"bikerack:bb232597-c28e-41d0-8e09-5b30c6be93a7","kind":"bikerack","longitude":11.7481183,"latitude":48.4102551,"name":"Fahrradabstellplatz","city":"Freising","address":null,"covered":false,"access":null,"website":null,"phone":null,"source":"OpenStreetMap/way/977778687","sourceUpdatedAt":null,"verifiedAt":null}},{"type":"Feature","geometry":{"type":"Point","coordinates":[11.7472714,48.400487]},"properties":{"id":"bikerack:bc048cc9-e037-4bd2-9d6d-8122be5b26c2","kind":"bikerack","longitude":11.7472714,"latitude":48.400487,"name":"Fahrradabstellplatz","city":"Freising","address":null,"covered":true,"access":null,"website":null,"phone":null,"source":"OpenStreetMap/way/926179486","sourceUpdatedAt":null,"verifiedAt":null}},{"type":"Feature","geometry":{"type":"Point","coordinates":[11.746865,48.4043159]},"properties":{"id":"bikerack:bea04a6e-2c08-4fee-a952-60474b648c4f","kind":"bikerack","longitude":11.746865,"latitude":48.4043159,"name":"Fahrradabstellplatz","city":"Freising","address":null,"covered":true,"access":null,"website":null,"phone":null,"source":"OpenStreetMap/way/961254805","sourceUpdatedAt":null,"verifiedAt":null}},{"type":"Feature","geometry":{"type":"Point","coordinates":[11.7476057,48.401978]},"properties":{"id":"bikerack:c1581090-12e1-40ae-8d4c-bc1f1746faa1","kind":"bikerack","longitude":11.7476057,"latitude":48.401978,"name":"Fahrradabstellplatz","city":"Freising","address":null,"covered":false,"access":null,"website":null,"phone":null,"source":"OpenStreetMap/node/6779400997","sourceUpdatedAt":null,"verifiedAt":null}},{"type":"Feature","geometry":{"type":"Point","coordinates":[11.7464011,48.4002872]},"properties":{"id":"bikerack:c3af43b5-408c-485f-94c4-6b86cce746e6","kind":"bikerack","longitude":11.7464011,"latitude":48.4002872,"name":"Fahrradabstellplatz","city":"Freising","address":null,"covered":false,"access":null,"website":null,"phone":null,"source":"OpenStreetMap/node/6779380193","sourceUpdatedAt":null,"verifiedAt":null}},{"type":"Feature","geometry":{"type":"Point","coordinates":[11.7434653,48.4010398]},"properties":{"id":"bikerack:c499af88-28df-483c-88b6-3e7d42151a2f","kind":"bikerack","longitude":11.7434653,"latitude":48.4010398,"name":"Fahrradabstellplatz","city":"Freising","address":null,"covered":false,"access":null,"website":null,"phone":null,"source":"OpenStreetMap/node/6703942994","sourceUpdatedAt":null,"verifiedAt":null}},{"type":"Feature","geometry":{"type":"Point","coordinates":[11.7517691,48.4109692]},"properties":{"id":"bikerack:c94b2b2a-0c23-4a35-b5cf-7a507d06dc31","kind":"bikerack","longitude":11.7517691,"latitude":48.4109692,"name":"Fahrradabstellplatz","city":"Freising","address":null,"covered":false,"access":null,"website":null,"phone":null,"source":"OpenStreetMap/way/977491696","sourceUpdatedAt":null,"verifiedAt":null}},{"type":"Feature","geometry":{"type":"Point","coordinates":[11.7522034,48.4077073]},"properties":{"id":"bikerack:cf5a1570-ffb0-48e1-9cc8-dd8e62abba0e","kind":"bikerack","longitude":11.7522034,"latitude":48.4077073,"name":"Fahrradabstellplatz","city":"Freising","address":null,"covered":false,"access":null,"website":null,"phone":null,"source":"OpenStreetMap/node/7566962322","sourceUpdatedAt":null,"verifiedAt":null}},{"type":"Feature","geometry":{"type":"Point","coordinates":[11.7461206,48.4132762]},"properties":{"id":"bikerack:d0b980e7-08d0-4ae2-aead-822ebe3d8a98","kind":"bikerack","longitude":11.7461206,"latitude":48.4132762,"name":"Fahrradabstellplatz","city":"Freising","address":null,"covered":false,"access":null,"website":null,"phone":null,"source":"OpenStreetMap/node/8496335693","sourceUpdatedAt":null,"verifiedAt":null}},{"type":"Feature","geometry":{"type":"Point","coordinates":[11.7520621,48.410274]},"properties":{"id":"bikerack:d1ef2ecf-3ba4-442b-aff4-81ddc0d9656c","kind":"bikerack","longitude":11.7520621,"latitude":48.410274,"name":"Fahrradabstellplatz","city":"Freising","address":null,"covered":false,"access":null,"website":null,"phone":null,"source":"OpenStreetMap/way/721540727","sourceUpdatedAt":null,"verifiedAt":null}},{"type":"Feature","geometry":{"type":"Point","coordinates":[11.7493146,48.4083219]},"properties":{"id":"bikerack:d42ac59c-0c4f-4048-84a6-2fe564584c5b","kind":"bikerack","longitude":11.7493146,"latitude":48.4083219,"name":"Fahrradabstellplatz","city":"Freising","address":null,"covered":false,"access":null,"website":null,"phone":null,"source":"OpenStreetMap/way/1096721469","sourceUpdatedAt":null,"verifiedAt":null}},{"type":"Feature","geometry":{"type":"Point","coordinates":[11.7510441,48.4080247]},"properties":{"id":"bikerack:d57472ed-3215-4eae-970d-f275cdb97374","kind":"bikerack","longitude":11.7510441,"latitude":48.4080247,"name":"Fahrradabstellplatz","city":"Freising","address":null,"covered":false,"access":null,"website":null,"phone":null,"source":"OpenStreetMap/way/1096663032","sourceUpdatedAt":null,"verifiedAt":null}},{"type":"Feature","geometry":{"type":"Point","coordinates":[11.7550233,48.4048681]},"properties":{"id":"bikerack:d6beb809-dfbf-4cbe-8bb8-5923c285ce3f","kind":"bikerack","longitude":11.7550233,"latitude":48.4048681,"name":"Fahrradabstellplatz","city":"Freising","address":null,"covered":false,"access":null,"website":null,"phone":null,"source":"OpenStreetMap/node/10020626189","sourceUpdatedAt":null,"verifiedAt":null}},{"type":"Feature","geometry":{"type":"Point","coordinates":[11.7515502,48.404871]},"properties":{"id":"bikerack:d710faa7-1897-4902-b7b5-c47016383cd8","kind":"bikerack","longitude":11.7515502,"latitude":48.404871,"name":"Fahrradabstellplatz","city":"Freising","address":null,"covered":false,"access":null,"website":null,"phone":null,"source":"OpenStreetMap/node/9409963099","sourceUpdatedAt":null,"verifiedAt":null}},{"type":"Feature","geometry":{"type":"Point","coordinates":[11.7439157,48.4047798]},"properties":{"id":"bikerack:d7a10268-6149-499d-9cd2-ae02278510d7","kind":"bikerack","longitude":11.7439157,"latitude":48.4047798,"name":"Fahrradabstellplatz","city":"Freising","address":null,"covered":false,"access":null,"website":null,"phone":null,"source":"OpenStreetMap/way/919775232","sourceUpdatedAt":null,"verifiedAt":null}},{"type":"Feature","geometry":{"type":"Point","coordinates":[11.7520877,48.4038049]},"properties":{"id":"bikerack:db0bb254-770b-4903-89d8-9b220981d37b","kind":"bikerack","longitude":11.7520877,"latitude":48.4038049,"name":"Fahrradabstellplatz","city":"Freising","address":null,"covered":false,"access":null,"website":null,"phone":null,"source":"OpenStreetMap/way/1017346552","sourceUpdatedAt":null,"verifiedAt":null}},{"type":"Feature","geometry":{"type":"Point","coordinates":[11.757463,48.4066834]},"properties":{"id":"bikerack:db37dc57-e972-4ac0-a6d9-2b642cac0858","kind":"bikerack","longitude":11.757463,"latitude":48.4066834,"name":"Fahrradabstellplatz","city":"Freising","address":null,"covered":false,"access":null,"website":null,"phone":null,"source":"OpenStreetMap/node/7177203947","sourceUpdatedAt":null,"verifiedAt":null}},{"type":"Feature","geometry":{"type":"Point","coordinates":[11.7442097,48.4031325]},"properties":{"id":"bikerack:dcb86aa1-58cf-47f0-afdc-d130803fce2d","kind":"bikerack","longitude":11.7442097,"latitude":48.4031325,"name":"Fahrradabstellplatz","city":"Freising","address":null,"covered":false,"access":null,"website":null,"phone":null,"source":"OpenStreetMap/way/958638683","sourceUpdatedAt":null,"verifiedAt":null}},{"type":"Feature","geometry":{"type":"Point","coordinates":[11.7683384,48.408007]},"properties":{"id":"bikerack:de118aa7-1515-44d2-a87e-2a04dbbc080e","kind":"bikerack","longitude":11.7683384,"latitude":48.408007,"name":"Fahrradabstellplatz","city":"Freising","address":null,"covered":false,"access":null,"website":null,"phone":null,"source":"OpenStreetMap/way/769276628","sourceUpdatedAt":null,"verifiedAt":null}},{"type":"Feature","geometry":{"type":"Point","coordinates":[11.7477682,48.4074878]},"properties":{"id":"bikerack:debf1f39-a83f-4eff-a63e-f780b4b4b727","kind":"bikerack","longitude":11.7477682,"latitude":48.4074878,"name":"Fahrradabstellplatz","city":"Freising","address":null,"covered":false,"access":null,"website":null,"phone":null,"source":"OpenStreetMap/node/8077911800","sourceUpdatedAt":null,"verifiedAt":null}},{"type":"Feature","geometry":{"type":"Point","coordinates":[11.7473197,48.4027682]},"properties":{"id":"bikerack:ded1c68f-5c0e-4df0-bf37-039a2c0be4f7","kind":"bikerack","longitude":11.7473197,"latitude":48.4027682,"name":"Fahrradabstellplatz","city":"Freising","address":null,"covered":false,"access":null,"website":null,"phone":null,"source":"OpenStreetMap/node/7177241889","sourceUpdatedAt":null,"verifiedAt":null}},{"type":"Feature","geometry":{"type":"Point","coordinates":[11.7404747,48.4028084]},"properties":{"id":"bikerack:defb53c7-bf05-4578-94ce-4a340660cbc4","kind":"bikerack","longitude":11.7404747,"latitude":48.4028084,"name":"Fahrradabstellplatz","city":"Freising","address":null,"covered":false,"access":null,"website":null,"phone":null,"source":"OpenStreetMap/node/8868086463","sourceUpdatedAt":null,"verifiedAt":null}},{"type":"Feature","geometry":{"type":"Point","coordinates":[11.7494195,48.4119751]},"properties":{"id":"bikerack:e4745d79-0bab-40e4-bbfa-3f8cb07266e3","kind":"bikerack","longitude":11.7494195,"latitude":48.4119751,"name":"Fahrradabstellplatz","city":"Freising","address":null,"covered":false,"access":null,"website":null,"phone":null,"source":"OpenStreetMap/way/756496502","sourceUpdatedAt":null,"verifiedAt":null}},{"type":"Feature","geometry":{"type":"Point","coordinates":[11.7403582,48.4036051]},"properties":{"id":"bikerack:e75f3b7c-3afc-4890-9cb5-a07e5c55b366","kind":"bikerack","longitude":11.7403582,"latitude":48.4036051,"name":"Fahrradabstellplatz","city":"Freising","address":null,"covered":false,"access":null,"website":null,"phone":null,"source":"OpenStreetMap/way/958563077","sourceUpdatedAt":null,"verifiedAt":null}},{"type":"Feature","geometry":{"type":"Point","coordinates":[11.7447522,48.4042216]},"properties":{"id":"bikerack:ea3f2e47-2c0e-422b-a226-4b93d569c617","kind":"bikerack","longitude":11.7447522,"latitude":48.4042216,"name":"Fahrradabstellplatz","city":"Freising","address":null,"covered":false,"access":null,"website":null,"phone":null,"source":"OpenStreetMap/node/9044877550","sourceUpdatedAt":null,"verifiedAt":null}},{"type":"Feature","geometry":{"type":"Point","coordinates":[11.7507449,48.4022099]},"properties":{"id":"bikerack:ea71dd36-f71c-41f7-a456-34ea6cedb81f","kind":"bikerack","longitude":11.7507449,"latitude":48.4022099,"name":"Fahrradabstellplatz","city":"Freising","address":null,"covered":false,"access":null,"website":null,"phone":null,"source":"OpenStreetMap/way/1025120076","sourceUpdatedAt":null,"verifiedAt":null}},{"type":"Feature","geometry":{"type":"Point","coordinates":[11.7429648,48.4011145]},"properties":{"id":"bikerack:ebafca59-1f74-4f93-8d21-ee8349acba3d","kind":"bikerack","longitude":11.7429648,"latitude":48.4011145,"name":"Fahrradabstellplatz","city":"Freising","address":null,"covered":false,"access":null,"website":null,"phone":null,"source":"OpenStreetMap/node/7177253466","sourceUpdatedAt":null,"verifiedAt":null}},{"type":"Feature","geometry":{"type":"Point","coordinates":[11.7478578,48.4076923]},"properties":{"id":"bikerack:ec5cd470-7bfc-4091-88f4-cb7566a56efa","kind":"bikerack","longitude":11.7478578,"latitude":48.4076923,"name":"Fahrradabstellplatz","city":"Freising","address":null,"covered":false,"access":null,"website":null,"phone":null,"source":"OpenStreetMap/node/6702533882","sourceUpdatedAt":null,"verifiedAt":null}},{"type":"Feature","geometry":{"type":"Point","coordinates":[11.7526877,48.4116991]},"properties":{"id":"bikerack:eda90bd6-023d-44c6-9826-9af7f14f9ff9","kind":"bikerack","longitude":11.7526877,"latitude":48.4116991,"name":"Fahrradabstellplatz","city":"Freising","address":null,"covered":false,"access":null,"website":null,"phone":null,"source":"OpenStreetMap/way/978092322","sourceUpdatedAt":null,"verifiedAt":null}},{"type":"Feature","geometry":{"type":"Point","coordinates":[11.7461001,48.4014429]},"properties":{"id":"bikerack:ee8a6022-b693-4b8b-93b9-49d187e0c3fc","kind":"bikerack","longitude":11.7461001,"latitude":48.4014429,"name":"Fahrradabstellplatz","city":"Freising","address":null,"covered":false,"access":null,"website":null,"phone":null,"source":"OpenStreetMap/node/10898983240","sourceUpdatedAt":null,"verifiedAt":null}},{"type":"Feature","geometry":{"type":"Point","coordinates":[11.746818,48.4119993]},"properties":{"id":"bikerack:f14d065e-6baa-42d8-a2f0-3a0cfc140705","kind":"bikerack","longitude":11.746818,"latitude":48.4119993,"name":"Fahrradabstellplatz","city":"Freising","address":null,"covered":false,"access":null,"website":null,"phone":null,"source":"OpenStreetMap/way/1068763664","sourceUpdatedAt":null,"verifiedAt":null}},{"type":"Feature","geometry":{"type":"Point","coordinates":[11.7497973,48.4106606]},"properties":{"id":"bikerack:f2c547e2-59ef-4878-916e-b65f9d7c1546","kind":"bikerack","longitude":11.7497973,"latitude":48.4106606,"name":"Fahrradabstellplatz","city":"Freising","address":null,"covered":true,"access":null,"website":null,"phone":null,"source":"OpenStreetMap/way/721540741","sourceUpdatedAt":null,"verifiedAt":null}},{"type":"Feature","geometry":{"type":"Point","coordinates":[11.7571289,48.4058289]},"properties":{"id":"bikerack:f3db6ed0-e6e9-48f7-be9a-c5be214786c6","kind":"bikerack","longitude":11.7571289,"latitude":48.4058289,"name":"Fahrradabstellplatz","city":"Freising","address":null,"covered":true,"access":null,"website":null,"phone":null,"source":"OpenStreetMap/node/10818912638","sourceUpdatedAt":null,"verifiedAt":null}},{"type":"Feature","geometry":{"type":"Point","coordinates":[11.7485188,48.4015036]},"properties":{"id":"bikerack:f3ef17a2-c209-42ab-9b3b-c17ba717e83e","kind":"bikerack","longitude":11.7485188,"latitude":48.4015036,"name":"Fahrradabstellplatz","city":"Freising","address":null,"covered":false,"access":null,"website":null,"phone":null,"source":"OpenStreetMap/way/759340934","sourceUpdatedAt":null,"verifiedAt":null}},{"type":"Feature","geometry":{"type":"Point","coordinates":[11.7499142,48.401672]},"properties":{"id":"bikerack:f4d02a38-d494-4d37-aafa-0d1e5ec94894","kind":"bikerack","longitude":11.7499142,"latitude":48.401672,"name":"Fahrradabstellplatz","city":"Freising","address":null,"covered":false,"access":null,"website":null,"phone":null,"source":"OpenStreetMap/node/7177231527","sourceUpdatedAt":null,"verifiedAt":null}},{"type":"Feature","geometry":{"type":"Point","coordinates":[11.7486864,48.4022528]},"properties":{"id":"bikerack:f5d48f25-d55c-4d17-a80b-553032996cb7","kind":"bikerack","longitude":11.7486864,"latitude":48.4022528,"name":"Fahrradabstellplatz","city":"Freising","address":null,"covered":false,"access":null,"website":null,"phone":null,"source":"OpenStreetMap/node/6704019327","sourceUpdatedAt":null,"verifiedAt":null}},{"type":"Feature","geometry":{"type":"Point","coordinates":[11.7507191,48.4104483]},"properties":{"id":"bikerack:f7ab8ce3-0b95-4a50-8136-24166bc22c7b","kind":"bikerack","longitude":11.7507191,"latitude":48.4104483,"name":"Fahrradabstellplatz","city":"Freising","address":null,"covered":false,"access":null,"website":null,"phone":null,"source":"OpenStreetMap/way/977491790","sourceUpdatedAt":null,"verifiedAt":null}},{"type":"Feature","geometry":{"type":"Point","coordinates":[11.7519891,48.4103167]},"properties":{"id":"bikerack:fada121b-f4ec-4934-b03c-d8887e17b0f7","kind":"bikerack","longitude":11.7519891,"latitude":48.4103167,"name":"Fahrradabstellplatz","city":"Freising","address":null,"covered":false,"access":null,"website":null,"phone":null,"source":"OpenStreetMap/node/7533811831","sourceUpdatedAt":null,"verifiedAt":null}},{"type":"Feature","geometry":{"type":"Point","coordinates":[11.7502465,48.4104449]},"properties":{"id":"bikerack:fae169f0-49d4-40bc-b1ef-455928c45657","kind":"bikerack","longitude":11.7502465,"latitude":48.4104449,"name":"Fahrradabstellplatz","city":"Freising","address":null,"covered":false,"access":null,"website":null,"phone":null,"source":"OpenStreetMap/way/977491784","sourceUpdatedAt":null,"verifiedAt":null}},{"type":"Feature","geometry":{"type":"Point","coordinates":[11.7392364,48.4002238]},"properties":{"id":"bikerack:fcbd966b-d75d-42ce-822e-614c9e81443d","kind":"bikerack","longitude":11.7392364,"latitude":48.4002238,"name":"Fahrradabstellplatz","city":"Freising","address":null,"covered":false,"access":null,"website":null,"phone":null,"source":"OpenStreetMap/way/967757370","sourceUpdatedAt":null,"verifiedAt":null}},{"type":"Feature","geometry":{"type":"Point","coordinates":[11.7588442,48.4062748]},"properties":{"id":"bikerack:fdff2b0d-ba39-4e09-b9ef-cd839600f42a","kind":"bikerack","longitude":11.7588442,"latitude":48.4062748,"name":"Fahrradabstellplatz","city":"Freising","address":null,"covered":false,"access":null,"website":null,"phone":null,"source":"OpenStreetMap/node/7177203941","sourceUpdatedAt":null,"verifiedAt":null}},{"type":"Feature","geometry":{"type":"Point","coordinates":[11.7372587,48.410518]},"properties":{"id":"service:4e1c93c1-bce7-4b7f-b44c-b1b3aa6414e9","kind":"service","longitude":11.7372587,"latitude":48.410518,"name":"RealBike Shop","city":"Freising","address":null,"covered":null,"access":null,"website":null,"phone":null,"source":"OpenStreetMap/node/1253669587","sourceUpdatedAt":null,"verifiedAt":null}},{"type":"Feature","geometry":{"type":"Point","coordinates":[11.7386379,48.4002955]},"properties":{"id":"service:51d29ec4-5be1-4592-9add-4865b00e26b4","kind":"service","longitude":11.7386379,"latitude":48.4002955,"name":"Bike-Doc","city":"Freising","address":null,"covered":null,"access":null,"website":null,"phone":null,"source":"OpenStreetMap/node/9179841980","sourceUpdatedAt":null,"verifiedAt":null}},{"type":"Feature","geometry":{"type":"Point","coordinates":[11.7442634,48.400946]},"properties":{"id":"water:0060b919-2a0d-4c9b-89a3-657676164fb7","kind":"water","longitude":11.7442634,"latitude":48.400946,"name":"Brunnen am Marienplatz","city":"Freising","address":null,"covered":null,"access":null,"website":null,"phone":null,"source":"OpenStreetMap/node/1489699384","sourceUpdatedAt":null,"verifiedAt":null}},{"type":"Feature","geometry":{"type":"Point","coordinates":[11.7358535,48.4021763]},"properties":{"id":"water:479e1b95-4849-4681-9e67-83398c405965","kind":"water","longitude":11.7358535,"latitude":48.4021763,"name":"Trinkwasser","city":"Freising","address":null,"covered":null,"access":null,"website":null,"phone":null,"source":"OpenStreetMap/node/10067995427","sourceUpdatedAt":null,"verifiedAt":null}},{"type":"Feature","geometry":{"type":"Point","coordinates":[11.7592782,48.4030882]},"properties":{"id":"water:dab43161-a219-47ee-ae5a-da31f50d422c","kind":"water","longitude":11.7592782,"latitude":48.4030882,"name":"Trinkwasser","city":"Freising","address":null,"covered":null,"access":null,"website":null,"phone":null,"source":"OpenStreetMap/node/10020318414","sourceUpdatedAt":null,"verifiedAt":null}}]}