{"type":"FeatureCollection","features":[{"type":"Feature","geometry":{"type":"Point","coordinates":[11.7358031,46.1498623]},"properties":{"id":"water:38ea83cb-abab-42c8-a9e6-488c4a37a3c6","kind":"water","longitude":11.7358031,"latitude":46.1498623,"name":"Fontanella","city":"Canal San Bovo","address":null,"covered":null,"access":null,"website":null,"phone":null,"source":"OpenStreetMap/node/6851542200","sourceUpdatedAt":null,"verifiedAt":null}},{"type":"Feature","geometry":{"type":"Point","coordinates":[11.7476493,46.1643315]},"properties":{"id":"water:7b708af7-4e40-4aee-a334-d08c26ef70a1","kind":"water","longitude":11.7476493,"latitude":46.1643315,"name":"Fontanella","city":"Canal San Bovo","address":null,"covered":null,"access":null,"website":null,"phone":null,"source":"OpenStreetMap/node/846406850","sourceUpdatedAt":null,"verifiedAt":null}},{"type":"Feature","geometry":{"type":"Point","coordinates":[11.7587344,46.1472891]},"properties":{"id":"water:817715c9-f36e-42a7-9d08-72a179e8d1ef","kind":"water","longitude":11.7587344,"latitude":46.1472891,"name":"Fontanella","city":"Canal San Bovo","address":null,"covered":null,"access":null,"website":null,"phone":null,"source":"OpenStreetMap/node/803262895","sourceUpdatedAt":null,"verifiedAt":null}},{"type":"Feature","geometry":{"type":"Point","coordinates":[11.7589284,46.1477346]},"properties":{"id":"water:9ef6ebfb-e253-4e7d-9dd3-503be3a57038","kind":"water","longitude":11.7589284,"latitude":46.1477346,"name":"Fontanella","city":"Canal San Bovo","address":null,"covered":null,"access":null,"website":null,"phone":null,"source":"OpenStreetMap/node/4410324842","sourceUpdatedAt":null,"verifiedAt":null}},{"type":"Feature","geometry":{"type":"Point","coordinates":[11.7583459,46.1478087]},"properties":{"id":"water:d2e0e655-3a57-43aa-bdfa-37c73c38fb9d","kind":"water","longitude":11.7583459,"latitude":46.1478087,"name":"Fontanella","city":"Canal San Bovo","address":null,"covered":null,"access":null,"website":null,"phone":null,"source":"OpenStreetMap/node/748751762","sourceUpdatedAt":null,"verifiedAt":null}},{"type":"Feature","geometry":{"type":"Point","coordinates":[11.74213,46.1480107]},"properties":{"id":"water:e3b5ef17-cc63-4d9b-b83f-b175026b7557","kind":"water","longitude":11.74213,"latitude":46.1480107,"name":"Fontanella","city":"Canal San Bovo","address":null,"covered":null,"access":null,"website":null,"phone":null,"source":"OpenStreetMap/node/9870599818","sourceUpdatedAt":null,"verifiedAt":null}}]}