{"type":"FeatureCollection","features":[{"type":"Feature","geometry":{"type":"Point","coordinates":[11.7669355,45.725304]},"properties":{"id":"bikerack:d2fa83db-a737-4bb3-85c1-2d0a665b0236","kind":"bikerack","longitude":11.7669355,"latitude":45.725304,"name":"Parcheggio bici","city":"Rosa","address":null,"covered":false,"access":null,"website":null,"phone":null,"source":"OpenStreetMap/node/12299352792","sourceUpdatedAt":null,"verifiedAt":null}},{"type":"Feature","geometry":{"type":"Point","coordinates":[11.7670535,45.7235542]},"properties":{"id":"service:d00559dc-db8a-49c5-8ec1-31fff67b2716","kind":"service","longitude":11.7670535,"latitude":45.7235542,"name":"Cicli Polar","city":"Rosa","address":null,"covered":null,"access":null,"website":null,"phone":null,"source":"OpenStreetMap/node/4980914468","sourceUpdatedAt":null,"verifiedAt":null}},{"type":"Feature","geometry":{"type":"Point","coordinates":[11.7611979,45.7262594]},"properties":{"id":"water:0772359f-6b2e-4445-a59b-520b07e29fb1","kind":"water","longitude":11.7611979,"latitude":45.7262594,"name":"Fontanella","city":"Rosa","address":null,"covered":null,"access":null,"website":null,"phone":null,"source":"OpenStreetMap/node/12289730614","sourceUpdatedAt":null,"verifiedAt":null}}]}