{"type":"FeatureCollection","features":[{"type":"Feature","geometry":{"type":"Point","coordinates":[10.1366258,54.2769159]},"properties":{"id":"bikerack:10c4eae5-11aa-49e6-b574-f801e150c77c","kind":"bikerack","longitude":10.1366258,"latitude":54.2769159,"name":"Fahrradabstellplatz","city":"Boksee","address":null,"covered":false,"access":null,"website":null,"phone":null,"source":"OpenStreetMap/way/477688673","sourceUpdatedAt":null,"verifiedAt":null}},{"type":"Feature","geometry":{"type":"Point","coordinates":[10.1245568,54.2830036]},"properties":{"id":"bikerack:3525c260-8912-4bcd-9b0a-265d89295a5e","kind":"bikerack","longitude":10.1245568,"latitude":54.2830036,"name":"Fahrradabstellplatz","city":"Kiel","address":null,"covered":false,"access":null,"website":null,"phone":null,"source":"OpenStreetMap/node/12508887071","sourceUpdatedAt":null,"verifiedAt":null}},{"type":"Feature","geometry":{"type":"Point","coordinates":[10.144733,54.2741303]},"properties":{"id":"bikerack:493aa9b7-ce74-4f59-819b-ae19648b4c3d","kind":"bikerack","longitude":10.144733,"latitude":54.2741303,"name":"Fahrradabstellplatz","city":"Boksee","address":null,"covered":false,"access":null,"website":null,"phone":null,"source":"OpenStreetMap/node/2784910109","sourceUpdatedAt":null,"verifiedAt":null}},{"type":"Feature","geometry":{"type":"Point","coordinates":[10.1347335,54.2879882]},"properties":{"id":"bikerack:81761b44-1a4c-4224-a364-7351fcc98970","kind":"bikerack","longitude":10.1347335,"latitude":54.2879882,"name":"Fahrradabstellplatz","city":"Kiel","address":null,"covered":false,"access":null,"website":null,"phone":null,"source":"OpenStreetMap/node/12134519154","sourceUpdatedAt":null,"verifiedAt":null}},{"type":"Feature","geometry":{"type":"Point","coordinates":[10.1434827,54.2857821]},"properties":{"id":"bikerack:a02bb2df-6267-45d6-97cc-1fb043743d83","kind":"bikerack","longitude":10.1434827,"latitude":54.2857821,"name":"Fahrradabstellplatz","city":"Kiel","address":null,"covered":false,"access":null,"website":null,"phone":null,"source":"OpenStreetMap/node/12134556952","sourceUpdatedAt":null,"verifiedAt":null}},{"type":"Feature","geometry":{"type":"Point","coordinates":[10.1312269,54.2832836]},"properties":{"id":"bikerack:c2be9ea6-0a4f-482c-8bad-d22f307a2b17","kind":"bikerack","longitude":10.1312269,"latitude":54.2832836,"name":"Fahrradabstellplatz","city":"Kiel","address":null,"covered":false,"access":null,"website":null,"phone":null,"source":"OpenStreetMap/node/2784910134","sourceUpdatedAt":null,"verifiedAt":null}},{"type":"Feature","geometry":{"type":"Point","coordinates":[10.1382849,54.277902]},"properties":{"id":"bikerack:fce155a6-28e5-43bc-a56a-5b0d8f66ad3b","kind":"bikerack","longitude":10.1382849,"latitude":54.277902,"name":"Fahrradabstellplatz","city":"Kiel","address":null,"covered":false,"access":null,"website":null,"phone":null,"source":"OpenStreetMap/way/1190382612","sourceUpdatedAt":null,"verifiedAt":null}},{"type":"Feature","geometry":{"type":"Point","coordinates":[10.1344586,54.2878737]},"properties":{"id":"service:9d0f7584-9063-4821-854c-c9ab9769f5bb","kind":"service","longitude":10.1344586,"latitude":54.2878737,"name":"Der Fahrradpartner","city":"Kiel","address":null,"covered":null,"access":null,"website":null,"phone":null,"source":"OpenStreetMap/node/11575870504","sourceUpdatedAt":null,"verifiedAt":null}}]}