{"type":"FeatureCollection","features":[{"type":"Feature","geometry":{"type":"Point","coordinates":[10.1088519,53.5580657]},"properties":{"id":"bikerack:096ad399-1fe5-49e6-866e-b3fb730a2bed","kind":"bikerack","longitude":10.1088519,"latitude":53.5580657,"name":"Fahrradabstellplatz","city":"Wandsbek","address":null,"covered":false,"access":null,"website":null,"phone":null,"source":"OpenStreetMap/node/6620500759","sourceUpdatedAt":null,"verifiedAt":null}},{"type":"Feature","geometry":{"type":"Point","coordinates":[10.1085332,53.5587945]},"properties":{"id":"bikerack:1cebc601-2d3c-47f6-bddf-5087aeea58b4","kind":"bikerack","longitude":10.1085332,"latitude":53.5587945,"name":"Fahrradabstellplatz","city":"Wandsbek","address":null,"covered":false,"access":null,"website":null,"phone":null,"source":"OpenStreetMap/node/6620500756","sourceUpdatedAt":null,"verifiedAt":null}},{"type":"Feature","geometry":{"type":"Point","coordinates":[10.1092837,53.5578554]},"properties":{"id":"bikerack:2090bc62-11d8-4813-bdb6-1863e177dac0","kind":"bikerack","longitude":10.1092837,"latitude":53.5578554,"name":"Fahrradabstellplatz","city":"Wandsbek","address":null,"covered":false,"access":null,"website":null,"phone":null,"source":"OpenStreetMap/node/6620497222","sourceUpdatedAt":null,"verifiedAt":null}},{"type":"Feature","geometry":{"type":"Point","coordinates":[10.1418975,53.5430198]},"properties":{"id":"bikerack:334d2b50-e771-4b3f-bc65-d3a5cb294ed2","kind":"bikerack","longitude":10.1418975,"latitude":53.5430198,"name":"Fahrradabstellplatz","city":"Oststeinbek","address":null,"covered":false,"access":null,"website":null,"phone":null,"source":"OpenStreetMap/way/1442892506","sourceUpdatedAt":null,"verifiedAt":null}},{"type":"Feature","geometry":{"type":"Point","coordinates":[10.1088599,53.5583669]},"properties":{"id":"bikerack:37e22ade-3274-43eb-83ab-34e115120740","kind":"bikerack","longitude":10.1088599,"latitude":53.5583669,"name":"Fahrradabstellplatz","city":"Wandsbek","address":null,"covered":false,"access":null,"website":null,"phone":null,"source":"OpenStreetMap/node/6620500764","sourceUpdatedAt":null,"verifiedAt":null}},{"type":"Feature","geometry":{"type":"Point","coordinates":[10.1264689,53.5618431]},"properties":{"id":"bikerack:52533418-18cc-42bc-9287-b183dc006f0a","kind":"bikerack","longitude":10.1264689,"latitude":53.5618431,"name":"Fahrradabstellplatz","city":"Wandsbek","address":null,"covered":false,"access":null,"website":null,"phone":null,"source":"OpenStreetMap/way/1227530871","sourceUpdatedAt":null,"verifiedAt":null}},{"type":"Feature","geometry":{"type":"Point","coordinates":[10.1206768,53.5627361]},"properties":{"id":"bikerack:660bd30c-a196-454f-b6b3-de373f729b9c","kind":"bikerack","longitude":10.1206768,"latitude":53.5627361,"name":"Fahrradabstellplatz","city":"Wandsbek","address":null,"covered":false,"access":null,"website":null,"phone":null,"source":"OpenStreetMap/node/5739839303","sourceUpdatedAt":null,"verifiedAt":null}},{"type":"Feature","geometry":{"type":"Point","coordinates":[10.1424091,53.5427419]},"properties":{"id":"bikerack:858ba3b4-e5d7-474e-bec5-0e13ed609f30","kind":"bikerack","longitude":10.1424091,"latitude":53.5427419,"name":"Fahrradabstellplatz","city":"Oststeinbek","address":null,"covered":false,"access":null,"website":null,"phone":null,"source":"OpenStreetMap/node/13239628416","sourceUpdatedAt":null,"verifiedAt":null}},{"type":"Feature","geometry":{"type":"Point","coordinates":[10.108024,53.5415983]},"properties":{"id":"bikerack:89e046b4-20d0-4c75-886e-552ddbd06285","kind":"bikerack","longitude":10.108024,"latitude":53.5415983,"name":"Fahrradabstellplatz","city":"Wandsbek","address":null,"covered":false,"access":null,"website":null,"phone":null,"source":"OpenStreetMap/node/8198671896","sourceUpdatedAt":null,"verifiedAt":null}},{"type":"Feature","geometry":{"type":"Point","coordinates":[10.1090223,53.559386]},"properties":{"id":"bikerack:8accba13-3797-42b7-ae62-b11ae687062e","kind":"bikerack","longitude":10.1090223,"latitude":53.559386,"name":"Fahrradabstellplatz","city":"Wandsbek","address":null,"covered":false,"access":null,"website":null,"phone":null,"source":"OpenStreetMap/node/12772218559","sourceUpdatedAt":null,"verifiedAt":null}},{"type":"Feature","geometry":{"type":"Point","coordinates":[10.1077085,53.5416951]},"properties":{"id":"bikerack:9ce5d31e-9a26-4bb6-8017-7e5e97dffc92","kind":"bikerack","longitude":10.1077085,"latitude":53.5416951,"name":"Fahrradabstellplatz","city":"Wandsbek","address":null,"covered":false,"access":null,"website":null,"phone":null,"source":"OpenStreetMap/node/8198671895","sourceUpdatedAt":null,"verifiedAt":null}},{"type":"Feature","geometry":{"type":"Point","coordinates":[10.1074808,53.541773]},"properties":{"id":"bikerack:aade85f6-2cf3-40fb-a184-abde20fbaeea","kind":"bikerack","longitude":10.1074808,"latitude":53.541773,"name":"Fahrradabstellplatz","city":"Wandsbek","address":null,"covered":false,"access":null,"website":null,"phone":null,"source":"OpenStreetMap/node/8198671894","sourceUpdatedAt":null,"verifiedAt":null}},{"type":"Feature","geometry":{"type":"Point","coordinates":[10.1421393,53.5640856]},"properties":{"id":"bikerack:accafc4a-77da-4925-9854-a1112882aa2b","kind":"bikerack","longitude":10.1421393,"latitude":53.5640856,"name":"Fahrradabstellplatz","city":"Barsbuettel","address":null,"covered":false,"access":null,"website":null,"phone":null,"source":"OpenStreetMap/way/1311089533","sourceUpdatedAt":null,"verifiedAt":null}},{"type":"Feature","geometry":{"type":"Point","coordinates":[10.1368509,53.5526256]},"properties":{"id":"bikerack:b2b43cce-aeec-4f44-94cf-ff0cdbc9f77e","kind":"bikerack","longitude":10.1368509,"latitude":53.5526256,"name":"Fahrradabstellplatz","city":"Oststeinbek","address":null,"covered":false,"access":null,"website":null,"phone":null,"source":"OpenStreetMap/node/8157010615","sourceUpdatedAt":null,"verifiedAt":null}},{"type":"Feature","geometry":{"type":"Point","coordinates":[10.1099073,53.5581656]},"properties":{"id":"bikerack:b5246033-391d-43c7-bb7b-7dcaf2c6dadd","kind":"bikerack","longitude":10.1099073,"latitude":53.5581656,"name":"Fahrradabstellplatz","city":"Wandsbek","address":null,"covered":false,"access":null,"website":null,"phone":null,"source":"OpenStreetMap/node/6620557780","sourceUpdatedAt":null,"verifiedAt":null}},{"type":"Feature","geometry":{"type":"Point","coordinates":[10.1088599,53.5582107]},"properties":{"id":"bikerack:c561ae5c-ae44-4d6b-87db-ccdbc9f93415","kind":"bikerack","longitude":10.1088599,"latitude":53.5582107,"name":"Fahrradabstellplatz","city":"Wandsbek","address":null,"covered":false,"access":null,"website":null,"phone":null,"source":"OpenStreetMap/node/6620500763","sourceUpdatedAt":null,"verifiedAt":null}},{"type":"Feature","geometry":{"type":"Point","coordinates":[10.121396,53.5618589]},"properties":{"id":"bikerack:d0cc2ffa-7382-41b5-84c5-4cded2b54026","kind":"bikerack","longitude":10.121396,"latitude":53.5618589,"name":"Fahrradabstellplatz","city":"Wandsbek","address":null,"covered":false,"access":null,"website":null,"phone":null,"source":"OpenStreetMap/way/1281237064","sourceUpdatedAt":null,"verifiedAt":null}},{"type":"Feature","geometry":{"type":"Point","coordinates":[10.1095251,53.5574518]},"properties":{"id":"bikerack:d6729c45-1152-4421-b86a-9945ed76112c","kind":"bikerack","longitude":10.1095251,"latitude":53.5574518,"name":"Fahrradabstellplatz","city":"Wandsbek","address":null,"covered":false,"access":null,"website":null,"phone":null,"source":"OpenStreetMap/node/6620557779","sourceUpdatedAt":null,"verifiedAt":null}},{"type":"Feature","geometry":{"type":"Point","coordinates":[10.1212909,53.5618144]},"properties":{"id":"bikerack:dbeb75c2-7693-4218-bdf1-60482b452f7b","kind":"bikerack","longitude":10.1212909,"latitude":53.5618144,"name":"Fahrradabstellplatz","city":"Wandsbek","address":null,"covered":false,"access":null,"website":null,"phone":null,"source":"OpenStreetMap/way/1281237065","sourceUpdatedAt":null,"verifiedAt":null}},{"type":"Feature","geometry":{"type":"Point","coordinates":[10.1356252,53.5576028]},"properties":{"id":"bikerack:f3a9e00c-9dea-42aa-8745-ddd60348f860","kind":"bikerack","longitude":10.1356252,"latitude":53.5576028,"name":"Fahrradabstellplatz","city":"Oststeinbek","address":null,"covered":false,"access":null,"website":null,"phone":null,"source":"OpenStreetMap/node/12136244342","sourceUpdatedAt":null,"verifiedAt":null}},{"type":"Feature","geometry":{"type":"Point","coordinates":[10.1093853,53.5594107]},"properties":{"id":"bikerack:f73b3443-1525-4b70-93dd-91031da4af5d","kind":"bikerack","longitude":10.1093853,"latitude":53.5594107,"name":"Fahrradabstellplatz","city":"Wandsbek","address":null,"covered":false,"access":null,"website":null,"phone":null,"source":"OpenStreetMap/node/13125366095","sourceUpdatedAt":null,"verifiedAt":null}},{"type":"Feature","geometry":{"type":"Point","coordinates":[10.113559,53.5599494]},"properties":{"id":"service:bbddfd6f-db24-4fcf-853e-bce98cf8833f","kind":"service","longitude":10.113559,"latitude":53.5599494,"name":"re:Velo","city":"Hamburg","address":null,"covered":null,"access":null,"website":null,"phone":null,"source":"OpenStreetMap/node/12956234479","sourceUpdatedAt":null,"verifiedAt":null}},{"type":"Feature","geometry":{"type":"Point","coordinates":[10.1211357,53.5519049]},"properties":{"id":"water:452e141d-4ee6-4446-9d2f-ab6198f58184","kind":"water","longitude":10.1211357,"latitude":53.5519049,"name":"Trinkwasser","city":"Wandsbek","address":null,"covered":null,"access":null,"website":null,"phone":null,"source":"OpenStreetMap/node/2509597922","sourceUpdatedAt":null,"verifiedAt":null}},{"type":"Feature","geometry":{"type":"Point","coordinates":[10.1206204,53.5522675]},"properties":{"id":"water:af6e7168-8fb1-49ba-a198-6a16d0b4ff62","kind":"water","longitude":10.1206204,"latitude":53.5522675,"name":"Trinkwasser","city":"Wandsbek","address":null,"covered":null,"access":null,"website":null,"phone":null,"source":"OpenStreetMap/node/2509597963","sourceUpdatedAt":null,"verifiedAt":null}},{"type":"Feature","geometry":{"type":"Point","coordinates":[10.1269421,53.5524406]},"properties":{"id":"water:d364823c-ec36-43f8-820e-120bf41c5bb3","kind":"water","longitude":10.1269421,"latitude":53.5524406,"name":"Trinkwasser","city":"Wandsbek","address":null,"covered":null,"access":null,"website":null,"phone":null,"source":"OpenStreetMap/node/11382216704","sourceUpdatedAt":null,"verifiedAt":null}}]}