{"type":"FeatureCollection","features":[{"type":"Feature","geometry":{"type":"Point","coordinates":[10.145149,47.5025012]},"properties":{"id":"water:1b3e479d-3ff2-4803-a31d-568c09398f73","kind":"water","longitude":10.145149,"latitude":47.5025012,"name":"Trinkwasser","city":"Balderschwang","address":null,"covered":null,"access":null,"website":null,"phone":null,"source":"OpenStreetMap/node/13152625194","sourceUpdatedAt":null,"verifiedAt":null}},{"type":"Feature","geometry":{"type":"Point","coordinates":[10.1455943,47.5023167]},"properties":{"id":"water:754286a5-6949-4bda-89d0-b0f971b51e09","kind":"water","longitude":10.1455943,"latitude":47.5023167,"name":"Trinkwasser","city":"Balderschwang","address":null,"covered":null,"access":null,"website":null,"phone":null,"source":"OpenStreetMap/node/13152625193","sourceUpdatedAt":null,"verifiedAt":null}},{"type":"Feature","geometry":{"type":"Point","coordinates":[10.1387627,47.5018035]},"properties":{"id":"water:8e28bc07-51a3-4ad4-8646-010913c35e16","kind":"water","longitude":10.1387627,"latitude":47.5018035,"name":"Trinkwasser","city":"Balderschwang","address":null,"covered":null,"access":null,"website":null,"phone":null,"source":"OpenStreetMap/node/13152630158","sourceUpdatedAt":null,"verifiedAt":null}},{"type":"Feature","geometry":{"type":"Point","coordinates":[10.1390444,47.5017376]},"properties":{"id":"water:a33ce9d0-49de-4071-8602-8694f68f2cd0","kind":"water","longitude":10.1390444,"latitude":47.5017376,"name":"Trinkwasser","city":"Balderschwang","address":null,"covered":null,"access":null,"website":null,"phone":null,"source":"OpenStreetMap/node/13152630159","sourceUpdatedAt":null,"verifiedAt":null}},{"type":"Feature","geometry":{"type":"Point","coordinates":[10.132231,47.4949184]},"properties":{"id":"water:bb228655-5943-4ef8-9657-cd4fd8d7d679","kind":"water","longitude":10.132231,"latitude":47.4949184,"name":"Trinkwasser","city":"Balderschwang","address":null,"covered":null,"access":null,"website":null,"phone":null,"source":"OpenStreetMap/node/7918147704","sourceUpdatedAt":null,"verifiedAt":null}},{"type":"Feature","geometry":{"type":"Point","coordinates":[10.112149,47.5135553]},"properties":{"id":"water:e22de414-8c38-4a36-9f5a-01a0f946734c","kind":"water","longitude":10.112149,"latitude":47.5135553,"name":"Trinkwasser","city":"Balderschwang","address":null,"covered":null,"access":null,"website":null,"phone":null,"source":"OpenStreetMap/node/4916240705","sourceUpdatedAt":null,"verifiedAt":null}}]}