{"type":"FeatureCollection","features":[{"type":"Feature","geometry":{"type":"Point","coordinates":[10.1109195,46.7685376]},"properties":{"id":"service:3d08d99c-9aaa-4d77-9830-66db60c9b6c4","kind":"service","longitude":10.1109195,"latitude":46.7685376,"name":"Bike Stop","city":"Zernez","address":null,"covered":null,"access":null,"website":null,"phone":null,"source":"OpenStreetMap/node/2610776668","sourceUpdatedAt":null,"verifiedAt":null}},{"type":"Feature","geometry":{"type":"Point","coordinates":[10.1093197,46.7665551]},"properties":{"id":"water:0085cf98-ec31-4d4d-bfd2-c4a8a8e2b1e5","kind":"water","longitude":10.1093197,"latitude":46.7665551,"name":"Drinking Fountain","city":"Zernez","address":null,"covered":null,"access":null,"website":null,"phone":null,"source":"OpenStreetMap/node/1908789343","sourceUpdatedAt":null,"verifiedAt":null}},{"type":"Feature","geometry":{"type":"Point","coordinates":[10.1126854,46.7674852]},"properties":{"id":"water:06dc2972-ca45-4787-98e7-afeb172198d7","kind":"water","longitude":10.1126854,"latitude":46.7674852,"name":"Drinking Fountain","city":"Zernez","address":null,"covered":null,"access":null,"website":null,"phone":null,"source":"OpenStreetMap/node/864151376","sourceUpdatedAt":null,"verifiedAt":null}},{"type":"Feature","geometry":{"type":"Point","coordinates":[10.1115884,46.7685028]},"properties":{"id":"water:21de5223-7007-48d7-ad9e-72c36a4199a8","kind":"water","longitude":10.1115884,"latitude":46.7685028,"name":"Drinking Fountain","city":"Zernez","address":null,"covered":null,"access":null,"website":null,"phone":null,"source":"OpenStreetMap/node/5790790275","sourceUpdatedAt":null,"verifiedAt":null}},{"type":"Feature","geometry":{"type":"Point","coordinates":[10.145137,46.7698992]},"properties":{"id":"water:41f74f28-65c3-4254-b0ac-c593d05ffa95","kind":"water","longitude":10.145137,"latitude":46.7698992,"name":"Drinking Fountain","city":"Zernez","address":null,"covered":null,"access":null,"website":null,"phone":null,"source":"OpenStreetMap/node/1576460182","sourceUpdatedAt":null,"verifiedAt":null}},{"type":"Feature","geometry":{"type":"Point","coordinates":[10.1089287,46.7657311]},"properties":{"id":"water:7437ab05-48bb-46f2-a72f-b112a03c8e98","kind":"water","longitude":10.1089287,"latitude":46.7657311,"name":"Drinking Fountain","city":"Zernez","address":null,"covered":null,"access":null,"website":null,"phone":null,"source":"OpenStreetMap/node/1908789341","sourceUpdatedAt":null,"verifiedAt":null}},{"type":"Feature","geometry":{"type":"Point","coordinates":[10.1110799,46.7687643]},"properties":{"id":"water:7f3dc670-bed1-44aa-ab74-1f8535a87df5","kind":"water","longitude":10.1110799,"latitude":46.7687643,"name":"Drinking Fountain","city":"Zernez","address":null,"covered":null,"access":null,"website":null,"phone":null,"source":"OpenStreetMap/node/1908789348","sourceUpdatedAt":null,"verifiedAt":null}},{"type":"Feature","geometry":{"type":"Point","coordinates":[10.111913,46.7672908]},"properties":{"id":"water:90033cdf-3fa3-4457-99e7-9824f872b3c7","kind":"water","longitude":10.111913,"latitude":46.7672908,"name":"Drinking Fountain","city":"Zernez","address":null,"covered":null,"access":null,"website":null,"phone":null,"source":"OpenStreetMap/node/1923377836","sourceUpdatedAt":null,"verifiedAt":null}},{"type":"Feature","geometry":{"type":"Point","coordinates":[10.1106523,46.7675444]},"properties":{"id":"water:91c4b393-98d1-4700-bea5-dc1a4686ec1b","kind":"water","longitude":10.1106523,"latitude":46.7675444,"name":"Drinking Fountain","city":"Zernez","address":null,"covered":null,"access":null,"website":null,"phone":null,"source":"OpenStreetMap/node/9159067947","sourceUpdatedAt":null,"verifiedAt":null}},{"type":"Feature","geometry":{"type":"Point","coordinates":[10.111464,46.7689751]},"properties":{"id":"water:b0379766-4d2d-4a67-9b55-ca115e9a7030","kind":"water","longitude":10.111464,"latitude":46.7689751,"name":"Drinking Fountain","city":"Zernez","address":null,"covered":null,"access":null,"website":null,"phone":null,"source":"OpenStreetMap/node/1908789350","sourceUpdatedAt":null,"verifiedAt":null}},{"type":"Feature","geometry":{"type":"Point","coordinates":[10.1122912,46.7693254]},"properties":{"id":"water:cb451853-eb29-4878-94a5-1150f8fe9580","kind":"water","longitude":10.1122912,"latitude":46.7693254,"name":"Drinking Fountain","city":"Zernez","address":null,"covered":null,"access":null,"website":null,"phone":null,"source":"OpenStreetMap/node/8114525433","sourceUpdatedAt":null,"verifiedAt":null}},{"type":"Feature","geometry":{"type":"Point","coordinates":[10.1141812,46.7675984]},"properties":{"id":"water:cde575fa-eae2-4ead-a34f-38e7bb89b6cc","kind":"water","longitude":10.1141812,"latitude":46.7675984,"name":"Drinking Fountain","city":"Zernez","address":null,"covered":null,"access":null,"website":null,"phone":null,"source":"OpenStreetMap/node/2909498304","sourceUpdatedAt":null,"verifiedAt":null}},{"type":"Feature","geometry":{"type":"Point","coordinates":[10.1109962,46.768291]},"properties":{"id":"water:dc2782e7-8f99-46b5-b91f-3e614268f838","kind":"water","longitude":10.1109962,"latitude":46.768291,"name":"Drinking Fountain","city":"Zernez","address":null,"covered":null,"access":null,"website":null,"phone":null,"source":"OpenStreetMap/node/1908789346","sourceUpdatedAt":null,"verifiedAt":null}},{"type":"Feature","geometry":{"type":"Point","coordinates":[10.1099055,46.7673469]},"properties":{"id":"water:f3f31ab6-9585-4539-b983-6ccc24a68bf1","kind":"water","longitude":10.1099055,"latitude":46.7673469,"name":"Drinking Fountain","city":"Zernez","address":null,"covered":null,"access":null,"website":null,"phone":null,"source":"OpenStreetMap/node/864151403","sourceUpdatedAt":null,"verifiedAt":null}}]}