{"type":"FeatureCollection","features":[{"type":"Feature","geometry":{"type":"Point","coordinates":[10.1080008,46.38837]},"properties":{"id":"water:c26d5de1-1791-4ae2-82f9-4fdb15550889","kind":"water","longitude":10.1080008,"latitude":46.38837,"name":"Drinking Fountain","city":"Poschiavo","address":null,"covered":null,"access":null,"website":null,"phone":null,"source":"OpenStreetMap/node/3030526301","sourceUpdatedAt":null,"verifiedAt":null}},{"type":"Feature","geometry":{"type":"Point","coordinates":[10.1277418,46.4029132]},"properties":{"id":"water:e6d275c5-5f7e-4c0a-b031-a59c24bdc3f8","kind":"water","longitude":10.1277418,"latitude":46.4029132,"name":"Drinking Fountain","city":"Poschiavo","address":null,"covered":null,"access":null,"website":null,"phone":null,"source":"OpenStreetMap/node/1807974950","sourceUpdatedAt":null,"verifiedAt":null}}]}