{"type":"FeatureCollection","features":[{"type":"Feature","geometry":{"type":"Point","coordinates":[10.128309,45.9722517]},"properties":{"id":"water:2c8aebc9-e185-4968-8245-ce537623a069","kind":"water","longitude":10.128309,"latitude":45.9722517,"name":"Aigue Fréde","city":"Azzone","address":null,"covered":null,"access":null,"website":null,"phone":null,"source":"OpenStreetMap/node/9026209717","sourceUpdatedAt":null,"verifiedAt":null}},{"type":"Feature","geometry":{"type":"Point","coordinates":[10.1101651,45.9792561]},"properties":{"id":"water:38984dfb-042e-4fa1-ba5c-b03ff2ead9c5","kind":"water","longitude":10.1101651,"latitude":45.9792561,"name":"Fontanella","city":"Azzone","address":null,"covered":null,"access":null,"website":null,"phone":null,"source":"OpenStreetMap/node/1569854450","sourceUpdatedAt":null,"verifiedAt":null}},{"type":"Feature","geometry":{"type":"Point","coordinates":[10.1232178,45.9556901]},"properties":{"id":"water:3e768d93-bd5d-47e2-86cb-f97455816701","kind":"water","longitude":10.1232178,"latitude":45.9556901,"name":"Fontanella","city":"Azzone","address":null,"covered":null,"access":null,"website":null,"phone":null,"source":"OpenStreetMap/node/1870987776","sourceUpdatedAt":null,"verifiedAt":null}},{"type":"Feature","geometry":{"type":"Point","coordinates":[10.1134924,45.9594855]},"properties":{"id":"water:4eb9a35c-e9c6-4c87-9a18-f14bbd16d54d","kind":"water","longitude":10.1134924,"latitude":45.9594855,"name":"Fontanella","city":"Azzone","address":null,"covered":null,"access":null,"website":null,"phone":null,"source":"OpenStreetMap/node/9026099017","sourceUpdatedAt":null,"verifiedAt":null}},{"type":"Feature","geometry":{"type":"Point","coordinates":[10.1319056,45.9519003]},"properties":{"id":"water:91e6b846-8f4d-4ead-8a9e-b61502eae9fd","kind":"water","longitude":10.1319056,"latitude":45.9519003,"name":"Fontanella","city":"Azzone","address":null,"covered":null,"access":null,"website":null,"phone":null,"source":"OpenStreetMap/node/2411555044","sourceUpdatedAt":null,"verifiedAt":null}},{"type":"Feature","geometry":{"type":"Point","coordinates":[10.1284745,45.9511968]},"properties":{"id":"water:f900c768-6748-4659-9243-f82009985fab","kind":"water","longitude":10.1284745,"latitude":45.9511968,"name":"Fontanella","city":"Azzone","address":null,"covered":null,"access":null,"website":null,"phone":null,"source":"OpenStreetMap/node/5871604177","sourceUpdatedAt":null,"verifiedAt":null}}]}