{"type":"FeatureCollection","features":[{"type":"Feature","geometry":{"type":"Point","coordinates":[10.1345055,45.8499398]},"properties":{"id":"water:0a6cbf6c-13f1-42b9-8052-87c311f32064","kind":"water","longitude":10.1345055,"latitude":45.8499398,"name":"Fontanella","city":"Rogno","address":null,"covered":null,"access":null,"website":null,"phone":null,"source":"OpenStreetMap/node/3404680101","sourceUpdatedAt":null,"verifiedAt":null}},{"type":"Feature","geometry":{"type":"Point","coordinates":[10.1340579,45.8435329]},"properties":{"id":"water:136840de-26cc-4517-8fcf-dc6c674c1970","kind":"water","longitude":10.1340579,"latitude":45.8435329,"name":"Fontanella","city":"Pian Camuno","address":null,"covered":null,"access":null,"website":null,"phone":null,"source":"OpenStreetMap/node/3404680102","sourceUpdatedAt":null,"verifiedAt":null}},{"type":"Feature","geometry":{"type":"Point","coordinates":[10.13302,45.8291512]},"properties":{"id":"water:2e80feff-4a08-4cc8-89e5-5a814bf60b6a","kind":"water","longitude":10.13302,"latitude":45.8291512,"name":"Fontanella","city":"Gratacasolo","address":null,"covered":null,"access":null,"website":null,"phone":null,"source":"OpenStreetMap/node/10582009606","sourceUpdatedAt":null,"verifiedAt":null}},{"type":"Feature","geometry":{"type":"Point","coordinates":[10.1268452,45.8334853]},"properties":{"id":"water:bdf0c2d7-8aae-4228-8ea2-d71286229189","kind":"water","longitude":10.1268452,"latitude":45.8334853,"name":"Fontanella","city":"Gratacasolo","address":null,"covered":null,"access":null,"website":null,"phone":null,"source":"OpenStreetMap/node/3404704875","sourceUpdatedAt":null,"verifiedAt":null}},{"type":"Feature","geometry":{"type":"Point","coordinates":[10.1128963,45.8486064]},"properties":{"id":"water:cc775a92-c2d8-4b0e-bf4b-1ec2aadc8184","kind":"water","longitude":10.1128963,"latitude":45.8486064,"name":"Fontanella","city":"Rogno","address":null,"covered":null,"access":null,"website":null,"phone":null,"source":"OpenStreetMap/node/8312404978","sourceUpdatedAt":null,"verifiedAt":null}}]}