{"type":"FeatureCollection","features":[{"type":"Feature","geometry":{"type":"Point","coordinates":[15.891454,52.2105697]},"properties":{"id":"bikerack:8a02d326-b5fb-41e7-b894-d8b5345f1ee8","kind":"bikerack","longitude":15.891454,"latitude":52.2105697,"name":"Biciklitároló","city":"Zbaszyn","address":null,"covered":false,"access":null,"website":null,"phone":null,"source":"OpenStreetMap/node/12188971955","sourceUpdatedAt":null,"verifiedAt":null}},{"type":"Feature","geometry":{"type":"Point","coordinates":[15.8914368,52.2105862]},"properties":{"id":"repair:a943a68a-561c-40bd-b6b6-f8e77b64a77d","kind":"repair","longitude":15.8914368,"latitude":52.2105862,"name":"Kerékpár szervizállomás","city":"Zbaszyn","address":null,"covered":false,"access":null,"website":null,"phone":null,"source":"OpenStreetMap/node/12188971926","sourceUpdatedAt":null,"verifiedAt":null}},{"type":"Feature","geometry":{"type":"Point","coordinates":[15.8883359,52.1991757]},"properties":{"id":"repair:e4681bb2-0bd7-4cc6-98c6-48bc4253a3ba","kind":"repair","longitude":15.8883359,"latitude":52.1991757,"name":"Kerékpár szervizállomás","city":"Zbaszyn","address":null,"covered":false,"access":null,"website":null,"phone":null,"source":"OpenStreetMap/node/12188971954","sourceUpdatedAt":null,"verifiedAt":null}}]}