{"type":"FeatureCollection","features":[{"type":"Feature","geometry":{"type":"Point","coordinates":[15.9061729,47.7904484]},"properties":{"id":"bikerack:4750d8dd-1e83-4988-8b22-4d10f309c7c9","kind":"bikerack","longitude":15.9061729,"latitude":47.7904484,"name":"Biciklitároló","city":"Puchberg am Schneeberg","address":null,"covered":false,"access":null,"website":null,"phone":null,"source":"OpenStreetMap/way/1278618728","sourceUpdatedAt":null,"verifiedAt":null}},{"type":"Feature","geometry":{"type":"Point","coordinates":[15.8663689,47.8080511]},"properties":{"id":"water:3aaf7608-c3dd-4cf6-aea3-7cfb237ef6b7","kind":"water","longitude":15.8663689,"latitude":47.8080511,"name":"Ivókút","city":"Puchberg am Schneeberg","address":null,"covered":null,"access":null,"website":null,"phone":null,"source":"OpenStreetMap/node/1389072530","sourceUpdatedAt":null,"verifiedAt":null}}]}