{"type":"FeatureCollection","features":[{"type":"Feature","geometry":{"type":"Point","coordinates":[8.9612955,53.0663468]},"properties":{"id":"bikerack:057b2c99-83ca-4430-b377-e6a5f6f30291","kind":"bikerack","longitude":8.9612955,"latitude":53.0663468,"name":"Fahrradabstellplatz","city":"Oyten","address":null,"covered":false,"access":null,"website":null,"phone":null,"source":"OpenStreetMap/node/11052679997","sourceUpdatedAt":null,"verifiedAt":null}},{"type":"Feature","geometry":{"type":"Point","coordinates":[8.9599429,53.0526165]},"properties":{"id":"bikerack:0d8b52f7-be76-454b-bec4-1606060c8d4d","kind":"bikerack","longitude":8.9599429,"latitude":53.0526165,"name":"Fahrradabstellplatz","city":"Oyten","address":null,"covered":false,"access":null,"website":null,"phone":null,"source":"OpenStreetMap/way/327340877","sourceUpdatedAt":null,"verifiedAt":null}},{"type":"Feature","geometry":{"type":"Point","coordinates":[8.9564566,53.047647]},"properties":{"id":"bikerack:19750bb9-c491-4a06-afc2-3d8d9b3b5c5e","kind":"bikerack","longitude":8.9564566,"latitude":53.047647,"name":"Fahrradabstellplatz","city":"Oyten","address":null,"covered":true,"access":null,"website":null,"phone":null,"source":"OpenStreetMap/way/37680461","sourceUpdatedAt":null,"verifiedAt":null}},{"type":"Feature","geometry":{"type":"Point","coordinates":[8.9538887,53.0653282]},"properties":{"id":"bikerack:1e455471-528b-4215-aab8-6f71316ed818","kind":"bikerack","longitude":8.9538887,"latitude":53.0653282,"name":"Fahrradabstellplatz","city":"Oyten","address":null,"covered":false,"access":null,"website":null,"phone":null,"source":"OpenStreetMap/node/4856416200","sourceUpdatedAt":null,"verifiedAt":null}},{"type":"Feature","geometry":{"type":"Point","coordinates":[8.9508187,53.065075]},"properties":{"id":"bikerack:28b40723-d143-4a99-9ac0-ba565d04d7cc","kind":"bikerack","longitude":8.9508187,"latitude":53.065075,"name":"Fahrradabstellplatz","city":"Oyten","address":null,"covered":false,"access":null,"website":null,"phone":null,"source":"OpenStreetMap/node/2435198330","sourceUpdatedAt":null,"verifiedAt":null}},{"type":"Feature","geometry":{"type":"Point","coordinates":[8.9616495,53.0670426]},"properties":{"id":"bikerack:2e1edd53-c0c8-42c1-bd6d-85304cdd415f","kind":"bikerack","longitude":8.9616495,"latitude":53.0670426,"name":"Fahrradabstellplatz","city":"Oyten","address":null,"covered":false,"access":null,"website":null,"phone":null,"source":"OpenStreetMap/node/3368977153","sourceUpdatedAt":null,"verifiedAt":null}},{"type":"Feature","geometry":{"type":"Point","coordinates":[8.9603578,53.0660776]},"properties":{"id":"bikerack:2f3a1adb-4bab-4495-a458-90cee5d5bcac","kind":"bikerack","longitude":8.9603578,"latitude":53.0660776,"name":"Fahrradabstellplatz","city":"Oyten","address":null,"covered":false,"access":null,"website":null,"phone":null,"source":"OpenStreetMap/node/11052700911","sourceUpdatedAt":null,"verifiedAt":null}},{"type":"Feature","geometry":{"type":"Point","coordinates":[8.9495643,53.064382]},"properties":{"id":"bikerack:2fc13425-8e1d-4176-966d-1c1acc99d0eb","kind":"bikerack","longitude":8.9495643,"latitude":53.064382,"name":"Fahrradabstellplatz","city":"Oyten","address":null,"covered":true,"access":null,"website":null,"phone":null,"source":"OpenStreetMap/node/1141391867","sourceUpdatedAt":null,"verifiedAt":null}},{"type":"Feature","geometry":{"type":"Point","coordinates":[8.9504993,53.0435066]},"properties":{"id":"bikerack:42bfe4fb-dcad-4888-905f-9a873f0fca4a","kind":"bikerack","longitude":8.9504993,"latitude":53.0435066,"name":"Fahrradabstellplatz","city":"Oyten","address":null,"covered":false,"access":null,"website":null,"phone":null,"source":"OpenStreetMap/node/8829781109","sourceUpdatedAt":null,"verifiedAt":null}},{"type":"Feature","geometry":{"type":"Point","coordinates":[8.9476997,53.0535598]},"properties":{"id":"bikerack:44ba6fac-aee6-4224-a13d-17d1269eede2","kind":"bikerack","longitude":8.9476997,"latitude":53.0535598,"name":"Fahrradabstellplatz","city":"Oyten","address":null,"covered":false,"access":null,"website":null,"phone":null,"source":"OpenStreetMap/node/9718481727","sourceUpdatedAt":null,"verifiedAt":null}},{"type":"Feature","geometry":{"type":"Point","coordinates":[8.9561431,53.0664857]},"properties":{"id":"bikerack:4808dfc1-2bfe-47bf-a8df-097a34fc6a61","kind":"bikerack","longitude":8.9561431,"latitude":53.0664857,"name":"Fahrradabstellplatz","city":"Oyten","address":null,"covered":false,"access":null,"website":null,"phone":null,"source":"OpenStreetMap/node/2585410994","sourceUpdatedAt":null,"verifiedAt":null}},{"type":"Feature","geometry":{"type":"Point","coordinates":[8.9538887,53.0651573]},"properties":{"id":"bikerack:4a53ff34-5f1b-4e19-8e09-0ffc141ef1d5","kind":"bikerack","longitude":8.9538887,"latitude":53.0651573,"name":"Fahrradabstellplatz","city":"Oyten","address":null,"covered":false,"access":null,"website":null,"phone":null,"source":"OpenStreetMap/node/4856416201","sourceUpdatedAt":null,"verifiedAt":null}},{"type":"Feature","geometry":{"type":"Point","coordinates":[8.9600937,53.0517699]},"properties":{"id":"bikerack:5377db7b-4f15-4195-8d88-2b22d1dbf6ed","kind":"bikerack","longitude":8.9600937,"latitude":53.0517699,"name":"Fahrradabstellplatz","city":"Oyten","address":null,"covered":false,"access":null,"website":null,"phone":null,"source":"OpenStreetMap/node/3722170587","sourceUpdatedAt":null,"verifiedAt":null}},{"type":"Feature","geometry":{"type":"Point","coordinates":[8.9565256,53.0474893]},"properties":{"id":"bikerack:5a4793ff-2734-4bdb-84dd-13d361542a6c","kind":"bikerack","longitude":8.9565256,"latitude":53.0474893,"name":"Fahrradabstellplatz","city":"Oyten","address":null,"covered":false,"access":null,"website":null,"phone":null,"source":"OpenStreetMap/way/311021106","sourceUpdatedAt":null,"verifiedAt":null}},{"type":"Feature","geometry":{"type":"Point","coordinates":[8.9403874,53.0632153]},"properties":{"id":"bikerack:69c51519-0833-4f33-b01a-e5810c2ab11a","kind":"bikerack","longitude":8.9403874,"latitude":53.0632153,"name":"Fahrradabstellplatz","city":"Lilienthal","address":null,"covered":false,"access":null,"website":null,"phone":null,"source":"OpenStreetMap/node/13094922867","sourceUpdatedAt":null,"verifiedAt":null}},{"type":"Feature","geometry":{"type":"Point","coordinates":[8.9568601,53.0475415]},"properties":{"id":"bikerack:783c03cc-bf03-4faa-b7c9-902d51f17604","kind":"bikerack","longitude":8.9568601,"latitude":53.0475415,"name":"Fahrradabstellplatz","city":"Oyten","address":null,"covered":false,"access":null,"website":null,"phone":null,"source":"OpenStreetMap/node/3722170563","sourceUpdatedAt":null,"verifiedAt":null}},{"type":"Feature","geometry":{"type":"Point","coordinates":[8.9589122,53.0466776]},"properties":{"id":"bikerack:7cf81ab5-d82e-46a3-87fa-09cf839081af","kind":"bikerack","longitude":8.9589122,"latitude":53.0466776,"name":"Fahrradabstellplatz","city":"Oyten","address":null,"covered":false,"access":null,"website":null,"phone":null,"source":"OpenStreetMap/node/1918597066","sourceUpdatedAt":null,"verifiedAt":null}},{"type":"Feature","geometry":{"type":"Point","coordinates":[8.9571113,53.0474213]},"properties":{"id":"bikerack:80433992-2920-457e-add9-81cf3ddceb22","kind":"bikerack","longitude":8.9571113,"latitude":53.0474213,"name":"Fahrradabstellplatz","city":"Oyten","address":null,"covered":false,"access":null,"website":null,"phone":null,"source":"OpenStreetMap/node/3722170562","sourceUpdatedAt":null,"verifiedAt":null}},{"type":"Feature","geometry":{"type":"Point","coordinates":[8.9599199,53.0666719]},"properties":{"id":"bikerack:95838734-da65-4766-8215-89b9955f6e63","kind":"bikerack","longitude":8.9599199,"latitude":53.0666719,"name":"Fahrradabstellplatz","city":"Oyten","address":null,"covered":false,"access":null,"website":null,"phone":null,"source":"OpenStreetMap/node/11052700915","sourceUpdatedAt":null,"verifiedAt":null}},{"type":"Feature","geometry":{"type":"Point","coordinates":[8.9604174,53.066161]},"properties":{"id":"bikerack:975e9f6d-67a4-4583-b36c-7be54217630b","kind":"bikerack","longitude":8.9604174,"latitude":53.066161,"name":"Fahrradabstellplatz","city":"Oyten","address":null,"covered":false,"access":null,"website":null,"phone":null,"source":"OpenStreetMap/node/11052700910","sourceUpdatedAt":null,"verifiedAt":null}},{"type":"Feature","geometry":{"type":"Point","coordinates":[8.950341,53.0438875]},"properties":{"id":"bikerack:9da9effd-939a-4aac-a818-120471725d90","kind":"bikerack","longitude":8.950341,"latitude":53.0438875,"name":"Fahrradabstellplatz","city":"Oyten","address":null,"covered":false,"access":null,"website":null,"phone":null,"source":"OpenStreetMap/node/8829781110","sourceUpdatedAt":null,"verifiedAt":null}},{"type":"Feature","geometry":{"type":"Point","coordinates":[8.9594296,53.0519658]},"properties":{"id":"bikerack:a782c5d0-b9da-4f74-8f62-44480171396f","kind":"bikerack","longitude":8.9594296,"latitude":53.0519658,"name":"Fahrradabstellplatz","city":"Oyten","address":null,"covered":false,"access":null,"website":null,"phone":null,"source":"OpenStreetMap/node/1159674924","sourceUpdatedAt":null,"verifiedAt":null}},{"type":"Feature","geometry":{"type":"Point","coordinates":[8.9608701,53.066377]},"properties":{"id":"bikerack:b620cb04-59cb-46ca-a4af-28057c508203","kind":"bikerack","longitude":8.9608701,"latitude":53.066377,"name":"Fahrradabstellplatz","city":"Oyten","address":null,"covered":false,"access":null,"website":null,"phone":null,"source":"OpenStreetMap/node/11052680002","sourceUpdatedAt":null,"verifiedAt":null}},{"type":"Feature","geometry":{"type":"Point","coordinates":[8.9532959,53.0653314]},"properties":{"id":"bikerack:baab3a8c-61b5-48af-8900-307eed01298c","kind":"bikerack","longitude":8.9532959,"latitude":53.0653314,"name":"Fahrradabstellplatz","city":"Oyten","address":null,"covered":false,"access":null,"website":null,"phone":null,"source":"OpenStreetMap/node/4856416199","sourceUpdatedAt":null,"verifiedAt":null}},{"type":"Feature","geometry":{"type":"Point","coordinates":[8.9494163,53.0634537]},"properties":{"id":"bikerack:c64a5806-2ee4-4eec-9994-97cd92309db4","kind":"bikerack","longitude":8.9494163,"latitude":53.0634537,"name":"Fahrradabstellplatz","city":"Oyten","address":null,"covered":false,"access":null,"website":null,"phone":null,"source":"OpenStreetMap/node/355725296","sourceUpdatedAt":null,"verifiedAt":null}},{"type":"Feature","geometry":{"type":"Point","coordinates":[8.9607624,53.0660262]},"properties":{"id":"bikerack:d4a1f43d-39fa-42f6-b333-b8900ee9fb61","kind":"bikerack","longitude":8.9607624,"latitude":53.0660262,"name":"Fahrradabstellplatz","city":"Oyten","address":null,"covered":false,"access":null,"website":null,"phone":null,"source":"OpenStreetMap/node/11052680000","sourceUpdatedAt":null,"verifiedAt":null}},{"type":"Feature","geometry":{"type":"Point","coordinates":[8.9538914,53.0649978]},"properties":{"id":"bikerack:e97a270d-0d4b-4918-bd1c-40ebfd7a2466","kind":"bikerack","longitude":8.9538914,"latitude":53.0649978,"name":"Fahrradabstellplatz","city":"Oyten","address":null,"covered":false,"access":null,"website":null,"phone":null,"source":"OpenStreetMap/node/4856416202","sourceUpdatedAt":null,"verifiedAt":null}},{"type":"Feature","geometry":{"type":"Point","coordinates":[8.9423892,53.0654026]},"properties":{"id":"bikerack:f001d286-663e-45db-a4d9-635f83ae7712","kind":"bikerack","longitude":8.9423892,"latitude":53.0654026,"name":"Fahrradabstellplatz","city":"Lilienthal","address":null,"covered":false,"access":null,"website":null,"phone":null,"source":"OpenStreetMap/node/11052531014","sourceUpdatedAt":null,"verifiedAt":null}},{"type":"Feature","geometry":{"type":"Point","coordinates":[8.9533013,53.0651654]},"properties":{"id":"bikerack:f56ccebc-04d3-4b72-b8bc-26e4d6999a8d","kind":"bikerack","longitude":8.9533013,"latitude":53.0651654,"name":"Fahrradabstellplatz","city":"Oyten","address":null,"covered":false,"access":null,"website":null,"phone":null,"source":"OpenStreetMap/node/4856416198","sourceUpdatedAt":null,"verifiedAt":null}},{"type":"Feature","geometry":{"type":"Point","coordinates":[8.9583499,53.0513386]},"properties":{"id":"bikerack:f5e2b137-c36c-40a8-9107-f1d3b9a73580","kind":"bikerack","longitude":8.9583499,"latitude":53.0513386,"name":"Fahrradabstellplatz","city":"Oyten","address":null,"covered":true,"access":null,"website":null,"phone":null,"source":"OpenStreetMap/node/452018442","sourceUpdatedAt":null,"verifiedAt":null}},{"type":"Feature","geometry":{"type":"Point","coordinates":[8.9532986,53.0649962]},"properties":{"id":"bikerack:fb8f3ffa-80cb-4f2f-89ef-45480e4566e8","kind":"bikerack","longitude":8.9532986,"latitude":53.0649962,"name":"Fahrradabstellplatz","city":"Oyten","address":null,"covered":false,"access":null,"website":null,"phone":null,"source":"OpenStreetMap/node/4856416197","sourceUpdatedAt":null,"verifiedAt":null}},{"type":"Feature","geometry":{"type":"Point","coordinates":[8.9284405,53.0608846]},"properties":{"id":"bikerack:fe00213f-8a71-4c90-aae9-47bc7a4a23c2","kind":"bikerack","longitude":8.9284405,"latitude":53.0608846,"name":"Fahrradabstellplatz","city":"Lilienthal","address":null,"covered":false,"access":null,"website":null,"phone":null,"source":"OpenStreetMap/way/521117766","sourceUpdatedAt":null,"verifiedAt":null}},{"type":"Feature","geometry":{"type":"Point","coordinates":[8.9339132,53.0670098]},"properties":{"id":"repair:de5bd1bc-7579-425c-b138-c20d39e099f5","kind":"repair","longitude":8.9339132,"latitude":53.0670098,"name":"Vintage Garage - Garage Crew","city":"Lilienthal","address":null,"covered":false,"access":null,"website":null,"phone":null,"source":"OpenStreetMap/node/6372733016","sourceUpdatedAt":null,"verifiedAt":null}},{"type":"Feature","geometry":{"type":"Point","coordinates":[8.9445056,53.0422316]},"properties":{"id":"service:ad1938ff-5434-48a8-a821-72ec96f4c304","kind":"service","longitude":8.9445056,"latitude":53.0422316,"name":"Zweirad M. Lemke","city":"Oyten","address":null,"covered":null,"access":null,"website":null,"phone":null,"source":"OpenStreetMap/node/431726681","sourceUpdatedAt":null,"verifiedAt":null}}]}