{"type":"FeatureCollection","features":[{"type":"Feature","geometry":{"type":"Point","coordinates":[8.9416908,52.9647361]},"properties":{"id":"bikerack:35a8ab73-bef4-435e-9a5e-320ec1dc9b9b","kind":"bikerack","longitude":8.9416908,"latitude":52.9647361,"name":"Fahrradabstellplatz","city":"Riede","address":null,"covered":false,"access":null,"website":null,"phone":null,"source":"OpenStreetMap/node/9271953983","sourceUpdatedAt":null,"verifiedAt":null}},{"type":"Feature","geometry":{"type":"Point","coordinates":[8.9405231,52.9690555]},"properties":{"id":"bikerack:474f30ad-4f92-4fca-9d0e-87f3eed812ec","kind":"bikerack","longitude":8.9405231,"latitude":52.9690555,"name":"Fahrradabstellplatz","city":"Riede","address":null,"covered":false,"access":null,"website":null,"phone":null,"source":"OpenStreetMap/node/9272109175","sourceUpdatedAt":null,"verifiedAt":null}},{"type":"Feature","geometry":{"type":"Point","coordinates":[8.9459264,52.9652883]},"properties":{"id":"bikerack:52f40398-0ce3-42a6-a4bf-6929924b237d","kind":"bikerack","longitude":8.9459264,"latitude":52.9652883,"name":"Fahrradabstellplatz","city":"Riede","address":null,"covered":false,"access":null,"website":null,"phone":null,"source":"OpenStreetMap/node/2804332226","sourceUpdatedAt":null,"verifiedAt":null}},{"type":"Feature","geometry":{"type":"Point","coordinates":[8.9432297,52.9693179]},"properties":{"id":"bikerack:66791bfd-e7bf-4bd4-a928-001c3928239f","kind":"bikerack","longitude":8.9432297,"latitude":52.9693179,"name":"Fahrradabstellplatz","city":"Riede","address":null,"covered":false,"access":null,"website":null,"phone":null,"source":"OpenStreetMap/node/9271953986","sourceUpdatedAt":null,"verifiedAt":null}},{"type":"Feature","geometry":{"type":"Point","coordinates":[8.9411241,52.964047]},"properties":{"id":"bikerack:69ac7b4d-8cb6-4b4b-8d6c-0af61fcdd563","kind":"bikerack","longitude":8.9411241,"latitude":52.964047,"name":"Fahrradabstellplatz","city":"Riede","address":null,"covered":false,"access":null,"website":null,"phone":null,"source":"OpenStreetMap/node/9271953980","sourceUpdatedAt":null,"verifiedAt":null}},{"type":"Feature","geometry":{"type":"Point","coordinates":[8.9396047,52.9725662]},"properties":{"id":"bikerack:984b03fe-a3ee-4581-81f6-fbda749f6202","kind":"bikerack","longitude":8.9396047,"latitude":52.9725662,"name":"Fahrradabstellplatz","city":"Riede","address":null,"covered":false,"access":null,"website":null,"phone":null,"source":"OpenStreetMap/node/2804332231","sourceUpdatedAt":null,"verifiedAt":null}},{"type":"Feature","geometry":{"type":"Point","coordinates":[8.9404808,52.967362]},"properties":{"id":"bikerack:9bc6013d-4ae6-4326-a755-07696cfb07fb","kind":"bikerack","longitude":8.9404808,"latitude":52.967362,"name":"Fahrradabstellplatz","city":"Riede","address":null,"covered":false,"access":null,"website":null,"phone":null,"source":"OpenStreetMap/node/1592962129","sourceUpdatedAt":null,"verifiedAt":null}},{"type":"Feature","geometry":{"type":"Point","coordinates":[8.9392149,52.9730695]},"properties":{"id":"bikerack:af062032-29f9-4b02-9dc5-a1ecdca8856e","kind":"bikerack","longitude":8.9392149,"latitude":52.9730695,"name":"Fahrradabstellplatz","city":"Riede","address":null,"covered":false,"access":null,"website":null,"phone":null,"source":"OpenStreetMap/node/646868236","sourceUpdatedAt":null,"verifiedAt":null}},{"type":"Feature","geometry":{"type":"Point","coordinates":[8.9451826,52.9654017]},"properties":{"id":"bikerack:c02ca6f7-59e0-4d94-a88e-3f9e188ad281","kind":"bikerack","longitude":8.9451826,"latitude":52.9654017,"name":"Fahrradabstellplatz","city":"Riede","address":null,"covered":false,"access":null,"website":null,"phone":null,"source":"OpenStreetMap/node/2804332227","sourceUpdatedAt":null,"verifiedAt":null}},{"type":"Feature","geometry":{"type":"Point","coordinates":[8.9423742,52.9693488]},"properties":{"id":"bikerack:d4e84e46-7710-4d2c-996a-26df265cd6dc","kind":"bikerack","longitude":8.9423742,"latitude":52.9693488,"name":"Fahrradabstellplatz","city":"Riede","address":null,"covered":false,"access":null,"website":null,"phone":null,"source":"OpenStreetMap/node/9271953987","sourceUpdatedAt":null,"verifiedAt":null}},{"type":"Feature","geometry":{"type":"Point","coordinates":[8.9409881,52.9647396]},"properties":{"id":"bikerack:f2b59cdf-722a-4d12-9626-edccb66fd80d","kind":"bikerack","longitude":8.9409881,"latitude":52.9647396,"name":"Fahrradabstellplatz","city":"Riede","address":null,"covered":false,"access":null,"website":null,"phone":null,"source":"OpenStreetMap/node/9271953985","sourceUpdatedAt":null,"verifiedAt":null}}]}