{"type":"FeatureCollection","features":[{"type":"Feature","geometry":{"type":"Point","coordinates":[8.9518767,52.8004525]},"properties":{"id":"bikerack:b0814a38-1c78-4e31-a054-07425f516a51","kind":"bikerack","longitude":8.9518767,"latitude":52.8004525,"name":"Fahrradabstellplatz","city":"Engeln","address":null,"covered":false,"access":null,"website":null,"phone":null,"source":"OpenStreetMap/node/12066456091","sourceUpdatedAt":null,"verifiedAt":null}},{"type":"Feature","geometry":{"type":"Point","coordinates":[8.9613255,52.7853088]},"properties":{"id":"bikerack:b7ab46c4-44e2-415a-b962-e34bfec49f35","kind":"bikerack","longitude":8.9613255,"latitude":52.7853088,"name":"Fahrradabstellplatz","city":"Asendorf","address":null,"covered":false,"access":null,"website":null,"phone":null,"source":"OpenStreetMap/node/12351034294","sourceUpdatedAt":null,"verifiedAt":null}},{"type":"Feature","geometry":{"type":"Point","coordinates":[8.9326909,52.7993886]},"properties":{"id":"repair:c77fb767-e6d3-4fe7-9f20-c154a309b108","kind":"repair","longitude":8.9326909,"latitude":52.7993886,"name":"Fahrradreparaturstation","city":"Engeln","address":null,"covered":false,"access":null,"website":null,"phone":null,"source":"OpenStreetMap/node/12143048212","sourceUpdatedAt":null,"verifiedAt":null}}]}