{"type":"FeatureCollection","features":[{"type":"Feature","geometry":{"type":"Point","coordinates":[8.9412517,51.7648105]},"properties":{"id":"bikerack:1e6218e9-c468-4cdb-bf07-72a2d143c4bc","kind":"bikerack","longitude":8.9412517,"latitude":51.7648105,"name":"Fahrradabstellplatz","city":"Altenbeken","address":null,"covered":true,"access":null,"website":null,"phone":null,"source":"OpenStreetMap/node/6955990983","sourceUpdatedAt":null,"verifiedAt":null}},{"type":"Feature","geometry":{"type":"Point","coordinates":[8.9419549,51.764947]},"properties":{"id":"bikerack:2f24752d-0172-46ca-b56c-135468478122","kind":"bikerack","longitude":8.9419549,"latitude":51.764947,"name":"Fahrradabstellplatz","city":"Altenbeken","address":null,"covered":false,"access":null,"website":null,"phone":null,"source":"OpenStreetMap/node/4704453348","sourceUpdatedAt":null,"verifiedAt":null}},{"type":"Feature","geometry":{"type":"Point","coordinates":[8.9439749,51.7590868]},"properties":{"id":"bikerack:42fc5090-783d-4fb5-9289-3504fe9709ab","kind":"bikerack","longitude":8.9439749,"latitude":51.7590868,"name":"Fahrradabstellplatz","city":"Altenbeken","address":null,"covered":false,"access":null,"website":null,"phone":null,"source":"OpenStreetMap/node/4031868821","sourceUpdatedAt":null,"verifiedAt":null}},{"type":"Feature","geometry":{"type":"Point","coordinates":[8.9415334,51.7652795]},"properties":{"id":"bikerack:446b2998-2ef1-4145-b329-8ebc36de554f","kind":"bikerack","longitude":8.9415334,"latitude":51.7652795,"name":"Fahrradabstellplatz","city":"Altenbeken","address":null,"covered":false,"access":null,"website":null,"phone":null,"source":"OpenStreetMap/node/4786010311","sourceUpdatedAt":null,"verifiedAt":null}},{"type":"Feature","geometry":{"type":"Point","coordinates":[8.9528348,51.755718]},"properties":{"id":"bikerack:51772ac7-8599-4562-b458-7d1e39269b12","kind":"bikerack","longitude":8.9528348,"latitude":51.755718,"name":"Fahrradabstellplatz","city":"Altenbeken","address":null,"covered":true,"access":null,"website":null,"phone":null,"source":"OpenStreetMap/node/5412023897","sourceUpdatedAt":null,"verifiedAt":null}},{"type":"Feature","geometry":{"type":"Point","coordinates":[8.9432718,51.7658495]},"properties":{"id":"bikerack:5358013e-e88b-430d-b45f-892b2301c9df","kind":"bikerack","longitude":8.9432718,"latitude":51.7658495,"name":"Fahrradabstellplatz","city":"Altenbeken","address":null,"covered":true,"access":null,"website":null,"phone":null,"source":"OpenStreetMap/way/485844136","sourceUpdatedAt":null,"verifiedAt":null}},{"type":"Feature","geometry":{"type":"Point","coordinates":[8.943035,51.7624257]},"properties":{"id":"bikerack:5a79ab54-6c38-4bb4-ad12-ddf2ddb414ce","kind":"bikerack","longitude":8.943035,"latitude":51.7624257,"name":"Fahrradabstellplatz","city":"Altenbeken","address":null,"covered":false,"access":null,"website":null,"phone":null,"source":"OpenStreetMap/node/4926390914","sourceUpdatedAt":null,"verifiedAt":null}},{"type":"Feature","geometry":{"type":"Point","coordinates":[8.9273605,51.7631264]},"properties":{"id":"bikerack:5ce77e9e-378b-4c9b-bb2b-ba70b77b6133","kind":"bikerack","longitude":8.9273605,"latitude":51.7631264,"name":"Fahrradabstellplatz","city":"Altenbeken","address":null,"covered":false,"access":null,"website":null,"phone":null,"source":"OpenStreetMap/node/13191113467","sourceUpdatedAt":null,"verifiedAt":null}},{"type":"Feature","geometry":{"type":"Point","coordinates":[8.9439473,51.7633393]},"properties":{"id":"bikerack:6e9b5a59-6010-46fb-a93c-17ad58bca052","kind":"bikerack","longitude":8.9439473,"latitude":51.7633393,"name":"Fahrradabstellplatz","city":"Altenbeken","address":null,"covered":false,"access":null,"website":null,"phone":null,"source":"OpenStreetMap/node/8184132979","sourceUpdatedAt":null,"verifiedAt":null}},{"type":"Feature","geometry":{"type":"Point","coordinates":[8.943214,51.765878]},"properties":{"id":"bikerack:6f9f0f18-c09b-4856-911d-1417ef86e9a5","kind":"bikerack","longitude":8.943214,"latitude":51.765878,"name":"Fahrradabstellplatz","city":"Altenbeken","address":null,"covered":true,"access":null,"website":null,"phone":null,"source":"OpenStreetMap/way/485844135","sourceUpdatedAt":null,"verifiedAt":null}},{"type":"Feature","geometry":{"type":"Point","coordinates":[8.9432707,51.7634244]},"properties":{"id":"bikerack:90300124-c470-4046-9afe-2d4102da72b8","kind":"bikerack","longitude":8.9432707,"latitude":51.7634244,"name":"Fahrradabstellplatz","city":"Altenbeken","address":null,"covered":false,"access":null,"website":null,"phone":null,"source":"OpenStreetMap/node/8184132978","sourceUpdatedAt":null,"verifiedAt":null}},{"type":"Feature","geometry":{"type":"Point","coordinates":[8.9266706,51.7628919]},"properties":{"id":"bikerack:962ad4b7-d587-40c9-b95b-83124542cc7f","kind":"bikerack","longitude":8.9266706,"latitude":51.7628919,"name":"Fahrradabstellplatz","city":"Altenbeken","address":null,"covered":false,"access":null,"website":null,"phone":null,"source":"OpenStreetMap/node/13042855904","sourceUpdatedAt":null,"verifiedAt":null}},{"type":"Feature","geometry":{"type":"Point","coordinates":[8.9432902,51.7658392]},"properties":{"id":"bikerack:9bf4720f-1020-4075-a359-7dbb0dec339b","kind":"bikerack","longitude":8.9432902,"latitude":51.7658392,"name":"Fahrradabstellplatz","city":"Altenbeken","address":null,"covered":false,"access":null,"website":null,"phone":null,"source":"OpenStreetMap/node/4873906894","sourceUpdatedAt":null,"verifiedAt":null}},{"type":"Feature","geometry":{"type":"Point","coordinates":[8.943129,51.7660188]},"properties":{"id":"bikerack:9ca2b39c-3dc4-4ef9-87bf-6b8f627a6fd3","kind":"bikerack","longitude":8.943129,"latitude":51.7660188,"name":"Bahnhof","city":"Altenbeken","address":null,"covered":true,"access":null,"website":null,"phone":null,"source":"OpenStreetMap/node/311331944","sourceUpdatedAt":null,"verifiedAt":null}},{"type":"Feature","geometry":{"type":"Point","coordinates":[8.9434499,51.7663918]},"properties":{"id":"bikerack:b3ddbcb1-983f-452a-b0ca-de7d910c116a","kind":"bikerack","longitude":8.9434499,"latitude":51.7663918,"name":"Fahrradabstellplatz","city":"Altenbeken","address":null,"covered":true,"access":null,"website":null,"phone":null,"source":"OpenStreetMap/node/11269358037","sourceUpdatedAt":null,"verifiedAt":null}},{"type":"Feature","geometry":{"type":"Point","coordinates":[8.9335467,51.7643156]},"properties":{"id":"bikerack:c2b13674-59ff-4c8b-a148-8fcd798cf45a","kind":"bikerack","longitude":8.9335467,"latitude":51.7643156,"name":"Fahrradabstellplatz","city":"Altenbeken","address":null,"covered":false,"access":null,"website":null,"phone":null,"source":"OpenStreetMap/node/1613644700","sourceUpdatedAt":null,"verifiedAt":null}},{"type":"Feature","geometry":{"type":"Point","coordinates":[8.9580417,51.7616871]},"properties":{"id":"bikerack:d0704054-546c-41b8-9b68-eefd9050f77d","kind":"bikerack","longitude":8.9580417,"latitude":51.7616871,"name":"Fahrradabstellplatz","city":"Altenbeken","address":null,"covered":false,"access":null,"website":null,"phone":null,"source":"OpenStreetMap/node/10582383183","sourceUpdatedAt":null,"verifiedAt":null}}]}