{"type":"FeatureCollection","features":[{"type":"Feature","geometry":{"type":"Point","coordinates":[8.9351101,50.5051877]},"properties":{"id":"bikerack:2e5aa3e5-d78b-4f61-b572-ffdf55985c44","kind":"bikerack","longitude":8.9351101,"latitude":50.5051877,"name":"Fahrradabstellplatz","city":"Hungen","address":null,"covered":false,"access":null,"website":null,"phone":null,"source":"OpenStreetMap/node/6561806641","sourceUpdatedAt":null,"verifiedAt":null}},{"type":"Feature","geometry":{"type":"Point","coordinates":[8.9322335,50.5057323]},"properties":{"id":"bikerack:8b9b52f2-5106-4c9f-9f09-95ea51c66463","kind":"bikerack","longitude":8.9322335,"latitude":50.5057323,"name":"Fahrradabstellplatz","city":"Hungen","address":null,"covered":false,"access":null,"website":null,"phone":null,"source":"OpenStreetMap/node/6186582221","sourceUpdatedAt":null,"verifiedAt":null}},{"type":"Feature","geometry":{"type":"Point","coordinates":[8.9341955,50.5045889]},"properties":{"id":"bikerack:ab3bb6fb-535c-46f4-9553-563e316365e3","kind":"bikerack","longitude":8.9341955,"latitude":50.5045889,"name":"Fahrradabstellplatz","city":"Hungen","address":null,"covered":false,"access":null,"website":null,"phone":null,"source":"OpenStreetMap/node/6186582222","sourceUpdatedAt":null,"verifiedAt":null}}]}