{"type":"FeatureCollection","features":[{"type":"Feature","geometry":{"type":"Point","coordinates":[8.9643824,50.0728025]},"properties":{"id":"bikerack:0929971a-f05b-4fcb-990b-9ea757b45fc9","kind":"bikerack","longitude":8.9643824,"latitude":50.0728025,"name":"Fahrradabstellplatz","city":"Grosskrotzenburg","address":null,"covered":false,"access":null,"website":null,"phone":null,"source":"OpenStreetMap/node/6431622290","sourceUpdatedAt":null,"verifiedAt":null}},{"type":"Feature","geometry":{"type":"Point","coordinates":[8.9379539,50.0784622]},"properties":{"id":"bikerack:7072a51a-1fbb-410c-9455-95190c4fdff6","kind":"bikerack","longitude":8.9379539,"latitude":50.0784622,"name":"Fahrradabstellplatz","city":"Grosskrotzenburg","address":null,"covered":false,"access":null,"website":null,"phone":null,"source":"OpenStreetMap/node/2904992347","sourceUpdatedAt":null,"verifiedAt":null}},{"type":"Feature","geometry":{"type":"Point","coordinates":[8.9380515,50.0783324]},"properties":{"id":"bikerack:cac4ed46-4cb2-4676-bcea-a55f4da51064","kind":"bikerack","longitude":8.9380515,"latitude":50.0783324,"name":"Fahrradabstellplatz","city":"Grosskrotzenburg","address":null,"covered":true,"access":null,"website":null,"phone":null,"source":"OpenStreetMap/node/2904992345","sourceUpdatedAt":null,"verifiedAt":null}},{"type":"Feature","geometry":{"type":"Point","coordinates":[8.9379891,50.0779766]},"properties":{"id":"bikerack:ce7f14bc-81c8-4390-8b01-3165ab350188","kind":"bikerack","longitude":8.9379891,"latitude":50.0779766,"name":"Fahrradabstellplatz","city":"Grosskrotzenburg","address":null,"covered":true,"access":null,"website":null,"phone":null,"source":"OpenStreetMap/way/533323877","sourceUpdatedAt":null,"verifiedAt":null}},{"type":"Feature","geometry":{"type":"Point","coordinates":[8.9379818,50.0784213]},"properties":{"id":"bikerack:dd507bb4-adb6-4803-ab95-8a7e2b489050","kind":"bikerack","longitude":8.9379818,"latitude":50.0784213,"name":"Fahrradabstellplatz","city":"Grosskrotzenburg","address":null,"covered":false,"access":null,"website":null,"phone":null,"source":"OpenStreetMap/node/2904992346","sourceUpdatedAt":null,"verifiedAt":null}}]}