{"type":"FeatureCollection","features":[{"type":"Feature","geometry":{"type":"Point","coordinates":[8.9422568,49.3069842]},"properties":{"id":"bikerack:3b2b3660-82ae-433d-926a-ff83e1505993","kind":"bikerack","longitude":8.9422568,"latitude":49.3069842,"name":"Fahrradabstellplatz","city":"Neckarbischofsheim","address":null,"covered":true,"access":null,"website":null,"phone":null,"source":"OpenStreetMap/way/355489827","sourceUpdatedAt":null,"verifiedAt":null}},{"type":"Feature","geometry":{"type":"Point","coordinates":[8.942375,49.3070428]},"properties":{"id":"bikerack:4c135e6b-50cc-4446-aa41-6dea2e6aad5b","kind":"bikerack","longitude":8.942375,"latitude":49.3070428,"name":"Fahrradabstellplatz","city":"Neckarbischofsheim","address":null,"covered":false,"access":null,"website":null,"phone":null,"source":"OpenStreetMap/way/775702238","sourceUpdatedAt":null,"verifiedAt":null}},{"type":"Feature","geometry":{"type":"Point","coordinates":[8.9340029,49.2978428]},"properties":{"id":"water:67a09bd6-e862-41c1-8c66-986f180e94b2","kind":"water","longitude":8.9340029,"latitude":49.2978428,"name":"Trinkwasser","city":"Waibstadt","address":null,"covered":null,"access":null,"website":null,"phone":null,"source":"OpenStreetMap/node/7635478290","sourceUpdatedAt":null,"verifiedAt":null}}]}