{"type":"FeatureCollection","features":[{"type":"Feature","geometry":{"type":"Point","coordinates":[8.955012,48.8067342]},"properties":{"id":"bikerack:4030b625-17fc-4f5a-a7af-fe97689e13f0","kind":"bikerack","longitude":8.955012,"latitude":48.8067342,"name":"Fahrradabstellplatz","city":"Rutesheim","address":null,"covered":true,"access":null,"website":null,"phone":null,"source":"OpenStreetMap/node/13059227368","sourceUpdatedAt":null,"verifiedAt":null}},{"type":"Feature","geometry":{"type":"Point","coordinates":[8.9594156,48.7902546]},"properties":{"id":"bikerack:5795ef45-4bd6-4b9b-a040-908ff6334029","kind":"bikerack","longitude":8.9594156,"latitude":48.7902546,"name":"Fahrradabstellplatz","city":"Rutesheim","address":null,"covered":true,"access":null,"website":null,"phone":null,"source":"OpenStreetMap/way/1384941273","sourceUpdatedAt":null,"verifiedAt":null}},{"type":"Feature","geometry":{"type":"Point","coordinates":[8.9214972,48.7873547]},"properties":{"id":"bikerack:62a7422a-c550-401e-a507-2879d12d487a","kind":"bikerack","longitude":8.9214972,"latitude":48.7873547,"name":"Fahrradabstellplatz","city":"Renningen","address":null,"covered":true,"access":null,"website":null,"phone":null,"source":"OpenStreetMap/node/6626959508","sourceUpdatedAt":null,"verifiedAt":null}},{"type":"Feature","geometry":{"type":"Point","coordinates":[8.959513,48.7901629]},"properties":{"id":"bikerack:85ef6caa-b302-4230-8c2b-c5346bbc981f","kind":"bikerack","longitude":8.959513,"latitude":48.7901629,"name":"Fahrradabstellplatz","city":"Rutesheim","address":null,"covered":true,"access":null,"website":null,"phone":null,"source":"OpenStreetMap/way/475668405","sourceUpdatedAt":null,"verifiedAt":null}},{"type":"Feature","geometry":{"type":"Point","coordinates":[8.9436126,48.8047609]},"properties":{"id":"repair:612dd0bd-b3e9-4e1f-b542-7da2e497636e","kind":"repair","longitude":8.9436126,"latitude":48.8047609,"name":"Fahrradreparaturstation","city":"Rutesheim","address":null,"covered":false,"access":null,"website":null,"phone":null,"source":"OpenStreetMap/node/12128001612","sourceUpdatedAt":null,"verifiedAt":null}}]}