{"type":"FeatureCollection","features":[{"type":"Feature","geometry":{"type":"Point","coordinates":[8.9214264,48.3128647]},"properties":{"id":"bikerack:19b60862-f55c-49dd-aac9-7b10973e668f","kind":"bikerack","longitude":8.9214264,"latitude":48.3128647,"name":"Fahrradabstellplatz","city":"Bisingen","address":null,"covered":true,"access":null,"website":null,"phone":null,"source":"OpenStreetMap/way/986456121","sourceUpdatedAt":null,"verifiedAt":null}},{"type":"Feature","geometry":{"type":"Point","coordinates":[8.9215576,48.3132724]},"properties":{"id":"bikerack:49233b01-22f9-4231-9a64-b1efcbf27f52","kind":"bikerack","longitude":8.9215576,"latitude":48.3132724,"name":"Fahrradabstellplatz","city":"Bisingen","address":null,"covered":true,"access":null,"website":null,"phone":null,"source":"OpenStreetMap/way/1388268688","sourceUpdatedAt":null,"verifiedAt":null}}]}