{"type":"FeatureCollection","features":[{"type":"Feature","geometry":{"type":"Point","coordinates":[8.9567098,47.5936097]},"properties":{"id":"bikerack:08dc9277-20f8-41de-9e6f-b8a65caf6caa","kind":"bikerack","longitude":8.9567098,"latitude":47.5936097,"name":"Bicycle Parking","city":"Pfyn","address":null,"covered":false,"access":null,"website":null,"phone":null,"source":"OpenStreetMap/node/7800769456","sourceUpdatedAt":null,"verifiedAt":null}},{"type":"Feature","geometry":{"type":"Point","coordinates":[8.9439527,47.5772853]},"properties":{"id":"bikerack:4dba54fd-f47e-40a7-bbe3-52d91a11baee","kind":"bikerack","longitude":8.9439527,"latitude":47.5772853,"name":"Bicycle Parking","city":"Pfyn","address":null,"covered":true,"access":null,"website":null,"phone":null,"source":"OpenStreetMap/way/299440167","sourceUpdatedAt":null,"verifiedAt":null}},{"type":"Feature","geometry":{"type":"Point","coordinates":[8.9525511,47.5955233]},"properties":{"id":"bikerack:992019b7-5e55-416c-af32-09f7d4dda9f1","kind":"bikerack","longitude":8.9525511,"latitude":47.5955233,"name":"Bicycle Parking","city":"Pfyn","address":null,"covered":true,"access":null,"website":null,"phone":null,"source":"OpenStreetMap/node/9000683368","sourceUpdatedAt":null,"verifiedAt":null}},{"type":"Feature","geometry":{"type":"Point","coordinates":[8.9569137,47.5935831]},"properties":{"id":"bikerack:e748eed6-3f04-4aa9-8745-aca431dfbc66","kind":"bikerack","longitude":8.9569137,"latitude":47.5935831,"name":"Bicycle Parking","city":"Pfyn","address":null,"covered":false,"access":null,"website":null,"phone":null,"source":"OpenStreetMap/node/5665376614","sourceUpdatedAt":null,"verifiedAt":null}},{"type":"Feature","geometry":{"type":"Point","coordinates":[8.9515051,47.5961087]},"properties":{"id":"bikerack:f21a8866-a038-4b2a-8635-112cc8465025","kind":"bikerack","longitude":8.9515051,"latitude":47.5961087,"name":"Bicycle Parking","city":"Pfyn","address":null,"covered":true,"access":null,"website":null,"phone":null,"source":"OpenStreetMap/node/9000683369","sourceUpdatedAt":null,"verifiedAt":null}},{"type":"Feature","geometry":{"type":"Point","coordinates":[8.950349,47.6006465]},"properties":{"id":"service:1c932a16-072e-4d1e-bf8d-01067cc61cae","kind":"service","longitude":8.950349,"latitude":47.6006465,"name":"Stalder Velos-Motos","city":"Pfyn","address":null,"covered":null,"access":null,"website":null,"phone":null,"source":"OpenStreetMap/node/9497196023","sourceUpdatedAt":null,"verifiedAt":null}},{"type":"Feature","geometry":{"type":"Point","coordinates":[8.9515947,47.5985487]},"properties":{"id":"water:1e941249-7931-4452-8f44-dd734e0e5656","kind":"water","longitude":8.9515947,"latitude":47.5985487,"name":"Drinking Fountain","city":"Pfyn","address":null,"covered":null,"access":null,"website":null,"phone":null,"source":"OpenStreetMap/node/5829750165","sourceUpdatedAt":null,"verifiedAt":null}},{"type":"Feature","geometry":{"type":"Point","coordinates":[8.9581023,47.5966941]},"properties":{"id":"water:24dac28b-f9ac-4122-8a42-574eb62ba95d","kind":"water","longitude":8.9581023,"latitude":47.5966941,"name":"Drinking Fountain","city":"Pfyn","address":null,"covered":null,"access":null,"website":null,"phone":null,"source":"OpenStreetMap/node/3148999886","sourceUpdatedAt":null,"verifiedAt":null}},{"type":"Feature","geometry":{"type":"Point","coordinates":[8.9505894,47.599336]},"properties":{"id":"water:35494698-dd1f-43a9-b818-8be5b6e165c7","kind":"water","longitude":8.9505894,"latitude":47.599336,"name":"Drinking Fountain","city":"Pfyn","address":null,"covered":null,"access":null,"website":null,"phone":null,"source":"OpenStreetMap/node/5829750147","sourceUpdatedAt":null,"verifiedAt":null}},{"type":"Feature","geometry":{"type":"Point","coordinates":[8.9551862,47.5961016]},"properties":{"id":"water:63be2e23-18f2-43c7-808a-24fb0c9e8365","kind":"water","longitude":8.9551862,"latitude":47.5961016,"name":"Drinking Fountain","city":"Pfyn","address":null,"covered":null,"access":null,"website":null,"phone":null,"source":"OpenStreetMap/node/8822145854","sourceUpdatedAt":null,"verifiedAt":null}},{"type":"Feature","geometry":{"type":"Point","coordinates":[8.9344689,47.5858889]},"properties":{"id":"water:c90a7621-0f22-4ed5-92f7-c6e5cf1833fc","kind":"water","longitude":8.9344689,"latitude":47.5858889,"name":"Drinking Fountain","city":"Pfyn","address":null,"covered":null,"access":null,"website":null,"phone":null,"source":"OpenStreetMap/node/4128181005","sourceUpdatedAt":null,"verifiedAt":null}},{"type":"Feature","geometry":{"type":"Point","coordinates":[8.9532457,47.5956583]},"properties":{"id":"water:c9bd5a70-e2bc-428b-a636-dcfc8bc4db86","kind":"water","longitude":8.9532457,"latitude":47.5956583,"name":"Drinking Fountain","city":"Pfyn","address":null,"covered":null,"access":null,"website":null,"phone":null,"source":"OpenStreetMap/node/2288341235","sourceUpdatedAt":null,"verifiedAt":null}}]}