{"type":"FeatureCollection","features":[{"type":"Feature","geometry":{"type":"Point","coordinates":[8.9324197,46.461322]},"properties":{"id":"water:03644e23-f291-4df7-881e-1c0b58b991c2","kind":"water","longitude":8.9324197,"latitude":46.461322,"name":"Drinking Fountain","city":"Acquarossa","address":null,"covered":null,"access":null,"website":null,"phone":null,"source":"OpenStreetMap/node/12237714256","sourceUpdatedAt":null,"verifiedAt":null}},{"type":"Feature","geometry":{"type":"Point","coordinates":[8.9370178,46.4394271]},"properties":{"id":"water:0d20958a-67f6-4c86-ac1f-9f79e93204cb","kind":"water","longitude":8.9370178,"latitude":46.4394271,"name":"Drinking Fountain","city":"Acquarossa","address":null,"covered":null,"access":null,"website":null,"phone":null,"source":"OpenStreetMap/node/12222789361","sourceUpdatedAt":null,"verifiedAt":null}},{"type":"Feature","geometry":{"type":"Point","coordinates":[8.9287146,46.4587768]},"properties":{"id":"water:18e38c94-20a2-4010-a310-fe47c88e1dd2","kind":"water","longitude":8.9287146,"latitude":46.4587768,"name":"Drinking Fountain","city":"Acquarossa","address":null,"covered":null,"access":null,"website":null,"phone":null,"source":"OpenStreetMap/node/1091961673","sourceUpdatedAt":null,"verifiedAt":null}},{"type":"Feature","geometry":{"type":"Point","coordinates":[8.9343494,46.4460572]},"properties":{"id":"water:36b0f779-e282-4f6e-9afe-c69612bdf3ba","kind":"water","longitude":8.9343494,"latitude":46.4460572,"name":"Drinking Fountain","city":"Acquarossa","address":null,"covered":null,"access":null,"website":null,"phone":null,"source":"OpenStreetMap/node/12222789362","sourceUpdatedAt":null,"verifiedAt":null}},{"type":"Feature","geometry":{"type":"Point","coordinates":[8.9265403,46.4485395]},"properties":{"id":"water:3f6dda8a-7db9-481e-9664-a39b4c7ae0aa","kind":"water","longitude":8.9265403,"latitude":46.4485395,"name":"Drinking Fountain","city":"Acquarossa","address":null,"covered":null,"access":null,"website":null,"phone":null,"source":"OpenStreetMap/node/4031402713","sourceUpdatedAt":null,"verifiedAt":null}},{"type":"Feature","geometry":{"type":"Point","coordinates":[8.9362269,46.4551252]},"properties":{"id":"water:3f875b3c-3c3b-4f3d-b683-96f1f7732179","kind":"water","longitude":8.9362269,"latitude":46.4551252,"name":"Drinking Fountain","city":"Acquarossa","address":null,"covered":null,"access":null,"website":null,"phone":null,"source":"OpenStreetMap/node/1091961220","sourceUpdatedAt":null,"verifiedAt":null}},{"type":"Feature","geometry":{"type":"Point","coordinates":[8.9473894,46.4390675]},"properties":{"id":"water:678fa71b-621f-4734-a824-18bc2f55c976","kind":"water","longitude":8.9473894,"latitude":46.4390675,"name":"Drinking Fountain","city":"Acquarossa","address":null,"covered":null,"access":null,"website":null,"phone":null,"source":"OpenStreetMap/node/5859151824","sourceUpdatedAt":null,"verifiedAt":null}},{"type":"Feature","geometry":{"type":"Point","coordinates":[8.9397442,46.4491059]},"properties":{"id":"water:7c87774f-ca81-4d03-b80c-9cf07571bb18","kind":"water","longitude":8.9397442,"latitude":46.4491059,"name":"Drinking Fountain","city":"Acquarossa","address":null,"covered":null,"access":null,"website":null,"phone":null,"source":"OpenStreetMap/node/5858974710","sourceUpdatedAt":null,"verifiedAt":null}},{"type":"Feature","geometry":{"type":"Point","coordinates":[8.922953,46.4649438]},"properties":{"id":"water:82396422-2f64-4e8e-9a9e-c58a22bba04b","kind":"water","longitude":8.922953,"latitude":46.4649438,"name":"Drinking Fountain","city":"Acquarossa","address":null,"covered":null,"access":null,"website":null,"phone":null,"source":"OpenStreetMap/node/12299673755","sourceUpdatedAt":null,"verifiedAt":null}},{"type":"Feature","geometry":{"type":"Point","coordinates":[8.9413953,46.4448409]},"properties":{"id":"water:90f0f872-8eb3-438f-8458-33fffd714736","kind":"water","longitude":8.9413953,"latitude":46.4448409,"name":"Drinking Fountain","city":"Acquarossa","address":null,"covered":null,"access":null,"website":null,"phone":null,"source":"OpenStreetMap/node/4031340612","sourceUpdatedAt":null,"verifiedAt":null}},{"type":"Feature","geometry":{"type":"Point","coordinates":[8.9230666,46.462669]},"properties":{"id":"water:95b78865-04c8-427b-a8ee-caf887965fce","kind":"water","longitude":8.9230666,"latitude":46.462669,"name":"Drinking Fountain","city":"Acquarossa","address":null,"covered":null,"access":null,"website":null,"phone":null,"source":"OpenStreetMap/node/5808719975","sourceUpdatedAt":null,"verifiedAt":null}},{"type":"Feature","geometry":{"type":"Point","coordinates":[8.9551009,46.4390208]},"properties":{"id":"water:97893c18-d730-4eec-bc88-735bbd55abde","kind":"water","longitude":8.9551009,"latitude":46.4390208,"name":"Drinking Fountain","city":"Acquarossa","address":null,"covered":null,"access":null,"website":null,"phone":null,"source":"OpenStreetMap/node/11789588277","sourceUpdatedAt":null,"verifiedAt":null}},{"type":"Feature","geometry":{"type":"Point","coordinates":[8.9309025,46.4608873]},"properties":{"id":"water:a07c9a83-e26f-4768-8699-6ddf182a2b3f","kind":"water","longitude":8.9309025,"latitude":46.4608873,"name":"Drinking Fountain","city":"Acquarossa","address":null,"covered":null,"access":null,"website":null,"phone":null,"source":"OpenStreetMap/node/12237714258","sourceUpdatedAt":null,"verifiedAt":null}},{"type":"Feature","geometry":{"type":"Point","coordinates":[8.9234532,46.4579406]},"properties":{"id":"water:a623513b-3281-4490-b8ea-cc056d204223","kind":"water","longitude":8.9234532,"latitude":46.4579406,"name":"Drinking Fountain","city":"Acquarossa","address":null,"covered":null,"access":null,"website":null,"phone":null,"source":"OpenStreetMap/node/11809141145","sourceUpdatedAt":null,"verifiedAt":null}},{"type":"Feature","geometry":{"type":"Point","coordinates":[8.9383724,46.4553355]},"properties":{"id":"water:a7bdb707-d724-45fc-af8c-782594f78d19","kind":"water","longitude":8.9383724,"latitude":46.4553355,"name":"Drinking Fountain","city":"Acquarossa","address":null,"covered":null,"access":null,"website":null,"phone":null,"source":"OpenStreetMap/node/8943958169","sourceUpdatedAt":null,"verifiedAt":null}},{"type":"Feature","geometry":{"type":"Point","coordinates":[8.9237869,46.4565289]},"properties":{"id":"water:ac92cc8c-f178-43d7-895a-16ae2623c7a4","kind":"water","longitude":8.9237869,"latitude":46.4565289,"name":"Drinking Fountain","city":"Acquarossa","address":null,"covered":null,"access":null,"website":null,"phone":null,"source":"OpenStreetMap/node/11790020766","sourceUpdatedAt":null,"verifiedAt":null}},{"type":"Feature","geometry":{"type":"Point","coordinates":[8.9217359,46.4398765]},"properties":{"id":"water:bb830800-30ba-4ff3-a018-78a24f6cb744","kind":"water","longitude":8.9217359,"latitude":46.4398765,"name":"Drinking Fountain","city":"Acquarossa","address":null,"covered":null,"access":null,"website":null,"phone":null,"source":"OpenStreetMap/node/11809141153","sourceUpdatedAt":null,"verifiedAt":null}},{"type":"Feature","geometry":{"type":"Point","coordinates":[8.9230656,46.4559972]},"properties":{"id":"water:d41a5d96-d8e2-4b84-a5b7-c6015e53c133","kind":"water","longitude":8.9230656,"latitude":46.4559972,"name":"Drinking Fountain","city":"Acquarossa","address":null,"covered":null,"access":null,"website":null,"phone":null,"source":"OpenStreetMap/node/8998079682","sourceUpdatedAt":null,"verifiedAt":null}},{"type":"Feature","geometry":{"type":"Point","coordinates":[8.9379997,46.4541664]},"properties":{"id":"water:ff524869-2103-41f4-a886-7df7b0f44f00","kind":"water","longitude":8.9379997,"latitude":46.4541664,"name":"Drinking Fountain","city":"Acquarossa","address":null,"covered":null,"access":null,"website":null,"phone":null,"source":"OpenStreetMap/node/11809141158","sourceUpdatedAt":null,"verifiedAt":null}}]}