{"type":"FeatureCollection","features":[{"type":"Feature","geometry":{"type":"Point","coordinates":[8.9252329,46.2294701]},"properties":{"id":"water:288f0e16-7931-42a3-80c0-bd2f0a84f5a9","kind":"water","longitude":8.9252329,"latitude":46.2294701,"name":"Drinking Fountain","city":"Cugnasco","address":null,"covered":null,"access":null,"website":null,"phone":null,"source":"OpenStreetMap/node/9029709169","sourceUpdatedAt":null,"verifiedAt":null}},{"type":"Feature","geometry":{"type":"Point","coordinates":[8.9252789,46.2293969]},"properties":{"id":"water:9920de39-adaa-43fd-b0e9-7dbb78981a52","kind":"water","longitude":8.9252789,"latitude":46.2293969,"name":"Drinking Fountain","city":"Cugnasco","address":null,"covered":null,"access":null,"website":null,"phone":null,"source":"OpenStreetMap/node/3741164078","sourceUpdatedAt":null,"verifiedAt":null}}]}