{"type":"FeatureCollection","features":[{"type":"Feature","geometry":{"type":"Point","coordinates":[10.1559296,54.3098092]},"properties":{"id":"bikerack:0b968429-51b3-42e6-baa1-6472641382d6","kind":"bikerack","longitude":10.1559296,"latitude":54.3098092,"name":"Fahrradabstellplatz","city":"Kiel","address":null,"covered":false,"access":null,"website":null,"phone":null,"source":"OpenStreetMap/node/13026807086","sourceUpdatedAt":null,"verifiedAt":null}},{"type":"Feature","geometry":{"type":"Point","coordinates":[10.1625477,54.3086368]},"properties":{"id":"bikerack:17e9516c-bb91-4a72-a82a-b5f9f1399f59","kind":"bikerack","longitude":10.1625477,"latitude":54.3086368,"name":"Fahrradkeller","city":"Kiel","address":null,"covered":true,"access":null,"website":null,"phone":null,"source":"OpenStreetMap/way/162843675","sourceUpdatedAt":null,"verifiedAt":null}},{"type":"Feature","geometry":{"type":"Point","coordinates":[10.1520005,54.306996]},"properties":{"id":"bikerack:1e032281-2335-424b-8be0-080775f560f2","kind":"bikerack","longitude":10.1520005,"latitude":54.306996,"name":"Fahrradabstellplatz","city":"Kiel","address":null,"covered":false,"access":null,"website":null,"phone":null,"source":"OpenStreetMap/node/13087627317","sourceUpdatedAt":null,"verifiedAt":null}},{"type":"Feature","geometry":{"type":"Point","coordinates":[10.161953,54.3090222]},"properties":{"id":"bikerack:28e0d1dd-303b-4bcb-8fed-217f33697b6d","kind":"bikerack","longitude":10.161953,"latitude":54.3090222,"name":"Fahrradabstellplatz","city":"Kiel","address":null,"covered":false,"access":null,"website":null,"phone":null,"source":"OpenStreetMap/way/319265449","sourceUpdatedAt":null,"verifiedAt":null}},{"type":"Feature","geometry":{"type":"Point","coordinates":[10.1543032,54.3124062]},"properties":{"id":"bikerack:326a8f9b-172f-4ccd-bc94-c848ff43cfaf","kind":"bikerack","longitude":10.1543032,"latitude":54.3124062,"name":"Fahrradabstellplatz","city":"Kiel","address":null,"covered":false,"access":null,"website":null,"phone":null,"source":"OpenStreetMap/way/1183686927","sourceUpdatedAt":null,"verifiedAt":null}},{"type":"Feature","geometry":{"type":"Point","coordinates":[10.1545324,54.3124756]},"properties":{"id":"bikerack:352d455a-a539-431f-8dc0-32534c4674a8","kind":"bikerack","longitude":10.1545324,"latitude":54.3124756,"name":"Fahrradabstellplatz","city":"Kiel","address":null,"covered":false,"access":null,"website":null,"phone":null,"source":"OpenStreetMap/node/13125400290","sourceUpdatedAt":null,"verifiedAt":null}},{"type":"Feature","geometry":{"type":"Point","coordinates":[10.1592981,54.2917963]},"properties":{"id":"bikerack:371fe98d-5d83-48ca-a791-57de317be340","kind":"bikerack","longitude":10.1592981,"latitude":54.2917963,"name":"Fahrradabstellplatz","city":"Kiel","address":null,"covered":false,"access":null,"website":null,"phone":null,"source":"OpenStreetMap/way/1271521669","sourceUpdatedAt":null,"verifiedAt":null}},{"type":"Feature","geometry":{"type":"Point","coordinates":[10.1551426,54.3091359]},"properties":{"id":"bikerack:41b182b1-6e27-46c5-a233-ae363ba9085e","kind":"bikerack","longitude":10.1551426,"latitude":54.3091359,"name":"Fahrradabstellplatz","city":"Kiel","address":null,"covered":false,"access":null,"website":null,"phone":null,"source":"OpenStreetMap/node/3255947619","sourceUpdatedAt":null,"verifiedAt":null}},{"type":"Feature","geometry":{"type":"Point","coordinates":[10.161734,54.3090105]},"properties":{"id":"bikerack:45a7ec38-c7d0-43b2-9a9d-6ae9d44114c3","kind":"bikerack","longitude":10.161734,"latitude":54.3090105,"name":"Fahrradabstellplatz","city":"Kiel","address":null,"covered":false,"access":null,"website":null,"phone":null,"source":"OpenStreetMap/way/319265448","sourceUpdatedAt":null,"verifiedAt":null}},{"type":"Feature","geometry":{"type":"Point","coordinates":[10.1820541,54.2985882]},"properties":{"id":"bikerack:4eeadd2e-c8d2-435c-af9f-6c5422a06823","kind":"bikerack","longitude":10.1820541,"latitude":54.2985882,"name":"Fahrradabstellplatz","city":"Klausdorf","address":null,"covered":false,"access":null,"website":null,"phone":null,"source":"OpenStreetMap/node/8760483032","sourceUpdatedAt":null,"verifiedAt":null}},{"type":"Feature","geometry":{"type":"Point","coordinates":[10.1559071,54.3137937]},"properties":{"id":"bikerack:5dfeb412-eb61-4d2b-9834-68edbb43f166","kind":"bikerack","longitude":10.1559071,"latitude":54.3137937,"name":"Fahrradabstellplatz","city":"Kiel","address":null,"covered":false,"access":null,"website":null,"phone":null,"source":"OpenStreetMap/node/11071893313","sourceUpdatedAt":null,"verifiedAt":null}},{"type":"Feature","geometry":{"type":"Point","coordinates":[10.1548073,54.312293]},"properties":{"id":"bikerack:638307c2-d336-4187-b16d-578309390a98","kind":"bikerack","longitude":10.1548073,"latitude":54.312293,"name":"Fahrradabstellplatz","city":"Kiel","address":null,"covered":false,"access":null,"website":null,"phone":null,"source":"OpenStreetMap/node/13125394470","sourceUpdatedAt":null,"verifiedAt":null}},{"type":"Feature","geometry":{"type":"Point","coordinates":[10.1548251,54.3123619]},"properties":{"id":"bikerack:6c5cb97e-c26b-494f-8ac5-2dfffe28ff94","kind":"bikerack","longitude":10.1548251,"latitude":54.3123619,"name":"Fahrradabstellplatz","city":"Kiel","address":null,"covered":false,"access":null,"website":null,"phone":null,"source":"OpenStreetMap/node/13125401886","sourceUpdatedAt":null,"verifiedAt":null}},{"type":"Feature","geometry":{"type":"Point","coordinates":[10.1593387,54.2918968]},"properties":{"id":"bikerack:6dc46cc6-0e7f-49e4-9a20-8cbe033623f2","kind":"bikerack","longitude":10.1593387,"latitude":54.2918968,"name":"Fahrradabstellplatz","city":"Kiel","address":null,"covered":false,"access":null,"website":null,"phone":null,"source":"OpenStreetMap/way/1271521670","sourceUpdatedAt":null,"verifiedAt":null}},{"type":"Feature","geometry":{"type":"Point","coordinates":[10.1561639,54.3099853]},"properties":{"id":"bikerack:8bea1b5b-b423-4b12-8d15-73db5265a4b0","kind":"bikerack","longitude":10.1561639,"latitude":54.3099853,"name":"Fahrradabstellplatz","city":"Kiel","address":null,"covered":false,"access":null,"website":null,"phone":null,"source":"OpenStreetMap/way/1417566075","sourceUpdatedAt":null,"verifiedAt":null}},{"type":"Feature","geometry":{"type":"Point","coordinates":[10.1521745,54.3100684]},"properties":{"id":"bikerack:8dec5d93-79a7-42a1-aa59-85fe24b45690","kind":"bikerack","longitude":10.1521745,"latitude":54.3100684,"name":"Fahrradabstellplatz","city":"Kiel","address":null,"covered":false,"access":null,"website":null,"phone":null,"source":"OpenStreetMap/node/13078530356","sourceUpdatedAt":null,"verifiedAt":null}},{"type":"Feature","geometry":{"type":"Point","coordinates":[10.1701829,54.3139975]},"properties":{"id":"bikerack:9195b659-9f85-4547-abce-4df1c1da9314","kind":"bikerack","longitude":10.1701829,"latitude":54.3139975,"name":"Fahrradabstellplatz","city":"Kiel","address":null,"covered":true,"access":null,"website":null,"phone":null,"source":"OpenStreetMap/way/947015759","sourceUpdatedAt":null,"verifiedAt":null}},{"type":"Feature","geometry":{"type":"Point","coordinates":[10.154437,54.3125091]},"properties":{"id":"bikerack:95dc61a0-f588-498d-bb05-1a25caee0208","kind":"bikerack","longitude":10.154437,"latitude":54.3125091,"name":"Fahrradabstellplatz","city":"Kiel","address":null,"covered":false,"access":null,"website":null,"phone":null,"source":"OpenStreetMap/node/13125418920","sourceUpdatedAt":null,"verifiedAt":null}},{"type":"Feature","geometry":{"type":"Point","coordinates":[10.1595703,54.3124593]},"properties":{"id":"bikerack:a689efd3-dc53-410c-83ca-04c827d8ad0d","kind":"bikerack","longitude":10.1595703,"latitude":54.3124593,"name":"Fahrradabstellplatz","city":"Kiel","address":null,"covered":false,"access":null,"website":null,"phone":null,"source":"OpenStreetMap/node/11048172487","sourceUpdatedAt":null,"verifiedAt":null}},{"type":"Feature","geometry":{"type":"Point","coordinates":[10.1676533,54.2987967]},"properties":{"id":"bikerack:b2bdfa96-9db8-430d-bd91-c1374987d349","kind":"bikerack","longitude":10.1676533,"latitude":54.2987967,"name":"Fahrradabstellplatz","city":"Kiel","address":null,"covered":false,"access":null,"website":null,"phone":null,"source":"OpenStreetMap/node/7566469126","sourceUpdatedAt":null,"verifiedAt":null}},{"type":"Feature","geometry":{"type":"Point","coordinates":[10.157097,54.3070693]},"properties":{"id":"bikerack:b317f28a-a289-48d3-8ee0-a92c31198887","kind":"bikerack","longitude":10.157097,"latitude":54.3070693,"name":"Fahrradabstellplatz","city":"Kiel","address":null,"covered":true,"access":null,"website":null,"phone":null,"source":"OpenStreetMap/way/947015760","sourceUpdatedAt":null,"verifiedAt":null}},{"type":"Feature","geometry":{"type":"Point","coordinates":[10.1593746,54.3125355]},"properties":{"id":"bikerack:b8cecc01-6100-4811-b4a1-c60f0a172883","kind":"bikerack","longitude":10.1593746,"latitude":54.3125355,"name":"Fahrradabstellplatz","city":"Kiel","address":null,"covered":false,"access":null,"website":null,"phone":null,"source":"OpenStreetMap/node/7556451970","sourceUpdatedAt":null,"verifiedAt":null}},{"type":"Feature","geometry":{"type":"Point","coordinates":[10.1515949,54.3104644]},"properties":{"id":"bikerack:cf3b281f-6030-4aa6-ad8d-be2c0cc75bd4","kind":"bikerack","longitude":10.1515949,"latitude":54.3104644,"name":"Fahrradabstellplatz","city":"Kiel","address":null,"covered":false,"access":null,"website":null,"phone":null,"source":"OpenStreetMap/node/13078542265","sourceUpdatedAt":null,"verifiedAt":null}},{"type":"Feature","geometry":{"type":"Point","coordinates":[10.1543061,54.3125534]},"properties":{"id":"bikerack:d145c588-eebb-4e17-81a1-58f592e6d5c2","kind":"bikerack","longitude":10.1543061,"latitude":54.3125534,"name":"Fahrradabstellplatz","city":"Kiel","address":null,"covered":false,"access":null,"website":null,"phone":null,"source":"OpenStreetMap/node/13125415452","sourceUpdatedAt":null,"verifiedAt":null}},{"type":"Feature","geometry":{"type":"Point","coordinates":[10.1558183,54.3096997]},"properties":{"id":"bikerack:ea72c629-9f54-4dda-97cd-f8310f4b00f7","kind":"bikerack","longitude":10.1558183,"latitude":54.3096997,"name":"Fahrradabstellplatz","city":"Kiel","address":null,"covered":false,"access":null,"website":null,"phone":null,"source":"OpenStreetMap/node/13026807085","sourceUpdatedAt":null,"verifiedAt":null}},{"type":"Feature","geometry":{"type":"Point","coordinates":[10.1514915,54.315658]},"properties":{"id":"repair:429088e0-8948-4a11-a77f-baa36d9cb774","kind":"repair","longitude":10.1514915,"latitude":54.315658,"name":"Fahrradreparaturstation","city":"Kiel","address":null,"covered":false,"access":null,"website":null,"phone":null,"source":"OpenStreetMap/node/5214942495","sourceUpdatedAt":null,"verifiedAt":null}}]}