{"type":"FeatureCollection","features":[{"type":"Feature","geometry":{"type":"Point","coordinates":[10.1776379,53.4858531]},"properties":{"id":"bikerack:02dbe7f5-bfb0-4686-88b8-250f4e94f410","kind":"bikerack","longitude":10.1776379,"latitude":53.4858531,"name":"Fahrradabstellplatz","city":"Bergedorf","address":null,"covered":false,"access":null,"website":null,"phone":null,"source":"OpenStreetMap/node/5124487014","sourceUpdatedAt":null,"verifiedAt":null}},{"type":"Feature","geometry":{"type":"Point","coordinates":[10.1593429,53.4840144]},"properties":{"id":"bikerack:036739e3-f2e9-4803-a420-e960bda9bece","kind":"bikerack","longitude":10.1593429,"latitude":53.4840144,"name":"Fahrradabstellplatz","city":"Oststeinbek","address":null,"covered":false,"access":null,"website":null,"phone":null,"source":"OpenStreetMap/node/4827116402","sourceUpdatedAt":null,"verifiedAt":null}},{"type":"Feature","geometry":{"type":"Point","coordinates":[10.1756484,53.4841259]},"properties":{"id":"bikerack:04ba05b0-5389-49df-b0d7-c72d68c1ca91","kind":"bikerack","longitude":10.1756484,"latitude":53.4841259,"name":"Fahrradabstellplatz","city":"Bergedorf","address":null,"covered":false,"access":null,"website":null,"phone":null,"source":"OpenStreetMap/node/5126233704","sourceUpdatedAt":null,"verifiedAt":null}},{"type":"Feature","geometry":{"type":"Point","coordinates":[10.1588232,53.4840773]},"properties":{"id":"bikerack:05c05489-f8df-4f3b-b02f-fd2d88cabd31","kind":"bikerack","longitude":10.1588232,"latitude":53.4840773,"name":"Fahrradabstellplatz","city":"Oststeinbek","address":null,"covered":false,"access":null,"website":null,"phone":null,"source":"OpenStreetMap/node/4827116400","sourceUpdatedAt":null,"verifiedAt":null}},{"type":"Feature","geometry":{"type":"Point","coordinates":[10.1822207,53.4772174]},"properties":{"id":"bikerack:09fc123c-4517-4637-8a0a-ae2da25160e6","kind":"bikerack","longitude":10.1822207,"latitude":53.4772174,"name":"Fahrradabstellplatz","city":"Bergedorf","address":null,"covered":false,"access":null,"website":null,"phone":null,"source":"OpenStreetMap/node/6434238671","sourceUpdatedAt":null,"verifiedAt":null}},{"type":"Feature","geometry":{"type":"Point","coordinates":[10.1916887,53.4771766]},"properties":{"id":"bikerack:0d608f3c-2d97-4e94-8a43-f3b44cf6d5fb","kind":"bikerack","longitude":10.1916887,"latitude":53.4771766,"name":"Fahrradabstellplatz","city":"Bergedorf","address":null,"covered":false,"access":null,"website":null,"phone":null,"source":"OpenStreetMap/node/13433069702","sourceUpdatedAt":null,"verifiedAt":null}},{"type":"Feature","geometry":{"type":"Point","coordinates":[10.1723285,53.4796921]},"properties":{"id":"bikerack:15e5bab5-522f-4678-be96-a4a130fc2df6","kind":"bikerack","longitude":10.1723285,"latitude":53.4796921,"name":"Fahrradabstellplatz","city":"Bergedorf","address":null,"covered":false,"access":null,"website":null,"phone":null,"source":"OpenStreetMap/node/5418678234","sourceUpdatedAt":null,"verifiedAt":null}},{"type":"Feature","geometry":{"type":"Point","coordinates":[10.1808731,53.4872741]},"properties":{"id":"bikerack:164c1f85-095a-4703-a816-997f62b24213","kind":"bikerack","longitude":10.1808731,"latitude":53.4872741,"name":"Fahrradabstellplatz","city":"Bergedorf","address":null,"covered":false,"access":null,"website":null,"phone":null,"source":"OpenStreetMap/node/7684861932","sourceUpdatedAt":null,"verifiedAt":null}},{"type":"Feature","geometry":{"type":"Point","coordinates":[10.1629149,53.48777]},"properties":{"id":"bikerack:1799bd47-1e04-481c-94b8-96a55058839d","kind":"bikerack","longitude":10.1629149,"latitude":53.48777,"name":"Fahrradabstellplatz","city":"Oststeinbek","address":null,"covered":false,"access":null,"website":null,"phone":null,"source":"OpenStreetMap/node/5059861888","sourceUpdatedAt":null,"verifiedAt":null}},{"type":"Feature","geometry":{"type":"Point","coordinates":[10.1778052,53.4857669]},"properties":{"id":"bikerack:19130e49-b42f-4381-b5ad-dd0ea3519493","kind":"bikerack","longitude":10.1778052,"latitude":53.4857669,"name":"Fahrradabstellplatz","city":"Bergedorf","address":null,"covered":false,"access":null,"website":null,"phone":null,"source":"OpenStreetMap/node/5124487016","sourceUpdatedAt":null,"verifiedAt":null}},{"type":"Feature","geometry":{"type":"Point","coordinates":[10.1789035,53.485188]},"properties":{"id":"bikerack:1c76e14c-f753-4760-a9d1-7bb246246bae","kind":"bikerack","longitude":10.1789035,"latitude":53.485188,"name":"Fahrradabstellplatz","city":"Bergedorf","address":null,"covered":false,"access":null,"website":null,"phone":null,"source":"OpenStreetMap/node/5304496372","sourceUpdatedAt":null,"verifiedAt":null}},{"type":"Feature","geometry":{"type":"Point","coordinates":[10.1768977,53.4850225]},"properties":{"id":"bikerack:204d83b8-2b58-45de-a362-074d73e3de0f","kind":"bikerack","longitude":10.1768977,"latitude":53.4850225,"name":"Fahrradabstellplatz","city":"Bergedorf","address":null,"covered":false,"access":null,"website":null,"phone":null,"source":"OpenStreetMap/way/677437043","sourceUpdatedAt":null,"verifiedAt":null}},{"type":"Feature","geometry":{"type":"Point","coordinates":[10.169792,53.4817813]},"properties":{"id":"bikerack:215bffcd-ebc9-42a9-ba5d-cab2785fe18a","kind":"bikerack","longitude":10.169792,"latitude":53.4817813,"name":"Fahrradabstellplatz","city":"Bergedorf","address":null,"covered":false,"access":null,"website":null,"phone":null,"source":"OpenStreetMap/node/5125073420","sourceUpdatedAt":null,"verifiedAt":null}},{"type":"Feature","geometry":{"type":"Point","coordinates":[10.1539312,53.4824237]},"properties":{"id":"bikerack:22062465-67dd-4e6f-866c-75953fdf6f58","kind":"bikerack","longitude":10.1539312,"latitude":53.4824237,"name":"Fahrradabstellplatz","city":"Oststeinbek","address":null,"covered":false,"access":null,"website":null,"phone":null,"source":"OpenStreetMap/way/246489985","sourceUpdatedAt":null,"verifiedAt":null}},{"type":"Feature","geometry":{"type":"Point","coordinates":[10.1598159,53.483978]},"properties":{"id":"bikerack:22ac0e96-ff74-4f84-810e-d87b115326bf","kind":"bikerack","longitude":10.1598159,"latitude":53.483978,"name":"Fahrradabstellplatz","city":"Oststeinbek","address":null,"covered":false,"access":null,"website":null,"phone":null,"source":"OpenStreetMap/node/4827116404","sourceUpdatedAt":null,"verifiedAt":null}},{"type":"Feature","geometry":{"type":"Point","coordinates":[10.1775584,53.4846112]},"properties":{"id":"bikerack:23cbb3f0-8fe1-4085-993b-817c2d982229","kind":"bikerack","longitude":10.1775584,"latitude":53.4846112,"name":"Fahrradabstellplatz","city":"Bergedorf","address":null,"covered":false,"access":null,"website":null,"phone":null,"source":"OpenStreetMap/node/5176637416","sourceUpdatedAt":null,"verifiedAt":null}},{"type":"Feature","geometry":{"type":"Point","coordinates":[10.1539981,53.4880328]},"properties":{"id":"bikerack:255b0304-8747-4897-a49e-447e6dba69c5","kind":"bikerack","longitude":10.1539981,"latitude":53.4880328,"name":"Fahrradabstellplatz","city":"Oststeinbek","address":null,"covered":false,"access":null,"website":null,"phone":null,"source":"OpenStreetMap/node/4066771257","sourceUpdatedAt":null,"verifiedAt":null}},{"type":"Feature","geometry":{"type":"Point","coordinates":[10.1752421,53.4848926]},"properties":{"id":"bikerack:2ad51d5d-e9b6-436c-828f-bf6128344b0b","kind":"bikerack","longitude":10.1752421,"latitude":53.4848926,"name":"Fahrradabstellplatz","city":"Bergedorf","address":null,"covered":false,"access":null,"website":null,"phone":null,"source":"OpenStreetMap/node/5126233692","sourceUpdatedAt":null,"verifiedAt":null}},{"type":"Feature","geometry":{"type":"Point","coordinates":[10.1755282,53.4856224]},"properties":{"id":"bikerack:2b8b1ebd-d672-4592-b0b4-4c817404696a","kind":"bikerack","longitude":10.1755282,"latitude":53.4856224,"name":"Fahrradabstellplatz","city":"Bergedorf","address":null,"covered":false,"access":null,"website":null,"phone":null,"source":"OpenStreetMap/node/5139851123","sourceUpdatedAt":null,"verifiedAt":null}},{"type":"Feature","geometry":{"type":"Point","coordinates":[10.1755652,53.4857362]},"properties":{"id":"bikerack:2b8ff2c1-20e5-461c-9e74-2ac265b61980","kind":"bikerack","longitude":10.1755652,"latitude":53.4857362,"name":"Fahrradabstellplatz","city":"Bergedorf","address":null,"covered":false,"access":null,"website":null,"phone":null,"source":"OpenStreetMap/node/5139851128","sourceUpdatedAt":null,"verifiedAt":null}},{"type":"Feature","geometry":{"type":"Point","coordinates":[10.1571617,53.484538]},"properties":{"id":"bikerack:2e1e180d-3cfe-4f8e-9ec6-8c127f326a94","kind":"bikerack","longitude":10.1571617,"latitude":53.484538,"name":"Fahrradabstellplatz","city":"Oststeinbek","address":null,"covered":false,"access":null,"website":null,"phone":null,"source":"OpenStreetMap/node/11775104809","sourceUpdatedAt":null,"verifiedAt":null}},{"type":"Feature","geometry":{"type":"Point","coordinates":[10.1758748,53.483788]},"properties":{"id":"bikerack:2ff5197d-5d8d-4bf4-9993-3e456d93f7c0","kind":"bikerack","longitude":10.1758748,"latitude":53.483788,"name":"Fahrradabstellplatz","city":"Bergedorf","address":null,"covered":false,"access":null,"website":null,"phone":null,"source":"OpenStreetMap/node/3368894058","sourceUpdatedAt":null,"verifiedAt":null}},{"type":"Feature","geometry":{"type":"Point","coordinates":[10.1585716,53.484107]},"properties":{"id":"bikerack:331bd91b-9647-4500-8fd4-5f98d1ab6518","kind":"bikerack","longitude":10.1585716,"latitude":53.484107,"name":"Fahrradabstellplatz","city":"Oststeinbek","address":null,"covered":false,"access":null,"website":null,"phone":null,"source":"OpenStreetMap/node/4827116398","sourceUpdatedAt":null,"verifiedAt":null}},{"type":"Feature","geometry":{"type":"Point","coordinates":[10.1754702,53.4854851]},"properties":{"id":"bikerack:34fa1db9-a205-4b2e-933b-7c13d7af7bd0","kind":"bikerack","longitude":10.1754702,"latitude":53.4854851,"name":"Fahrradabstellplatz","city":"Bergedorf","address":null,"covered":false,"access":null,"website":null,"phone":null,"source":"OpenStreetMap/node/5139851122","sourceUpdatedAt":null,"verifiedAt":null}},{"type":"Feature","geometry":{"type":"Point","coordinates":[10.1764417,53.4851253]},"properties":{"id":"bikerack:3501f0b6-9e8b-4303-8662-639efa0bdc8e","kind":"bikerack","longitude":10.1764417,"latitude":53.4851253,"name":"Fahrradabstellplatz","city":"Bergedorf","address":null,"covered":false,"access":null,"website":null,"phone":null,"source":"OpenStreetMap/node/5176542601","sourceUpdatedAt":null,"verifiedAt":null}},{"type":"Feature","geometry":{"type":"Point","coordinates":[10.180834,53.4874595]},"properties":{"id":"bikerack:35790df4-c8ac-4400-9ba5-f1d6dd1cbef0","kind":"bikerack","longitude":10.180834,"latitude":53.4874595,"name":"Fahrradabstellplatz","city":"Bergedorf","address":null,"covered":true,"access":null,"website":null,"phone":null,"source":"OpenStreetMap/way/690927698","sourceUpdatedAt":null,"verifiedAt":null}},{"type":"Feature","geometry":{"type":"Point","coordinates":[10.158243,53.4841447]},"properties":{"id":"bikerack:36f7dcec-c2b3-47b2-b8d2-0bd39ca2a2fe","kind":"bikerack","longitude":10.158243,"latitude":53.4841447,"name":"Fahrradabstellplatz","city":"Oststeinbek","address":null,"covered":false,"access":null,"website":null,"phone":null,"source":"OpenStreetMap/node/4827116395","sourceUpdatedAt":null,"verifiedAt":null}},{"type":"Feature","geometry":{"type":"Point","coordinates":[10.1544182,53.4862795]},"properties":{"id":"bikerack:3b2a6ac3-f371-488f-856d-3c6c1e4d7122","kind":"bikerack","longitude":10.1544182,"latitude":53.4862795,"name":"Fahrradabstellplatz","city":"Oststeinbek","address":null,"covered":false,"access":null,"website":null,"phone":null,"source":"OpenStreetMap/way/1267869873","sourceUpdatedAt":null,"verifiedAt":null}},{"type":"Feature","geometry":{"type":"Point","coordinates":[10.1812335,53.4873521]},"properties":{"id":"bikerack:3b64d083-f8f5-4860-8528-e21ac57bf862","kind":"bikerack","longitude":10.1812335,"latitude":53.4873521,"name":"Fahrradabstellplatz","city":"Bergedorf","address":null,"covered":false,"access":null,"website":null,"phone":null,"source":"OpenStreetMap/way/690927696","sourceUpdatedAt":null,"verifiedAt":null}},{"type":"Feature","geometry":{"type":"Point","coordinates":[10.1720876,53.4812792]},"properties":{"id":"bikerack:3c72e5a3-716f-4877-9682-50418d00c838","kind":"bikerack","longitude":10.1720876,"latitude":53.4812792,"name":"Fahrradabstellplatz","city":"Bergedorf","address":null,"covered":true,"access":null,"website":null,"phone":null,"source":"OpenStreetMap/node/3979680334","sourceUpdatedAt":null,"verifiedAt":null}},{"type":"Feature","geometry":{"type":"Point","coordinates":[10.1715656,53.4807152]},"properties":{"id":"bikerack:3c8964e4-fb12-415f-8c91-004d94499b6c","kind":"bikerack","longitude":10.1715656,"latitude":53.4807152,"name":"Fahrradabstellplatz","city":"Bergedorf","address":null,"covered":false,"access":null,"website":null,"phone":null,"source":"OpenStreetMap/node/6015516172","sourceUpdatedAt":null,"verifiedAt":null}},{"type":"Feature","geometry":{"type":"Point","coordinates":[10.1564198,53.4853876]},"properties":{"id":"bikerack:3dddec18-9229-4197-a0fb-3008f0d8920f","kind":"bikerack","longitude":10.1564198,"latitude":53.4853876,"name":"Fahrradabstellplatz","city":"Oststeinbek","address":null,"covered":false,"access":null,"website":null,"phone":null,"source":"OpenStreetMap/way/246489988","sourceUpdatedAt":null,"verifiedAt":null}},{"type":"Feature","geometry":{"type":"Point","coordinates":[10.1760885,53.4846389]},"properties":{"id":"bikerack:3ed50112-b0be-417e-83ac-a7c4ce8897ce","kind":"bikerack","longitude":10.1760885,"latitude":53.4846389,"name":"Fahrradabstellplatz","city":"Bergedorf","address":null,"covered":false,"access":null,"website":null,"phone":null,"source":"OpenStreetMap/node/5044992849","sourceUpdatedAt":null,"verifiedAt":null}},{"type":"Feature","geometry":{"type":"Point","coordinates":[10.1597835,53.4840573]},"properties":{"id":"bikerack:415cb492-a351-476a-a7cb-80cc3a0008f9","kind":"bikerack","longitude":10.1597835,"latitude":53.4840573,"name":"Fahrradabstellplatz","city":"Oststeinbek","address":null,"covered":false,"access":null,"website":null,"phone":null,"source":"OpenStreetMap/node/4827116403","sourceUpdatedAt":null,"verifiedAt":null}},{"type":"Feature","geometry":{"type":"Point","coordinates":[10.1779672,53.4856896]},"properties":{"id":"bikerack:42097596-cc8b-4e3a-ac9b-ac37f52350c6","kind":"bikerack","longitude":10.1779672,"latitude":53.4856896,"name":"Fahrradabstellplatz","city":"Bergedorf","address":null,"covered":false,"access":null,"website":null,"phone":null,"source":"OpenStreetMap/node/5124487019","sourceUpdatedAt":null,"verifiedAt":null}},{"type":"Feature","geometry":{"type":"Point","coordinates":[10.1750755,53.4830475]},"properties":{"id":"bikerack:43e58ec9-4d8c-4831-bdec-7cd112230554","kind":"bikerack","longitude":10.1750755,"latitude":53.4830475,"name":"Fahrradabstellplatz","city":"Bergedorf","address":null,"covered":false,"access":null,"website":null,"phone":null,"source":"OpenStreetMap/node/5101630036","sourceUpdatedAt":null,"verifiedAt":null}},{"type":"Feature","geometry":{"type":"Point","coordinates":[10.1798196,53.4862933]},"properties":{"id":"bikerack:45177018-7b98-4913-95d6-994337647328","kind":"bikerack","longitude":10.1798196,"latitude":53.4862933,"name":"Fahrradabstellplatz","city":"Bergedorf","address":null,"covered":false,"access":null,"website":null,"phone":null,"source":"OpenStreetMap/node/3412862030","sourceUpdatedAt":null,"verifiedAt":null}},{"type":"Feature","geometry":{"type":"Point","coordinates":[10.1597282,53.4839837]},"properties":{"id":"bikerack:46311ab9-9be3-4dc1-8c46-723306778566","kind":"bikerack","longitude":10.1597282,"latitude":53.4839837,"name":"Fahrradabstellplatz","city":"Oststeinbek","address":null,"covered":false,"access":null,"website":null,"phone":null,"source":"OpenStreetMap/node/4827116405","sourceUpdatedAt":null,"verifiedAt":null}},{"type":"Feature","geometry":{"type":"Point","coordinates":[10.165618,53.4862813]},"properties":{"id":"bikerack:4d5c9cab-f29d-469b-8d28-72a7d04902ad","kind":"bikerack","longitude":10.165618,"latitude":53.4862813,"name":"Fahrradabstellplatz","city":"Bergedorf","address":null,"covered":false,"access":null,"website":null,"phone":null,"source":"OpenStreetMap/node/3993861296","sourceUpdatedAt":null,"verifiedAt":null}},{"type":"Feature","geometry":{"type":"Point","coordinates":[10.179322,53.4847151]},"properties":{"id":"bikerack:510e8b10-8f9f-411b-9148-591f58531429","kind":"bikerack","longitude":10.179322,"latitude":53.4847151,"name":"Fahrradabstellplatz","city":"Bergedorf","address":null,"covered":false,"access":null,"website":null,"phone":null,"source":"OpenStreetMap/node/5308573217","sourceUpdatedAt":null,"verifiedAt":null}},{"type":"Feature","geometry":{"type":"Point","coordinates":[10.178277,53.4858722]},"properties":{"id":"bikerack:55256ee0-e146-425b-9020-0db033bbd028","kind":"bikerack","longitude":10.178277,"latitude":53.4858722,"name":"Fahrradabstellplatz","city":"Bergedorf","address":null,"covered":false,"access":null,"website":null,"phone":null,"source":"OpenStreetMap/node/5124487827","sourceUpdatedAt":null,"verifiedAt":null}},{"type":"Feature","geometry":{"type":"Point","coordinates":[10.1791044,53.4853354]},"properties":{"id":"bikerack:5a401c51-8ba7-49e1-864a-169ea9f02eb8","kind":"bikerack","longitude":10.1791044,"latitude":53.4853354,"name":"Fahrradabstellplatz","city":"Bergedorf","address":null,"covered":false,"access":null,"website":null,"phone":null,"source":"OpenStreetMap/node/5304496373","sourceUpdatedAt":null,"verifiedAt":null}},{"type":"Feature","geometry":{"type":"Point","coordinates":[10.1785717,53.483783]},"properties":{"id":"bikerack:5a9334ba-0006-4a4d-8350-5475001606da","kind":"bikerack","longitude":10.1785717,"latitude":53.483783,"name":"Fahrradabstellplatz","city":"Bergedorf","address":null,"covered":false,"access":null,"website":null,"phone":null,"source":"OpenStreetMap/node/6170452852","sourceUpdatedAt":null,"verifiedAt":null}},{"type":"Feature","geometry":{"type":"Point","coordinates":[10.1776196,53.4861388]},"properties":{"id":"bikerack:5da6bf71-2aa3-4d23-b80b-cd2fb1dc2e13","kind":"bikerack","longitude":10.1776196,"latitude":53.4861388,"name":"Fahrradabstellplatz","city":"Bergedorf","address":null,"covered":false,"access":null,"website":null,"phone":null,"source":"OpenStreetMap/node/5124544622","sourceUpdatedAt":null,"verifiedAt":null}},{"type":"Feature","geometry":{"type":"Point","coordinates":[10.158974,53.4876388]},"properties":{"id":"bikerack:5f184617-d212-47a7-a855-6a1e469934ff","kind":"bikerack","longitude":10.158974,"latitude":53.4876388,"name":"Fahrradabstellplatz","city":"Oststeinbek","address":null,"covered":false,"access":null,"website":null,"phone":null,"source":"OpenStreetMap/node/4460663346","sourceUpdatedAt":null,"verifiedAt":null}},{"type":"Feature","geometry":{"type":"Point","coordinates":[10.1774467,53.483824]},"properties":{"id":"bikerack:6053ba14-0057-4439-be8f-ae46ace02393","kind":"bikerack","longitude":10.1774467,"latitude":53.483824,"name":"Fahrradabstellplatz","city":"Bergedorf","address":null,"covered":false,"access":null,"website":null,"phone":null,"source":"OpenStreetMap/node/6170419020","sourceUpdatedAt":null,"verifiedAt":null}},{"type":"Feature","geometry":{"type":"Point","coordinates":[10.1750175,53.4815056]},"properties":{"id":"bikerack:6197475e-6526-45ec-8a5f-9aedbf50628c","kind":"bikerack","longitude":10.1750175,"latitude":53.4815056,"name":"Fahrradabstellplatz","city":"Bergedorf","address":null,"covered":false,"access":null,"website":null,"phone":null,"source":"OpenStreetMap/node/6328600178","sourceUpdatedAt":null,"verifiedAt":null}},{"type":"Feature","geometry":{"type":"Point","coordinates":[10.1855124,53.4877228]},"properties":{"id":"bikerack:627d6f45-4f3d-4512-9492-b6b9f593ca2b","kind":"bikerack","longitude":10.1855124,"latitude":53.4877228,"name":"Fahrradabstellplatz","city":"Bergedorf","address":null,"covered":false,"access":null,"website":null,"phone":null,"source":"OpenStreetMap/node/11883174109","sourceUpdatedAt":null,"verifiedAt":null}},{"type":"Feature","geometry":{"type":"Point","coordinates":[10.1521315,53.4830978]},"properties":{"id":"bikerack:64a3f216-a4c7-448c-8c4d-9a5e211999f8","kind":"bikerack","longitude":10.1521315,"latitude":53.4830978,"name":"Fahrradabstellplatz","city":"Oststeinbek","address":null,"covered":false,"access":null,"website":null,"phone":null,"source":"OpenStreetMap/way/246489986","sourceUpdatedAt":null,"verifiedAt":null}},{"type":"Feature","geometry":{"type":"Point","coordinates":[10.1655778,53.4864601]},"properties":{"id":"bikerack:64ad31e7-c57f-4ede-bfb6-4e914e86042c","kind":"bikerack","longitude":10.1655778,"latitude":53.4864601,"name":"Fahrradabstellplatz","city":"Bergedorf","address":null,"covered":true,"access":null,"website":null,"phone":null,"source":"OpenStreetMap/node/3993861297","sourceUpdatedAt":null,"verifiedAt":null}},{"type":"Feature","geometry":{"type":"Point","coordinates":[10.1674112,53.4831578]},"properties":{"id":"bikerack:693cab0f-1020-42e2-825f-4629d2893e02","kind":"bikerack","longitude":10.1674112,"latitude":53.4831578,"name":"Fahrradabstellplatz","city":"Bergedorf","address":null,"covered":false,"access":null,"website":null,"phone":null,"source":"OpenStreetMap/node/3979680320","sourceUpdatedAt":null,"verifiedAt":null}},{"type":"Feature","geometry":{"type":"Point","coordinates":[10.1778089,53.4858031]},"properties":{"id":"bikerack:6db42a25-bbbe-4206-a0e0-0b2fde557640","kind":"bikerack","longitude":10.1778089,"latitude":53.4858031,"name":"Fahrradabstellplatz","city":"Bergedorf","address":null,"covered":false,"access":null,"website":null,"phone":null,"source":"OpenStreetMap/node/5124487015","sourceUpdatedAt":null,"verifiedAt":null}},{"type":"Feature","geometry":{"type":"Point","coordinates":[10.1555445,53.4745845]},"properties":{"id":"bikerack:6e5b5aa5-0c0d-44b0-8ee9-4e5cfc0185dc","kind":"bikerack","longitude":10.1555445,"latitude":53.4745845,"name":"Fahrradabstellplatz","city":"Bergedorf","address":null,"covered":false,"access":null,"website":null,"phone":null,"source":"OpenStreetMap/node/6372716710","sourceUpdatedAt":null,"verifiedAt":null}},{"type":"Feature","geometry":{"type":"Point","coordinates":[10.1575825,53.4842262]},"properties":{"id":"bikerack:714a76a5-fa39-40dd-a592-9c9eeb06712a","kind":"bikerack","longitude":10.1575825,"latitude":53.4842262,"name":"Fahrradabstellplatz","city":"Oststeinbek","address":null,"covered":false,"access":null,"website":null,"phone":null,"source":"OpenStreetMap/node/4827116392","sourceUpdatedAt":null,"verifiedAt":null}},{"type":"Feature","geometry":{"type":"Point","coordinates":[10.1629901,53.4877784]},"properties":{"id":"bikerack:72cda090-4a79-4e9d-b887-70783fd29fd2","kind":"bikerack","longitude":10.1629901,"latitude":53.4877784,"name":"Fahrradabstellplatz","city":"Oststeinbek","address":null,"covered":false,"access":null,"website":null,"phone":null,"source":"OpenStreetMap/node/5059861889","sourceUpdatedAt":null,"verifiedAt":null}},{"type":"Feature","geometry":{"type":"Point","coordinates":[10.1548655,53.4814987]},"properties":{"id":"bikerack:731e54f5-1608-43ea-a89d-198407c5968e","kind":"bikerack","longitude":10.1548655,"latitude":53.4814987,"name":"Fahrradabstellplatz","city":"Oststeinbek","address":null,"covered":false,"access":null,"website":null,"phone":null,"source":"OpenStreetMap/node/2701224782","sourceUpdatedAt":null,"verifiedAt":null}},{"type":"Feature","geometry":{"type":"Point","coordinates":[10.1774403,53.4859443]},"properties":{"id":"bikerack:75a2cff8-c08c-49c6-912e-9cf7ee3d05f0","kind":"bikerack","longitude":10.1774403,"latitude":53.4859443,"name":"Fahrradabstellplatz","city":"Bergedorf","address":null,"covered":true,"access":null,"website":null,"phone":null,"source":"OpenStreetMap/node/5124425609","sourceUpdatedAt":null,"verifiedAt":null}},{"type":"Feature","geometry":{"type":"Point","coordinates":[10.1715188,53.4806802]},"properties":{"id":"bikerack:78009a2b-f655-4955-9933-fdc5c80129bf","kind":"bikerack","longitude":10.1715188,"latitude":53.4806802,"name":"Fahrradabstellplatz","city":"Bergedorf","address":null,"covered":false,"access":null,"website":null,"phone":null,"source":"OpenStreetMap/node/6015516171","sourceUpdatedAt":null,"verifiedAt":null}},{"type":"Feature","geometry":{"type":"Point","coordinates":[10.1678546,53.4871929]},"properties":{"id":"bikerack:7aad1d89-20e6-4385-bdfc-8f0a064bd054","kind":"bikerack","longitude":10.1678546,"latitude":53.4871929,"name":"Fahrradabstellplatz","city":"Bergedorf","address":null,"covered":false,"access":null,"website":null,"phone":null,"source":"OpenStreetMap/node/3730712777","sourceUpdatedAt":null,"verifiedAt":null}},{"type":"Feature","geometry":{"type":"Point","coordinates":[10.1627519,53.4877497]},"properties":{"id":"bikerack:7c71b050-f830-44c5-97b5-b7df5d308aea","kind":"bikerack","longitude":10.1627519,"latitude":53.4877497,"name":"Fahrradabstellplatz","city":"Oststeinbek","address":null,"covered":false,"access":null,"website":null,"phone":null,"source":"OpenStreetMap/node/5059861887","sourceUpdatedAt":null,"verifiedAt":null}},{"type":"Feature","geometry":{"type":"Point","coordinates":[10.1809169,53.4874836]},"properties":{"id":"bikerack:7ee8725b-5c17-44a8-b986-c8f3cc5f8b7b","kind":"bikerack","longitude":10.1809169,"latitude":53.4874836,"name":"Fahrradabstellplatz","city":"Bergedorf","address":null,"covered":false,"access":null,"website":null,"phone":null,"source":"OpenStreetMap/way/690927703","sourceUpdatedAt":null,"verifiedAt":null}},{"type":"Feature","geometry":{"type":"Point","coordinates":[10.1601696,53.4850587]},"properties":{"id":"bikerack:7f6ba238-f70e-4ee5-bfb3-3073dcf8f81b","kind":"bikerack","longitude":10.1601696,"latitude":53.4850587,"name":"Fahrradabstellplatz","city":"Oststeinbek","address":null,"covered":false,"access":null,"website":null,"phone":null,"source":"OpenStreetMap/node/5155590347","sourceUpdatedAt":null,"verifiedAt":null}},{"type":"Feature","geometry":{"type":"Point","coordinates":[10.1799822,53.4869527]},"properties":{"id":"bikerack:804059ed-0ac2-44bb-98c9-8b47088ca10d","kind":"bikerack","longitude":10.1799822,"latitude":53.4869527,"name":"Fahrradabstellplatz","city":"Bergedorf","address":null,"covered":true,"access":null,"website":null,"phone":null,"source":"OpenStreetMap/node/3368895644","sourceUpdatedAt":null,"verifiedAt":null}},{"type":"Feature","geometry":{"type":"Point","coordinates":[10.1587524,53.4840858]},"properties":{"id":"bikerack:82ba310e-112a-4829-81df-8ea80a45d798","kind":"bikerack","longitude":10.1587524,"latitude":53.4840858,"name":"Fahrradabstellplatz","city":"Oststeinbek","address":null,"covered":false,"access":null,"website":null,"phone":null,"source":"OpenStreetMap/node/4827116399","sourceUpdatedAt":null,"verifiedAt":null}},{"type":"Feature","geometry":{"type":"Point","coordinates":[10.1730223,53.4820913]},"properties":{"id":"bikerack:8378bb6b-7105-41ac-8a9c-64d10e350850","kind":"bikerack","longitude":10.1730223,"latitude":53.4820913,"name":"Fahrradabstellplatz","city":"Bergedorf","address":null,"covered":false,"access":null,"website":null,"phone":null,"source":"OpenStreetMap/way/805500669","sourceUpdatedAt":null,"verifiedAt":null}},{"type":"Feature","geometry":{"type":"Point","coordinates":[10.17985,53.485427]},"properties":{"id":"bikerack:8607d72f-9694-46f1-8f96-46db5db42925","kind":"bikerack","longitude":10.17985,"latitude":53.485427,"name":"Fahrradabstellplatz","city":"Bergedorf","address":null,"covered":false,"access":null,"website":null,"phone":null,"source":"OpenStreetMap/node/5290123400","sourceUpdatedAt":null,"verifiedAt":null}},{"type":"Feature","geometry":{"type":"Point","coordinates":[10.1737566,53.4825241]},"properties":{"id":"bikerack:8a8efa04-738f-4e97-abe9-516476aac760","kind":"bikerack","longitude":10.1737566,"latitude":53.4825241,"name":"Fahrradabstellplatz","city":"Bergedorf","address":null,"covered":false,"access":null,"website":null,"phone":null,"source":"OpenStreetMap/way/329700553","sourceUpdatedAt":null,"verifiedAt":null}},{"type":"Feature","geometry":{"type":"Point","coordinates":[10.1767555,53.4827184]},"properties":{"id":"bikerack:8d86cb33-57b6-472d-9449-b72ce4de492d","kind":"bikerack","longitude":10.1767555,"latitude":53.4827184,"name":"Fahrradabstellplatz","city":"Bergedorf","address":null,"covered":false,"access":null,"website":null,"phone":null,"source":"OpenStreetMap/way/645659648","sourceUpdatedAt":null,"verifiedAt":null}},{"type":"Feature","geometry":{"type":"Point","coordinates":[10.1528909,53.4860846]},"properties":{"id":"bikerack:8eb719df-f0ff-4c25-b3a7-38cbcb2c5561","kind":"bikerack","longitude":10.1528909,"latitude":53.4860846,"name":"Fahrradabstellplatz","city":"Oststeinbek","address":null,"covered":false,"access":null,"website":null,"phone":null,"source":"OpenStreetMap/way/326388787","sourceUpdatedAt":null,"verifiedAt":null}},{"type":"Feature","geometry":{"type":"Point","coordinates":[10.1775349,53.486068]},"properties":{"id":"bikerack:8f2b735f-ffaa-4827-b105-813a08bee94e","kind":"bikerack","longitude":10.1775349,"latitude":53.486068,"name":"Fahrradabstellplatz","city":"Bergedorf","address":null,"covered":false,"access":null,"website":null,"phone":null,"source":"OpenStreetMap/node/5124544621","sourceUpdatedAt":null,"verifiedAt":null}},{"type":"Feature","geometry":{"type":"Point","coordinates":[10.179794,53.4853295]},"properties":{"id":"bikerack:9489d267-64d0-45fb-a657-25456abc25fe","kind":"bikerack","longitude":10.179794,"latitude":53.4853295,"name":"Fahrradabstellplatz","city":"Bergedorf","address":null,"covered":false,"access":null,"website":null,"phone":null,"source":"OpenStreetMap/node/5290123399","sourceUpdatedAt":null,"verifiedAt":null}},{"type":"Feature","geometry":{"type":"Point","coordinates":[10.153381,53.4844546]},"properties":{"id":"bikerack:9520dcd6-a836-47e9-870f-3ce9e54b19f3","kind":"bikerack","longitude":10.153381,"latitude":53.4844546,"name":"Fahrradabstellplatz","city":"Oststeinbek","address":null,"covered":false,"access":null,"website":null,"phone":null,"source":"OpenStreetMap/node/2663405128","sourceUpdatedAt":null,"verifiedAt":null}},{"type":"Feature","geometry":{"type":"Point","coordinates":[10.1815635,53.4874338]},"properties":{"id":"bikerack:9850d495-5bc4-4a46-ac0e-4f025a418686","kind":"bikerack","longitude":10.1815635,"latitude":53.4874338,"name":"Fahrradabstellplatz","city":"Bergedorf","address":null,"covered":true,"access":null,"website":null,"phone":null,"source":"OpenStreetMap/node/3412862029","sourceUpdatedAt":null,"verifiedAt":null}},{"type":"Feature","geometry":{"type":"Point","coordinates":[10.1681389,53.4871705]},"properties":{"id":"bikerack:9b22cd83-88e2-47ef-a613-c13236f16547","kind":"bikerack","longitude":10.1681389,"latitude":53.4871705,"name":"Fahrradabstellplatz","city":"Bergedorf","address":null,"covered":true,"access":null,"website":null,"phone":null,"source":"OpenStreetMap/node/3730712776","sourceUpdatedAt":null,"verifiedAt":null}},{"type":"Feature","geometry":{"type":"Point","coordinates":[10.1751039,53.4844028]},"properties":{"id":"bikerack:9bfc2aea-b04b-4f3d-9933-86fd555ea857","kind":"bikerack","longitude":10.1751039,"latitude":53.4844028,"name":"Fahrradabstellplatz","city":"Bergedorf","address":null,"covered":false,"access":null,"website":null,"phone":null,"source":"OpenStreetMap/node/5126233699","sourceUpdatedAt":null,"verifiedAt":null}},{"type":"Feature","geometry":{"type":"Point","coordinates":[10.1676379,53.487368]},"properties":{"id":"bikerack:9c457f9b-febc-4d1c-bfbb-fb18dd8bdfd7","kind":"bikerack","longitude":10.1676379,"latitude":53.487368,"name":"Fahrradabstellplatz","city":"Bergedorf","address":null,"covered":false,"access":null,"website":null,"phone":null,"source":"OpenStreetMap/node/3730712780","sourceUpdatedAt":null,"verifiedAt":null}},{"type":"Feature","geometry":{"type":"Point","coordinates":[10.1583279,53.4841362]},"properties":{"id":"bikerack:9e64829d-25c7-492e-9796-0448f8f15c50","kind":"bikerack","longitude":10.1583279,"latitude":53.4841362,"name":"Fahrradabstellplatz","city":"Oststeinbek","address":null,"covered":false,"access":null,"website":null,"phone":null,"source":"OpenStreetMap/node/4827116396","sourceUpdatedAt":null,"verifiedAt":null}},{"type":"Feature","geometry":{"type":"Point","coordinates":[10.1766566,53.4850252]},"properties":{"id":"bikerack:9e796d62-13ff-4eae-a6c0-7cbd6b92e2be","kind":"bikerack","longitude":10.1766566,"latitude":53.4850252,"name":"Fahrradabstellplatz","city":"Bergedorf","address":null,"covered":false,"access":null,"website":null,"phone":null,"source":"OpenStreetMap/node/5176542603","sourceUpdatedAt":null,"verifiedAt":null}},{"type":"Feature","geometry":{"type":"Point","coordinates":[10.1860361,53.4877394]},"properties":{"id":"bikerack:a248e8ca-295f-4f2a-bccc-18680b4e410c","kind":"bikerack","longitude":10.1860361,"latitude":53.4877394,"name":"Fahrradabstellplatz","city":"Bergedorf","address":null,"covered":false,"access":null,"website":null,"phone":null,"source":"OpenStreetMap/node/5520071269","sourceUpdatedAt":null,"verifiedAt":null}},{"type":"Feature","geometry":{"type":"Point","coordinates":[10.1711609,53.4816455]},"properties":{"id":"bikerack:a39b5706-3ba4-49c1-b4c6-ba50aed0fd1b","kind":"bikerack","longitude":10.1711609,"latitude":53.4816455,"name":"Fahrradabstellplatz","city":"Bergedorf","address":null,"covered":false,"access":null,"website":null,"phone":null,"source":"OpenStreetMap/node/3979680333","sourceUpdatedAt":null,"verifiedAt":null}},{"type":"Feature","geometry":{"type":"Point","coordinates":[10.1581081,53.4841637]},"properties":{"id":"bikerack:a5ab33df-aeca-4616-bf8e-95c07417a8c9","kind":"bikerack","longitude":10.1581081,"latitude":53.4841637,"name":"Fahrradabstellplatz","city":"Oststeinbek","address":null,"covered":false,"access":null,"website":null,"phone":null,"source":"OpenStreetMap/node/4827116394","sourceUpdatedAt":null,"verifiedAt":null}},{"type":"Feature","geometry":{"type":"Point","coordinates":[10.1795091,53.4846505]},"properties":{"id":"bikerack:a60b79ba-c71f-40f0-bb76-2b6c63fbe3d9","kind":"bikerack","longitude":10.1795091,"latitude":53.4846505,"name":"Fahrradabstellplatz","city":"Bergedorf","address":null,"covered":false,"access":null,"website":null,"phone":null,"source":"OpenStreetMap/way/549571821","sourceUpdatedAt":null,"verifiedAt":null}},{"type":"Feature","geometry":{"type":"Point","coordinates":[10.1539164,53.4810134]},"properties":{"id":"bikerack:a6773217-9303-433e-ba15-9b915b999b67","kind":"bikerack","longitude":10.1539164,"latitude":53.4810134,"name":"Fahrradabstellplatz","city":"Oststeinbek","address":null,"covered":false,"access":null,"website":null,"phone":null,"source":"OpenStreetMap/node/2585294624","sourceUpdatedAt":null,"verifiedAt":null}},{"type":"Feature","geometry":{"type":"Point","coordinates":[10.1584894,53.4841174]},"properties":{"id":"bikerack:a877f43f-b707-4adc-baa3-1564f52f7718","kind":"bikerack","longitude":10.1584894,"latitude":53.4841174,"name":"Fahrradabstellplatz","city":"Oststeinbek","address":null,"covered":false,"access":null,"website":null,"phone":null,"source":"OpenStreetMap/node/4827116397","sourceUpdatedAt":null,"verifiedAt":null}},{"type":"Feature","geometry":{"type":"Point","coordinates":[10.1727421,53.4800235]},"properties":{"id":"bikerack:ad5ed09d-1389-4fe3-9cc7-4680c390b894","kind":"bikerack","longitude":10.1727421,"latitude":53.4800235,"name":"Fahrradabstellplatz","city":"Bergedorf","address":null,"covered":true,"access":null,"website":null,"phone":null,"source":"OpenStreetMap/node/5418678237","sourceUpdatedAt":null,"verifiedAt":null}},{"type":"Feature","geometry":{"type":"Point","coordinates":[10.1744599,53.4820202]},"properties":{"id":"bikerack:ae930ac6-f6fc-4353-8e8c-f1e8aa38df0c","kind":"bikerack","longitude":10.1744599,"latitude":53.4820202,"name":"Fahrradabstellplatz","city":"Bergedorf","address":null,"covered":false,"access":null,"website":null,"phone":null,"source":"OpenStreetMap/node/6328601409","sourceUpdatedAt":null,"verifiedAt":null}},{"type":"Feature","geometry":{"type":"Point","coordinates":[10.1574854,53.4842382]},"properties":{"id":"bikerack:b20e22ec-4a8b-4774-b104-beb6d3846640","kind":"bikerack","longitude":10.1574854,"latitude":53.4842382,"name":"Fahrradabstellplatz","city":"Oststeinbek","address":null,"covered":false,"access":null,"website":null,"phone":null,"source":"OpenStreetMap/node/4827116391","sourceUpdatedAt":null,"verifiedAt":null}},{"type":"Feature","geometry":{"type":"Point","coordinates":[10.1534539,53.4811655]},"properties":{"id":"bikerack:b235ad57-151b-4aed-a5aa-823ab78a37c1","kind":"bikerack","longitude":10.1534539,"latitude":53.4811655,"name":"Fahrradabstellplatz","city":"Oststeinbek","address":null,"covered":false,"access":null,"website":null,"phone":null,"source":"OpenStreetMap/node/2627549768","sourceUpdatedAt":null,"verifiedAt":null}},{"type":"Feature","geometry":{"type":"Point","coordinates":[10.1632254,53.4878105]},"properties":{"id":"bikerack:b410b22e-59db-4336-83f2-7a4746a9f88f","kind":"bikerack","longitude":10.1632254,"latitude":53.4878105,"name":"Fahrradabstellplatz","city":"Oststeinbek","address":null,"covered":false,"access":null,"website":null,"phone":null,"source":"OpenStreetMap/node/5059861891","sourceUpdatedAt":null,"verifiedAt":null}},{"type":"Feature","geometry":{"type":"Point","coordinates":[10.1629188,53.4860156]},"properties":{"id":"bikerack:b4853540-ad48-48ad-bc25-1e0fbdee545c","kind":"bikerack","longitude":10.1629188,"latitude":53.4860156,"name":"Fahrradabstellplatz","city":"Oststeinbek","address":null,"covered":false,"access":null,"website":null,"phone":null,"source":"OpenStreetMap/node/5464995412","sourceUpdatedAt":null,"verifiedAt":null}},{"type":"Feature","geometry":{"type":"Point","coordinates":[10.1793649,53.4855859]},"properties":{"id":"bikerack:bb36cc60-3afd-4da1-a54a-6253fc8e1346","kind":"bikerack","longitude":10.1793649,"latitude":53.4855859,"name":"Fahrradabstellplatz","city":"Bergedorf","address":null,"covered":false,"access":null,"website":null,"phone":null,"source":"OpenStreetMap/node/5290124122","sourceUpdatedAt":null,"verifiedAt":null}},{"type":"Feature","geometry":{"type":"Point","coordinates":[10.1758753,53.4835876]},"properties":{"id":"bikerack:bbf567d8-88cf-4b57-8a2e-4d383bcdc153","kind":"bikerack","longitude":10.1758753,"latitude":53.4835876,"name":"Fahrradabstellplatz","city":"Bergedorf","address":null,"covered":false,"access":null,"website":null,"phone":null,"source":"OpenStreetMap/node/3368894060","sourceUpdatedAt":null,"verifiedAt":null}},{"type":"Feature","geometry":{"type":"Point","coordinates":[10.1631587,53.487802]},"properties":{"id":"bikerack:bea3eeca-3a7d-473e-87a4-9fcacf1a26de","kind":"bikerack","longitude":10.1631587,"latitude":53.487802,"name":"Fahrradabstellplatz","city":"Oststeinbek","address":null,"covered":false,"access":null,"website":null,"phone":null,"source":"OpenStreetMap/node/5059861890","sourceUpdatedAt":null,"verifiedAt":null}},{"type":"Feature","geometry":{"type":"Point","coordinates":[10.1742276,53.4843572]},"properties":{"id":"bikerack:c3b697d4-ef6a-4dbd-bdd4-c8add610bbab","kind":"bikerack","longitude":10.1742276,"latitude":53.4843572,"name":"Fahrradabstellplatz","city":"Bergedorf","address":null,"covered":false,"access":null,"website":null,"phone":null,"source":"OpenStreetMap/node/3366287822","sourceUpdatedAt":null,"verifiedAt":null}},{"type":"Feature","geometry":{"type":"Point","coordinates":[10.1790829,53.4855811]},"properties":{"id":"bikerack:c3ca56a0-1662-4a00-89a4-5d78caa410d1","kind":"bikerack","longitude":10.1790829,"latitude":53.4855811,"name":"Fahrradabstellplatz","city":"Bergedorf","address":null,"covered":false,"access":null,"website":null,"phone":null,"source":"OpenStreetMap/node/5290124143","sourceUpdatedAt":null,"verifiedAt":null}},{"type":"Feature","geometry":{"type":"Point","coordinates":[10.1944301,53.4799502]},"properties":{"id":"bikerack:c3f9de64-348b-4a74-ab30-6b5f9618ec2f","kind":"bikerack","longitude":10.1944301,"latitude":53.4799502,"name":"Fahrradabstellplatz","city":"Bergedorf","address":null,"covered":true,"access":null,"website":null,"phone":null,"source":"OpenStreetMap/way/638802432","sourceUpdatedAt":null,"verifiedAt":null}},{"type":"Feature","geometry":{"type":"Point","coordinates":[10.1728887,53.480132]},"properties":{"id":"bikerack:c7f28e37-31c6-435d-ad41-705bc0564eff","kind":"bikerack","longitude":10.1728887,"latitude":53.480132,"name":"Fahrradabstellplatz","city":"Bergedorf","address":null,"covered":false,"access":null,"website":null,"phone":null,"source":"OpenStreetMap/node/5418678238","sourceUpdatedAt":null,"verifiedAt":null}},{"type":"Feature","geometry":{"type":"Point","coordinates":[10.1726216,53.4799169]},"properties":{"id":"bikerack:ca9efe83-26bc-41b4-9cf7-e5b0f2b9404e","kind":"bikerack","longitude":10.1726216,"latitude":53.4799169,"name":"Fahrradabstellplatz","city":"Bergedorf","address":null,"covered":false,"access":null,"website":null,"phone":null,"source":"OpenStreetMap/node/5418678236","sourceUpdatedAt":null,"verifiedAt":null}},{"type":"Feature","geometry":{"type":"Point","coordinates":[10.1794744,53.4853872]},"properties":{"id":"bikerack:cc1e9612-947d-423d-ba54-1587ca20e86e","kind":"bikerack","longitude":10.1794744,"latitude":53.4853872,"name":"Fahrradabstellplatz","city":"Bergedorf","address":null,"covered":false,"access":null,"website":null,"phone":null,"source":"OpenStreetMap/node/5304496377","sourceUpdatedAt":null,"verifiedAt":null}},{"type":"Feature","geometry":{"type":"Point","coordinates":[10.1759077,53.4847276]},"properties":{"id":"bikerack:ceb28c24-5c67-4d42-b544-7c7fc973dbdc","kind":"bikerack","longitude":10.1759077,"latitude":53.4847276,"name":"Fahrradabstellplatz","city":"Bergedorf","address":null,"covered":false,"access":null,"website":null,"phone":null,"source":"OpenStreetMap/node/5044992848","sourceUpdatedAt":null,"verifiedAt":null}},{"type":"Feature","geometry":{"type":"Point","coordinates":[10.1592709,53.484023]},"properties":{"id":"bikerack:cf091c8a-d8e3-4645-9bcb-2ac19e3282e3","kind":"bikerack","longitude":10.1592709,"latitude":53.484023,"name":"Fahrradabstellplatz","city":"Oststeinbek","address":null,"covered":false,"access":null,"website":null,"phone":null,"source":"OpenStreetMap/node/4827116401","sourceUpdatedAt":null,"verifiedAt":null}},{"type":"Feature","geometry":{"type":"Point","coordinates":[10.1757269,53.4848172]},"properties":{"id":"bikerack:cf9d0ff3-a644-4cd1-a2ef-633ebecb3206","kind":"bikerack","longitude":10.1757269,"latitude":53.4848172,"name":"Fahrradabstellplatz","city":"Bergedorf","address":null,"covered":false,"access":null,"website":null,"phone":null,"source":"OpenStreetMap/node/5044992847","sourceUpdatedAt":null,"verifiedAt":null}},{"type":"Feature","geometry":{"type":"Point","coordinates":[10.1725241,53.476309]},"properties":{"id":"bikerack:d0ed2759-cba3-46df-a27a-acda26be6c94","kind":"bikerack","longitude":10.1725241,"latitude":53.476309,"name":"Fahrradabstellplatz","city":"Bergedorf","address":null,"covered":false,"access":null,"website":null,"phone":null,"source":"OpenStreetMap/node/3423634237","sourceUpdatedAt":null,"verifiedAt":null}},{"type":"Feature","geometry":{"type":"Point","coordinates":[10.1770007,53.4835683]},"properties":{"id":"bikerack:d35d6658-6d78-4f83-9b06-a65bb2bce760","kind":"bikerack","longitude":10.1770007,"latitude":53.4835683,"name":"Fahrradabstellplatz","city":"Bergedorf","address":null,"covered":false,"access":null,"website":null,"phone":null,"source":"OpenStreetMap/node/6170344387","sourceUpdatedAt":null,"verifiedAt":null}},{"type":"Feature","geometry":{"type":"Point","coordinates":[10.1790545,53.483721]},"properties":{"id":"bikerack:d391dec4-e870-4a0f-8776-f0c650c5b5e0","kind":"bikerack","longitude":10.1790545,"latitude":53.483721,"name":"Fahrradabstellplatz","city":"Bergedorf","address":null,"covered":false,"access":null,"website":null,"phone":null,"source":"OpenStreetMap/node/6170452855","sourceUpdatedAt":null,"verifiedAt":null}},{"type":"Feature","geometry":{"type":"Point","coordinates":[10.1812145,53.4874231]},"properties":{"id":"bikerack:d616be2e-eebb-4ec1-8e91-87f38e77295b","kind":"bikerack","longitude":10.1812145,"latitude":53.4874231,"name":"Fahrradabstellplatz","city":"Bergedorf","address":null,"covered":true,"access":null,"website":null,"phone":null,"source":"OpenStreetMap/way/681391335","sourceUpdatedAt":null,"verifiedAt":null}},{"type":"Feature","geometry":{"type":"Point","coordinates":[10.1755751,53.4858265]},"properties":{"id":"bikerack:d76b9ca2-c383-40f8-8e78-6fb9a3169658","kind":"bikerack","longitude":10.1755751,"latitude":53.4858265,"name":"Fahrradabstellplatz","city":"Bergedorf","address":null,"covered":false,"access":null,"website":null,"phone":null,"source":"OpenStreetMap/node/5139851129","sourceUpdatedAt":null,"verifiedAt":null}},{"type":"Feature","geometry":{"type":"Point","coordinates":[10.1770466,53.4849364]},"properties":{"id":"bikerack:d79c1303-73a8-4872-baed-14188e7b6693","kind":"bikerack","longitude":10.1770466,"latitude":53.4849364,"name":"Fahrradabstellplatz","city":"Bergedorf","address":null,"covered":false,"access":null,"website":null,"phone":null,"source":"OpenStreetMap/node/5176542609","sourceUpdatedAt":null,"verifiedAt":null}},{"type":"Feature","geometry":{"type":"Point","coordinates":[10.1796787,53.4855444]},"properties":{"id":"bikerack:d7ee9a5b-0d82-4d8e-854b-b661be01920a","kind":"bikerack","longitude":10.1796787,"latitude":53.4855444,"name":"Fahrradabstellplatz","city":"Bergedorf","address":null,"covered":false,"access":null,"website":null,"phone":null,"source":"OpenStreetMap/node/5290123419","sourceUpdatedAt":null,"verifiedAt":null}},{"type":"Feature","geometry":{"type":"Point","coordinates":[10.1714257,53.4806276]},"properties":{"id":"bikerack:d94f6543-62a0-44cd-943c-13e2d398e42c","kind":"bikerack","longitude":10.1714257,"latitude":53.4806276,"name":"Fahrradabstellplatz","city":"Bergedorf","address":null,"covered":false,"access":null,"website":null,"phone":null,"source":"OpenStreetMap/node/6015516154","sourceUpdatedAt":null,"verifiedAt":null}},{"type":"Feature","geometry":{"type":"Point","coordinates":[10.1751967,53.4847183]},"properties":{"id":"bikerack:d9627f7b-47f6-4461-bee4-7e376581bf2e","kind":"bikerack","longitude":10.1751967,"latitude":53.4847183,"name":"Fahrradabstellplatz","city":"Bergedorf","address":null,"covered":false,"access":null,"website":null,"phone":null,"source":"OpenStreetMap/node/5126233697","sourceUpdatedAt":null,"verifiedAt":null}},{"type":"Feature","geometry":{"type":"Point","coordinates":[10.1708927,53.4813191]},"properties":{"id":"bikerack:dc2780b4-c471-4f39-bb06-14a89e25f4ad","kind":"bikerack","longitude":10.1708927,"latitude":53.4813191,"name":"Fahrradabstellplatz","city":"Bergedorf","address":null,"covered":false,"access":null,"website":null,"phone":null,"source":"OpenStreetMap/node/3979680331","sourceUpdatedAt":null,"verifiedAt":null}},{"type":"Feature","geometry":{"type":"Point","coordinates":[10.1580098,53.4841748]},"properties":{"id":"bikerack:dd60d64b-0cdd-4313-a49a-8ee97cf00f5e","kind":"bikerack","longitude":10.1580098,"latitude":53.4841748,"name":"Fahrradabstellplatz","city":"Oststeinbek","address":null,"covered":false,"access":null,"website":null,"phone":null,"source":"OpenStreetMap/node/4827116393","sourceUpdatedAt":null,"verifiedAt":null}},{"type":"Feature","geometry":{"type":"Point","coordinates":[10.1920182,53.4771693]},"properties":{"id":"bikerack:e0e3201d-b958-4f32-bd07-7572c3be6e57","kind":"bikerack","longitude":10.1920182,"latitude":53.4771693,"name":"Fahrradabstellplatz","city":"Bergedorf","address":null,"covered":false,"access":null,"website":null,"phone":null,"source":"OpenStreetMap/node/13433069707","sourceUpdatedAt":null,"verifiedAt":null}},{"type":"Feature","geometry":{"type":"Point","coordinates":[10.1750078,53.4833908]},"properties":{"id":"bikerack:e33122fe-1f73-46aa-8a85-3807ead6600a","kind":"bikerack","longitude":10.1750078,"latitude":53.4833908,"name":"Fahrradabstellplatz","city":"Bergedorf","address":null,"covered":false,"access":null,"website":null,"phone":null,"source":"OpenStreetMap/node/3368894057","sourceUpdatedAt":null,"verifiedAt":null}},{"type":"Feature","geometry":{"type":"Point","coordinates":[10.1785261,53.4860118]},"properties":{"id":"bikerack:e4126ff1-2d3a-4d38-99da-c606063741af","kind":"bikerack","longitude":10.1785261,"latitude":53.4860118,"name":"Fahrradabstellplatz","city":"Bergedorf","address":null,"covered":false,"access":null,"website":null,"phone":null,"source":"OpenStreetMap/node/5124487822","sourceUpdatedAt":null,"verifiedAt":null}},{"type":"Feature","geometry":{"type":"Point","coordinates":[10.1782426,53.4838044]},"properties":{"id":"bikerack:e4355617-e403-4cb0-a664-20d9023ab51a","kind":"bikerack","longitude":10.1782426,"latitude":53.4838044,"name":"Fahrradabstellplatz","city":"Bergedorf","address":null,"covered":false,"access":null,"website":null,"phone":null,"source":"OpenStreetMap/node/6170452850","sourceUpdatedAt":null,"verifiedAt":null}},{"type":"Feature","geometry":{"type":"Point","coordinates":[10.1809078,53.4875277]},"properties":{"id":"bikerack:e4ad99f7-2ac7-462b-9be5-e8dc797706fb","kind":"bikerack","longitude":10.1809078,"latitude":53.4875277,"name":"Fahrradabstellplatz","city":"Bergedorf","address":null,"covered":true,"access":null,"website":null,"phone":null,"source":"OpenStreetMap/node/6482713903","sourceUpdatedAt":null,"verifiedAt":null}},{"type":"Feature","geometry":{"type":"Point","coordinates":[10.173307,53.482232]},"properties":{"id":"bikerack:e9d1db81-4db1-412f-a15d-27decc22718b","kind":"bikerack","longitude":10.173307,"latitude":53.482232,"name":"Fahrradabstellplatz","city":"Bergedorf","address":null,"covered":false,"access":null,"website":null,"phone":null,"source":"OpenStreetMap/node/3366286393","sourceUpdatedAt":null,"verifiedAt":null}},{"type":"Feature","geometry":{"type":"Point","coordinates":[10.1543114,53.4810278]},"properties":{"id":"bikerack:ea76f930-73df-40e1-a383-320d223810d8","kind":"bikerack","longitude":10.1543114,"latitude":53.4810278,"name":"Fahrradabstellplatz","city":"Oststeinbek","address":null,"covered":false,"access":null,"website":null,"phone":null,"source":"OpenStreetMap/way/784276987","sourceUpdatedAt":null,"verifiedAt":null}},{"type":"Feature","geometry":{"type":"Point","coordinates":[10.1762701,53.4852098]},"properties":{"id":"bikerack:ebdd1a26-e86b-46c6-b5a1-2507fdbc8682","kind":"bikerack","longitude":10.1762701,"latitude":53.4852098,"name":"Fahrradabstellplatz","city":"Bergedorf","address":null,"covered":false,"access":null,"website":null,"phone":null,"source":"OpenStreetMap/node/5176542592","sourceUpdatedAt":null,"verifiedAt":null}},{"type":"Feature","geometry":{"type":"Point","coordinates":[10.1757263,53.483676]},"properties":{"id":"bikerack:eca7e533-d14e-48d9-a5ff-adae5f05374c","kind":"bikerack","longitude":10.1757263,"latitude":53.483676,"name":"Fahrradabstellplatz","city":"Bergedorf","address":null,"covered":false,"access":null,"website":null,"phone":null,"source":"OpenStreetMap/node/3368894059","sourceUpdatedAt":null,"verifiedAt":null}},{"type":"Feature","geometry":{"type":"Point","coordinates":[10.1724718,53.4798045]},"properties":{"id":"bikerack:ef757ed3-cbc1-4307-a26e-7a2b46e2914f","kind":"bikerack","longitude":10.1724718,"latitude":53.4798045,"name":"Fahrradabstellplatz","city":"Bergedorf","address":null,"covered":false,"access":null,"website":null,"phone":null,"source":"OpenStreetMap/node/5418678235","sourceUpdatedAt":null,"verifiedAt":null}},{"type":"Feature","geometry":{"type":"Point","coordinates":[10.1781412,53.4856463]},"properties":{"id":"bikerack:ef89a17d-b4b8-4de5-b283-6e1a90103fa5","kind":"bikerack","longitude":10.1781412,"latitude":53.4856463,"name":"Fahrradabstellplatz","city":"Bergedorf","address":null,"covered":false,"access":null,"website":null,"phone":null,"source":"OpenStreetMap/node/5124487821","sourceUpdatedAt":null,"verifiedAt":null}},{"type":"Feature","geometry":{"type":"Point","coordinates":[10.1759213,53.4840813]},"properties":{"id":"bikerack:f188518f-8bd1-46c0-8ac0-165826d87a82","kind":"bikerack","longitude":10.1759213,"latitude":53.4840813,"name":"Fahrradabstellplatz","city":"Bergedorf","address":null,"covered":false,"access":null,"website":null,"phone":null,"source":"OpenStreetMap/node/5167183463","sourceUpdatedAt":null,"verifiedAt":null}},{"type":"Feature","geometry":{"type":"Point","coordinates":[10.1807761,53.4873809]},"properties":{"id":"bikerack:f29397e2-c644-4934-a0a8-d93065efa4c1","kind":"bikerack","longitude":10.1807761,"latitude":53.4873809,"name":"Fahrradabstellplatz","city":"Bergedorf","address":null,"covered":false,"access":null,"website":null,"phone":null,"source":"OpenStreetMap/way/690927700","sourceUpdatedAt":null,"verifiedAt":null}},{"type":"Feature","geometry":{"type":"Point","coordinates":[10.1626672,53.487739]},"properties":{"id":"bikerack:f408fe42-7f8b-4066-a58e-7a8ee2429d33","kind":"bikerack","longitude":10.1626672,"latitude":53.487739,"name":"Fahrradabstellplatz","city":"Oststeinbek","address":null,"covered":false,"access":null,"website":null,"phone":null,"source":"OpenStreetMap/node/5059861886","sourceUpdatedAt":null,"verifiedAt":null}},{"type":"Feature","geometry":{"type":"Point","coordinates":[10.1674326,53.4830685]},"properties":{"id":"bikerack:f6acaddc-0143-4b70-bd01-81e15020c3d0","kind":"bikerack","longitude":10.1674326,"latitude":53.4830685,"name":"Fahrradabstellplatz","city":"Bergedorf","address":null,"covered":false,"access":null,"website":null,"phone":null,"source":"OpenStreetMap/node/3979680321","sourceUpdatedAt":null,"verifiedAt":null}},{"type":"Feature","geometry":{"type":"Point","coordinates":[10.1710576,53.4814588]},"properties":{"id":"bikerack:f70381d5-7e68-4d3f-b865-131f44dc2c09","kind":"bikerack","longitude":10.1710576,"latitude":53.4814588,"name":"Fahrradabstellplatz","city":"Bergedorf","address":null,"covered":false,"access":null,"website":null,"phone":null,"source":"OpenStreetMap/node/3979680332","sourceUpdatedAt":null,"verifiedAt":null}},{"type":"Feature","geometry":{"type":"Point","coordinates":[10.1813769,53.4874046]},"properties":{"id":"bikerack:f826afe0-a07a-4cf1-a17d-b5c4bfd75f07","kind":"bikerack","longitude":10.1813769,"latitude":53.4874046,"name":"Fahrradabstellplatz","city":"Bergedorf","address":null,"covered":true,"access":null,"website":null,"phone":null,"source":"OpenStreetMap/way/681391334","sourceUpdatedAt":null,"verifiedAt":null}},{"type":"Feature","geometry":{"type":"Point","coordinates":[10.1758088,53.4844622]},"properties":{"id":"bikerack:f854dfcc-620a-4162-a17a-2bd31b9c810a","kind":"bikerack","longitude":10.1758088,"latitude":53.4844622,"name":"Fahrradabstellplatz","city":"Bergedorf","address":null,"covered":false,"access":null,"website":null,"phone":null,"source":"OpenStreetMap/node/5126233710","sourceUpdatedAt":null,"verifiedAt":null}},{"type":"Feature","geometry":{"type":"Point","coordinates":[10.1788131,53.4837517]},"properties":{"id":"bikerack:ff03391b-66ea-4b5a-b6fb-4e01a029287c","kind":"bikerack","longitude":10.1788131,"latitude":53.4837517,"name":"Fahrradabstellplatz","city":"Bergedorf","address":null,"covered":false,"access":null,"website":null,"phone":null,"source":"OpenStreetMap/node/6170452856","sourceUpdatedAt":null,"verifiedAt":null}},{"type":"Feature","geometry":{"type":"Point","coordinates":[10.1611835,53.4860198]},"properties":{"id":"bikerack:ff2bdd72-0b9a-46fb-9f71-8c7a27b2a4b8","kind":"bikerack","longitude":10.1611835,"latitude":53.4860198,"name":"Fahrradabstellplatz","city":"Oststeinbek","address":null,"covered":false,"access":null,"website":null,"phone":null,"source":"OpenStreetMap/way/247717479","sourceUpdatedAt":null,"verifiedAt":null}},{"type":"Feature","geometry":{"type":"Point","coordinates":[10.1813552,53.4873285]},"properties":{"id":"repair:e23fdfde-0156-4805-87de-1fcba26c4414","kind":"repair","longitude":10.1813552,"latitude":53.4873285,"name":"Fahrradreparaturstation","city":"Bergedorf","address":null,"covered":false,"access":null,"website":null,"phone":null,"source":"OpenStreetMap/node/8893032451","sourceUpdatedAt":null,"verifiedAt":null}}]}