{"type":"FeatureCollection","features":[{"type":"Feature","geometry":{"type":"Point","coordinates":[10.187519,52.8569111]},"properties":{"id":"bikerack:1b6bcc54-3d73-40ad-80a8-b1784e4f1aac","kind":"bikerack","longitude":10.187519,"latitude":52.8569111,"name":"Fahrradabstellplatz","city":"Fassberg","address":null,"covered":false,"access":null,"website":null,"phone":null,"source":"OpenStreetMap/node/9944951513","sourceUpdatedAt":null,"verifiedAt":null}},{"type":"Feature","geometry":{"type":"Point","coordinates":[10.1877244,52.8678737]},"properties":{"id":"bikerack:525831e6-d709-4bbc-97c7-4924aced266a","kind":"bikerack","longitude":10.1877244,"latitude":52.8678737,"name":"Fahrradabstellplatz","city":"Fassberg","address":null,"covered":false,"access":null,"website":null,"phone":null,"source":"OpenStreetMap/node/9944928563","sourceUpdatedAt":null,"verifiedAt":null}},{"type":"Feature","geometry":{"type":"Point","coordinates":[10.1841784,52.8799447]},"properties":{"id":"bikerack:65e0d84a-9282-4f69-a3a6-d37ca31481d5","kind":"bikerack","longitude":10.1841784,"latitude":52.8799447,"name":"Fahrradabstellplatz","city":"Fassberg","address":null,"covered":false,"access":null,"website":null,"phone":null,"source":"OpenStreetMap/node/1766155595","sourceUpdatedAt":null,"verifiedAt":null}}]}