{"type":"FeatureCollection","features":[{"type":"Feature","geometry":{"type":"Point","coordinates":[10.1759426,51.6595657]},"properties":{"id":"bikerack:59e6d21c-f303-4a9d-851d-6137c045226d","kind":"bikerack","longitude":10.1759426,"latitude":51.6595657,"name":"Fahrradabstellplatz","city":"Wulften","address":null,"covered":true,"access":null,"website":null,"phone":null,"source":"OpenStreetMap/way/937885775","sourceUpdatedAt":null,"verifiedAt":null}},{"type":"Feature","geometry":{"type":"Point","coordinates":[10.1694621,51.6613113]},"properties":{"id":"bikerack:92275628-d9ea-4296-aedf-9b2c6c50dc85","kind":"bikerack","longitude":10.1694621,"latitude":51.6613113,"name":"Fahrradabstellplatz","city":"Wulften","address":null,"covered":false,"access":null,"website":null,"phone":null,"source":"OpenStreetMap/way/938148412","sourceUpdatedAt":null,"verifiedAt":null}},{"type":"Feature","geometry":{"type":"Point","coordinates":[10.1751037,51.6592145]},"properties":{"id":"bikerack:c72eaecf-5987-4c22-840f-1b267ea18b22","kind":"bikerack","longitude":10.1751037,"latitude":51.6592145,"name":"An der Bahn – Fahrradabstellplatz","city":"Wulften","address":null,"covered":true,"access":null,"website":null,"phone":null,"source":"OpenStreetMap/node/12400302609","sourceUpdatedAt":null,"verifiedAt":null}},{"type":"Feature","geometry":{"type":"Point","coordinates":[10.1778794,51.6600291]},"properties":{"id":"service:03ad7133-8c50-4437-a441-bc8625a3f332","kind":"service","longitude":10.1778794,"latitude":51.6600291,"name":"ToTo's BikeShop","city":"Wulften am Harz","address":null,"covered":null,"access":null,"website":null,"phone":null,"source":"OpenStreetMap/way/909597523","sourceUpdatedAt":null,"verifiedAt":null}}]}