{"type":"FeatureCollection","features":[{"type":"Feature","geometry":{"type":"Point","coordinates":[10.1587929,51.6308033]},"properties":{"id":"bikerack:05a57f32-c5ff-4bb2-8751-bdb1f34a8dff","kind":"bikerack","longitude":10.1587929,"latitude":51.6308033,"name":"Fahrradabstellplatz","city":"Bilshausen","address":null,"covered":false,"access":null,"website":null,"phone":null,"source":"OpenStreetMap/node/12116744850","sourceUpdatedAt":null,"verifiedAt":null}},{"type":"Feature","geometry":{"type":"Point","coordinates":[10.1603113,51.6315705]},"properties":{"id":"bikerack:56250cdb-fa06-442c-bec5-de90859d66b5","kind":"bikerack","longitude":10.1603113,"latitude":51.6315705,"name":"Fahrradabstellplatz","city":"Bilshausen","address":null,"covered":false,"access":null,"website":null,"phone":null,"source":"OpenStreetMap/node/544328561","sourceUpdatedAt":null,"verifiedAt":null}},{"type":"Feature","geometry":{"type":"Point","coordinates":[10.1598986,51.6274692]},"properties":{"id":"bikerack:6e78ab6f-31df-4890-b77c-8e0c8f277ebb","kind":"bikerack","longitude":10.1598986,"latitude":51.6274692,"name":"Fahrradabstellplatz","city":"Bilshausen","address":null,"covered":false,"access":null,"website":null,"phone":null,"source":"OpenStreetMap/node/12116744512","sourceUpdatedAt":null,"verifiedAt":null}},{"type":"Feature","geometry":{"type":"Point","coordinates":[10.1601881,51.631107]},"properties":{"id":"bikerack:77c3f1fa-6923-4717-8bc8-b8d73ef4de2e","kind":"bikerack","longitude":10.1601881,"latitude":51.631107,"name":"Fahrradabstellplatz","city":"Bilshausen","address":null,"covered":false,"access":null,"website":null,"phone":null,"source":"OpenStreetMap/way/1377476319","sourceUpdatedAt":null,"verifiedAt":null}},{"type":"Feature","geometry":{"type":"Point","coordinates":[10.1599501,51.6328243]},"properties":{"id":"bikerack:b46e028f-265e-4be8-8682-87b5e59c9fb2","kind":"bikerack","longitude":10.1599501,"latitude":51.6328243,"name":"Fahrradabstellplatz","city":"Bilshausen","address":null,"covered":false,"access":null,"website":null,"phone":null,"source":"OpenStreetMap/node/12116704584","sourceUpdatedAt":null,"verifiedAt":null}}]}