{"type":"FeatureCollection","features":[{"type":"Feature","geometry":{"type":"Point","coordinates":[10.1638674,46.5624594]},"properties":{"id":"repair:1e8eac3e-f085-4dba-b1c7-b171f6db8b2b","kind":"repair","longitude":10.1638674,"latitude":46.5624594,"name":"Stazione di riparazione bici","city":"Livigno","address":null,"covered":false,"access":null,"website":null,"phone":null,"source":"OpenStreetMap/node/13048296172","sourceUpdatedAt":null,"verifiedAt":null}},{"type":"Feature","geometry":{"type":"Point","coordinates":[10.1630528,46.5611756]},"properties":{"id":"water:77a69d67-0217-43be-bdb9-578627061333","kind":"water","longitude":10.1630528,"latitude":46.5611756,"name":"Fontanella","city":"Livigno","address":null,"covered":null,"access":null,"website":null,"phone":null,"source":"OpenStreetMap/node/3802784313","sourceUpdatedAt":null,"verifiedAt":null}}]}