{"type":"FeatureCollection","features":[{"type":"Feature","geometry":{"type":"Point","coordinates":[10.1513751,45.4870316]},"properties":{"id":"bikerack:72b36525-ee59-4239-96cf-19cd47eabace","kind":"bikerack","longitude":10.1513751,"latitude":45.4870316,"name":"Parcheggio bici","city":"Castel Mella","address":null,"covered":false,"access":null,"website":null,"phone":null,"source":"OpenStreetMap/node/13229843107","sourceUpdatedAt":null,"verifiedAt":null}},{"type":"Feature","geometry":{"type":"Point","coordinates":[10.1698669,45.4785758]},"properties":{"id":"bikerack:a9e723e5-b2c0-476f-942e-fb7123d7c44c","kind":"bikerack","longitude":10.1698669,"latitude":45.4785758,"name":"Parcheggio bici","city":"Flero","address":null,"covered":false,"access":null,"website":null,"phone":null,"source":"OpenStreetMap/node/8992578488","sourceUpdatedAt":null,"verifiedAt":null}},{"type":"Feature","geometry":{"type":"Point","coordinates":[10.1769648,45.4825336]},"properties":{"id":"bikerack:b06b8eec-181b-4b45-8c72-9cc3b24dabbb","kind":"bikerack","longitude":10.1769648,"latitude":45.4825336,"name":"Parcheggio bici","city":"Flero","address":null,"covered":true,"access":null,"website":null,"phone":null,"source":"OpenStreetMap/node/13261681683","sourceUpdatedAt":null,"verifiedAt":null}},{"type":"Feature","geometry":{"type":"Point","coordinates":[10.1775288,45.4822452]},"properties":{"id":"bikerack:cd7c38d0-cc03-4649-931e-6cc00dd211cd","kind":"bikerack","longitude":10.1775288,"latitude":45.4822452,"name":"Parcheggio bici","city":"Flero","address":null,"covered":false,"access":null,"website":null,"phone":null,"source":"OpenStreetMap/node/13261681685","sourceUpdatedAt":null,"verifiedAt":null}},{"type":"Feature","geometry":{"type":"Point","coordinates":[10.1664251,45.4815942]},"properties":{"id":"water:0fe1880c-d8b6-427d-acb6-4ba140c78b60","kind":"water","longitude":10.1664251,"latitude":45.4815942,"name":"Fontanella","city":"Flero","address":null,"covered":null,"access":null,"website":null,"phone":null,"source":"OpenStreetMap/node/12986527702","sourceUpdatedAt":null,"verifiedAt":null}},{"type":"Feature","geometry":{"type":"Point","coordinates":[10.1726521,45.4826954]},"properties":{"id":"water:172c1cef-917f-4d9f-a422-2b237efff586","kind":"water","longitude":10.1726521,"latitude":45.4826954,"name":"Fontanella","city":"Flero","address":null,"covered":null,"access":null,"website":null,"phone":null,"source":"OpenStreetMap/node/12990479948","sourceUpdatedAt":null,"verifiedAt":null}},{"type":"Feature","geometry":{"type":"Point","coordinates":[10.1735562,45.461349]},"properties":{"id":"water:474071c5-e269-4125-b193-e4da79fef0bc","kind":"water","longitude":10.1735562,"latitude":45.461349,"name":"Punto Acqua","city":"Poncarale","address":null,"covered":null,"access":null,"website":null,"phone":null,"source":"OpenStreetMap/node/1806976911","sourceUpdatedAt":null,"verifiedAt":null}},{"type":"Feature","geometry":{"type":"Point","coordinates":[10.1729951,45.4833109]},"properties":{"id":"water:7fbad140-137c-4d37-b649-2907a136a5aa","kind":"water","longitude":10.1729951,"latitude":45.4833109,"name":"Fontanella","city":"Flero","address":null,"covered":null,"access":null,"website":null,"phone":null,"source":"OpenStreetMap/node/12990479947","sourceUpdatedAt":null,"verifiedAt":null}},{"type":"Feature","geometry":{"type":"Point","coordinates":[10.1826452,45.4885801]},"properties":{"id":"water:a9768c76-eb23-4aff-83f2-f58ee71dcd80","kind":"water","longitude":10.1826452,"latitude":45.4885801,"name":"Fontanella","city":"Flero","address":null,"covered":null,"access":null,"website":null,"phone":null,"source":"OpenStreetMap/node/8684229841","sourceUpdatedAt":null,"verifiedAt":null}},{"type":"Feature","geometry":{"type":"Point","coordinates":[10.1737361,45.4610983]},"properties":{"id":"water:ba6ffdff-15bb-4907-9956-29af4bf83dea","kind":"water","longitude":10.1737361,"latitude":45.4610983,"name":"Fontanella","city":"Poncarale","address":null,"covered":null,"access":null,"website":null,"phone":null,"source":"OpenStreetMap/node/4700983998","sourceUpdatedAt":null,"verifiedAt":null}},{"type":"Feature","geometry":{"type":"Point","coordinates":[10.1796056,45.4887775]},"properties":{"id":"water:c2e5982b-360e-4792-8662-94443a1d08ff","kind":"water","longitude":10.1796056,"latitude":45.4887775,"name":"Fontanella","city":"Flero","address":null,"covered":null,"access":null,"website":null,"phone":null,"source":"OpenStreetMap/node/4707302009","sourceUpdatedAt":null,"verifiedAt":null}}]}