{"type":"FeatureCollection","features":[{"type":"Feature","geometry":{"type":"Point","coordinates":[18.2000636,48.0708297]},"properties":{"id":"bikerack:60bbc628-1b4d-42d9-b05f-5b4b4ec30771","kind":"bikerack","longitude":18.2000636,"latitude":48.0708297,"name":"Biciklitároló","city":"Surany","address":null,"covered":true,"access":null,"website":null,"phone":null,"source":"OpenStreetMap/node/6459068154","sourceUpdatedAt":null,"verifiedAt":null}},{"type":"Feature","geometry":{"type":"Point","coordinates":[18.2010975,48.0714973]},"properties":{"id":"bikerack:74b4e19c-1edb-4249-801a-00bbe7841803","kind":"bikerack","longitude":18.2010975,"latitude":48.0714973,"name":"Biciklitároló","city":"Surany","address":null,"covered":false,"access":null,"website":null,"phone":null,"source":"OpenStreetMap/node/6459068157","sourceUpdatedAt":null,"verifiedAt":null}}]}