{"type":"FeatureCollection","features":[{"type":"Feature","geometry":{"type":"Point","coordinates":[8.5954958,53.2236305]},"properties":{"id":"bikerack:36a01521-69ed-45ee-b991-dc887708cdb2","kind":"bikerack","longitude":8.5954958,"latitude":53.2236305,"name":"Fahrradabstellplatz","city":"Schwanewede","address":null,"covered":false,"access":null,"website":null,"phone":null,"source":"OpenStreetMap/node/10225303100","sourceUpdatedAt":null,"verifiedAt":null}},{"type":"Feature","geometry":{"type":"Point","coordinates":[8.5955049,53.2240312]},"properties":{"id":"bikerack:84f7bccf-5dcf-431c-bdf2-b17b38595184","kind":"bikerack","longitude":8.5955049,"latitude":53.2240312,"name":"Fahrradabstellplatz","city":"Schwanewede","address":null,"covered":false,"access":null,"website":null,"phone":null,"source":"OpenStreetMap/node/12779960387","sourceUpdatedAt":null,"verifiedAt":null}},{"type":"Feature","geometry":{"type":"Point","coordinates":[8.5942868,53.2232421]},"properties":{"id":"bikerack:85f42b46-d163-4254-9b5a-f31babc6f4eb","kind":"bikerack","longitude":8.5942868,"latitude":53.2232421,"name":"Fahrradabstellplatz","city":"Schwanewede","address":null,"covered":false,"access":null,"website":null,"phone":null,"source":"OpenStreetMap/node/9881702135","sourceUpdatedAt":null,"verifiedAt":null}},{"type":"Feature","geometry":{"type":"Point","coordinates":[8.5929619,53.2251134]},"properties":{"id":"bikerack:957f159d-7267-4165-bb8d-87d510ed37e3","kind":"bikerack","longitude":8.5929619,"latitude":53.2251134,"name":"Fahrradabstellplatz","city":"Schwanewede","address":null,"covered":false,"access":null,"website":null,"phone":null,"source":"OpenStreetMap/node/10015391589","sourceUpdatedAt":null,"verifiedAt":null}},{"type":"Feature","geometry":{"type":"Point","coordinates":[8.5915388,53.2252837]},"properties":{"id":"bikerack:ab433d92-506b-4c2f-83e5-811f25fabd8d","kind":"bikerack","longitude":8.5915388,"latitude":53.2252837,"name":"Fahrradabstellplatz","city":"Schwanewede","address":null,"covered":false,"access":null,"website":null,"phone":null,"source":"OpenStreetMap/node/10015420417","sourceUpdatedAt":null,"verifiedAt":null}},{"type":"Feature","geometry":{"type":"Point","coordinates":[8.5954433,53.2233098]},"properties":{"id":"bikerack:e755a078-2593-46e2-82a3-4c830029331e","kind":"bikerack","longitude":8.5954433,"latitude":53.2233098,"name":"Fahrradabstellplatz","city":"Schwanewede","address":null,"covered":false,"access":null,"website":null,"phone":null,"source":"OpenStreetMap/node/10225303102","sourceUpdatedAt":null,"verifiedAt":null}},{"type":"Feature","geometry":{"type":"Point","coordinates":[8.5957375,53.2234415]},"properties":{"id":"bikerack:ecaca665-8a4b-4751-9bf7-d32b8d55e781","kind":"bikerack","longitude":8.5957375,"latitude":53.2234415,"name":"Fahrradabstellplatz","city":"Schwanewede","address":null,"covered":false,"access":null,"website":null,"phone":null,"source":"OpenStreetMap/node/10225303101","sourceUpdatedAt":null,"verifiedAt":null}}]}