{"type":"FeatureCollection","features":[{"type":"Feature","geometry":{"type":"Point","coordinates":[8.6123991,49.7221071]},"properties":{"id":"bikerack:039117c3-9c7e-4552-b440-938770d88717","kind":"bikerack","longitude":8.6123991,"latitude":49.7221071,"name":"Fahrradabstellplatz","city":"Zwingenberg","address":null,"covered":false,"access":null,"website":null,"phone":null,"source":"OpenStreetMap/node/12369637297","sourceUpdatedAt":null,"verifiedAt":null}},{"type":"Feature","geometry":{"type":"Point","coordinates":[8.6126204,49.7226568]},"properties":{"id":"bikerack:231bfda8-4e30-45ea-a3d9-a57e6f34f2bb","kind":"bikerack","longitude":8.6126204,"latitude":49.7226568,"name":"Fahrradabstellplatz","city":"Zwingenberg","address":null,"covered":false,"access":null,"website":null,"phone":null,"source":"OpenStreetMap/node/9051183368","sourceUpdatedAt":null,"verifiedAt":null}},{"type":"Feature","geometry":{"type":"Point","coordinates":[8.6125301,49.723244]},"properties":{"id":"bikerack:2e9e470c-ac2b-4f30-8327-d12ecf1d4875","kind":"bikerack","longitude":8.6125301,"latitude":49.723244,"name":"Fahrradabstellplatz","city":"Zwingenberg","address":null,"covered":false,"access":null,"website":null,"phone":null,"source":"OpenStreetMap/node/9051183379","sourceUpdatedAt":null,"verifiedAt":null}},{"type":"Feature","geometry":{"type":"Point","coordinates":[8.6122593,49.7240247]},"properties":{"id":"bikerack:4810fe59-9541-41a8-aa56-1cb90bd18719","kind":"bikerack","longitude":8.6122593,"latitude":49.7240247,"name":"Fahrradabstellplatz","city":"Zwingenberg","address":null,"covered":false,"access":null,"website":null,"phone":null,"source":"OpenStreetMap/node/9051183390","sourceUpdatedAt":null,"verifiedAt":null}},{"type":"Feature","geometry":{"type":"Point","coordinates":[8.6109379,49.7216123]},"properties":{"id":"bikerack:6379b9e1-5caf-425e-a239-b3e1626fb3d1","kind":"bikerack","longitude":8.6109379,"latitude":49.7216123,"name":"Fahrradabstellplatz","city":"Zwingenberg","address":null,"covered":false,"access":null,"website":null,"phone":null,"source":"OpenStreetMap/node/12369602128","sourceUpdatedAt":null,"verifiedAt":null}},{"type":"Feature","geometry":{"type":"Point","coordinates":[8.6132691,49.7214267]},"properties":{"id":"bikerack:6bcf9dfb-33bb-40df-88e6-1a3814f57dda","kind":"bikerack","longitude":8.6132691,"latitude":49.7214267,"name":"Fahrradabstellplatz","city":"Zwingenberg","address":null,"covered":false,"access":null,"website":null,"phone":null,"source":"OpenStreetMap/node/12369633180","sourceUpdatedAt":null,"verifiedAt":null}},{"type":"Feature","geometry":{"type":"Point","coordinates":[8.6123814,49.7219342]},"properties":{"id":"bikerack:8acabf86-d79f-4c53-bcea-681ea0f2ee67","kind":"bikerack","longitude":8.6123814,"latitude":49.7219342,"name":"Fahrradabstellplatz","city":"Zwingenberg","address":null,"covered":false,"access":null,"website":null,"phone":null,"source":"OpenStreetMap/node/12369632962","sourceUpdatedAt":null,"verifiedAt":null}},{"type":"Feature","geometry":{"type":"Point","coordinates":[8.6125094,49.7225887]},"properties":{"id":"bikerack:bdb7e91f-de31-4fd8-b426-8d92c3b16aff","kind":"bikerack","longitude":8.6125094,"latitude":49.7225887,"name":"Fahrradabstellplatz","city":"Zwingenberg","address":null,"covered":false,"access":null,"website":null,"phone":null,"source":"OpenStreetMap/node/9051183374","sourceUpdatedAt":null,"verifiedAt":null}},{"type":"Feature","geometry":{"type":"Point","coordinates":[8.6127255,49.7232152]},"properties":{"id":"bikerack:d729506e-32ae-497d-8306-83a20557b217","kind":"bikerack","longitude":8.6127255,"latitude":49.7232152,"name":"Fahrradabstellplatz","city":"Zwingenberg","address":null,"covered":false,"access":null,"website":null,"phone":null,"source":"OpenStreetMap/node/3700180912","sourceUpdatedAt":null,"verifiedAt":null}},{"type":"Feature","geometry":{"type":"Point","coordinates":[8.6108012,49.7026729]},"properties":{"id":"bikerack:e45eec3f-d5c4-40dc-82cd-46ed6fb96593","kind":"bikerack","longitude":8.6108012,"latitude":49.7026729,"name":"Fahrradabstellplatz","city":"Bensheim","address":null,"covered":false,"access":null,"website":null,"phone":null,"source":"OpenStreetMap/node/9818869984","sourceUpdatedAt":null,"verifiedAt":null}},{"type":"Feature","geometry":{"type":"Point","coordinates":[8.6102053,49.703147]},"properties":{"id":"service:8ea61922-441a-40a8-9879-adf3827720f8","kind":"service","longitude":8.6102053,"latitude":49.703147,"name":"CycleFit Europe - Bike Fitting","city":"Bensheim","address":null,"covered":null,"access":null,"website":null,"phone":null,"source":"OpenStreetMap/node/7574913126","sourceUpdatedAt":null,"verifiedAt":null}},{"type":"Feature","geometry":{"type":"Point","coordinates":[8.5705075,49.7049536]},"properties":{"id":"service:cdd516a8-d034-4c0e-acb6-0fbeb7d44de1","kind":"service","longitude":8.5705075,"latitude":49.7049536,"name":"Fahrräder Schreibwaren","city":"Bensheim","address":null,"covered":null,"access":null,"website":null,"phone":null,"source":"OpenStreetMap/way/146662719","sourceUpdatedAt":null,"verifiedAt":null}}]}