{"type":"FeatureCollection","features":[{"type":"Feature","geometry":{"type":"Point","coordinates":[8.5758988,49.3817142]},"properties":{"id":"bikerack:03f94cbe-a458-4de1-a508-0d8cc9ffdb21","kind":"bikerack","longitude":8.5758988,"latitude":49.3817142,"name":"Fahrradabstellplatz","city":"Schwetzingen","address":null,"covered":true,"access":null,"website":null,"phone":null,"source":"OpenStreetMap/node/12738957961","sourceUpdatedAt":null,"verifiedAt":null}},{"type":"Feature","geometry":{"type":"Point","coordinates":[8.5847772,49.3820904]},"properties":{"id":"bikerack:3020f375-9366-4f4d-bd42-617030311b41","kind":"bikerack","longitude":8.5847772,"latitude":49.3820904,"name":"Fahrradabstellplatz","city":"Schwetzingen","address":null,"covered":false,"access":null,"website":null,"phone":null,"source":"OpenStreetMap/way/1180351761","sourceUpdatedAt":null,"verifiedAt":null}},{"type":"Feature","geometry":{"type":"Point","coordinates":[8.5861469,49.3802977]},"properties":{"id":"bikerack:31005add-9db4-4615-b4c5-3747ebd1cf0a","kind":"bikerack","longitude":8.5861469,"latitude":49.3802977,"name":"Fahrradparkplatz Bellamar","city":"Schwetzingen","address":null,"covered":false,"access":null,"website":null,"phone":null,"source":"OpenStreetMap/way/95778820","sourceUpdatedAt":null,"verifiedAt":null}},{"type":"Feature","geometry":{"type":"Point","coordinates":[8.5770905,49.3802697]},"properties":{"id":"bikerack:45618b6d-683f-4507-bca5-bd984c70e931","kind":"bikerack","longitude":8.5770905,"latitude":49.3802697,"name":"Fahrradabstellplatz","city":"Schwetzingen","address":null,"covered":true,"access":null,"website":null,"phone":null,"source":"OpenStreetMap/node/12731824538","sourceUpdatedAt":null,"verifiedAt":null}},{"type":"Feature","geometry":{"type":"Point","coordinates":[8.5796902,49.3739375]},"properties":{"id":"bikerack:4a494328-51e8-4071-80e5-b02888c3734b","kind":"bikerack","longitude":8.5796902,"latitude":49.3739375,"name":"Fahrradabstellplatz","city":"Schwetzingen","address":null,"covered":true,"access":null,"website":null,"phone":null,"source":"OpenStreetMap/way/1313172567","sourceUpdatedAt":null,"verifiedAt":null}},{"type":"Feature","geometry":{"type":"Point","coordinates":[8.588417,49.3814967]},"properties":{"id":"bikerack:52733672-74cb-4265-bca7-9e08509894b0","kind":"bikerack","longitude":8.588417,"latitude":49.3814967,"name":"Fahrradabstellplatz","city":"Schwetzingen","address":null,"covered":false,"access":null,"website":null,"phone":null,"source":"OpenStreetMap/way/1288612204","sourceUpdatedAt":null,"verifiedAt":null}},{"type":"Feature","geometry":{"type":"Point","coordinates":[8.5777249,49.3798326]},"properties":{"id":"bikerack:66984a3a-3c7a-4329-9dcc-c184375764ef","kind":"bikerack","longitude":8.5777249,"latitude":49.3798326,"name":"Fahrradabstellplatz","city":"Schwetzingen","address":null,"covered":false,"access":null,"website":null,"phone":null,"source":"OpenStreetMap/node/11564314677","sourceUpdatedAt":null,"verifiedAt":null}},{"type":"Feature","geometry":{"type":"Point","coordinates":[8.5793363,49.3743191]},"properties":{"id":"bikerack:6dc7eee1-1e72-4fc0-a476-6ed5b11e3e38","kind":"bikerack","longitude":8.5793363,"latitude":49.3743191,"name":"Fahrradabstellplatz","city":"Schwetzingen","address":null,"covered":true,"access":null,"website":null,"phone":null,"source":"OpenStreetMap/way/350424322","sourceUpdatedAt":null,"verifiedAt":null}},{"type":"Feature","geometry":{"type":"Point","coordinates":[8.5896143,49.3747467]},"properties":{"id":"bikerack:6f2ed179-f4a1-4b28-a768-ab8cf2f4c385","kind":"bikerack","longitude":8.5896143,"latitude":49.3747467,"name":"Fahrradabstellplatz","city":"Schwetzingen","address":null,"covered":true,"access":null,"website":null,"phone":null,"source":"OpenStreetMap/node/2889164748","sourceUpdatedAt":null,"verifiedAt":null}},{"type":"Feature","geometry":{"type":"Point","coordinates":[8.5774761,49.373683]},"properties":{"id":"bikerack:8a94de1a-af4b-4a23-8458-2dbe710b6980","kind":"bikerack","longitude":8.5774761,"latitude":49.373683,"name":"Fahrradabstellplatz","city":"Schwetzingen","address":null,"covered":true,"access":null,"website":null,"phone":null,"source":"OpenStreetMap/way/1416931572","sourceUpdatedAt":null,"verifiedAt":null}},{"type":"Feature","geometry":{"type":"Point","coordinates":[8.5815277,49.3813113]},"properties":{"id":"bikerack:bb5307e4-81b8-4075-9bf6-2bc18611cb05","kind":"bikerack","longitude":8.5815277,"latitude":49.3813113,"name":"Fahrradabstellplatz","city":"Schwetzingen","address":null,"covered":false,"access":null,"website":null,"phone":null,"source":"OpenStreetMap/node/11784681318","sourceUpdatedAt":null,"verifiedAt":null}},{"type":"Feature","geometry":{"type":"Point","coordinates":[8.5816259,49.3806523]},"properties":{"id":"bikerack:c33dfa58-72eb-467c-8bb5-f0e0ebcfd484","kind":"bikerack","longitude":8.5816259,"latitude":49.3806523,"name":"Fahrradabstellplatz","city":"Schwetzingen","address":null,"covered":false,"access":null,"website":null,"phone":null,"source":"OpenStreetMap/node/11787124226","sourceUpdatedAt":null,"verifiedAt":null}},{"type":"Feature","geometry":{"type":"Point","coordinates":[8.581826,49.3808132]},"properties":{"id":"bikerack:c96e3fae-8470-490f-8f1a-7f7299d73705","kind":"bikerack","longitude":8.581826,"latitude":49.3808132,"name":"Fahrradabstellplatz","city":"Schwetzingen","address":null,"covered":false,"access":null,"website":null,"phone":null,"source":"OpenStreetMap/node/11786564953","sourceUpdatedAt":null,"verifiedAt":null}},{"type":"Feature","geometry":{"type":"Point","coordinates":[8.589009,49.3799901]},"properties":{"id":"bikerack:cec40528-9b48-4cb8-9409-eecd986bb082","kind":"bikerack","longitude":8.589009,"latitude":49.3799901,"name":"Fahrradabstellplatz","city":"Schwetzingen","address":null,"covered":false,"access":null,"website":null,"phone":null,"source":"OpenStreetMap/way/1445637754","sourceUpdatedAt":null,"verifiedAt":null}},{"type":"Feature","geometry":{"type":"Point","coordinates":[8.5854484,49.3656542]},"properties":{"id":"bikerack:d7ba8a90-b347-44c3-9fa5-68f3764ba8a9","kind":"bikerack","longitude":8.5854484,"latitude":49.3656542,"name":"Fahrrad Deck","city":"Oftersheim","address":null,"covered":true,"access":null,"website":null,"phone":null,"source":"OpenStreetMap/way/74951152","sourceUpdatedAt":null,"verifiedAt":null}},{"type":"Feature","geometry":{"type":"Point","coordinates":[8.579639,49.3742188]},"properties":{"id":"bikerack:e89e1cb4-6852-413a-980a-9851fd0b059d","kind":"bikerack","longitude":8.579639,"latitude":49.3742188,"name":"Fahrradabstellplatz","city":"Schwetzingen","address":null,"covered":true,"access":null,"website":null,"phone":null,"source":"OpenStreetMap/way/302240980","sourceUpdatedAt":null,"verifiedAt":null}},{"type":"Feature","geometry":{"type":"Point","coordinates":[8.5826377,49.3695031]},"properties":{"id":"repair:be2593d0-3b3f-47d4-a8ff-4a633d9cd21a","kind":"repair","longitude":8.5826377,"latitude":49.3695031,"name":"ADAC Radservice-Station","city":"Oftersheim","address":null,"covered":false,"access":null,"website":null,"phone":null,"source":"OpenStreetMap/node/13098412857","sourceUpdatedAt":null,"verifiedAt":null}},{"type":"Feature","geometry":{"type":"Point","coordinates":[8.5758441,49.3811007]},"properties":{"id":"service:1882336b-907a-47ac-9ec2-7b26e3fe0f68","kind":"service","longitude":8.5758441,"latitude":49.3811007,"name":"Fahrrad Fender","city":"Schwetzingen","address":null,"covered":null,"access":null,"website":null,"phone":null,"source":"OpenStreetMap/way/95790260","sourceUpdatedAt":null,"verifiedAt":null}},{"type":"Feature","geometry":{"type":"Point","coordinates":[8.5822085,49.3623569]},"properties":{"id":"water:56562b17-b64b-404f-a438-eb7cf387ee50","kind":"water","longitude":8.5822085,"latitude":49.3623569,"name":"Friedhof Oftersheim","city":"Oftersheim","address":null,"covered":null,"access":null,"website":null,"phone":null,"source":"OpenStreetMap/node/6516617485","sourceUpdatedAt":null,"verifiedAt":null}},{"type":"Feature","geometry":{"type":"Point","coordinates":[8.5810253,49.3688594]},"properties":{"id":"water:9081ea26-997e-4334-b905-baa7591f8f60","kind":"water","longitude":8.5810253,"latitude":49.3688594,"name":"Trinkwasser","city":"Oftersheim","address":null,"covered":null,"access":null,"website":null,"phone":null,"source":"OpenStreetMap/node/13095919038","sourceUpdatedAt":null,"verifiedAt":null}},{"type":"Feature","geometry":{"type":"Point","coordinates":[8.5766035,49.3575817]},"properties":{"id":"water:e4be2847-4f77-4621-9e16-2cc03ea52d93","kind":"water","longitude":8.5766035,"latitude":49.3575817,"name":"Trinkwasser","city":"Oftersheim","address":null,"covered":null,"access":null,"website":null,"phone":null,"source":"OpenStreetMap/node/4462759429","sourceUpdatedAt":null,"verifiedAt":null}}]}