{"type":"FeatureCollection","features":[{"type":"Feature","geometry":{"type":"Point","coordinates":[8.6131298,45.4453048]},"properties":{"id":"bikerack:5bdb4b58-7215-44f1-b18c-b459bbf928c6","kind":"bikerack","longitude":8.6131298,"latitude":45.4453048,"name":"Parcheggio bici","city":"Novara","address":null,"covered":false,"access":null,"website":null,"phone":null,"source":"OpenStreetMap/node/11778010766","sourceUpdatedAt":null,"verifiedAt":null}},{"type":"Feature","geometry":{"type":"Point","coordinates":[8.6007163,45.446877]},"properties":{"id":"bikerack:9009b28c-e754-44dc-bbf9-4daccfa22eed","kind":"bikerack","longitude":8.6007163,"latitude":45.446877,"name":"Parcheggio bici","city":"Novara","address":null,"covered":false,"access":null,"website":null,"phone":null,"source":"OpenStreetMap/node/7973349471","sourceUpdatedAt":null,"verifiedAt":null}},{"type":"Feature","geometry":{"type":"Point","coordinates":[8.6125588,45.4447418]},"properties":{"id":"bikerack:d0f5a130-7fdc-48f2-8885-d8fdfa8070e1","kind":"bikerack","longitude":8.6125588,"latitude":45.4447418,"name":"Parcheggio bici","city":"Novara","address":null,"covered":false,"access":null,"website":null,"phone":null,"source":"OpenStreetMap/node/5376281740","sourceUpdatedAt":null,"verifiedAt":null}},{"type":"Feature","geometry":{"type":"Point","coordinates":[8.6083355,45.4340152]},"properties":{"id":"bikerack:e7b1394f-12d9-4ce5-b650-f1364fe089c6","kind":"bikerack","longitude":8.6083355,"latitude":45.4340152,"name":"Parcheggio bici","city":"Torrion Quartara","address":null,"covered":false,"access":null,"website":null,"phone":null,"source":"OpenStreetMap/node/10133007764","sourceUpdatedAt":null,"verifiedAt":null}},{"type":"Feature","geometry":{"type":"Point","coordinates":[8.6118605,45.4352239]},"properties":{"id":"service:cdb2c6a0-504e-462a-acec-6acd229d288d","kind":"service","longitude":8.6118605,"latitude":45.4352239,"name":"Negozio di biciclette","city":"Torrion Quartara","address":null,"covered":null,"access":null,"website":null,"phone":null,"source":"OpenStreetMap/node/12002675352","sourceUpdatedAt":null,"verifiedAt":null}},{"type":"Feature","geometry":{"type":"Point","coordinates":[8.6046934,45.4319592]},"properties":{"id":"water:6f0e23cc-f28d-452a-883a-82729c0f920c","kind":"water","longitude":8.6046934,"latitude":45.4319592,"name":"Fontanella","city":"Torrion Quartara","address":null,"covered":null,"access":null,"website":null,"phone":null,"source":"OpenStreetMap/node/11964440082","sourceUpdatedAt":null,"verifiedAt":null}},{"type":"Feature","geometry":{"type":"Point","coordinates":[8.611156,45.4352458]},"properties":{"id":"water:803d23ee-dc03-4442-97d2-a9207565a5b4","kind":"water","longitude":8.611156,"latitude":45.4352458,"name":"Fontanella","city":"Torrion Quartara","address":null,"covered":null,"access":null,"website":null,"phone":null,"source":"OpenStreetMap/node/11777935152","sourceUpdatedAt":null,"verifiedAt":null}},{"type":"Feature","geometry":{"type":"Point","coordinates":[8.5706905,45.4329503]},"properties":{"id":"water:8f4160d5-570d-47bc-9e37-5a03a79040e6","kind":"water","longitude":8.5706905,"latitude":45.4329503,"name":"Fontanella","city":"Lumellogno","address":null,"covered":null,"access":null,"website":null,"phone":null,"source":"OpenStreetMap/node/11254620419","sourceUpdatedAt":null,"verifiedAt":null}},{"type":"Feature","geometry":{"type":"Point","coordinates":[8.6132492,45.4453409]},"properties":{"id":"water:9a03467f-fa3f-489f-b6b9-69069d610186","kind":"water","longitude":8.6132492,"latitude":45.4453409,"name":"Fontanella","city":"Novara","address":null,"covered":null,"access":null,"website":null,"phone":null,"source":"OpenStreetMap/node/8320855141","sourceUpdatedAt":null,"verifiedAt":null}},{"type":"Feature","geometry":{"type":"Point","coordinates":[8.6098805,45.4378018]},"properties":{"id":"water:a60bea1a-9729-4f52-b3d8-01723148e17c","kind":"water","longitude":8.6098805,"latitude":45.4378018,"name":"Via Antonio D'Enricis – Fontanella","city":"Novara","address":null,"covered":null,"access":null,"website":null,"phone":null,"source":"OpenStreetMap/node/5801888092","sourceUpdatedAt":null,"verifiedAt":null}}]}