{"type":"FeatureCollection","features":[{"type":"Feature","geometry":{"type":"Point","coordinates":[18.6155553,54.7230182]},"properties":{"id":"bikerack:d4e141e8-e803-49ff-968c-24671c0d3bf7","kind":"bikerack","longitude":18.6155553,"latitude":54.7230182,"name":"Biciklitároló","city":"Jastarnia","address":null,"covered":false,"access":null,"website":null,"phone":null,"source":"OpenStreetMap/node/9058309872","sourceUpdatedAt":null,"verifiedAt":null}},{"type":"Feature","geometry":{"type":"Point","coordinates":[18.615672,54.7229914]},"properties":{"id":"bikerack:ececdb18-f6c5-49ab-b6ed-86534c70a157","kind":"bikerack","longitude":18.615672,"latitude":54.7229914,"name":"Biciklitároló","city":"Jastarnia","address":null,"covered":false,"access":null,"website":null,"phone":null,"source":"OpenStreetMap/node/9061610710","sourceUpdatedAt":null,"verifiedAt":null}}]}