{"type":"FeatureCollection","features":[{"type":"Feature","geometry":{"type":"Point","coordinates":[18.6229692,53.1116537]},"properties":{"id":"bikerack:555841c4-0e00-4e6a-bc87-8311c67c47a3","kind":"bikerack","longitude":18.6229692,"latitude":53.1116537,"name":"Biciklitároló","city":"Lysomice","address":null,"covered":false,"access":null,"website":null,"phone":null,"source":"OpenStreetMap/node/7142470162","sourceUpdatedAt":null,"verifiedAt":null}},{"type":"Feature","geometry":{"type":"Point","coordinates":[18.6244264,53.105019]},"properties":{"id":"bikerack:688069f2-41ec-4b96-9e07-141b3fb2a95c","kind":"bikerack","longitude":18.6244264,"latitude":53.105019,"name":"Biciklitároló","city":"Lysomice","address":null,"covered":false,"access":null,"website":null,"phone":null,"source":"OpenStreetMap/node/13674320795","sourceUpdatedAt":null,"verifiedAt":null}}]}