{"type":"FeatureCollection","features":[{"type":"Feature","geometry":{"type":"Point","coordinates":[18.606099,46.289568]},"properties":{"id":"water:13e4ff74-f3bf-4a9c-95d8-ba32ff38affd","kind":"water","longitude":18.606099,"latitude":46.289568,"name":"Ivókút","city":null,"address":null,"covered":null,"access":null,"website":null,"phone":null,"source":"OpenStreetMap","sourceUpdatedAt":null,"verifiedAt":null}},{"type":"Feature","geometry":{"type":"Point","coordinates":[18.6073242,46.2887559]},"properties":{"id":"water:7414adc4-6190-41d1-9c35-7e9f07f982aa","kind":"water","longitude":18.6073242,"latitude":46.2887559,"name":"Ivókút","city":null,"address":null,"covered":null,"access":null,"website":null,"phone":null,"source":"OpenStreetMap","sourceUpdatedAt":null,"verifiedAt":null}},{"type":"Feature","geometry":{"type":"Point","coordinates":[18.6079647,46.2914074]},"properties":{"id":"water:965749c5-1026-4455-a5af-470fecd5a4b5","kind":"water","longitude":18.6079647,"latitude":46.2914074,"name":"Ivókút","city":null,"address":null,"covered":null,"access":null,"website":null,"phone":null,"source":"OpenStreetMap","sourceUpdatedAt":null,"verifiedAt":null}}]}