{"type":"FeatureCollection","features":[{"type":"Feature","geometry":{"type":"Point","coordinates":[10.1966402,53.7866799]},"properties":{"id":"bikerack:bb8a5618-a9be-40fc-985d-9bd640747c37","kind":"bikerack","longitude":10.1966402,"latitude":53.7866799,"name":"Fahrradabstellplatz","city":"Nienwohld","address":null,"covered":false,"access":null,"website":null,"phone":null,"source":"OpenStreetMap/node/7123425032","sourceUpdatedAt":null,"verifiedAt":null}},{"type":"Feature","geometry":{"type":"Point","coordinates":[10.2317168,53.8002061]},"properties":{"id":"repair:46721a50-d7c7-4bf6-aa16-57ebc8ac0a8d","kind":"repair","longitude":10.2317168,"latitude":53.8002061,"name":"Fahrradreparaturstation","city":"Sulfeld","address":null,"covered":false,"access":null,"website":null,"phone":null,"source":"OpenStreetMap/node/9781188539","sourceUpdatedAt":null,"verifiedAt":null}},{"type":"Feature","geometry":{"type":"Point","coordinates":[10.2223518,53.7992402]},"properties":{"id":"repair:c84a5350-7dc4-4ebe-bd00-4bf55343c8b4","kind":"repair","longitude":10.2223518,"latitude":53.7992402,"name":"Fahrradreparaturstation","city":"Sulfeld","address":null,"covered":false,"access":null,"website":null,"phone":null,"source":"OpenStreetMap/node/13064053212","sourceUpdatedAt":null,"verifiedAt":null}}]}