{"type":"FeatureCollection","features":[{"type":"Feature","geometry":{"type":"Point","coordinates":[10.2345675,53.6735619]},"properties":{"id":"bikerack:03ca5f7b-cb4c-4980-a05c-f1f82a986344","kind":"bikerack","longitude":10.2345675,"latitude":53.6735619,"name":"Fahrradabstellplatz","city":"Ahrensburg","address":null,"covered":false,"access":null,"website":null,"phone":null,"source":"OpenStreetMap/node/13596627002","sourceUpdatedAt":null,"verifiedAt":null}},{"type":"Feature","geometry":{"type":"Point","coordinates":[10.2306941,53.6795271]},"properties":{"id":"bikerack:0aefec4a-a335-4113-bcbd-583f6bf363b5","kind":"bikerack","longitude":10.2306941,"latitude":53.6795271,"name":"Fahrradabstellplatz","city":"Ahrensburg","address":null,"covered":false,"access":null,"website":null,"phone":null,"source":"OpenStreetMap/way/258806055","sourceUpdatedAt":null,"verifiedAt":null}},{"type":"Feature","geometry":{"type":"Point","coordinates":[10.2370785,53.6725628]},"properties":{"id":"bikerack:0c758b16-98c4-4948-b2c8-8485a694783f","kind":"bikerack","longitude":10.2370785,"latitude":53.6725628,"name":"Nessler","city":"Ahrensburg","address":null,"covered":false,"access":null,"website":null,"phone":null,"source":"OpenStreetMap/way/204368629","sourceUpdatedAt":null,"verifiedAt":null}},{"type":"Feature","geometry":{"type":"Point","coordinates":[10.2370698,53.6740145]},"properties":{"id":"bikerack:0e944b87-ab85-4b8e-8ed5-a367dcac6c0f","kind":"bikerack","longitude":10.2370698,"latitude":53.6740145,"name":"Fahrradabstellplatz","city":"Ahrensburg","address":null,"covered":false,"access":null,"website":null,"phone":null,"source":"OpenStreetMap/way/403614015","sourceUpdatedAt":null,"verifiedAt":null}},{"type":"Feature","geometry":{"type":"Point","coordinates":[10.2199748,53.6793262]},"properties":{"id":"bikerack:0f4cf3ca-ce57-4040-94b7-265d628c28e5","kind":"bikerack","longitude":10.2199748,"latitude":53.6793262,"name":"Heimgartenschule","city":"Ahrensburg","address":null,"covered":false,"access":null,"website":null,"phone":null,"source":"OpenStreetMap/way/591552145","sourceUpdatedAt":null,"verifiedAt":null}},{"type":"Feature","geometry":{"type":"Point","coordinates":[10.2385424,53.674321]},"properties":{"id":"bikerack:0fc5ffa2-2040-45d8-a184-7767e0ea7981","kind":"bikerack","longitude":10.2385424,"latitude":53.674321,"name":"Fahrradabstellplatz","city":"Ahrensburg","address":null,"covered":false,"access":null,"website":null,"phone":null,"source":"OpenStreetMap/node/12713888562","sourceUpdatedAt":null,"verifiedAt":null}},{"type":"Feature","geometry":{"type":"Point","coordinates":[10.2342357,53.672191]},"properties":{"id":"bikerack:1581240f-e8f3-4525-a579-e550caf3e460","kind":"bikerack","longitude":10.2342357,"latitude":53.672191,"name":"Fahrradabstellplatz","city":"Ahrensburg","address":null,"covered":false,"access":null,"website":null,"phone":null,"source":"OpenStreetMap/way/402898200","sourceUpdatedAt":null,"verifiedAt":null}},{"type":"Feature","geometry":{"type":"Point","coordinates":[10.2263322,53.6785783]},"properties":{"id":"bikerack:2b5228e6-e2ae-4819-9781-8ff361c794d8","kind":"bikerack","longitude":10.2263322,"latitude":53.6785783,"name":"Fahrradabstellplatz","city":"Ahrensburg","address":null,"covered":false,"access":null,"website":null,"phone":null,"source":"OpenStreetMap/node/13596613274","sourceUpdatedAt":null,"verifiedAt":null}},{"type":"Feature","geometry":{"type":"Point","coordinates":[10.2337491,53.6732796]},"properties":{"id":"bikerack:2d657ab7-a00b-46e5-90f4-eb8e02b70f0d","kind":"bikerack","longitude":10.2337491,"latitude":53.6732796,"name":"Fahrradabstellplatz","city":"Ahrensburg","address":null,"covered":false,"access":null,"website":null,"phone":null,"source":"OpenStreetMap/way/391353969","sourceUpdatedAt":null,"verifiedAt":null}},{"type":"Feature","geometry":{"type":"Point","coordinates":[10.2313315,53.6799008]},"properties":{"id":"bikerack:2ef76686-eae0-4795-b439-ed17c3af2030","kind":"bikerack","longitude":10.2313315,"latitude":53.6799008,"name":"Fahrradabstellplatz","city":"Ahrensburg","address":null,"covered":false,"access":null,"website":null,"phone":null,"source":"OpenStreetMap/node/13596613275","sourceUpdatedAt":null,"verifiedAt":null}},{"type":"Feature","geometry":{"type":"Point","coordinates":[10.2381025,53.6796364]},"properties":{"id":"bikerack:2ff12b30-7ded-442f-a28a-4eecace37d8d","kind":"bikerack","longitude":10.2381025,"latitude":53.6796364,"name":"Fahrradabstellplatz","city":"Ahrensburg","address":null,"covered":false,"access":null,"website":null,"phone":null,"source":"OpenStreetMap/node/13596613279","sourceUpdatedAt":null,"verifiedAt":null}},{"type":"Feature","geometry":{"type":"Point","coordinates":[10.2325548,53.6718376]},"properties":{"id":"bikerack:33967b17-95ee-4e11-9aab-97ba3f4dafb6","kind":"bikerack","longitude":10.2325548,"latitude":53.6718376,"name":"Fahrradabstellplatz","city":"Ahrensburg","address":null,"covered":false,"access":null,"website":null,"phone":null,"source":"OpenStreetMap/node/12878623817","sourceUpdatedAt":null,"verifiedAt":null}},{"type":"Feature","geometry":{"type":"Point","coordinates":[10.2362986,53.6715274]},"properties":{"id":"bikerack:358e0201-50d0-4da7-b9ca-11095f6e0283","kind":"bikerack","longitude":10.2362986,"latitude":53.6715274,"name":"Fahrradabstellplatz","city":"Ahrensburg","address":null,"covered":false,"access":null,"website":null,"phone":null,"source":"OpenStreetMap/node/13596077020","sourceUpdatedAt":null,"verifiedAt":null}},{"type":"Feature","geometry":{"type":"Point","coordinates":[10.2350572,53.6801493]},"properties":{"id":"bikerack:40203fb6-0a44-451e-bd40-3aff60f9e194","kind":"bikerack","longitude":10.2350572,"latitude":53.6801493,"name":"ATSV Vereins- und Jugendhaus","city":"Ahrensburg","address":null,"covered":false,"access":null,"website":null,"phone":null,"source":"OpenStreetMap/node/3215982044","sourceUpdatedAt":null,"verifiedAt":null}},{"type":"Feature","geometry":{"type":"Point","coordinates":[10.2262948,53.678955]},"properties":{"id":"bikerack:4104c3b8-fdad-4833-8bdb-cdec5890576e","kind":"bikerack","longitude":10.2262948,"latitude":53.678955,"name":"Fahrradabstellplatz","city":"Ahrensburg","address":null,"covered":false,"access":null,"website":null,"phone":null,"source":"OpenStreetMap/node/13596613273","sourceUpdatedAt":null,"verifiedAt":null}},{"type":"Feature","geometry":{"type":"Point","coordinates":[10.2355041,53.6723721]},"properties":{"id":"bikerack:4444b4c5-0a94-4a10-8241-602468515601","kind":"bikerack","longitude":10.2355041,"latitude":53.6723721,"name":"Fahrradabstellplatz","city":"Ahrensburg","address":null,"covered":false,"access":null,"website":null,"phone":null,"source":"OpenStreetMap/node/3906856074","sourceUpdatedAt":null,"verifiedAt":null}},{"type":"Feature","geometry":{"type":"Point","coordinates":[10.2372004,53.6744523]},"properties":{"id":"bikerack:4802ffb2-d060-4a44-9e32-d6c39780bb29","kind":"bikerack","longitude":10.2372004,"latitude":53.6744523,"name":"Fahrradabstellplatz","city":"Ahrensburg","address":null,"covered":false,"access":null,"website":null,"phone":null,"source":"OpenStreetMap/way/1373099849","sourceUpdatedAt":null,"verifiedAt":null}},{"type":"Feature","geometry":{"type":"Point","coordinates":[10.2362043,53.6732759]},"properties":{"id":"bikerack:49788301-b383-47ff-a1e3-cfb38c73e523","kind":"bikerack","longitude":10.2362043,"latitude":53.6732759,"name":"Fahrradabstellplatz","city":"Ahrensburg","address":null,"covered":false,"access":null,"website":null,"phone":null,"source":"OpenStreetMap/way/399023393","sourceUpdatedAt":null,"verifiedAt":null}},{"type":"Feature","geometry":{"type":"Point","coordinates":[10.2344357,53.6808621]},"properties":{"id":"bikerack:4aeb56ae-440a-42c0-a4b7-76f700cd04b6","kind":"bikerack","longitude":10.2344357,"latitude":53.6808621,"name":"Fahrradabstellplatz","city":"Ahrensburg","address":null,"covered":false,"access":null,"website":null,"phone":null,"source":"OpenStreetMap/node/13596613277","sourceUpdatedAt":null,"verifiedAt":null}},{"type":"Feature","geometry":{"type":"Point","coordinates":[10.2387042,53.6711717]},"properties":{"id":"bikerack:4fcb64b7-5149-4b24-b3ea-7199815c25d2","kind":"bikerack","longitude":10.2387042,"latitude":53.6711717,"name":"Fahrradabstellplatz","city":"Ahrensburg","address":null,"covered":false,"access":null,"website":null,"phone":null,"source":"OpenStreetMap/node/13596627006","sourceUpdatedAt":null,"verifiedAt":null}},{"type":"Feature","geometry":{"type":"Point","coordinates":[10.2171284,53.6760016]},"properties":{"id":"bikerack:5045de20-9e5d-4b29-b9af-6a418c2bd1f2","kind":"bikerack","longitude":10.2171284,"latitude":53.6760016,"name":"Fahrradabstellplatz","city":"Ahrensburg","address":null,"covered":false,"access":null,"website":null,"phone":null,"source":"OpenStreetMap/node/13596041570","sourceUpdatedAt":null,"verifiedAt":null}},{"type":"Feature","geometry":{"type":"Point","coordinates":[10.236239,53.6734446]},"properties":{"id":"bikerack:511f5943-b193-47dc-9989-9fce749033e5","kind":"bikerack","longitude":10.236239,"latitude":53.6734446,"name":"Fahrradabstellplatz","city":"Ahrensburg","address":null,"covered":false,"access":null,"website":null,"phone":null,"source":"OpenStreetMap/way/400143105","sourceUpdatedAt":null,"verifiedAt":null}},{"type":"Feature","geometry":{"type":"Point","coordinates":[10.2364274,53.6723391]},"properties":{"id":"bikerack:51580b0f-0988-440e-b6e4-aae72b65e04b","kind":"bikerack","longitude":10.2364274,"latitude":53.6723391,"name":"Fahrradabstellplatz","city":"Ahrensburg","address":null,"covered":false,"access":null,"website":null,"phone":null,"source":"OpenStreetMap/way/406404670","sourceUpdatedAt":null,"verifiedAt":null}},{"type":"Feature","geometry":{"type":"Point","coordinates":[10.2231854,53.6730714]},"properties":{"id":"bikerack:51eab03b-fea7-4416-b1d5-8a979a1685c5","kind":"bikerack","longitude":10.2231854,"latitude":53.6730714,"name":"Fahrradabstellplatz","city":"Ahrensburg","address":null,"covered":false,"access":null,"website":null,"phone":null,"source":"OpenStreetMap/way/148073173","sourceUpdatedAt":null,"verifiedAt":null}},{"type":"Feature","geometry":{"type":"Point","coordinates":[10.2314866,53.6720362]},"properties":{"id":"bikerack:55887162-1c2f-4523-8d80-c76dc1fbb373","kind":"bikerack","longitude":10.2314866,"latitude":53.6720362,"name":"Fahrradabstellplatz","city":"Ahrensburg","address":null,"covered":false,"access":null,"website":null,"phone":null,"source":"OpenStreetMap/node/12878623818","sourceUpdatedAt":null,"verifiedAt":null}},{"type":"Feature","geometry":{"type":"Point","coordinates":[10.2367549,53.6805829]},"properties":{"id":"bikerack:5a82541d-d799-4b7c-968b-b7499d4a3b15","kind":"bikerack","longitude":10.2367549,"latitude":53.6805829,"name":"Fahrradabstellplatz","city":"Ahrensburg","address":null,"covered":false,"access":null,"website":null,"phone":null,"source":"OpenStreetMap/node/4781431021","sourceUpdatedAt":null,"verifiedAt":null}},{"type":"Feature","geometry":{"type":"Point","coordinates":[10.2351868,53.6799612]},"properties":{"id":"bikerack:601bd1e3-534f-4134-a843-cf0a50192f80","kind":"bikerack","longitude":10.2351868,"latitude":53.6799612,"name":"ATSV Tanzsparte","city":"Ahrensburg","address":null,"covered":false,"access":null,"website":null,"phone":null,"source":"OpenStreetMap/node/3224673480","sourceUpdatedAt":null,"verifiedAt":null}},{"type":"Feature","geometry":{"type":"Point","coordinates":[10.2179594,53.6718659]},"properties":{"id":"bikerack:6235bf9e-c2c2-4ea1-898d-197522683ddf","kind":"bikerack","longitude":10.2179594,"latitude":53.6718659,"name":"Fahrradabstellplatz","city":"Ahrensburg","address":null,"covered":false,"access":null,"website":null,"phone":null,"source":"OpenStreetMap/node/13596041566","sourceUpdatedAt":null,"verifiedAt":null}},{"type":"Feature","geometry":{"type":"Point","coordinates":[10.2363787,53.6738948]},"properties":{"id":"bikerack:658957e2-7e32-4b7f-9907-8f728ad0127d","kind":"bikerack","longitude":10.2363787,"latitude":53.6738948,"name":"Fahrradabstellplatz","city":"Ahrensburg","address":null,"covered":true,"access":null,"website":null,"phone":null,"source":"OpenStreetMap/way/400145386","sourceUpdatedAt":null,"verifiedAt":null}},{"type":"Feature","geometry":{"type":"Point","coordinates":[10.2347826,53.6722398]},"properties":{"id":"bikerack:685f05ec-f8d8-4f41-8764-b6ad8bb165cb","kind":"bikerack","longitude":10.2347826,"latitude":53.6722398,"name":"Fahrradabstellplatz","city":"Ahrensburg","address":null,"covered":false,"access":null,"website":null,"phone":null,"source":"OpenStreetMap/node/3908192579","sourceUpdatedAt":null,"verifiedAt":null}},{"type":"Feature","geometry":{"type":"Point","coordinates":[10.238362,53.6743375]},"properties":{"id":"bikerack:6bca8680-4ecd-4a13-bf58-52f202ab1297","kind":"bikerack","longitude":10.238362,"latitude":53.6743375,"name":"Fahrradabstellplatz","city":"Ahrensburg","address":null,"covered":false,"access":null,"website":null,"phone":null,"source":"OpenStreetMap/node/12713888558","sourceUpdatedAt":null,"verifiedAt":null}},{"type":"Feature","geometry":{"type":"Point","coordinates":[10.2370242,53.6775831]},"properties":{"id":"bikerack:7274ce16-fe20-4911-836f-de68540ac8fe","kind":"bikerack","longitude":10.2370242,"latitude":53.6775831,"name":"Fahrradabstellplatz","city":"Ahrensburg","address":null,"covered":false,"access":null,"website":null,"phone":null,"source":"OpenStreetMap/node/3302270357","sourceUpdatedAt":null,"verifiedAt":null}},{"type":"Feature","geometry":{"type":"Point","coordinates":[10.2344021,53.6808712]},"properties":{"id":"bikerack:7ab75df7-0301-44e7-9350-9b433d6772fd","kind":"bikerack","longitude":10.2344021,"latitude":53.6808712,"name":"Fahrrad-P","city":"Ahrensburg","address":null,"covered":false,"access":null,"website":null,"phone":null,"source":"OpenStreetMap/way/309687435","sourceUpdatedAt":null,"verifiedAt":null}},{"type":"Feature","geometry":{"type":"Point","coordinates":[10.2386193,53.6710534]},"properties":{"id":"bikerack:83d72cfc-468c-44ed-a7c6-342087bd5bdf","kind":"bikerack","longitude":10.2386193,"latitude":53.6710534,"name":"Fahrradabstellplatz","city":"Ahrensburg","address":null,"covered":false,"access":null,"website":null,"phone":null,"source":"OpenStreetMap/node/13596627007","sourceUpdatedAt":null,"verifiedAt":null}},{"type":"Feature","geometry":{"type":"Point","coordinates":[10.2372937,53.685718]},"properties":{"id":"bikerack:84001a01-ae10-4d6a-bfd1-4c83e2c3ba55","kind":"bikerack","longitude":10.2372937,"latitude":53.685718,"name":"Fahrradabstellplatz","city":"Ahrensburg","address":null,"covered":false,"access":null,"website":null,"phone":null,"source":"OpenStreetMap/node/13596613295","sourceUpdatedAt":null,"verifiedAt":null}},{"type":"Feature","geometry":{"type":"Point","coordinates":[10.2389919,53.6728258]},"properties":{"id":"bikerack:8746a793-e010-488c-91ad-9e4a648da63d","kind":"bikerack","longitude":10.2389919,"latitude":53.6728258,"name":"Fahrradabstellplatz","city":"Ahrensburg","address":null,"covered":false,"access":null,"website":null,"phone":null,"source":"OpenStreetMap/node/13596613300","sourceUpdatedAt":null,"verifiedAt":null}},{"type":"Feature","geometry":{"type":"Point","coordinates":[10.2385518,53.6784353]},"properties":{"id":"bikerack:8826d6fd-4295-4bb6-9717-b6a62df704f1","kind":"bikerack","longitude":10.2385518,"latitude":53.6784353,"name":"Fahrradabstellplatz","city":"Ahrensburg","address":null,"covered":false,"access":null,"website":null,"phone":null,"source":"OpenStreetMap/way/1482682902","sourceUpdatedAt":null,"verifiedAt":null}},{"type":"Feature","geometry":{"type":"Point","coordinates":[10.2385148,53.6712578]},"properties":{"id":"bikerack:9165f2c7-c6e3-402e-b3cf-2114236af4e0","kind":"bikerack","longitude":10.2385148,"latitude":53.6712578,"name":"Fahrradabstellplatz","city":"Ahrensburg","address":null,"covered":false,"access":null,"website":null,"phone":null,"source":"OpenStreetMap/node/4864403340","sourceUpdatedAt":null,"verifiedAt":null}},{"type":"Feature","geometry":{"type":"Point","coordinates":[10.2343862,53.6817861]},"properties":{"id":"bikerack:95e96578-3872-41f9-8267-daf54fd55ed0","kind":"bikerack","longitude":10.2343862,"latitude":53.6817861,"name":"Fahrradabstellplatz","city":"Ahrensburg","address":null,"covered":false,"access":null,"website":null,"phone":null,"source":"OpenStreetMap/node/2929402977","sourceUpdatedAt":null,"verifiedAt":null}},{"type":"Feature","geometry":{"type":"Point","coordinates":[10.2384415,53.674329]},"properties":{"id":"bikerack:963b38d3-98f1-490b-b164-aab9806c02b4","kind":"bikerack","longitude":10.2384415,"latitude":53.674329,"name":"Fahrradabstellplatz","city":"Ahrensburg","address":null,"covered":false,"access":null,"website":null,"phone":null,"source":"OpenStreetMap/node/12713888560","sourceUpdatedAt":null,"verifiedAt":null}},{"type":"Feature","geometry":{"type":"Point","coordinates":[10.2383981,53.6743334]},"properties":{"id":"bikerack:99760c2b-5781-4856-9a08-35eba4b06041","kind":"bikerack","longitude":10.2383981,"latitude":53.6743334,"name":"Fahrradabstellplatz","city":"Ahrensburg","address":null,"covered":false,"access":null,"website":null,"phone":null,"source":"OpenStreetMap/node/12713888559","sourceUpdatedAt":null,"verifiedAt":null}},{"type":"Feature","geometry":{"type":"Point","coordinates":[10.2392322,53.6735956]},"properties":{"id":"bikerack:9a6051d7-910f-4a82-a4c3-afb842839675","kind":"bikerack","longitude":10.2392322,"latitude":53.6735956,"name":"Fahrradabstellplatz","city":"Ahrensburg","address":null,"covered":false,"access":null,"website":null,"phone":null,"source":"OpenStreetMap/node/13596627004","sourceUpdatedAt":null,"verifiedAt":null}},{"type":"Feature","geometry":{"type":"Point","coordinates":[10.2384866,53.6743252]},"properties":{"id":"bikerack:9c02a796-931a-400e-871c-fb15190a82d4","kind":"bikerack","longitude":10.2384866,"latitude":53.6743252,"name":"Fahrradabstellplatz","city":"Ahrensburg","address":null,"covered":false,"access":null,"website":null,"phone":null,"source":"OpenStreetMap/node/12713888561","sourceUpdatedAt":null,"verifiedAt":null}},{"type":"Feature","geometry":{"type":"Point","coordinates":[10.2379779,53.6782889]},"properties":{"id":"bikerack:9d814c3b-7415-461e-a1ee-e2927897217f","kind":"bikerack","longitude":10.2379779,"latitude":53.6782889,"name":"Fahrradabstellplatz","city":"Ahrensburg","address":null,"covered":false,"access":null,"website":null,"phone":null,"source":"OpenStreetMap/way/650671077","sourceUpdatedAt":null,"verifiedAt":null}},{"type":"Feature","geometry":{"type":"Point","coordinates":[10.2340265,53.6795185]},"properties":{"id":"bikerack:9f4b1b41-8162-43a0-927c-620c61997fc9","kind":"bikerack","longitude":10.2340265,"latitude":53.6795185,"name":"Fahrradabstellplatz","city":"Ahrensburg","address":null,"covered":false,"access":null,"website":null,"phone":null,"source":"OpenStreetMap/node/3442471451","sourceUpdatedAt":null,"verifiedAt":null}},{"type":"Feature","geometry":{"type":"Point","coordinates":[10.2362272,53.6733717]},"properties":{"id":"bikerack:a0eab5df-e83c-4d8a-8a6e-d88eaa5bdcc7","kind":"bikerack","longitude":10.2362272,"latitude":53.6733717,"name":"Fahrradabstellplatz","city":"Ahrensburg","address":null,"covered":false,"access":null,"website":null,"phone":null,"source":"OpenStreetMap/way/387869605","sourceUpdatedAt":null,"verifiedAt":null}},{"type":"Feature","geometry":{"type":"Point","coordinates":[10.2386711,53.6743096]},"properties":{"id":"bikerack:a35b60d2-00b1-4ba8-852e-b2a07a3535e8","kind":"bikerack","longitude":10.2386711,"latitude":53.6743096,"name":"Fahrradabstellplatz","city":"Ahrensburg","address":null,"covered":false,"access":null,"website":null,"phone":null,"source":"OpenStreetMap/node/12713888554","sourceUpdatedAt":null,"verifiedAt":null}},{"type":"Feature","geometry":{"type":"Point","coordinates":[10.2360555,53.67359]},"properties":{"id":"bikerack:a400e7ea-cd13-481d-9df7-804effa6de72","kind":"bikerack","longitude":10.2360555,"latitude":53.67359,"name":"Fahrradabstellplatz","city":"Ahrensburg","address":null,"covered":true,"access":null,"website":null,"phone":null,"source":"OpenStreetMap/node/2225763194","sourceUpdatedAt":null,"verifiedAt":null}},{"type":"Feature","geometry":{"type":"Point","coordinates":[10.2361102,53.6782893]},"properties":{"id":"bikerack:ac985d3d-07c6-4cbd-bcd3-6086803481fd","kind":"bikerack","longitude":10.2361102,"latitude":53.6782893,"name":"Fahrradabstellplatz","city":"Ahrensburg","address":null,"covered":false,"access":null,"website":null,"phone":null,"source":"OpenStreetMap/node/7214866223","sourceUpdatedAt":null,"verifiedAt":null}},{"type":"Feature","geometry":{"type":"Point","coordinates":[10.2342424,53.6810788]},"properties":{"id":"bikerack:af9b5836-7ad4-4d5a-8465-8384c792df99","kind":"bikerack","longitude":10.2342424,"latitude":53.6810788,"name":"Fahrradabstellplatz","city":"Ahrensburg","address":null,"covered":false,"access":null,"website":null,"phone":null,"source":"OpenStreetMap/node/13596613278","sourceUpdatedAt":null,"verifiedAt":null}},{"type":"Feature","geometry":{"type":"Point","coordinates":[10.2370844,53.6776012]},"properties":{"id":"bikerack:b38abe80-c77e-4c3f-bd4c-29e2e3dff360","kind":"bikerack","longitude":10.2370844,"latitude":53.6776012,"name":"Fahrradabstellplatz","city":"Ahrensburg","address":null,"covered":false,"access":null,"website":null,"phone":null,"source":"OpenStreetMap/node/3302270360","sourceUpdatedAt":null,"verifiedAt":null}},{"type":"Feature","geometry":{"type":"Point","coordinates":[10.2165449,53.6750198]},"properties":{"id":"bikerack:b52e0bfa-3cd0-4984-97f7-a6558c1a79f4","kind":"bikerack","longitude":10.2165449,"latitude":53.6750198,"name":"Fahrradabstellplatz","city":"Ahrensburg","address":null,"covered":false,"access":null,"website":null,"phone":null,"source":"OpenStreetMap/node/13596041569","sourceUpdatedAt":null,"verifiedAt":null}},{"type":"Feature","geometry":{"type":"Point","coordinates":[10.2381684,53.6744348]},"properties":{"id":"bikerack:b69132ac-33a8-40c1-9fc4-4bc12027a95c","kind":"bikerack","longitude":10.2381684,"latitude":53.6744348,"name":"Fahrradabstellplatz","city":"Ahrensburg","address":null,"covered":false,"access":null,"website":null,"phone":null,"source":"OpenStreetMap/node/3348072095","sourceUpdatedAt":null,"verifiedAt":null}},{"type":"Feature","geometry":{"type":"Point","coordinates":[10.2360837,53.6737038]},"properties":{"id":"bikerack:c8965d05-ee91-4e36-b8f5-4e5f35119065","kind":"bikerack","longitude":10.2360837,"latitude":53.6737038,"name":"Fahrradabstellplatz","city":"Ahrensburg","address":null,"covered":true,"access":null,"website":null,"phone":null,"source":"OpenStreetMap/node/2225763197","sourceUpdatedAt":null,"verifiedAt":null}},{"type":"Feature","geometry":{"type":"Point","coordinates":[10.2371711,53.6744462]},"properties":{"id":"bikerack:ca35be78-1856-4e65-9f1e-01bff3e70e05","kind":"bikerack","longitude":10.2371711,"latitude":53.6744462,"name":"Fahrradabstellplatz","city":"Ahrensburg","address":null,"covered":false,"access":null,"website":null,"phone":null,"source":"OpenStreetMap/node/13596627003","sourceUpdatedAt":null,"verifiedAt":null}},{"type":"Feature","geometry":{"type":"Point","coordinates":[10.2366939,53.6714549]},"properties":{"id":"bikerack:d02108fa-830c-4112-afe7-18bd41ae2359","kind":"bikerack","longitude":10.2366939,"latitude":53.6714549,"name":"Ärztehaus","city":"Ahrensburg","address":null,"covered":false,"access":null,"website":null,"phone":null,"source":"OpenStreetMap/node/3296522553","sourceUpdatedAt":null,"verifiedAt":null}},{"type":"Feature","geometry":{"type":"Point","coordinates":[10.2227314,53.6724181]},"properties":{"id":"bikerack:dd121e91-2faa-4008-849b-4f81e902a334","kind":"bikerack","longitude":10.2227314,"latitude":53.6724181,"name":"Fahrradabstellplatz","city":"Ahrensburg","address":null,"covered":false,"access":null,"website":null,"phone":null,"source":"OpenStreetMap/way/967617667","sourceUpdatedAt":null,"verifiedAt":null}},{"type":"Feature","geometry":{"type":"Point","coordinates":[10.2388157,53.6733929]},"properties":{"id":"bikerack:df2e7756-e271-40d0-b3ad-2f56c95ccc91","kind":"bikerack","longitude":10.2388157,"latitude":53.6733929,"name":"Fahrradabstellplatz","city":"Ahrensburg","address":null,"covered":false,"access":null,"website":null,"phone":null,"source":"OpenStreetMap/node/3910931783","sourceUpdatedAt":null,"verifiedAt":null}},{"type":"Feature","geometry":{"type":"Point","coordinates":[10.238529,53.6743574]},"properties":{"id":"bikerack:e1ebb4b0-8994-485c-936b-543561e2382d","kind":"bikerack","longitude":10.238529,"latitude":53.6743574,"name":"Fahrradabstellplatz","city":"Ahrensburg","address":null,"covered":false,"access":null,"website":null,"phone":null,"source":"OpenStreetMap/node/3348072094","sourceUpdatedAt":null,"verifiedAt":null}},{"type":"Feature","geometry":{"type":"Point","coordinates":[10.2343793,53.6817464]},"properties":{"id":"bikerack:e22b5f2c-08dc-4c2c-a6eb-42348136ded8","kind":"bikerack","longitude":10.2343793,"latitude":53.6817464,"name":"Fahrradabstellplatz","city":"Ahrensburg","address":null,"covered":false,"access":null,"website":null,"phone":null,"source":"OpenStreetMap/node/2929402968","sourceUpdatedAt":null,"verifiedAt":null}},{"type":"Feature","geometry":{"type":"Point","coordinates":[10.2387093,53.674306]},"properties":{"id":"bikerack:e46721d9-ad9f-40b3-8a60-c75c65cb6b69","kind":"bikerack","longitude":10.2387093,"latitude":53.674306,"name":"Fahrradabstellplatz","city":"Ahrensburg","address":null,"covered":false,"access":null,"website":null,"phone":null,"source":"OpenStreetMap/node/12713888557","sourceUpdatedAt":null,"verifiedAt":null}},{"type":"Feature","geometry":{"type":"Point","coordinates":[10.2312539,53.6798406]},"properties":{"id":"bikerack:eb935a2c-6632-4781-8373-ccbce0d7282b","kind":"bikerack","longitude":10.2312539,"latitude":53.6798406,"name":"Fahrradabstellplatz","city":"Ahrensburg","address":null,"covered":false,"access":null,"website":null,"phone":null,"source":"OpenStreetMap/node/13596613276","sourceUpdatedAt":null,"verifiedAt":null}},{"type":"Feature","geometry":{"type":"Point","coordinates":[10.2377507,53.67084]},"properties":{"id":"bikerack:f10e9041-e534-455e-9812-9703a8f5d55b","kind":"bikerack","longitude":10.2377507,"latitude":53.67084,"name":"Fahrradabstellplatz","city":"Ahrensburg","address":null,"covered":true,"access":null,"website":null,"phone":null,"source":"OpenStreetMap/way/916922942","sourceUpdatedAt":null,"verifiedAt":null}},{"type":"Feature","geometry":{"type":"Point","coordinates":[10.237134,53.6859311]},"properties":{"id":"bikerack:f47ee3e1-d8d6-451c-9555-75cdd4889269","kind":"bikerack","longitude":10.237134,"latitude":53.6859311,"name":"Fahrradabstellplatz","city":"Ahrensburg","address":null,"covered":false,"access":null,"website":null,"phone":null,"source":"OpenStreetMap/node/13596613294","sourceUpdatedAt":null,"verifiedAt":null}},{"type":"Feature","geometry":{"type":"Point","coordinates":[10.2369916,53.6732251]},"properties":{"id":"bikerack:fd5f4021-ba77-4a40-a032-30ddbda533bf","kind":"bikerack","longitude":10.2369916,"latitude":53.6732251,"name":"Fahrradabstellplatz","city":"Ahrensburg","address":null,"covered":false,"access":null,"website":null,"phone":null,"source":"OpenStreetMap/node/13596077021","sourceUpdatedAt":null,"verifiedAt":null}},{"type":"Feature","geometry":{"type":"Point","coordinates":[10.2371949,53.6745006]},"properties":{"id":"bikerack:fde33a11-94ea-4b5b-928b-21275381c5c9","kind":"bikerack","longitude":10.2371949,"latitude":53.6745006,"name":"Fahrradabstellplatz","city":"Ahrensburg","address":null,"covered":false,"access":null,"website":null,"phone":null,"source":"OpenStreetMap/node/3347922677","sourceUpdatedAt":null,"verifiedAt":null}},{"type":"Feature","geometry":{"type":"Point","coordinates":[10.2193743,53.679366]},"properties":{"id":"repair:b796e45b-e541-4458-ad39-9f9f5a520916","kind":"repair","longitude":10.2193743,"latitude":53.679366,"name":"Fahrradreparaturstation","city":"Ahrensburg","address":null,"covered":false,"access":null,"website":null,"phone":null,"source":"OpenStreetMap/node/12612402698","sourceUpdatedAt":null,"verifiedAt":null}},{"type":"Feature","geometry":{"type":"Point","coordinates":[10.2348131,53.6763798]},"properties":{"id":"service:63411b5f-9c83-4c2d-aabf-1a9063e70891","kind":"service","longitude":10.2348131,"latitude":53.6763798,"name":"Fahrradshop Ahrensburg","city":"Ahrensburg","address":null,"covered":null,"access":null,"website":null,"phone":null,"source":"OpenStreetMap/node/3685823808","sourceUpdatedAt":null,"verifiedAt":null}},{"type":"Feature","geometry":{"type":"Point","coordinates":[10.2001895,53.6775901]},"properties":{"id":"water:1a003715-ac1d-4b15-80d5-b5a6d68d6885","kind":"water","longitude":10.2001895,"latitude":53.6775901,"name":"Trinkwasser","city":"Ahrensburg","address":null,"covered":null,"access":null,"website":null,"phone":null,"source":"OpenStreetMap/node/2018243207","sourceUpdatedAt":null,"verifiedAt":null}},{"type":"Feature","geometry":{"type":"Point","coordinates":[10.2043919,53.6714554]},"properties":{"id":"water:f0501a39-0415-43e6-8754-8272f00ae914","kind":"water","longitude":10.2043919,"latitude":53.6714554,"name":"Trinkwasser","city":"Ahrensburg","address":null,"covered":null,"access":null,"website":null,"phone":null,"source":"OpenStreetMap/node/2019494283","sourceUpdatedAt":null,"verifiedAt":null}}]}