{"type":"FeatureCollection","features":[{"type":"Feature","geometry":{"type":"Point","coordinates":[10.204442,48.5950229]},"properties":{"id":"bikerack:1bfbb492-6ccb-4837-8689-caafe0ec4c12","kind":"bikerack","longitude":10.204442,"latitude":48.5950229,"name":"Fahrradabstellplatz","city":"Herbrechtingen","address":null,"covered":false,"access":null,"website":null,"phone":null,"source":"OpenStreetMap/node/5133862095","sourceUpdatedAt":null,"verifiedAt":null}},{"type":"Feature","geometry":{"type":"Point","coordinates":[10.2346419,48.577541]},"properties":{"id":"bikerack:5f2f65d6-3468-4f2d-8974-69309b30261d","kind":"bikerack","longitude":10.2346419,"latitude":48.577541,"name":"Fahrradabstellplatz","city":"Hermaringen","address":null,"covered":false,"access":null,"website":null,"phone":null,"source":"OpenStreetMap/node/12806753508","sourceUpdatedAt":null,"verifiedAt":null}},{"type":"Feature","geometry":{"type":"Point","coordinates":[10.2079215,48.5847891]},"properties":{"id":"bikerack:88dad30d-a466-4ddf-a272-e1681cbe5e56","kind":"bikerack","longitude":10.2079215,"latitude":48.5847891,"name":"Fahrradabstellplatz","city":"Herbrechtingen","address":null,"covered":false,"access":null,"website":null,"phone":null,"source":"OpenStreetMap/way/704117112","sourceUpdatedAt":null,"verifiedAt":null}},{"type":"Feature","geometry":{"type":"Point","coordinates":[10.2079201,48.5847812]},"properties":{"id":"repair:4a6fec0a-bb3b-4665-b655-cd777746ec88","kind":"repair","longitude":10.2079201,"latitude":48.5847812,"name":"Fahrradreparaturstation","city":"Herbrechtingen","address":null,"covered":false,"access":null,"website":null,"phone":null,"source":"OpenStreetMap/node/11183479891","sourceUpdatedAt":null,"verifiedAt":null}},{"type":"Feature","geometry":{"type":"Point","coordinates":[10.210927,48.5846388]},"properties":{"id":"water:d691cc9f-5fd9-4c60-b37f-a115dfd3467b","kind":"water","longitude":10.210927,"latitude":48.5846388,"name":"Trinkwasser","city":"Giengen an der Brenz","address":null,"covered":null,"access":null,"website":null,"phone":null,"source":"OpenStreetMap/node/13110127418","sourceUpdatedAt":null,"verifiedAt":null}}]}