{"type":"FeatureCollection","features":[{"type":"Feature","geometry":{"type":"Point","coordinates":[10.2091722,45.899804]},"properties":{"id":"bikerack:5a468bd5-283b-4efe-b2c3-041af6765684","kind":"bikerack","longitude":10.2091722,"latitude":45.899804,"name":"Parcheggio bici","city":"Sacca","address":null,"covered":false,"access":null,"website":null,"phone":null,"source":"OpenStreetMap/way/812664036","sourceUpdatedAt":null,"verifiedAt":null}},{"type":"Feature","geometry":{"type":"Point","coordinates":[10.2092186,45.8998519]},"properties":{"id":"bikerack:968b71cb-d371-4eda-97fb-850d10df0e32","kind":"bikerack","longitude":10.2092186,"latitude":45.8998519,"name":"Parcheggio bici","city":"Sacca","address":null,"covered":false,"access":null,"website":null,"phone":null,"source":"OpenStreetMap/way/812664037","sourceUpdatedAt":null,"verifiedAt":null}},{"type":"Feature","geometry":{"type":"Point","coordinates":[10.2091808,45.8998329]},"properties":{"id":"bikerack:fd924cfd-f188-461c-9db1-61db8851f6a5","kind":"bikerack","longitude":10.2091808,"latitude":45.8998329,"name":"Parcheggio bici","city":"Sacca","address":null,"covered":false,"access":null,"website":null,"phone":null,"source":"OpenStreetMap/way/812664038","sourceUpdatedAt":null,"verifiedAt":null}},{"type":"Feature","geometry":{"type":"Point","coordinates":[10.2092692,45.8999647]},"properties":{"id":"repair:ec1cb494-f6c2-42c1-a040-0d78a9561133","kind":"repair","longitude":10.2092692,"latitude":45.8999647,"name":"Stazione di riparazione bici","city":"Sacca","address":null,"covered":false,"access":null,"website":null,"phone":null,"source":"OpenStreetMap/node/7581019925","sourceUpdatedAt":null,"verifiedAt":null}},{"type":"Feature","geometry":{"type":"Point","coordinates":[10.216021,45.9122516]},"properties":{"id":"water:a8c7d5b5-29ab-4f6e-aed1-9b044ec7aaff","kind":"water","longitude":10.216021,"latitude":45.9122516,"name":"Fontanella","city":"Piamborno","address":null,"covered":null,"access":null,"website":null,"phone":null,"source":"OpenStreetMap/node/828454889","sourceUpdatedAt":null,"verifiedAt":null}},{"type":"Feature","geometry":{"type":"Point","coordinates":[10.2299735,45.9184121]},"properties":{"id":"water:d4bf9998-3381-421b-9490-2b46c28dbc0d","kind":"water","longitude":10.2299735,"latitude":45.9184121,"name":"Fontanella","city":"Piamborno","address":null,"covered":null,"access":null,"website":null,"phone":null,"source":"OpenStreetMap/node/11144246980","sourceUpdatedAt":null,"verifiedAt":null}},{"type":"Feature","geometry":{"type":"Point","coordinates":[10.2123229,45.9022614]},"properties":{"id":"water:d4e2f975-b143-4e5b-9aee-f85b2b483c4e","kind":"water","longitude":10.2123229,"latitude":45.9022614,"name":"Fontanella","city":"Sacca","address":null,"covered":null,"access":null,"website":null,"phone":null,"source":"OpenStreetMap/node/11144364315","sourceUpdatedAt":null,"verifiedAt":null}}]}