{"type":"FeatureCollection","features":[{"type":"Feature","geometry":{"type":"Point","coordinates":[10.2136294,45.6970404]},"properties":{"id":"water:0f005c69-451a-4502-aed8-84521c8777b3","kind":"water","longitude":10.2136294,"latitude":45.6970404,"name":"Fontanella","city":"Marcheno","address":null,"covered":null,"access":null,"website":null,"phone":null,"source":"OpenStreetMap/node/11737003938","sourceUpdatedAt":null,"verifiedAt":null}},{"type":"Feature","geometry":{"type":"Point","coordinates":[10.213659,45.6970521]},"properties":{"id":"water:1723b7b5-cd1a-4085-8e23-707a4e2705c6","kind":"water","longitude":10.213659,"latitude":45.6970521,"name":"Fontanella","city":"Marcheno","address":null,"covered":null,"access":null,"website":null,"phone":null,"source":"OpenStreetMap/node/11737003939","sourceUpdatedAt":null,"verifiedAt":null}},{"type":"Feature","geometry":{"type":"Point","coordinates":[10.2012218,45.7037899]},"properties":{"id":"water:52286ad3-77d8-4724-b71b-ff893fd24f1e","kind":"water","longitude":10.2012218,"latitude":45.7037899,"name":"Fontanella","city":"Magno","address":null,"covered":null,"access":null,"website":null,"phone":null,"source":"OpenStreetMap/node/1802129498","sourceUpdatedAt":null,"verifiedAt":null}},{"type":"Feature","geometry":{"type":"Point","coordinates":[10.2116429,45.6814449]},"properties":{"id":"water:52b30884-6211-4b4d-a9d8-873155ed2513","kind":"water","longitude":10.2116429,"latitude":45.6814449,"name":"Fontanella","city":"Marcheno","address":null,"covered":null,"access":null,"website":null,"phone":null,"source":"OpenStreetMap/node/2690377562","sourceUpdatedAt":null,"verifiedAt":null}},{"type":"Feature","geometry":{"type":"Point","coordinates":[10.2173465,45.7052252]},"properties":{"id":"water:7a20c4c0-0ba1-4bb0-8cf5-0a3fd274e987","kind":"water","longitude":10.2173465,"latitude":45.7052252,"name":"Fontanella","city":"Marcheno","address":null,"covered":null,"access":null,"website":null,"phone":null,"source":"OpenStreetMap/node/2139480253","sourceUpdatedAt":null,"verifiedAt":null}},{"type":"Feature","geometry":{"type":"Point","coordinates":[10.2024004,45.6994316]},"properties":{"id":"water:881d23d2-83d8-4139-bdc5-992df4901dd8","kind":"water","longitude":10.2024004,"latitude":45.6994316,"name":"Fontanella","city":"Magno","address":null,"covered":null,"access":null,"website":null,"phone":null,"source":"OpenStreetMap/node/6358878041","sourceUpdatedAt":null,"verifiedAt":null}},{"type":"Feature","geometry":{"type":"Point","coordinates":[10.213176,45.6790167]},"properties":{"id":"water:9b4b44f7-bb7d-40fb-b84e-84083ab45c36","kind":"water","longitude":10.213176,"latitude":45.6790167,"name":"Fontanella","city":"Sarezzo","address":null,"covered":null,"access":null,"website":null,"phone":null,"source":"OpenStreetMap/node/8714363608","sourceUpdatedAt":null,"verifiedAt":null}},{"type":"Feature","geometry":{"type":"Point","coordinates":[10.2102388,45.7000745]},"properties":{"id":"water:c8b2de5b-caa0-48a9-a6eb-c8224b114053","kind":"water","longitude":10.2102388,"latitude":45.7000745,"name":"Fontanella","city":"Marcheno","address":null,"covered":null,"access":null,"website":null,"phone":null,"source":"OpenStreetMap/node/6374485491","sourceUpdatedAt":null,"verifiedAt":null}},{"type":"Feature","geometry":{"type":"Point","coordinates":[10.1961011,45.6984081]},"properties":{"id":"water:dfae4223-11b7-40d0-b550-bad9ac5bec10","kind":"water","longitude":10.1961011,"latitude":45.6984081,"name":"Fontanella","city":"Magno","address":null,"covered":null,"access":null,"website":null,"phone":null,"source":"OpenStreetMap/node/5922193253","sourceUpdatedAt":null,"verifiedAt":null}},{"type":"Feature","geometry":{"type":"Point","coordinates":[10.2148222,45.7003699]},"properties":{"id":"water:f6a0bc58-a9ab-45d7-916c-321f4747c500","kind":"water","longitude":10.2148222,"latitude":45.7003699,"name":"Fontanella","city":"Marcheno","address":null,"covered":null,"access":null,"website":null,"phone":null,"source":"OpenStreetMap/node/11737003747","sourceUpdatedAt":null,"verifiedAt":null}}]}