{"type":"FeatureCollection","features":[{"type":"Feature","geometry":{"type":"Point","coordinates":[9.5841756,54.5176134]},"properties":{"id":"bikerack:955eba6e-0414-43a1-87d6-4e97d419beb6","kind":"bikerack","longitude":9.5841756,"latitude":54.5176134,"name":"Fahrradabstellplatz","city":"Fahrdorf","address":null,"covered":false,"access":null,"website":null,"phone":null,"source":"OpenStreetMap/node/11830393575","sourceUpdatedAt":null,"verifiedAt":null}},{"type":"Feature","geometry":{"type":"Point","coordinates":[9.597892,54.4993706]},"properties":{"id":"bikerack:a2cbb176-689e-4360-808b-f3f1043ea4c2","kind":"bikerack","longitude":9.597892,"latitude":54.4993706,"name":"Fahrradabstellplatz","city":"Fahrdorf","address":null,"covered":true,"access":null,"website":null,"phone":null,"source":"OpenStreetMap/node/6996982578","sourceUpdatedAt":null,"verifiedAt":null}}]}