{"type":"FeatureCollection","features":[{"type":"Feature","geometry":{"type":"Point","coordinates":[9.5900505,47.3356728]},"properties":{"id":"bikerack:1fbed705-ca98-42a2-800b-d8dd4ab31a03","kind":"bikerack","longitude":9.5900505,"latitude":47.3356728,"name":"Bicycle Parking","city":"Koblach","address":null,"covered":false,"access":null,"website":null,"phone":null,"source":"OpenStreetMap/way/408369053","sourceUpdatedAt":null,"verifiedAt":null}},{"type":"Feature","geometry":{"type":"Point","coordinates":[9.6187433,47.3155865]},"properties":{"id":"bikerack:8fc1baec-a9ef-460c-8797-1efd1ff1fcd0","kind":"bikerack","longitude":9.6187433,"latitude":47.3155865,"name":"Biciklitároló","city":"Gotzis","address":null,"covered":false,"access":null,"website":null,"phone":null,"source":"OpenStreetMap/way/1007657382","sourceUpdatedAt":null,"verifiedAt":null}},{"type":"Feature","geometry":{"type":"Point","coordinates":[9.5898928,47.3345152]},"properties":{"id":"bikerack:9dd2cf80-78c5-4e72-9b73-16835b322218","kind":"bikerack","longitude":9.5898928,"latitude":47.3345152,"name":"Bicycle Parking","city":"Koblach","address":null,"covered":true,"access":null,"website":null,"phone":null,"source":"OpenStreetMap/node/13227971164","sourceUpdatedAt":null,"verifiedAt":null}},{"type":"Feature","geometry":{"type":"Point","coordinates":[9.5974341,47.3308531]},"properties":{"id":"bikerack:dd343791-9ed3-483a-8c78-a207f6d989fe","kind":"bikerack","longitude":9.5974341,"latitude":47.3308531,"name":"Biciklitároló","city":"Koblach","address":null,"covered":true,"access":null,"website":null,"phone":null,"source":"OpenStreetMap/way/1321629643","sourceUpdatedAt":null,"verifiedAt":null}},{"type":"Feature","geometry":{"type":"Point","coordinates":[9.6220943,47.3107078]},"properties":{"id":"bikerack:f20d5763-9b69-4b30-a49c-185c7aa2d3a3","kind":"bikerack","longitude":9.6220943,"latitude":47.3107078,"name":"Biciklitároló","city":"Klaus","address":null,"covered":false,"access":null,"website":null,"phone":null,"source":"OpenStreetMap/node/10061845610","sourceUpdatedAt":null,"verifiedAt":null}},{"type":"Feature","geometry":{"type":"Point","coordinates":[9.6025623,47.3306424]},"properties":{"id":"repair:027d5731-f01a-4f8b-96f1-6afe82de1d8b","kind":"repair","longitude":9.6025623,"latitude":47.3306424,"name":"Kerékpár szervizállomás","city":"Koblach","address":null,"covered":false,"access":null,"website":null,"phone":null,"source":"OpenStreetMap/node/11249051374","sourceUpdatedAt":null,"verifiedAt":null}},{"type":"Feature","geometry":{"type":"Point","coordinates":[9.589463,47.3168446]},"properties":{"id":"repair:5fb9df04-5b2a-41ed-a69a-ec7597dd400e","kind":"repair","longitude":9.589463,"latitude":47.3168446,"name":"Kerékpár szervizállomás","city":"Koblach","address":null,"covered":false,"access":null,"website":null,"phone":null,"source":"OpenStreetMap/node/8900331545","sourceUpdatedAt":null,"verifiedAt":null}},{"type":"Feature","geometry":{"type":"Point","coordinates":[9.582332,47.3356564]},"properties":{"id":"service:804858f0-52f8-49cc-b858-ee2614243625","kind":"service","longitude":9.582332,"latitude":47.3356564,"name":"Titus Haltiner Velos & Motos","city":"Montlingen","address":null,"covered":null,"access":null,"website":null,"phone":null,"source":"OpenStreetMap/node/9497225866","sourceUpdatedAt":null,"verifiedAt":null}},{"type":"Feature","geometry":{"type":"Point","coordinates":[9.6107753,47.3312799]},"properties":{"id":"water:cb3daf4f-2a40-4beb-90dd-270ce11ee4f1","kind":"water","longitude":9.6107753,"latitude":47.3312799,"name":"Ivókút","city":"Koblach","address":null,"covered":null,"access":null,"website":null,"phone":null,"source":"OpenStreetMap/node/1305130267","sourceUpdatedAt":null,"verifiedAt":null}},{"type":"Feature","geometry":{"type":"Point","coordinates":[9.5894769,47.3345619]},"properties":{"id":"water:f3be4409-4562-405d-becd-3762d1bc5632","kind":"water","longitude":9.5894769,"latitude":47.3345619,"name":"Drinking Fountain","city":"Koblach","address":null,"covered":null,"access":null,"website":null,"phone":null,"source":"OpenStreetMap/node/9797388165","sourceUpdatedAt":null,"verifiedAt":null}}]}