{"type":"FeatureCollection","features":[{"type":"Feature","geometry":{"type":"Point","coordinates":[9.5995413,47.2374501]},"properties":{"id":"bikerack:05c34752-eab2-4a02-9c31-090f7c7560b8","kind":"bikerack","longitude":9.5995413,"latitude":47.2374501,"name":"Biciklitároló","city":"Feldkirch","address":null,"covered":false,"access":null,"website":null,"phone":null,"source":"OpenStreetMap/way/1113127687","sourceUpdatedAt":null,"verifiedAt":null}},{"type":"Feature","geometry":{"type":"Point","coordinates":[9.5966544,47.2383396]},"properties":{"id":"bikerack:1097ca04-d1e5-43ba-be8e-7e10aeb1fa6d","kind":"bikerack","longitude":9.5966544,"latitude":47.2383396,"name":"Biciklitároló","city":"Feldkirch","address":null,"covered":false,"access":null,"website":null,"phone":null,"source":"OpenStreetMap/node/3444742171","sourceUpdatedAt":null,"verifiedAt":null}},{"type":"Feature","geometry":{"type":"Point","coordinates":[9.5997222,47.2380903]},"properties":{"id":"bikerack:131f53d1-b7b1-4d4a-afbf-80b50230ac31","kind":"bikerack","longitude":9.5997222,"latitude":47.2380903,"name":"Biciklitároló","city":"Feldkirch","address":null,"covered":false,"access":null,"website":null,"phone":null,"source":"OpenStreetMap/way/1483523897","sourceUpdatedAt":null,"verifiedAt":null}},{"type":"Feature","geometry":{"type":"Point","coordinates":[9.598724,47.2356142]},"properties":{"id":"bikerack:1bc21eb9-3b35-4e44-b734-76cb5b8073b2","kind":"bikerack","longitude":9.598724,"latitude":47.2356142,"name":"Biciklitároló","city":"Feldkirch","address":null,"covered":false,"access":null,"website":null,"phone":null,"source":"OpenStreetMap/node/6120963608","sourceUpdatedAt":null,"verifiedAt":null}},{"type":"Feature","geometry":{"type":"Point","coordinates":[9.5981858,47.2359557]},"properties":{"id":"bikerack:1f0cb18b-8a70-4830-a5ea-4b3d16d5a7fa","kind":"bikerack","longitude":9.5981858,"latitude":47.2359557,"name":"Biciklitároló","city":"Feldkirch","address":null,"covered":false,"access":null,"website":null,"phone":null,"source":"OpenStreetMap/node/7207677953","sourceUpdatedAt":null,"verifiedAt":null}},{"type":"Feature","geometry":{"type":"Point","coordinates":[9.5973395,47.2401981]},"properties":{"id":"bikerack:308860e4-0a83-485a-940f-ac03c677ffb9","kind":"bikerack","longitude":9.5973395,"latitude":47.2401981,"name":"Biciklitároló","city":"Feldkirch","address":null,"covered":false,"access":null,"website":null,"phone":null,"source":"OpenStreetMap/node/11083702042","sourceUpdatedAt":null,"verifiedAt":null}},{"type":"Feature","geometry":{"type":"Point","coordinates":[9.5963099,47.2379021]},"properties":{"id":"bikerack:30aeadb5-cc74-4e6a-9616-45cff1d8dd86","kind":"bikerack","longitude":9.5963099,"latitude":47.2379021,"name":"Biciklitároló","city":"Feldkirch","address":null,"covered":false,"access":null,"website":null,"phone":null,"source":"OpenStreetMap/way/772080911","sourceUpdatedAt":null,"verifiedAt":null}},{"type":"Feature","geometry":{"type":"Point","coordinates":[9.5976828,47.2398057]},"properties":{"id":"bikerack:315e8a6a-9f37-4f7c-90d9-ba19c147940e","kind":"bikerack","longitude":9.5976828,"latitude":47.2398057,"name":"Biciklitároló","city":"Feldkirch","address":null,"covered":true,"access":null,"website":null,"phone":null,"source":"OpenStreetMap/node/11083702020","sourceUpdatedAt":null,"verifiedAt":null}},{"type":"Feature","geometry":{"type":"Point","coordinates":[9.5805038,47.22883]},"properties":{"id":"bikerack:3186b5d1-8483-4a12-a14c-394e627e6be7","kind":"bikerack","longitude":9.5805038,"latitude":47.22883,"name":"Biciklitároló","city":"Feldkirch","address":null,"covered":false,"access":null,"website":null,"phone":null,"source":"OpenStreetMap/way/1396641727","sourceUpdatedAt":null,"verifiedAt":null}},{"type":"Feature","geometry":{"type":"Point","coordinates":[9.5885099,47.2457795]},"properties":{"id":"bikerack:36e90f11-8297-4803-86d3-164ced374b4c","kind":"bikerack","longitude":9.5885099,"latitude":47.2457795,"name":"Biciklitároló","city":"Nofels","address":null,"covered":false,"access":null,"website":null,"phone":null,"source":"OpenStreetMap/way/336846375","sourceUpdatedAt":null,"verifiedAt":null}},{"type":"Feature","geometry":{"type":"Point","coordinates":[9.5992923,47.2385182]},"properties":{"id":"bikerack:3b3bf198-cb19-446c-8c5d-69375f8a07ef","kind":"bikerack","longitude":9.5992923,"latitude":47.2385182,"name":"Biciklitároló","city":"Feldkirch","address":null,"covered":false,"access":null,"website":null,"phone":null,"source":"OpenStreetMap/way/1049425127","sourceUpdatedAt":null,"verifiedAt":null}},{"type":"Feature","geometry":{"type":"Point","coordinates":[9.5967889,47.2342597]},"properties":{"id":"bikerack:3d0a25a5-c0c5-414f-816a-90e99a1a883b","kind":"bikerack","longitude":9.5967889,"latitude":47.2342597,"name":"Biciklitároló","city":"Feldkirch","address":null,"covered":true,"access":null,"website":null,"phone":null,"source":"OpenStreetMap/node/11341448605","sourceUpdatedAt":null,"verifiedAt":null}},{"type":"Feature","geometry":{"type":"Point","coordinates":[9.5995042,47.233452]},"properties":{"id":"bikerack:3e33413a-5baa-435e-b8ee-b920029c1a01","kind":"bikerack","longitude":9.5995042,"latitude":47.233452,"name":"Biciklitároló","city":"Feldkirch","address":null,"covered":true,"access":null,"website":null,"phone":null,"source":"OpenStreetMap/way/300071316","sourceUpdatedAt":null,"verifiedAt":null}},{"type":"Feature","geometry":{"type":"Point","coordinates":[9.5811948,47.2316647]},"properties":{"id":"bikerack:432706c2-302f-434a-b984-db21cbe242ef","kind":"bikerack","longitude":9.5811948,"latitude":47.2316647,"name":"Biciklitároló","city":"Feldkirch","address":null,"covered":true,"access":null,"website":null,"phone":null,"source":"OpenStreetMap/node/11509499855","sourceUpdatedAt":null,"verifiedAt":null}},{"type":"Feature","geometry":{"type":"Point","coordinates":[9.5807251,47.231525]},"properties":{"id":"bikerack:46931c96-2f37-42b9-83b3-f491c49ac5e2","kind":"bikerack","longitude":9.5807251,"latitude":47.231525,"name":"Biciklitároló","city":"Feldkirch","address":null,"covered":true,"access":null,"website":null,"phone":null,"source":"OpenStreetMap/node/2987468879","sourceUpdatedAt":null,"verifiedAt":null}},{"type":"Feature","geometry":{"type":"Point","coordinates":[9.5977951,47.238488]},"properties":{"id":"bikerack:49860c1c-e950-473d-8b2d-f2b7400da2de","kind":"bikerack","longitude":9.5977951,"latitude":47.238488,"name":"Biciklitároló","city":"Feldkirch","address":null,"covered":false,"access":null,"website":null,"phone":null,"source":"OpenStreetMap/way/1210826261","sourceUpdatedAt":null,"verifiedAt":null}},{"type":"Feature","geometry":{"type":"Point","coordinates":[9.5981817,47.2339291]},"properties":{"id":"bikerack:4ae3098d-5c7d-4aef-a657-8ca9d6b3760e","kind":"bikerack","longitude":9.5981817,"latitude":47.2339291,"name":"Biciklitároló","city":"Feldkirch","address":null,"covered":false,"access":null,"website":null,"phone":null,"source":"OpenStreetMap/node/12475560688","sourceUpdatedAt":null,"verifiedAt":null}},{"type":"Feature","geometry":{"type":"Point","coordinates":[9.602802,47.2398036]},"properties":{"id":"bikerack:5331af7c-c859-47b1-b82c-e58bfdeb8996","kind":"bikerack","longitude":9.602802,"latitude":47.2398036,"name":"Biciklitároló","city":"Feldkirch","address":null,"covered":true,"access":null,"website":null,"phone":null,"source":"OpenStreetMap/node/10199050914","sourceUpdatedAt":null,"verifiedAt":null}},{"type":"Feature","geometry":{"type":"Point","coordinates":[9.5959462,47.2384842]},"properties":{"id":"bikerack:576bbd62-6223-4894-8862-7af23b84524d","kind":"bikerack","longitude":9.5959462,"latitude":47.2384842,"name":"Biciklitároló","city":"Feldkirch","address":null,"covered":true,"access":null,"website":null,"phone":null,"source":"OpenStreetMap/node/612389782","sourceUpdatedAt":null,"verifiedAt":null}},{"type":"Feature","geometry":{"type":"Point","coordinates":[9.5989589,47.2367753]},"properties":{"id":"bikerack:58b49da4-de9b-4594-84fe-166d614a3e3c","kind":"bikerack","longitude":9.5989589,"latitude":47.2367753,"name":"Biciklitároló","city":"Feldkirch","address":null,"covered":false,"access":null,"website":null,"phone":null,"source":"OpenStreetMap/node/6808155385","sourceUpdatedAt":null,"verifiedAt":null}},{"type":"Feature","geometry":{"type":"Point","coordinates":[9.5811517,47.23156]},"properties":{"id":"bikerack:6169841b-0813-4b8a-89e2-2839b082ba8e","kind":"bikerack","longitude":9.5811517,"latitude":47.23156,"name":"Biciklitároló","city":"Feldkirch","address":null,"covered":true,"access":null,"website":null,"phone":null,"source":"OpenStreetMap/node/11509499857","sourceUpdatedAt":null,"verifiedAt":null}},{"type":"Feature","geometry":{"type":"Point","coordinates":[9.5984812,47.2353232]},"properties":{"id":"bikerack:662273ee-a61c-4bd6-a843-ffef1b7761fc","kind":"bikerack","longitude":9.5984812,"latitude":47.2353232,"name":"Biciklitároló","city":"Feldkirch","address":null,"covered":true,"access":null,"website":null,"phone":null,"source":"OpenStreetMap/node/4228750771","sourceUpdatedAt":null,"verifiedAt":null}},{"type":"Feature","geometry":{"type":"Point","coordinates":[9.5986733,47.2357503]},"properties":{"id":"bikerack:6c7d5fa9-cb59-429c-9ce3-0bece94b1c42","kind":"bikerack","longitude":9.5986733,"latitude":47.2357503,"name":"Biciklitároló","city":"Feldkirch","address":null,"covered":true,"access":null,"website":null,"phone":null,"source":"OpenStreetMap/node/4757901729","sourceUpdatedAt":null,"verifiedAt":null}},{"type":"Feature","geometry":{"type":"Point","coordinates":[9.5970649,47.2363157]},"properties":{"id":"bikerack:74fc3759-fcce-4550-b79d-afeb693299fb","kind":"bikerack","longitude":9.5970649,"latitude":47.2363157,"name":"Biciklitároló","city":"Feldkirch","address":null,"covered":false,"access":null,"website":null,"phone":null,"source":"OpenStreetMap/node/4757915538","sourceUpdatedAt":null,"verifiedAt":null}},{"type":"Feature","geometry":{"type":"Point","coordinates":[9.5971254,47.2361024]},"properties":{"id":"bikerack:7647b060-aa00-40cc-8ac0-dec606d98217","kind":"bikerack","longitude":9.5971254,"latitude":47.2361024,"name":"Biciklitároló","city":"Feldkirch","address":null,"covered":false,"access":null,"website":null,"phone":null,"source":"OpenStreetMap/way/691735744","sourceUpdatedAt":null,"verifiedAt":null}},{"type":"Feature","geometry":{"type":"Point","coordinates":[9.5981219,47.2376843]},"properties":{"id":"bikerack:8108769d-d6cd-4599-8bb9-fa355a2283ea","kind":"bikerack","longitude":9.5981219,"latitude":47.2376843,"name":"Biciklitároló","city":"Feldkirch","address":null,"covered":false,"access":null,"website":null,"phone":null,"source":"OpenStreetMap/way/1341370959","sourceUpdatedAt":null,"verifiedAt":null}},{"type":"Feature","geometry":{"type":"Point","coordinates":[9.6017302,47.2399721]},"properties":{"id":"bikerack:85becf1a-7531-4ba5-92c7-6fe95c770c40","kind":"bikerack","longitude":9.6017302,"latitude":47.2399721,"name":"Biciklitároló","city":"Feldkirch","address":null,"covered":false,"access":null,"website":null,"phone":null,"source":"OpenStreetMap/way/841428286","sourceUpdatedAt":null,"verifiedAt":null}},{"type":"Feature","geometry":{"type":"Point","coordinates":[9.6004397,47.2380289]},"properties":{"id":"bikerack:8a9a1085-f05a-4829-b93e-f6e7d18274b2","kind":"bikerack","longitude":9.6004397,"latitude":47.2380289,"name":"Biciklitároló","city":"Feldkirch","address":null,"covered":false,"access":null,"website":null,"phone":null,"source":"OpenStreetMap/node/10291536872","sourceUpdatedAt":null,"verifiedAt":null}},{"type":"Feature","geometry":{"type":"Point","coordinates":[9.5947655,47.2357984]},"properties":{"id":"bikerack:9749b2fe-db1e-47f3-8573-587d8e11f67e","kind":"bikerack","longitude":9.5947655,"latitude":47.2357984,"name":"Biciklitároló","city":"Feldkirch","address":null,"covered":false,"access":null,"website":null,"phone":null,"source":"OpenStreetMap/node/4757952051","sourceUpdatedAt":null,"verifiedAt":null}},{"type":"Feature","geometry":{"type":"Point","coordinates":[9.5967881,47.2379616]},"properties":{"id":"bikerack:99f14acb-6f63-4b10-bc14-36b2947bc5b4","kind":"bikerack","longitude":9.5967881,"latitude":47.2379616,"name":"Biciklitároló","city":"Feldkirch","address":null,"covered":false,"access":null,"website":null,"phone":null,"source":"OpenStreetMap/node/4757942025","sourceUpdatedAt":null,"verifiedAt":null}},{"type":"Feature","geometry":{"type":"Point","coordinates":[9.5953231,47.2360534]},"properties":{"id":"bikerack:9be59169-4cf0-4966-9ce0-7156532ed89e","kind":"bikerack","longitude":9.5953231,"latitude":47.2360534,"name":"Biciklitároló","city":"Feldkirch","address":null,"covered":false,"access":null,"website":null,"phone":null,"source":"OpenStreetMap/node/4757732326","sourceUpdatedAt":null,"verifiedAt":null}},{"type":"Feature","geometry":{"type":"Point","coordinates":[9.5811728,47.2316148]},"properties":{"id":"bikerack:a88ba4d6-9860-4313-8204-68ffc8f4822b","kind":"bikerack","longitude":9.5811728,"latitude":47.2316148,"name":"Biciklitároló","city":"Feldkirch","address":null,"covered":true,"access":null,"website":null,"phone":null,"source":"OpenStreetMap/node/11509499856","sourceUpdatedAt":null,"verifiedAt":null}},{"type":"Feature","geometry":{"type":"Point","coordinates":[9.6012365,47.2398052]},"properties":{"id":"bikerack:a8a911ca-865f-4251-9402-46fedf704dde","kind":"bikerack","longitude":9.6012365,"latitude":47.2398052,"name":"Biciklitároló","city":"Feldkirch","address":null,"covered":false,"access":null,"website":null,"phone":null,"source":"OpenStreetMap/way/841428287","sourceUpdatedAt":null,"verifiedAt":null}},{"type":"Feature","geometry":{"type":"Point","coordinates":[9.5955754,47.2350723]},"properties":{"id":"bikerack:a9498d22-d80d-4e84-b29f-5dbbe8e7c6f8","kind":"bikerack","longitude":9.5955754,"latitude":47.2350723,"name":"Biciklitároló","city":"Feldkirch","address":null,"covered":true,"access":null,"website":null,"phone":null,"source":"OpenStreetMap/node/11297363330","sourceUpdatedAt":null,"verifiedAt":null}},{"type":"Feature","geometry":{"type":"Point","coordinates":[9.5983896,47.2399294]},"properties":{"id":"bikerack:a94a5053-fe75-445b-abd3-bcc40bd35820","kind":"bikerack","longitude":9.5983896,"latitude":47.2399294,"name":"Biciklitároló","city":"Feldkirch","address":null,"covered":true,"access":null,"website":null,"phone":null,"source":"OpenStreetMap/node/11083702007","sourceUpdatedAt":null,"verifiedAt":null}},{"type":"Feature","geometry":{"type":"Point","coordinates":[9.6001846,47.2382863]},"properties":{"id":"bikerack:ad0b66de-d2a0-4761-8d64-ccfa57e45bef","kind":"bikerack","longitude":9.6001846,"latitude":47.2382863,"name":"Biciklitároló","city":"Feldkirch","address":null,"covered":false,"access":null,"website":null,"phone":null,"source":"OpenStreetMap/node/9565760749","sourceUpdatedAt":null,"verifiedAt":null}},{"type":"Feature","geometry":{"type":"Point","coordinates":[9.6039996,47.241403]},"properties":{"id":"bikerack:b84ec0a9-b103-4233-8a61-fbf11fb45c8e","kind":"bikerack","longitude":9.6039996,"latitude":47.241403,"name":"Biciklitároló","city":"Feldkirch","address":null,"covered":false,"access":null,"website":null,"phone":null,"source":"OpenStreetMap/node/2008710533","sourceUpdatedAt":null,"verifiedAt":null}},{"type":"Feature","geometry":{"type":"Point","coordinates":[9.6042515,47.241688]},"properties":{"id":"bikerack:bdc8fd51-6275-484d-8d0c-79a2e04c411b","kind":"bikerack","longitude":9.6042515,"latitude":47.241688,"name":"Biciklitároló","city":"Feldkirch","address":null,"covered":false,"access":null,"website":null,"phone":null,"source":"OpenStreetMap/way/1351198024","sourceUpdatedAt":null,"verifiedAt":null}},{"type":"Feature","geometry":{"type":"Point","coordinates":[9.6111845,47.2483077]},"properties":{"id":"bikerack:c252b2c5-b02b-484a-b080-551acb0cf34e","kind":"bikerack","longitude":9.6111845,"latitude":47.2483077,"name":"Biciklitároló","city":"Feldkirch","address":null,"covered":false,"access":null,"website":null,"phone":null,"source":"OpenStreetMap/node/11662854179","sourceUpdatedAt":null,"verifiedAt":null}},{"type":"Feature","geometry":{"type":"Point","coordinates":[9.5922194,47.237819]},"properties":{"id":"bikerack:c34d8c7c-16bb-41f1-8ab1-d71bf4f9869e","kind":"bikerack","longitude":9.5922194,"latitude":47.237819,"name":"Biciklitároló","city":"Feldkirch","address":null,"covered":false,"access":null,"website":null,"phone":null,"source":"OpenStreetMap/node/12897202762","sourceUpdatedAt":null,"verifiedAt":null}},{"type":"Feature","geometry":{"type":"Point","coordinates":[9.6029036,47.2399026]},"properties":{"id":"bikerack:c5b9d873-7433-4c0b-b98a-34702cbb500c","kind":"bikerack","longitude":9.6029036,"latitude":47.2399026,"name":"Biciklitároló","city":"Feldkirch","address":null,"covered":true,"access":null,"website":null,"phone":null,"source":"OpenStreetMap/way/1115162601","sourceUpdatedAt":null,"verifiedAt":null}},{"type":"Feature","geometry":{"type":"Point","coordinates":[9.6030067,47.2399947]},"properties":{"id":"bikerack:cc9020d0-c40f-4e37-8548-651c802237be","kind":"bikerack","longitude":9.6030067,"latitude":47.2399947,"name":"Biciklitároló","city":"Feldkirch","address":null,"covered":false,"access":null,"website":null,"phone":null,"source":"OpenStreetMap/node/10199083568","sourceUpdatedAt":null,"verifiedAt":null}},{"type":"Feature","geometry":{"type":"Point","coordinates":[9.5943655,47.2374966]},"properties":{"id":"bikerack:cea3517f-c5d5-44ad-8713-2d985fbd3fe1","kind":"bikerack","longitude":9.5943655,"latitude":47.2374966,"name":"Biciklitároló","city":"Feldkirch","address":null,"covered":false,"access":null,"website":null,"phone":null,"source":"OpenStreetMap/way/730123526","sourceUpdatedAt":null,"verifiedAt":null}},{"type":"Feature","geometry":{"type":"Point","coordinates":[9.5963729,47.2382173]},"properties":{"id":"bikerack:cfb40c70-95f5-4b7f-a527-afe7af94c4b9","kind":"bikerack","longitude":9.5963729,"latitude":47.2382173,"name":"Biciklitároló","city":"Feldkirch","address":null,"covered":false,"access":null,"website":null,"phone":null,"source":"OpenStreetMap/way/772080912","sourceUpdatedAt":null,"verifiedAt":null}},{"type":"Feature","geometry":{"type":"Point","coordinates":[9.5968532,47.2394911]},"properties":{"id":"bikerack:d0678642-abf7-47f6-8d8d-3370f74be636","kind":"bikerack","longitude":9.5968532,"latitude":47.2394911,"name":"Biciklitároló","city":"Feldkirch","address":null,"covered":false,"access":null,"website":null,"phone":null,"source":"OpenStreetMap/way/659276323","sourceUpdatedAt":null,"verifiedAt":null}},{"type":"Feature","geometry":{"type":"Point","coordinates":[9.5955868,47.2350119]},"properties":{"id":"bikerack:d0cbe2af-5061-4c6f-8c53-ca472eaa77a3","kind":"bikerack","longitude":9.5955868,"latitude":47.2350119,"name":"Biciklitároló","city":"Feldkirch","address":null,"covered":false,"access":null,"website":null,"phone":null,"source":"OpenStreetMap/node/11297363331","sourceUpdatedAt":null,"verifiedAt":null}},{"type":"Feature","geometry":{"type":"Point","coordinates":[9.5978338,47.2345169]},"properties":{"id":"bikerack:d4846cc3-63d2-4e74-b200-cb23f43b4f36","kind":"bikerack","longitude":9.5978338,"latitude":47.2345169,"name":"Biciklitároló","city":"Feldkirch","address":null,"covered":false,"access":null,"website":null,"phone":null,"source":"OpenStreetMap/node/12089018153","sourceUpdatedAt":null,"verifiedAt":null}},{"type":"Feature","geometry":{"type":"Point","coordinates":[9.5949811,47.2428524]},"properties":{"id":"bikerack:e02f6292-7357-4aba-b5c7-3c18e55c6616","kind":"bikerack","longitude":9.5949811,"latitude":47.2428524,"name":"Biciklitároló","city":"Feldkirch","address":null,"covered":false,"access":null,"website":null,"phone":null,"source":"OpenStreetMap/way/968807737","sourceUpdatedAt":null,"verifiedAt":null}},{"type":"Feature","geometry":{"type":"Point","coordinates":[9.6072723,47.2442677]},"properties":{"id":"bikerack:e2f6b5b5-2138-4d39-972d-b6e013c46d56","kind":"bikerack","longitude":9.6072723,"latitude":47.2442677,"name":"Biciklitároló","city":"Feldkirch","address":null,"covered":true,"access":null,"website":null,"phone":null,"source":"OpenStreetMap/way/1254834984","sourceUpdatedAt":null,"verifiedAt":null}},{"type":"Feature","geometry":{"type":"Point","coordinates":[9.5978276,47.2392596]},"properties":{"id":"bikerack:e9a3e1c9-7d5d-4579-8dac-4d04b08ae10e","kind":"bikerack","longitude":9.5978276,"latitude":47.2392596,"name":"Biciklitároló","city":"Feldkirch","address":null,"covered":true,"access":null,"website":null,"phone":null,"source":"OpenStreetMap/node/11083698039","sourceUpdatedAt":null,"verifiedAt":null}},{"type":"Feature","geometry":{"type":"Point","coordinates":[9.6046099,47.2419777]},"properties":{"id":"bikerack:ea1518d9-a1ee-4a82-9068-b6ccad2a5baf","kind":"bikerack","longitude":9.6046099,"latitude":47.2419777,"name":"Biciklitároló","city":"Feldkirch","address":null,"covered":false,"access":null,"website":null,"phone":null,"source":"OpenStreetMap/node/12500688167","sourceUpdatedAt":null,"verifiedAt":null}},{"type":"Feature","geometry":{"type":"Point","coordinates":[9.596919,47.235709]},"properties":{"id":"bikerack:ef74e5e9-9294-4b24-a800-2ef3a7e5fc4f","kind":"bikerack","longitude":9.596919,"latitude":47.235709,"name":"Biciklitároló","city":"Feldkirch","address":null,"covered":false,"access":null,"website":null,"phone":null,"source":"OpenStreetMap/way/691736071","sourceUpdatedAt":null,"verifiedAt":null}},{"type":"Feature","geometry":{"type":"Point","coordinates":[9.6035032,47.240753]},"properties":{"id":"bikerack:f184c51f-118e-45e0-8fa2-e0672212c3bb","kind":"bikerack","longitude":9.6035032,"latitude":47.240753,"name":"Biciklitároló","city":"Feldkirch","address":null,"covered":true,"access":null,"website":null,"phone":null,"source":"OpenStreetMap/way/1115163482","sourceUpdatedAt":null,"verifiedAt":null}},{"type":"Feature","geometry":{"type":"Point","coordinates":[9.5823581,47.2292908]},"properties":{"id":"repair:0534da8b-5cda-4736-bf3d-1965e8991a07","kind":"repair","longitude":9.5823581,"latitude":47.2292908,"name":"Kerékpár szervizállomás","city":"Feldkirch","address":null,"covered":false,"access":null,"website":null,"phone":null,"source":"OpenStreetMap/node/9785200100","sourceUpdatedAt":null,"verifiedAt":null}},{"type":"Feature","geometry":{"type":"Point","coordinates":[9.5966238,47.238316]},"properties":{"id":"repair:2f8523ff-c305-4fef-8594-b9d89dd10553","kind":"repair","longitude":9.5966238,"latitude":47.238316,"name":"Kerékpár szervizállomás","city":"Feldkirch","address":null,"covered":false,"access":null,"website":null,"phone":null,"source":"OpenStreetMap/node/8021161026","sourceUpdatedAt":null,"verifiedAt":null}},{"type":"Feature","geometry":{"type":"Point","coordinates":[9.5972309,47.2399469]},"properties":{"id":"repair:a49582ac-a588-4c7e-a0f1-701a73eb6448","kind":"repair","longitude":9.5972309,"latitude":47.2399469,"name":"Kerékpár szervizállomás","city":"Feldkirch","address":null,"covered":false,"access":null,"website":null,"phone":null,"source":"OpenStreetMap/node/9934004297","sourceUpdatedAt":null,"verifiedAt":null}},{"type":"Feature","geometry":{"type":"Point","coordinates":[9.6114308,47.2486061]},"properties":{"id":"service:f3fd9802-2b2a-42a0-bd28-8cf4551a2cd2","kind":"service","longitude":9.6114308,"latitude":47.2486061,"name":"Strom.Werk","city":"Feldkirch","address":null,"covered":null,"access":null,"website":null,"phone":null,"source":"OpenStreetMap/node/9268739873","sourceUpdatedAt":null,"verifiedAt":null}},{"type":"Feature","geometry":{"type":"Point","coordinates":[9.5819891,47.2199271]},"properties":{"id":"water:2033fd58-bcdb-430b-99dd-6a98907ca7dc","kind":"water","longitude":9.5819891,"latitude":47.2199271,"name":"Ivókút","city":"Feldkirch","address":null,"covered":null,"access":null,"website":null,"phone":null,"source":"OpenStreetMap/node/2664047939","sourceUpdatedAt":null,"verifiedAt":null}},{"type":"Feature","geometry":{"type":"Point","coordinates":[9.5974634,47.2384473]},"properties":{"id":"water:683faada-738c-4815-aa56-f414ede97a8b","kind":"water","longitude":9.5974634,"latitude":47.2384473,"name":"Ivókút","city":"Feldkirch","address":null,"covered":null,"access":null,"website":null,"phone":null,"source":"OpenStreetMap/node/4830935224","sourceUpdatedAt":null,"verifiedAt":null}},{"type":"Feature","geometry":{"type":"Point","coordinates":[9.5981894,47.235499]},"properties":{"id":"water:718bedb1-d49a-4358-8e7b-f14b2d40e1d0","kind":"water","longitude":9.5981894,"latitude":47.235499,"name":"Ivókút","city":"Feldkirch","address":null,"covered":null,"access":null,"website":null,"phone":null,"source":"OpenStreetMap/node/5852088003","sourceUpdatedAt":null,"verifiedAt":null}},{"type":"Feature","geometry":{"type":"Point","coordinates":[9.5982255,47.2375609]},"properties":{"id":"water:80069cc6-8a44-4998-a863-dc52f77bcf0a","kind":"water","longitude":9.5982255,"latitude":47.2375609,"name":"Ivókút","city":"Feldkirch","address":null,"covered":null,"access":null,"website":null,"phone":null,"source":"OpenStreetMap/node/12961388107","sourceUpdatedAt":null,"verifiedAt":null}},{"type":"Feature","geometry":{"type":"Point","coordinates":[9.6031145,47.2491098]},"properties":{"id":"water:82ce721e-f0a5-4b81-a792-123f35d04482","kind":"water","longitude":9.6031145,"latitude":47.2491098,"name":"Ivókút","city":"Feldkirch","address":null,"covered":null,"access":null,"website":null,"phone":null,"source":"OpenStreetMap/node/12961382908","sourceUpdatedAt":null,"verifiedAt":null}},{"type":"Feature","geometry":{"type":"Point","coordinates":[9.5940985,47.2345901]},"properties":{"id":"water:88d2c607-ed99-48f6-b7cf-0f103eaf79c2","kind":"water","longitude":9.5940985,"latitude":47.2345901,"name":"Ivókút","city":"Feldkirch","address":null,"covered":null,"access":null,"website":null,"phone":null,"source":"OpenStreetMap/node/1846715138","sourceUpdatedAt":null,"verifiedAt":null}},{"type":"Feature","geometry":{"type":"Point","coordinates":[9.608676,47.2220052]},"properties":{"id":"water:8968d461-6549-484d-8a2e-47ec69dc4ae0","kind":"water","longitude":9.608676,"latitude":47.2220052,"name":"Ivókút","city":"Feldkirch","address":null,"covered":null,"access":null,"website":null,"phone":null,"source":"OpenStreetMap/node/5568213719","sourceUpdatedAt":null,"verifiedAt":null}},{"type":"Feature","geometry":{"type":"Point","coordinates":[9.5974367,47.2374493]},"properties":{"id":"water:96a497a3-6399-411e-8ca8-b62367e25e65","kind":"water","longitude":9.5974367,"latitude":47.2374493,"name":"Ivókút","city":"Feldkirch","address":null,"covered":null,"access":null,"website":null,"phone":null,"source":"OpenStreetMap/node/1364169791","sourceUpdatedAt":null,"verifiedAt":null}},{"type":"Feature","geometry":{"type":"Point","coordinates":[9.5962205,47.2238553]},"properties":{"id":"water:a137adcb-cac1-4abf-bff7-3a019919cefc","kind":"water","longitude":9.5962205,"latitude":47.2238553,"name":"Ivókút","city":"Feldkirch","address":null,"covered":null,"access":null,"website":null,"phone":null,"source":"OpenStreetMap/node/1907130937","sourceUpdatedAt":null,"verifiedAt":null}},{"type":"Feature","geometry":{"type":"Point","coordinates":[9.5896063,47.228743]},"properties":{"id":"water:bd08a82a-e034-4029-a7c1-fc664d43a699","kind":"water","longitude":9.5896063,"latitude":47.228743,"name":"Ivókút","city":"Feldkirch","address":null,"covered":null,"access":null,"website":null,"phone":null,"source":"OpenStreetMap/node/1907130939","sourceUpdatedAt":null,"verifiedAt":null}},{"type":"Feature","geometry":{"type":"Point","coordinates":[9.612213,47.2479504]},"properties":{"id":"water:bf6cdc54-1af3-409b-8889-5109ed3fcb58","kind":"water","longitude":9.612213,"latitude":47.2479504,"name":"Ivókút","city":"Feldkirch","address":null,"covered":null,"access":null,"website":null,"phone":null,"source":"OpenStreetMap/node/11114656735","sourceUpdatedAt":null,"verifiedAt":null}},{"type":"Feature","geometry":{"type":"Point","coordinates":[9.6210284,47.24422]},"properties":{"id":"water:c394a399-c58f-4c33-87ec-20dfaebc28e9","kind":"water","longitude":9.6210284,"latitude":47.24422,"name":"Ivókút","city":"Gofis","address":null,"covered":null,"access":null,"website":null,"phone":null,"source":"OpenStreetMap/node/9932569231","sourceUpdatedAt":null,"verifiedAt":null}},{"type":"Feature","geometry":{"type":"Point","coordinates":[9.5889132,47.2233423]},"properties":{"id":"water:c5d2f0b9-b4e6-4771-94b3-b0afa8fb0c60","kind":"water","longitude":9.5889132,"latitude":47.2233423,"name":"Ivókút","city":"Feldkirch","address":null,"covered":null,"access":null,"website":null,"phone":null,"source":"OpenStreetMap/node/2324387459","sourceUpdatedAt":null,"verifiedAt":null}},{"type":"Feature","geometry":{"type":"Point","coordinates":[9.5800807,47.241651]},"properties":{"id":"water:c890dc23-2699-430b-9f59-7518f229d007","kind":"water","longitude":9.5800807,"latitude":47.241651,"name":"Ivókút","city":"Nofels","address":null,"covered":null,"access":null,"website":null,"phone":null,"source":"OpenStreetMap/node/9935849568","sourceUpdatedAt":null,"verifiedAt":null}},{"type":"Feature","geometry":{"type":"Point","coordinates":[9.5976711,47.2365882]},"properties":{"id":"water:f5b78a18-74eb-448d-95d6-ec1bf277e36e","kind":"water","longitude":9.5976711,"latitude":47.2365882,"name":"Ivókút","city":"Feldkirch","address":null,"covered":null,"access":null,"website":null,"phone":null,"source":"OpenStreetMap/node/1364169795","sourceUpdatedAt":null,"verifiedAt":null}}]}