{"type":"FeatureCollection","features":[{"type":"Feature","geometry":{"type":"Point","coordinates":[9.6125595,47.2158872]},"properties":{"id":"water:0228485d-5fd4-4fe3-ac11-c2c06f558d91","kind":"water","longitude":9.6125595,"latitude":47.2158872,"name":"Ivókút","city":"Feldkirch","address":null,"covered":null,"access":null,"website":null,"phone":null,"source":"OpenStreetMap/node/7449600012","sourceUpdatedAt":null,"verifiedAt":null}},{"type":"Feature","geometry":{"type":"Point","coordinates":[9.6178509,47.1924968]},"properties":{"id":"water:2ea62c32-7297-4940-81d5-e42be66eb2b0","kind":"water","longitude":9.6178509,"latitude":47.1924968,"name":"Ivókút","city":"Feldkirch","address":null,"covered":null,"access":null,"website":null,"phone":null,"source":"OpenStreetMap/node/7541494299","sourceUpdatedAt":null,"verifiedAt":null}},{"type":"Feature","geometry":{"type":"Point","coordinates":[9.5990471,47.2023721]},"properties":{"id":"water:3ca8698d-5fb5-4bec-a79e-c1d1cb4e26ed","kind":"water","longitude":9.5990471,"latitude":47.2023721,"name":"Ivókút","city":"Feldkirch","address":null,"covered":null,"access":null,"website":null,"phone":null,"source":"OpenStreetMap/node/1907130871","sourceUpdatedAt":null,"verifiedAt":null}},{"type":"Feature","geometry":{"type":"Point","coordinates":[9.5817547,47.2178536]},"properties":{"id":"water:b4044c10-596e-4ba2-924e-7521d9fe2f5e","kind":"water","longitude":9.5817547,"latitude":47.2178536,"name":"Ivókút","city":"Feldkirch","address":null,"covered":null,"access":null,"website":null,"phone":null,"source":"OpenStreetMap/node/2324387455","sourceUpdatedAt":null,"verifiedAt":null}},{"type":"Feature","geometry":{"type":"Point","coordinates":[9.5947269,47.2077236]},"properties":{"id":"water:fa55637a-f84a-4c4e-8dc3-9852d45c74e9","kind":"water","longitude":9.5947269,"latitude":47.2077236,"name":"Ivókút","city":"Feldkirch","address":null,"covered":null,"access":null,"website":null,"phone":null,"source":"OpenStreetMap/node/1907130888","sourceUpdatedAt":null,"verifiedAt":null}}]}