{"type":"FeatureCollection","features":[{"type":"Feature","geometry":{"type":"Point","coordinates":[9.5999299,46.346328]},"properties":{"id":"water:13cc44b3-21ac-4b50-bdce-a5db93039830","kind":"water","longitude":9.5999299,"latitude":46.346328,"name":"Drinking Fountain","city":"Promontogno","address":null,"covered":null,"access":null,"website":null,"phone":null,"source":"OpenStreetMap/node/9082809862","sourceUpdatedAt":null,"verifiedAt":null}},{"type":"Feature","geometry":{"type":"Point","coordinates":[9.584051,46.3430734]},"properties":{"id":"water:263ff812-7cbf-405a-aff8-d2320d615f30","kind":"water","longitude":9.584051,"latitude":46.3430734,"name":"Drinking Fountain","city":"Promontogno","address":null,"covered":null,"access":null,"website":null,"phone":null,"source":"OpenStreetMap/node/10083952245","sourceUpdatedAt":null,"verifiedAt":null}},{"type":"Feature","geometry":{"type":"Point","coordinates":[9.5898195,46.342812]},"properties":{"id":"water:3a9d5020-7ab9-42c6-809e-ee8084a74fbc","kind":"water","longitude":9.5898195,"latitude":46.342812,"name":"Drinking Fountain","city":"Promontogno","address":null,"covered":null,"access":null,"website":null,"phone":null,"source":"OpenStreetMap/node/9925068328","sourceUpdatedAt":null,"verifiedAt":null}},{"type":"Feature","geometry":{"type":"Point","coordinates":[9.5919059,46.345185]},"properties":{"id":"water:d862cdb5-7652-46bc-8087-98bbf299e31d","kind":"water","longitude":9.5919059,"latitude":46.345185,"name":"Drinking Fountain","city":"Promontogno","address":null,"covered":null,"access":null,"website":null,"phone":null,"source":"OpenStreetMap/node/10083952244","sourceUpdatedAt":null,"verifiedAt":null}},{"type":"Feature","geometry":{"type":"Point","coordinates":[9.5821679,46.3429566]},"properties":{"id":"water:e278b72d-2c86-44a0-9904-70f7acfccfbe","kind":"water","longitude":9.5821679,"latitude":46.3429566,"name":"Drinking Fountain","city":"Promontogno","address":null,"covered":null,"access":null,"website":null,"phone":null,"source":"OpenStreetMap/node/3708357830","sourceUpdatedAt":null,"verifiedAt":null}}]}