{"type":"FeatureCollection","features":[{"type":"Feature","geometry":{"type":"Point","coordinates":[9.6057084,45.760987]},"properties":{"id":"service:e897c45c-c959-479e-81e5-a24aba6d47b8","kind":"service","longitude":9.6057084,"latitude":45.760987,"name":"Brember Valley","city":"Villa d'Almè","address":null,"covered":null,"access":null,"website":null,"phone":null,"source":"OpenStreetMap/node/8363501831","sourceUpdatedAt":null,"verifiedAt":null}},{"type":"Feature","geometry":{"type":"Point","coordinates":[9.5804783,45.7457138]},"properties":{"id":"water:06053be5-732c-4074-a1d3-cdebec117060","kind":"water","longitude":9.5804783,"latitude":45.7457138,"name":"Fontanella","city":"Almenno San Bartolomeo","address":null,"covered":null,"access":null,"website":null,"phone":null,"source":"OpenStreetMap/node/6242519678","sourceUpdatedAt":null,"verifiedAt":null}},{"type":"Feature","geometry":{"type":"Point","coordinates":[9.5874498,45.7421785]},"properties":{"id":"water:133fb6f2-3bb2-4d6d-bb7c-2b76edef4b72","kind":"water","longitude":9.5874498,"latitude":45.7421785,"name":"Fontanella","city":"Almenno San Bartolomeo","address":null,"covered":null,"access":null,"website":null,"phone":null,"source":"OpenStreetMap/node/6564891042","sourceUpdatedAt":null,"verifiedAt":null}},{"type":"Feature","geometry":{"type":"Point","coordinates":[9.6078752,45.7499207]},"properties":{"id":"water:1513d255-0a15-4507-9e0b-325e3265cdaa","kind":"water","longitude":9.6078752,"latitude":45.7499207,"name":"Fontanella","city":"Villa d'Alme","address":null,"covered":null,"access":null,"website":null,"phone":null,"source":"OpenStreetMap/node/6139426597","sourceUpdatedAt":null,"verifiedAt":null}},{"type":"Feature","geometry":{"type":"Point","coordinates":[9.5923448,45.7401235]},"properties":{"id":"water:1a1260db-f66d-4e95-ba88-0393d47bf620","kind":"water","longitude":9.5923448,"latitude":45.7401235,"name":"Fontanella","city":"Almenno San Salvatore","address":null,"covered":null,"access":null,"website":null,"phone":null,"source":"OpenStreetMap/node/10041157281","sourceUpdatedAt":null,"verifiedAt":null}},{"type":"Feature","geometry":{"type":"Point","coordinates":[9.6096535,45.7382387]},"properties":{"id":"water:1fad1085-2470-47bd-b76a-28024a0e8d53","kind":"water","longitude":9.6096535,"latitude":45.7382387,"name":"Fontanella","city":"Alme","address":null,"covered":null,"access":null,"website":null,"phone":null,"source":"OpenStreetMap/node/13072500347","sourceUpdatedAt":null,"verifiedAt":null}},{"type":"Feature","geometry":{"type":"Point","coordinates":[9.6166126,45.7477611]},"properties":{"id":"water:30e4c07c-812a-4656-a12e-c2999fed340f","kind":"water","longitude":9.6166126,"latitude":45.7477611,"name":"Fontanella","city":"Villa d'Alme","address":null,"covered":null,"access":null,"website":null,"phone":null,"source":"OpenStreetMap/node/6559600900","sourceUpdatedAt":null,"verifiedAt":null}},{"type":"Feature","geometry":{"type":"Point","coordinates":[9.6133759,45.7674662]},"properties":{"id":"water:42393f18-a273-45e6-86d2-479c09aa1fa3","kind":"water","longitude":9.6133759,"latitude":45.7674662,"name":"Fontanella","city":"Ubiale","address":null,"covered":null,"access":null,"website":null,"phone":null,"source":"OpenStreetMap/node/8516069777","sourceUpdatedAt":null,"verifiedAt":null}},{"type":"Feature","geometry":{"type":"Point","coordinates":[9.6189301,45.7463963]},"properties":{"id":"water:49ec2e37-5fbc-4b3f-87e7-d07ffd48873e","kind":"water","longitude":9.6189301,"latitude":45.7463963,"name":"Fontanella","city":"Villa d'Alme","address":null,"covered":null,"access":null,"website":null,"phone":null,"source":"OpenStreetMap/node/11890925814","sourceUpdatedAt":null,"verifiedAt":null}},{"type":"Feature","geometry":{"type":"Point","coordinates":[9.5846781,45.7373498]},"properties":{"id":"water:4a52bb18-59de-49af-93b9-5b42cad59463","kind":"water","longitude":9.5846781,"latitude":45.7373498,"name":"Fontanella","city":"Almenno San Bartolomeo","address":null,"covered":null,"access":null,"website":null,"phone":null,"source":"OpenStreetMap/node/11753111067","sourceUpdatedAt":null,"verifiedAt":null}},{"type":"Feature","geometry":{"type":"Point","coordinates":[9.5978765,45.7371559]},"properties":{"id":"water:61fc451c-78c1-447b-ab22-b35ac9e6296c","kind":"water","longitude":9.5978765,"latitude":45.7371559,"name":"Fontanella","city":"Paladina","address":null,"covered":null,"access":null,"website":null,"phone":null,"source":"OpenStreetMap/node/11734276210","sourceUpdatedAt":null,"verifiedAt":null}},{"type":"Feature","geometry":{"type":"Point","coordinates":[9.5821195,45.7438487]},"properties":{"id":"water:6a1873a3-1ae3-4f3d-bb83-751fdb0366b2","kind":"water","longitude":9.5821195,"latitude":45.7438487,"name":"Fontanella","city":"Almenno San Bartolomeo","address":null,"covered":null,"access":null,"website":null,"phone":null,"source":"OpenStreetMap/node/6242519676","sourceUpdatedAt":null,"verifiedAt":null}},{"type":"Feature","geometry":{"type":"Point","coordinates":[9.613199,45.7505071]},"properties":{"id":"water:79f09371-fe14-4148-b202-a478bbf6ab93","kind":"water","longitude":9.613199,"latitude":45.7505071,"name":"Fontanella","city":"Villa d'Alme","address":null,"covered":null,"access":null,"website":null,"phone":null,"source":"OpenStreetMap/node/13098678548","sourceUpdatedAt":null,"verifiedAt":null}},{"type":"Feature","geometry":{"type":"Point","coordinates":[9.6150474,45.7479854]},"properties":{"id":"water:7afc2cd7-2f8e-4588-b304-f6900ea67429","kind":"water","longitude":9.6150474,"latitude":45.7479854,"name":"Fontanella","city":"Villa d'Alme","address":null,"covered":null,"access":null,"website":null,"phone":null,"source":"OpenStreetMap/node/6645878228","sourceUpdatedAt":null,"verifiedAt":null}},{"type":"Feature","geometry":{"type":"Point","coordinates":[9.6019095,45.7621673]},"properties":{"id":"water:7f431f82-837d-4646-9312-17e1481cd73c","kind":"water","longitude":9.6019095,"latitude":45.7621673,"name":"Fontanella","city":"Almenno San Salvatore","address":null,"covered":null,"access":null,"website":null,"phone":null,"source":"OpenStreetMap/node/7549405826","sourceUpdatedAt":null,"verifiedAt":null}},{"type":"Feature","geometry":{"type":"Point","coordinates":[9.6185638,45.7459348]},"properties":{"id":"water:9c86ef31-9ce0-4101-a907-f4ffa91a5e8c","kind":"water","longitude":9.6185638,"latitude":45.7459348,"name":"Fontanella","city":"Villa d'Alme","address":null,"covered":null,"access":null,"website":null,"phone":null,"source":"OpenStreetMap/node/6557296671","sourceUpdatedAt":null,"verifiedAt":null}},{"type":"Feature","geometry":{"type":"Point","coordinates":[9.6183188,45.7453822]},"properties":{"id":"water:9cb7bda4-b718-4bb6-883e-f8de07288ae8","kind":"water","longitude":9.6183188,"latitude":45.7453822,"name":"Fontanella","city":"Villa d'Alme","address":null,"covered":null,"access":null,"website":null,"phone":null,"source":"OpenStreetMap/node/6557296673","sourceUpdatedAt":null,"verifiedAt":null}},{"type":"Feature","geometry":{"type":"Point","coordinates":[9.5868499,45.752626]},"properties":{"id":"water:9edbcfe6-06d5-4b8b-ba8e-d91d810862ee","kind":"water","longitude":9.5868499,"latitude":45.752626,"name":"Fontanella","city":"Almenno San Salvatore","address":null,"covered":null,"access":null,"website":null,"phone":null,"source":"OpenStreetMap/node/7570702948","sourceUpdatedAt":null,"verifiedAt":null}},{"type":"Feature","geometry":{"type":"Point","coordinates":[9.6160051,45.7400849]},"properties":{"id":"water:b159b547-1a45-4fcc-9e33-378bcb51b2df","kind":"water","longitude":9.6160051,"latitude":45.7400849,"name":"Almè Piazza Lemine 5","city":"Alme","address":null,"covered":null,"access":null,"website":null,"phone":null,"source":"OpenStreetMap/node/4267769189","sourceUpdatedAt":null,"verifiedAt":null}},{"type":"Feature","geometry":{"type":"Point","coordinates":[9.6171153,45.7394801]},"properties":{"id":"water:b56e7487-7398-4dd3-b413-03081723dc3e","kind":"water","longitude":9.6171153,"latitude":45.7394801,"name":"Fontanella","city":"Alme","address":null,"covered":null,"access":null,"website":null,"phone":null,"source":"OpenStreetMap/node/6636613138","sourceUpdatedAt":null,"verifiedAt":null}},{"type":"Feature","geometry":{"type":"Point","coordinates":[9.5808807,45.7486362]},"properties":{"id":"water:ece4a9db-f80a-48ab-b65a-de15c4f02dc6","kind":"water","longitude":9.5808807,"latitude":45.7486362,"name":"Fontanella","city":"Almenno San Bartolomeo","address":null,"covered":null,"access":null,"website":null,"phone":null,"source":"OpenStreetMap/node/11361945842","sourceUpdatedAt":null,"verifiedAt":null}}]}