{"type":"FeatureCollection","features":[{"type":"Feature","geometry":{"type":"Point","coordinates":[9.5909632,45.5221056]},"properties":{"id":"bikerack:1e042a3d-5d4c-41be-8443-fa3eaf76f3ad","kind":"bikerack","longitude":9.5909632,"latitude":45.5221056,"name":"Parcheggio bici","city":"Treviglio","address":null,"covered":false,"access":null,"website":null,"phone":null,"source":"OpenStreetMap/node/10291658137","sourceUpdatedAt":null,"verifiedAt":null}},{"type":"Feature","geometry":{"type":"Point","coordinates":[9.5983769,45.5294866]},"properties":{"id":"bikerack:c02655b2-11e9-4fcd-80d4-4e0537996052","kind":"bikerack","longitude":9.5983769,"latitude":45.5294866,"name":"Parcheggio bici","city":"Treviglio","address":null,"covered":false,"access":null,"website":null,"phone":null,"source":"OpenStreetMap/node/7878957236","sourceUpdatedAt":null,"verifiedAt":null}},{"type":"Feature","geometry":{"type":"Point","coordinates":[9.5895648,45.5282563]},"properties":{"id":"bikerack:c4ffd14c-9f62-47a6-97fa-2e2c40c39950","kind":"bikerack","longitude":9.5895648,"latitude":45.5282563,"name":"Parcheggio bici","city":"Treviglio","address":null,"covered":false,"access":null,"website":null,"phone":null,"source":"OpenStreetMap/node/8951364811","sourceUpdatedAt":null,"verifiedAt":null}},{"type":"Feature","geometry":{"type":"Point","coordinates":[9.5909156,45.5284878]},"properties":{"id":"bikerack:eb5798a2-ae10-4670-b90f-32fcbe6fba04","kind":"bikerack","longitude":9.5909156,"latitude":45.5284878,"name":"Parcheggio bici","city":"Treviglio","address":null,"covered":true,"access":null,"website":null,"phone":null,"source":"OpenStreetMap/node/9026430532","sourceUpdatedAt":null,"verifiedAt":null}},{"type":"Feature","geometry":{"type":"Point","coordinates":[9.6007965,45.5479503]},"properties":{"id":"service:365cf8c2-7d67-4cc0-973e-94bf5c6de7c0","kind":"service","longitude":9.6007965,"latitude":45.5479503,"name":"Outlet Bianchi - Bianchi Fiv S.P.A. Fabbrica Italiana Velocipedi","city":"Castel Rozzone","address":null,"covered":null,"access":null,"website":null,"phone":null,"source":"OpenStreetMap/node/1221147090","sourceUpdatedAt":null,"verifiedAt":null}},{"type":"Feature","geometry":{"type":"Point","coordinates":[9.5809368,45.5305245]},"properties":{"id":"water:20908b14-f419-4b07-bbc4-fb6626c30786","kind":"water","longitude":9.5809368,"latitude":45.5305245,"name":"Fontanella","city":"Geromina","address":null,"covered":null,"access":null,"website":null,"phone":null,"source":"OpenStreetMap/node/8989863417","sourceUpdatedAt":null,"verifiedAt":null}},{"type":"Feature","geometry":{"type":"Point","coordinates":[9.5981544,45.5335119]},"properties":{"id":"water:27004660-b093-4a18-ac57-9c0e487f9f59","kind":"water","longitude":9.5981544,"latitude":45.5335119,"name":"Fontanella","city":"Treviglio","address":null,"covered":null,"access":null,"website":null,"phone":null,"source":"OpenStreetMap/node/7600216757","sourceUpdatedAt":null,"verifiedAt":null}},{"type":"Feature","geometry":{"type":"Point","coordinates":[9.6039026,45.5280244]},"properties":{"id":"water:31c4f9f7-25f7-4b23-b9d5-cb81080e127e","kind":"water","longitude":9.6039026,"latitude":45.5280244,"name":"Fontanella","city":"Treviglio","address":null,"covered":null,"access":null,"website":null,"phone":null,"source":"OpenStreetMap/node/6221341930","sourceUpdatedAt":null,"verifiedAt":null}},{"type":"Feature","geometry":{"type":"Point","coordinates":[9.589109,45.5292684]},"properties":{"id":"water:3746ff4e-2420-4c81-9c33-e865dc70c971","kind":"water","longitude":9.589109,"latitude":45.5292684,"name":"Fontanella","city":"Treviglio","address":null,"covered":null,"access":null,"website":null,"phone":null,"source":"OpenStreetMap/node/4202026579","sourceUpdatedAt":null,"verifiedAt":null}},{"type":"Feature","geometry":{"type":"Point","coordinates":[9.5996071,45.5260811]},"properties":{"id":"water:4a75426b-f7c6-42f3-ad30-5fa2b0adf287","kind":"water","longitude":9.5996071,"latitude":45.5260811,"name":"Fontanella","city":"Treviglio","address":null,"covered":null,"access":null,"website":null,"phone":null,"source":"OpenStreetMap/node/6221341928","sourceUpdatedAt":null,"verifiedAt":null}},{"type":"Feature","geometry":{"type":"Point","coordinates":[9.6032875,45.5296834]},"properties":{"id":"water:5f353775-fa4f-46e5-9363-8abf06ca1f67","kind":"water","longitude":9.6032875,"latitude":45.5296834,"name":"Fontanella","city":"Treviglio","address":null,"covered":null,"access":null,"website":null,"phone":null,"source":"OpenStreetMap/node/6221341929","sourceUpdatedAt":null,"verifiedAt":null}},{"type":"Feature","geometry":{"type":"Point","coordinates":[9.5951361,45.5241555]},"properties":{"id":"water:7c6e97bf-a661-484c-b4ac-17f111a0decb","kind":"water","longitude":9.5951361,"latitude":45.5241555,"name":"Fontanella","city":"Treviglio","address":null,"covered":null,"access":null,"website":null,"phone":null,"source":"OpenStreetMap/node/3392454065","sourceUpdatedAt":null,"verifiedAt":null}},{"type":"Feature","geometry":{"type":"Point","coordinates":[9.5978677,45.5345751]},"properties":{"id":"water:7f781c76-e115-4e4a-8a29-f435a7422644","kind":"water","longitude":9.5978677,"latitude":45.5345751,"name":"Fontanella","city":"Treviglio","address":null,"covered":null,"access":null,"website":null,"phone":null,"source":"OpenStreetMap/node/4560798122","sourceUpdatedAt":null,"verifiedAt":null}},{"type":"Feature","geometry":{"type":"Point","coordinates":[9.6018332,45.549159]},"properties":{"id":"water:85cf52f4-0fce-4311-93a2-654e1ec48e08","kind":"water","longitude":9.6018332,"latitude":45.549159,"name":"Fontanella","city":"Castel Rozzone","address":null,"covered":null,"access":null,"website":null,"phone":null,"source":"OpenStreetMap/node/5927611712","sourceUpdatedAt":null,"verifiedAt":null}},{"type":"Feature","geometry":{"type":"Point","coordinates":[9.5898257,45.5256646]},"properties":{"id":"water:860be739-683e-4824-b551-f577af0fb360","kind":"water","longitude":9.5898257,"latitude":45.5256646,"name":"Fontanella","city":"Treviglio","address":null,"covered":null,"access":null,"website":null,"phone":null,"source":"OpenStreetMap/node/4548961903","sourceUpdatedAt":null,"verifiedAt":null}},{"type":"Feature","geometry":{"type":"Point","coordinates":[9.5953955,45.5223744]},"properties":{"id":"water:a589cc38-1a9c-4d50-a165-f986979a4d58","kind":"water","longitude":9.5953955,"latitude":45.5223744,"name":"Fontanella","city":"Treviglio","address":null,"covered":null,"access":null,"website":null,"phone":null,"source":"OpenStreetMap/node/4631702699","sourceUpdatedAt":null,"verifiedAt":null}},{"type":"Feature","geometry":{"type":"Point","coordinates":[9.5950814,45.5261757]},"properties":{"id":"water:cdadaff5-4569-48f1-9719-0a44368e8225","kind":"water","longitude":9.5950814,"latitude":45.5261757,"name":"Fontanella","city":"Treviglio","address":null,"covered":null,"access":null,"website":null,"phone":null,"source":"OpenStreetMap/node/5770405055","sourceUpdatedAt":null,"verifiedAt":null}},{"type":"Feature","geometry":{"type":"Point","coordinates":[9.5907175,45.5303905]},"properties":{"id":"water:d5c10f02-d846-4ae7-8a42-6cad512d2b3f","kind":"water","longitude":9.5907175,"latitude":45.5303905,"name":"Fontanella","city":"Treviglio","address":null,"covered":null,"access":null,"website":null,"phone":null,"source":"OpenStreetMap/node/5818229353","sourceUpdatedAt":null,"verifiedAt":null}},{"type":"Feature","geometry":{"type":"Point","coordinates":[9.588633,45.5305708]},"properties":{"id":"water:f0efab15-ba81-4ab6-9ebd-445dc0253cd1","kind":"water","longitude":9.588633,"latitude":45.5305708,"name":"Fontanella","city":"Treviglio","address":null,"covered":null,"access":null,"website":null,"phone":null,"source":"OpenStreetMap/node/4202031017","sourceUpdatedAt":null,"verifiedAt":null}},{"type":"Feature","geometry":{"type":"Point","coordinates":[9.5867874,45.532465]},"properties":{"id":"water:fe53b77c-8d17-4f20-aa5c-5c5c3ec7771b","kind":"water","longitude":9.5867874,"latitude":45.532465,"name":"Fontanella","city":"Geromina","address":null,"covered":null,"access":null,"website":null,"phone":null,"source":"OpenStreetMap/node/4202031703","sourceUpdatedAt":null,"verifiedAt":null}}]}