{"type":"FeatureCollection","features":[{"type":"Feature","geometry":{"type":"Point","coordinates":[12.1387042,46.5368459]},"properties":{"id":"bikerack:0a6f4793-d516-438e-8ae4-91797d4b2bc9","kind":"bikerack","longitude":12.1387042,"latitude":46.5368459,"name":"Parcheggio bici","city":"Cortina d'Ampezzo","address":null,"covered":false,"access":null,"website":null,"phone":null,"source":"OpenStreetMap/node/13119291390","sourceUpdatedAt":null,"verifiedAt":null}},{"type":"Feature","geometry":{"type":"Point","coordinates":[12.1389682,46.5368528]},"properties":{"id":"bikerack:79bd4e4b-e97a-4a5e-8fc4-fa4215dfa751","kind":"bikerack","longitude":12.1389682,"latitude":46.5368528,"name":"Parcheggio bici","city":"Cortina d'Ampezzo","address":null,"covered":false,"access":null,"website":null,"phone":null,"source":"OpenStreetMap/node/13119431928","sourceUpdatedAt":null,"verifiedAt":null}},{"type":"Feature","geometry":{"type":"Point","coordinates":[12.1386964,46.5366782]},"properties":{"id":"bikerack:93f9e686-6915-4380-a0c4-c423efa05e6d","kind":"bikerack","longitude":12.1386964,"latitude":46.5366782,"name":"Parcheggio bici","city":"Cortina d'Ampezzo","address":null,"covered":false,"access":null,"website":null,"phone":null,"source":"OpenStreetMap/node/13119369466","sourceUpdatedAt":null,"verifiedAt":null}},{"type":"Feature","geometry":{"type":"Point","coordinates":[12.1385236,46.5368888]},"properties":{"id":"bikerack:9b132f41-0d91-4e94-ac57-4a3c59144729","kind":"bikerack","longitude":12.1385236,"latitude":46.5368888,"name":"Parcheggio bici","city":"Cortina d'Ampezzo","address":null,"covered":false,"access":null,"website":null,"phone":null,"source":"OpenStreetMap/node/13119320370","sourceUpdatedAt":null,"verifiedAt":null}},{"type":"Feature","geometry":{"type":"Point","coordinates":[12.1407289,46.5344204]},"properties":{"id":"service:e7f7cf67-44d4-43a7-8426-d9e50f40f4b9","kind":"service","longitude":12.1407289,"latitude":46.5344204,"name":"2ue&2ue Cortina","city":"Cortina d'Ampezzo","address":null,"covered":null,"access":null,"website":null,"phone":null,"source":"OpenStreetMap/node/4814871625","sourceUpdatedAt":null,"verifiedAt":null}},{"type":"Feature","geometry":{"type":"Point","coordinates":[12.1657487,46.5447914]},"properties":{"id":"water:033bc9b9-ad5e-4e2d-a763-3ae0d01eda7f","kind":"water","longitude":12.1657487,"latitude":46.5447914,"name":"Fontanella","city":"Cortina d'Ampezzo","address":null,"covered":null,"access":null,"website":null,"phone":null,"source":"OpenStreetMap/node/2433826980","sourceUpdatedAt":null,"verifiedAt":null}},{"type":"Feature","geometry":{"type":"Point","coordinates":[12.1433703,46.5343539]},"properties":{"id":"water:149b02ec-9157-41d1-b497-acc846d37121","kind":"water","longitude":12.1433703,"latitude":46.5343539,"name":"Fontanella","city":"Cortina d'Ampezzo","address":null,"covered":null,"access":null,"website":null,"phone":null,"source":"OpenStreetMap/node/1794711352","sourceUpdatedAt":null,"verifiedAt":null}},{"type":"Feature","geometry":{"type":"Point","coordinates":[12.1351031,46.5390025]},"properties":{"id":"water:91c5b92a-96dc-4d8d-a306-d1cb31d6e910","kind":"water","longitude":12.1351031,"latitude":46.5390025,"name":"Fontanella","city":"Cortina d'Ampezzo","address":null,"covered":null,"access":null,"website":null,"phone":null,"source":"OpenStreetMap/node/2721631662","sourceUpdatedAt":null,"verifiedAt":null}},{"type":"Feature","geometry":{"type":"Point","coordinates":[12.137289,46.5344776]},"properties":{"id":"water:9d7f63e8-cfb8-4f76-94d2-9653633553da","kind":"water","longitude":12.137289,"latitude":46.5344776,"name":"Fontanella","city":"Cortina d'Ampezzo","address":null,"covered":null,"access":null,"website":null,"phone":null,"source":"OpenStreetMap/node/13018796309","sourceUpdatedAt":null,"verifiedAt":null}},{"type":"Feature","geometry":{"type":"Point","coordinates":[12.1337186,46.5436654]},"properties":{"id":"water:b9a3974d-d930-4320-af01-8f8cca2c88e6","kind":"water","longitude":12.1337186,"latitude":46.5436654,"name":"Fontanella","city":"Cortina d'Ampezzo","address":null,"covered":null,"access":null,"website":null,"phone":null,"source":"OpenStreetMap/node/12049599396","sourceUpdatedAt":null,"verifiedAt":null}},{"type":"Feature","geometry":{"type":"Point","coordinates":[12.130885,46.5530766]},"properties":{"id":"water:c798ddaf-575d-469b-8c65-e7fb4daa48fd","kind":"water","longitude":12.130885,"latitude":46.5530766,"name":"Fontanella","city":"Cortina d'Ampezzo","address":null,"covered":null,"access":null,"website":null,"phone":null,"source":"OpenStreetMap/node/1794677455","sourceUpdatedAt":null,"verifiedAt":null}}]}