{"type":"FeatureCollection","features":[{"type":"Feature","geometry":{"type":"Point","coordinates":[23.5932562,51.2359844]},"properties":{"id":"bikerack:6f5df71f-78ef-43c1-94c9-c8bb4e4bb7ad","kind":"bikerack","longitude":23.5932562,"latitude":51.2359844,"name":"Biciklitároló","city":"Ruda-Huta","address":null,"covered":false,"access":null,"website":null,"phone":null,"source":"OpenStreetMap/node/9077192429","sourceUpdatedAt":null,"verifiedAt":null}},{"type":"Feature","geometry":{"type":"Point","coordinates":[23.5827461,51.2549321]},"properties":{"id":"bikerack:d1efc3eb-74ac-4e91-961f-4f6a729381c1","kind":"bikerack","longitude":23.5827461,"latitude":51.2549321,"name":"Biciklitároló","city":"Ruda-Huta","address":null,"covered":false,"access":null,"website":null,"phone":null,"source":"OpenStreetMap/node/5905770025","sourceUpdatedAt":null,"verifiedAt":null}}]}