{"type":"FeatureCollection","features":[{"type":"Feature","geometry":{"type":"Point","coordinates":[16.0501577,50.5336814]},"properties":{"id":"water:7b317ecc-9f33-41c9-841f-d135088383db","kind":"water","longitude":16.0501577,"latitude":50.5336814,"name":"U máchadla","city":"Male Svatonovice","address":null,"covered":null,"access":null,"website":null,"phone":null,"source":"OpenStreetMap/node/13293243267","sourceUpdatedAt":null,"verifiedAt":null}},{"type":"Feature","geometry":{"type":"Point","coordinates":[16.0507272,50.534575]},"properties":{"id":"water:a937cab1-0827-4788-8444-f0c0abca5ad4","kind":"water","longitude":16.0507272,"latitude":50.534575,"name":"Drinking Fountain","city":"Male Svatonovice","address":null,"covered":null,"access":null,"website":null,"phone":null,"source":"OpenStreetMap/node/4979122252","sourceUpdatedAt":null,"verifiedAt":null}}]}