{"type":"FeatureCollection","features":[{"type":"Feature","geometry":{"type":"Point","coordinates":[16.078396,47.7315718]},"properties":{"id":"bikerack:3c79b2f3-92ed-4190-b096-671c434b22de","kind":"bikerack","longitude":16.078396,"latitude":47.7315718,"name":"Biciklitároló","city":"Neunkirchen","address":null,"covered":false,"access":null,"website":null,"phone":null,"source":"OpenStreetMap/way/1262464842","sourceUpdatedAt":null,"verifiedAt":null}},{"type":"Feature","geometry":{"type":"Point","coordinates":[16.065741,47.7270926]},"properties":{"id":"bikerack:e835003f-173e-4f2b-80f5-9415f85fbf52","kind":"bikerack","longitude":16.065741,"latitude":47.7270926,"name":"Biciklitároló","city":"Neunkirchen","address":null,"covered":false,"access":null,"website":null,"phone":null,"source":"OpenStreetMap/node/9445353219","sourceUpdatedAt":null,"verifiedAt":null}}]}