{"type":"FeatureCollection","features":[{"type":"Feature","geometry":{"type":"Point","coordinates":[18.1650452,45.8356187]},"properties":{"id":"water:9dba7a23-d549-4905-ac17-d75f0a2f7ebd","kind":"water","longitude":18.1650452,"latitude":45.8356187,"name":"Ivókút","city":null,"address":null,"covered":null,"access":null,"website":null,"phone":null,"source":"OpenStreetMap","sourceUpdatedAt":null,"verifiedAt":null}},{"type":"Feature","geometry":{"type":"Point","coordinates":[18.1611521,45.8331827]},"properties":{"id":"water:ceedd9d6-d953-44d5-9e9d-16d63e3057b6","kind":"water","longitude":18.1611521,"latitude":45.8331827,"name":"Ivókút","city":null,"address":null,"covered":null,"access":null,"website":null,"phone":null,"source":"OpenStreetMap","sourceUpdatedAt":null,"verifiedAt":null}},{"type":"Feature","geometry":{"type":"Point","coordinates":[18.1649121,45.8358329]},"properties":{"id":"water:f0b8f98f-9325-46eb-9bdb-897041772c70","kind":"water","longitude":18.1649121,"latitude":45.8358329,"name":"Ivókút","city":null,"address":null,"covered":null,"access":null,"website":null,"phone":null,"source":"OpenStreetMap","sourceUpdatedAt":null,"verifiedAt":null}}]}