{"type":"FeatureCollection","features":[{"type":"Feature","geometry":{"type":"Point","coordinates":[11.6005262,52.0834622]},"properties":{"id":"bikerack:0901dc24-d53d-4108-86fc-58c98abbd2c8","kind":"bikerack","longitude":11.6005262,"latitude":52.0834622,"name":"Fahrradabstellplatz","city":"Magdeburg","address":null,"covered":false,"access":null,"website":null,"phone":null,"source":"OpenStreetMap/way/1135934850","sourceUpdatedAt":null,"verifiedAt":null}},{"type":"Feature","geometry":{"type":"Point","coordinates":[11.5730678,52.0947576]},"properties":{"id":"bikerack:0bca112c-eeec-4f75-95e4-9b9f7d662311","kind":"bikerack","longitude":11.5730678,"latitude":52.0947576,"name":"Fahrradabstellplatz","city":"Diesdorf","address":null,"covered":false,"access":null,"website":null,"phone":null,"source":"OpenStreetMap/node/3270735620","sourceUpdatedAt":null,"verifiedAt":null}},{"type":"Feature","geometry":{"type":"Point","coordinates":[11.6001649,52.0834538]},"properties":{"id":"bikerack:1a20b8cb-a3bf-4d84-bfa4-f2e559d13902","kind":"bikerack","longitude":11.6001649,"latitude":52.0834538,"name":"Fahrradabstellplatz","city":"Magdeburg","address":null,"covered":false,"access":null,"website":null,"phone":null,"source":"OpenStreetMap/node/3346160311","sourceUpdatedAt":null,"verifiedAt":null}},{"type":"Feature","geometry":{"type":"Point","coordinates":[11.599945,52.0834488]},"properties":{"id":"bikerack:22e9a236-c603-42cc-aee9-61b0d59fa5db","kind":"bikerack","longitude":11.599945,"latitude":52.0834488,"name":"Fahrradabstellplatz","city":"Magdeburg","address":null,"covered":false,"access":null,"website":null,"phone":null,"source":"OpenStreetMap/node/3346160312","sourceUpdatedAt":null,"verifiedAt":null}},{"type":"Feature","geometry":{"type":"Point","coordinates":[11.5980713,52.0834323]},"properties":{"id":"bikerack:3010099d-96fd-415b-8dae-6e708bd2ac33","kind":"bikerack","longitude":11.5980713,"latitude":52.0834323,"name":"Fahrradabstellplatz","city":"Magdeburg","address":null,"covered":false,"access":null,"website":null,"phone":null,"source":"OpenStreetMap/node/3270735615","sourceUpdatedAt":null,"verifiedAt":null}},{"type":"Feature","geometry":{"type":"Point","coordinates":[11.6001896,52.0834359]},"properties":{"id":"bikerack:34dc8c99-e1d9-40b6-9d6f-82dfbae5f444","kind":"bikerack","longitude":11.6001896,"latitude":52.0834359,"name":"Fahrradabstellplatz","city":"Magdeburg","address":null,"covered":false,"access":null,"website":null,"phone":null,"source":"OpenStreetMap/way/1135934849","sourceUpdatedAt":null,"verifiedAt":null}},{"type":"Feature","geometry":{"type":"Point","coordinates":[11.5822425,52.0799926]},"properties":{"id":"bikerack:47230db8-66bc-41a8-a419-27c58577de0e","kind":"bikerack","longitude":11.5822425,"latitude":52.0799926,"name":"Fahrradabstellplatz","city":"Diesdorf","address":null,"covered":false,"access":null,"website":null,"phone":null,"source":"OpenStreetMap/node/4329721230","sourceUpdatedAt":null,"verifiedAt":null}},{"type":"Feature","geometry":{"type":"Point","coordinates":[11.5616102,52.0890396]},"properties":{"id":"bikerack:481a66e1-8bd9-4aa8-addd-325112f5410f","kind":"bikerack","longitude":11.5616102,"latitude":52.0890396,"name":"Fahrradabstellplatz","city":"Diesdorf","address":null,"covered":false,"access":null,"website":null,"phone":null,"source":"OpenStreetMap/node/3334794627","sourceUpdatedAt":null,"verifiedAt":null}},{"type":"Feature","geometry":{"type":"Point","coordinates":[11.6011623,52.1033622]},"properties":{"id":"bikerack:495956ae-ad75-4aa8-8996-72e4caf38ea4","kind":"bikerack","longitude":11.6011623,"latitude":52.1033622,"name":"Fahrradabstellplatz","city":"Magdeburg","address":null,"covered":false,"access":null,"website":null,"phone":null,"source":"OpenStreetMap/node/10779340623","sourceUpdatedAt":null,"verifiedAt":null}},{"type":"Feature","geometry":{"type":"Point","coordinates":[11.5698637,52.0912002]},"properties":{"id":"bikerack:51615906-79a4-474d-bdae-2662cd63f53f","kind":"bikerack","longitude":11.5698637,"latitude":52.0912002,"name":"Fahrradabstellplatz","city":"Diesdorf","address":null,"covered":false,"access":null,"website":null,"phone":null,"source":"OpenStreetMap/node/3276255961","sourceUpdatedAt":null,"verifiedAt":null}},{"type":"Feature","geometry":{"type":"Point","coordinates":[11.6003017,52.0834522]},"properties":{"id":"bikerack:58f2a5c5-e50b-4dad-9612-48be9f8b403a","kind":"bikerack","longitude":11.6003017,"latitude":52.0834522,"name":"Fahrradabstellplatz","city":"Magdeburg","address":null,"covered":false,"access":null,"website":null,"phone":null,"source":"OpenStreetMap/node/3346160313","sourceUpdatedAt":null,"verifiedAt":null}},{"type":"Feature","geometry":{"type":"Point","coordinates":[11.5992723,52.0834216]},"properties":{"id":"bikerack:6172136a-0cfe-4f3d-a411-070f657f0958","kind":"bikerack","longitude":11.5992723,"latitude":52.0834216,"name":"Fahrradabstellplatz","city":"Magdeburg","address":null,"covered":false,"access":null,"website":null,"phone":null,"source":"OpenStreetMap/way/1135934847","sourceUpdatedAt":null,"verifiedAt":null}},{"type":"Feature","geometry":{"type":"Point","coordinates":[11.5960247,52.0833895]},"properties":{"id":"bikerack:7af5d2f0-bc27-4191-a17f-727c7b8ce957","kind":"bikerack","longitude":11.5960247,"latitude":52.0833895,"name":"Fahrradabstellplatz","city":"Magdeburg","address":null,"covered":false,"access":null,"website":null,"phone":null,"source":"OpenStreetMap/node/3270735617","sourceUpdatedAt":null,"verifiedAt":null}},{"type":"Feature","geometry":{"type":"Point","coordinates":[11.5988911,52.1029179]},"properties":{"id":"bikerack:8bd068c3-c7ee-4910-ba9f-b7fe67131f3e","kind":"bikerack","longitude":11.5988911,"latitude":52.1029179,"name":"Fahrradabstellplatz","city":"Magdeburg","address":null,"covered":false,"access":null,"website":null,"phone":null,"source":"OpenStreetMap/node/3066302051","sourceUpdatedAt":null,"verifiedAt":null}},{"type":"Feature","geometry":{"type":"Point","coordinates":[11.5955741,52.083383]},"properties":{"id":"bikerack:8e572555-a162-4fae-aec1-28ea39561023","kind":"bikerack","longitude":11.5955741,"latitude":52.083383,"name":"Fahrradabstellplatz","city":"Magdeburg","address":null,"covered":false,"access":null,"website":null,"phone":null,"source":"OpenStreetMap/node/3270735619","sourceUpdatedAt":null,"verifiedAt":null}},{"type":"Feature","geometry":{"type":"Point","coordinates":[11.5713981,52.0858716]},"properties":{"id":"bikerack:8edd860e-42b5-49f8-9d30-af1b45272696","kind":"bikerack","longitude":11.5713981,"latitude":52.0858716,"name":"Fahrradabstellplatz","city":"Diesdorf","address":null,"covered":false,"access":null,"website":null,"phone":null,"source":"OpenStreetMap/node/9402598666","sourceUpdatedAt":null,"verifiedAt":null}},{"type":"Feature","geometry":{"type":"Point","coordinates":[11.5752162,52.0986052]},"properties":{"id":"bikerack:bd44aff7-47c2-492d-b2bd-19fc6c05496e","kind":"bikerack","longitude":11.5752162,"latitude":52.0986052,"name":"Fahrradabstellplatz","city":"Diesdorf","address":null,"covered":false,"access":null,"website":null,"phone":null,"source":"OpenStreetMap/node/9819757908","sourceUpdatedAt":null,"verifiedAt":null}},{"type":"Feature","geometry":{"type":"Point","coordinates":[11.5658445,52.0879492]},"properties":{"id":"bikerack:d04cb92b-fe0d-46ef-be97-a4809200638a","kind":"bikerack","longitude":11.5658445,"latitude":52.0879492,"name":"Fahrradabstellplatz","city":"Diesdorf","address":null,"covered":false,"access":null,"website":null,"phone":null,"source":"OpenStreetMap/node/3271432369","sourceUpdatedAt":null,"verifiedAt":null}},{"type":"Feature","geometry":{"type":"Point","coordinates":[11.599925,52.0834315]},"properties":{"id":"bikerack:e7d0487c-b57e-40f2-92c1-e35094cd3d95","kind":"bikerack","longitude":11.599925,"latitude":52.0834315,"name":"Fahrradabstellplatz","city":"Magdeburg","address":null,"covered":false,"access":null,"website":null,"phone":null,"source":"OpenStreetMap/way/1135934848","sourceUpdatedAt":null,"verifiedAt":null}},{"type":"Feature","geometry":{"type":"Point","coordinates":[11.569539,52.0906637]},"properties":{"id":"bikerack:eea0ea39-eddf-4edc-bcf6-492f89d26418","kind":"bikerack","longitude":11.569539,"latitude":52.0906637,"name":"Fahrradabstellplatz","city":"Diesdorf","address":null,"covered":false,"access":null,"website":null,"phone":null,"source":"OpenStreetMap/node/4577375750","sourceUpdatedAt":null,"verifiedAt":null}}]}