{"type":"FeatureCollection","features":[{"type":"Feature","geometry":{"type":"Point","coordinates":[11.5881399,51.8517317]},"properties":{"id":"bikerack:55a7961d-3a1d-49d1-bd47-575cc9fb06c8","kind":"bikerack","longitude":11.5881399,"latitude":51.8517317,"name":"Fahrradabstellplatz","city":"Stassfurt","address":null,"covered":true,"access":null,"website":null,"phone":null,"source":"OpenStreetMap/way/1442399086","sourceUpdatedAt":null,"verifiedAt":null}},{"type":"Feature","geometry":{"type":"Point","coordinates":[11.5785534,51.8516968]},"properties":{"id":"bikerack:78767036-a42b-4b12-9d85-911c4a4e10a0","kind":"bikerack","longitude":11.5785534,"latitude":51.8516968,"name":"Fahrradabstellplatz","city":"Stassfurt","address":null,"covered":false,"access":null,"website":null,"phone":null,"source":"OpenStreetMap/node/2718785876","sourceUpdatedAt":null,"verifiedAt":null}},{"type":"Feature","geometry":{"type":"Point","coordinates":[11.6015421,51.8591428]},"properties":{"id":"repair:13ca58d9-2785-4f1f-afe0-1e815a497fb9","kind":"repair","longitude":11.6015421,"latitude":51.8591428,"name":"Fahrzeugmuseum Staßfurt","city":"Staßfurt","address":null,"covered":false,"access":null,"website":null,"phone":null,"source":"OpenStreetMap/node/4128056889","sourceUpdatedAt":null,"verifiedAt":null}},{"type":"Feature","geometry":{"type":"Point","coordinates":[11.5841804,51.856672]},"properties":{"id":"service:d317ab3d-3180-443b-8979-ae7dcc8b392a","kind":"service","longitude":11.5841804,"latitude":51.856672,"name":"Bannasch Handels GmbH","city":"Stassfurt","address":null,"covered":null,"access":null,"website":null,"phone":null,"source":"OpenStreetMap/node/10613450525","sourceUpdatedAt":null,"verifiedAt":null}}]}