{"type":"FeatureCollection","features":[{"type":"Feature","geometry":{"type":"Point","coordinates":[11.6000153,51.3818901]},"properties":{"id":"service:b334868c-4121-449f-b36e-a91c56fdb61d","kind":"service","longitude":11.6000153,"latitude":51.3818901,"name":"ZWEIRADHAUS MIELKE","city":"Querfurt","address":null,"covered":null,"access":null,"website":null,"phone":null,"source":"OpenStreetMap/node/1008109652","sourceUpdatedAt":null,"verifiedAt":null}},{"type":"Feature","geometry":{"type":"Point","coordinates":[11.5964109,51.3780247]},"properties":{"id":"water:15e63d7c-72c1-4020-a676-60b8c97aedff","kind":"water","longitude":11.5964109,"latitude":51.3780247,"name":"Trinkwasser","city":"Querfurt","address":null,"covered":null,"access":null,"website":null,"phone":null,"source":"OpenStreetMap/node/10884104750","sourceUpdatedAt":null,"verifiedAt":null}},{"type":"Feature","geometry":{"type":"Point","coordinates":[11.5973827,51.3786102]},"properties":{"id":"water:42bab854-baf8-44aa-a41b-cf8ac9a0fa88","kind":"water","longitude":11.5973827,"latitude":51.3786102,"name":"Trinkwasser","city":"Querfurt","address":null,"covered":null,"access":null,"website":null,"phone":null,"source":"OpenStreetMap/node/9181175316","sourceUpdatedAt":null,"verifiedAt":null}},{"type":"Feature","geometry":{"type":"Point","coordinates":[11.5974856,51.381961]},"properties":{"id":"water:6c509907-fde6-4bb8-a29a-b8fe34b64631","kind":"water","longitude":11.5974856,"latitude":51.381961,"name":"Euro-Trinkbrunnen","city":"Querfurt","address":null,"covered":null,"access":null,"website":null,"phone":null,"source":"OpenStreetMap/node/12384207989","sourceUpdatedAt":null,"verifiedAt":null}},{"type":"Feature","geometry":{"type":"Point","coordinates":[11.5899038,51.3783067]},"properties":{"id":"water:a8b3a147-28cb-42db-9cff-e6601d1588a4","kind":"water","longitude":11.5899038,"latitude":51.3783067,"name":"Trinkwasser","city":"Querfurt","address":null,"covered":null,"access":null,"website":null,"phone":null,"source":"OpenStreetMap/node/10290153702","sourceUpdatedAt":null,"verifiedAt":null}}]}