{"type":"FeatureCollection","features":[{"type":"Feature","geometry":{"type":"Point","coordinates":[11.5708414,48.2729672]},"properties":{"id":"bikerack:00593668-a309-416e-b3cb-e5bf8556626c","kind":"bikerack","longitude":11.5708414,"latitude":48.2729672,"name":"Fahrradabstellplatz","city":"Unterschleissheim","address":null,"covered":false,"access":null,"website":null,"phone":null,"source":"OpenStreetMap/node/4687822618","sourceUpdatedAt":null,"verifiedAt":null}},{"type":"Feature","geometry":{"type":"Point","coordinates":[11.5777423,48.2821741]},"properties":{"id":"bikerack:02734573-72f1-4b1c-bb71-ddde30f65759","kind":"bikerack","longitude":11.5777423,"latitude":48.2821741,"name":"Fahrradabstellplatz","city":"Unterschleissheim","address":null,"covered":true,"access":null,"website":null,"phone":null,"source":"OpenStreetMap/node/12451766629","sourceUpdatedAt":null,"verifiedAt":null}},{"type":"Feature","geometry":{"type":"Point","coordinates":[11.5674244,48.2739512]},"properties":{"id":"bikerack:0406992c-4f15-4474-a4df-0d1c1248647a","kind":"bikerack","longitude":11.5674244,"latitude":48.2739512,"name":"Fahrradabstellplatz","city":"Unterschleissheim","address":null,"covered":false,"access":null,"website":null,"phone":null,"source":"OpenStreetMap/node/4519764252","sourceUpdatedAt":null,"verifiedAt":null}},{"type":"Feature","geometry":{"type":"Point","coordinates":[11.5698899,48.2730432]},"properties":{"id":"bikerack:05c16305-8c6b-40da-a8e5-7ace48734d3d","kind":"bikerack","longitude":11.5698899,"latitude":48.2730432,"name":"Fahrradabstellplatz","city":"Unterschleissheim","address":null,"covered":true,"access":null,"website":null,"phone":null,"source":"OpenStreetMap/node/12507632303","sourceUpdatedAt":null,"verifiedAt":null}},{"type":"Feature","geometry":{"type":"Point","coordinates":[11.5854061,48.2655482]},"properties":{"id":"bikerack:06216eb1-6e09-4151-9041-4ec9d6514bce","kind":"bikerack","longitude":11.5854061,"latitude":48.2655482,"name":"Fahrradabstellplatz","city":"Unterschleissheim","address":null,"covered":false,"access":null,"website":null,"phone":null,"source":"OpenStreetMap/node/12009759744","sourceUpdatedAt":null,"verifiedAt":null}},{"type":"Feature","geometry":{"type":"Point","coordinates":[11.590099,48.2722817]},"properties":{"id":"bikerack:0c8f8876-23f5-4a20-9a8f-ec3ab5dddbf5","kind":"bikerack","longitude":11.590099,"latitude":48.2722817,"name":"Fahrradabstellplatz","city":"Unterschleissheim","address":null,"covered":false,"access":null,"website":null,"phone":null,"source":"OpenStreetMap/node/12009759749","sourceUpdatedAt":null,"verifiedAt":null}},{"type":"Feature","geometry":{"type":"Point","coordinates":[11.5580761,48.2585424]},"properties":{"id":"bikerack:1263af29-4421-459e-94b0-7b8a96128a97","kind":"bikerack","longitude":11.5580761,"latitude":48.2585424,"name":"Fahrradabstellplatz","city":"Oberschleissheim","address":null,"covered":true,"access":null,"website":null,"phone":null,"source":"OpenStreetMap/way/331021330","sourceUpdatedAt":null,"verifiedAt":null}},{"type":"Feature","geometry":{"type":"Point","coordinates":[11.5827518,48.2679364]},"properties":{"id":"bikerack:13508ac1-0f6c-41a5-8f30-07bf579de0a4","kind":"bikerack","longitude":11.5827518,"latitude":48.2679364,"name":"Fahrradabstellplatz","city":"Unterschleissheim","address":null,"covered":false,"access":null,"website":null,"phone":null,"source":"OpenStreetMap/node/11833075150","sourceUpdatedAt":null,"verifiedAt":null}},{"type":"Feature","geometry":{"type":"Point","coordinates":[11.5711292,48.2830394]},"properties":{"id":"bikerack:14e40981-5586-47ea-bf8d-6914e51d12ac","kind":"bikerack","longitude":11.5711292,"latitude":48.2830394,"name":"Fahrradabstellplatz","city":"Unterschleissheim","address":null,"covered":false,"access":null,"website":null,"phone":null,"source":"OpenStreetMap/node/4512938049","sourceUpdatedAt":null,"verifiedAt":null}},{"type":"Feature","geometry":{"type":"Point","coordinates":[11.5780603,48.2823502]},"properties":{"id":"bikerack:16b25669-f1f2-475c-9a89-fe35595b3836","kind":"bikerack","longitude":11.5780603,"latitude":48.2823502,"name":"Fahrradabstellplatz","city":"Unterschleissheim","address":null,"covered":false,"access":null,"website":null,"phone":null,"source":"OpenStreetMap/node/12202303660","sourceUpdatedAt":null,"verifiedAt":null}},{"type":"Feature","geometry":{"type":"Point","coordinates":[11.5711526,48.2733993]},"properties":{"id":"bikerack:18348c68-f4d6-4983-b2e9-d2465430c937","kind":"bikerack","longitude":11.5711526,"latitude":48.2733993,"name":"Fahrradabstellplatz","city":"Unterschleissheim","address":null,"covered":false,"access":null,"website":null,"phone":null,"source":"OpenStreetMap/node/4827844348","sourceUpdatedAt":null,"verifiedAt":null}},{"type":"Feature","geometry":{"type":"Point","coordinates":[11.5645563,48.2729906]},"properties":{"id":"bikerack:195d683c-05b9-43b3-be8f-dd06a50d47f6","kind":"bikerack","longitude":11.5645563,"latitude":48.2729906,"name":"Fahrradabstellplatz","city":"Unterschleissheim","address":null,"covered":false,"access":null,"website":null,"phone":null,"source":"OpenStreetMap/node/4395707397","sourceUpdatedAt":null,"verifiedAt":null}},{"type":"Feature","geometry":{"type":"Point","coordinates":[11.5709354,48.2732852]},"properties":{"id":"bikerack:19fc6dcd-066b-4e93-9a8c-14fe4dbf24f6","kind":"bikerack","longitude":11.5709354,"latitude":48.2732852,"name":"Fahrradabstellplatz","city":"Unterschleissheim","address":null,"covered":false,"access":null,"website":null,"phone":null,"source":"OpenStreetMap/node/4827844349","sourceUpdatedAt":null,"verifiedAt":null}},{"type":"Feature","geometry":{"type":"Point","coordinates":[11.5768675,48.2779441]},"properties":{"id":"bikerack:1a6428be-f329-464c-abad-2bfa1e72443a","kind":"bikerack","longitude":11.5768675,"latitude":48.2779441,"name":"Fahrradabstellplatz","city":"Unterschleissheim","address":null,"covered":false,"access":null,"website":null,"phone":null,"source":"OpenStreetMap/node/13236567126","sourceUpdatedAt":null,"verifiedAt":null}},{"type":"Feature","geometry":{"type":"Point","coordinates":[11.5650323,48.2735769]},"properties":{"id":"bikerack:1b2bf2ba-6b22-4254-bd61-48041a7f1e92","kind":"bikerack","longitude":11.5650323,"latitude":48.2735769,"name":"Fahrradabstellplatz","city":"Unterschleissheim","address":null,"covered":false,"access":null,"website":null,"phone":null,"source":"OpenStreetMap/way/541444025","sourceUpdatedAt":null,"verifiedAt":null}},{"type":"Feature","geometry":{"type":"Point","coordinates":[11.5681775,48.2728151]},"properties":{"id":"bikerack:1ca10443-6f8a-4f3e-b792-fca0a401f57c","kind":"bikerack","longitude":11.5681775,"latitude":48.2728151,"name":"Unterschleißheim (S) Ost","city":"Unterschleissheim","address":null,"covered":true,"access":null,"website":null,"phone":null,"source":"OpenStreetMap/way/458786014","sourceUpdatedAt":null,"verifiedAt":null}},{"type":"Feature","geometry":{"type":"Point","coordinates":[11.5654306,48.2738482]},"properties":{"id":"bikerack:1fc74c3f-d55b-4465-a653-4147a7a29b96","kind":"bikerack","longitude":11.5654306,"latitude":48.2738482,"name":"Fahrradabstellplatz","city":"Unterschleissheim","address":null,"covered":false,"access":null,"website":null,"phone":null,"source":"OpenStreetMap/node/12175701153","sourceUpdatedAt":null,"verifiedAt":null}},{"type":"Feature","geometry":{"type":"Point","coordinates":[11.5653929,48.2722867]},"properties":{"id":"bikerack:23ac773a-ce7f-48cf-a9a2-86c1837c6867","kind":"bikerack","longitude":11.5653929,"latitude":48.2722867,"name":"Fahrradabstellplatz","city":"Unterschleissheim","address":null,"covered":false,"access":null,"website":null,"phone":null,"source":"OpenStreetMap/way/501283950","sourceUpdatedAt":null,"verifiedAt":null}},{"type":"Feature","geometry":{"type":"Point","coordinates":[11.5827905,48.2814483]},"properties":{"id":"bikerack:265f9059-9636-4f3e-841b-3d880b471b83","kind":"bikerack","longitude":11.5827905,"latitude":48.2814483,"name":"Fahrradabstellplatz","city":"Unterschleissheim","address":null,"covered":false,"access":null,"website":null,"phone":null,"source":"OpenStreetMap/node/11900485015","sourceUpdatedAt":null,"verifiedAt":null}},{"type":"Feature","geometry":{"type":"Point","coordinates":[11.569058,48.2731843]},"properties":{"id":"bikerack:28e3fc8c-ff45-4639-ae4e-fd4d214eb0bc","kind":"bikerack","longitude":11.569058,"latitude":48.2731843,"name":"Fahrradabstellplatz","city":"Unterschleissheim","address":null,"covered":false,"access":null,"website":null,"phone":null,"source":"OpenStreetMap/node/4687822592","sourceUpdatedAt":null,"verifiedAt":null}},{"type":"Feature","geometry":{"type":"Point","coordinates":[11.5796981,48.2701455]},"properties":{"id":"bikerack:2b4e36f4-f443-4987-923a-bfd593a77806","kind":"bikerack","longitude":11.5796981,"latitude":48.2701455,"name":"Fahrradabstellplatz","city":"Unterschleissheim","address":null,"covered":true,"access":null,"website":null,"phone":null,"source":"OpenStreetMap/way/63222632","sourceUpdatedAt":null,"verifiedAt":null}},{"type":"Feature","geometry":{"type":"Point","coordinates":[11.5903581,48.2717739]},"properties":{"id":"bikerack:2d92f5bf-f1b2-4626-8fcd-ca89db816408","kind":"bikerack","longitude":11.5903581,"latitude":48.2717739,"name":"Fahrradabstellplatz","city":"Unterschleissheim","address":null,"covered":false,"access":null,"website":null,"phone":null,"source":"OpenStreetMap/node/12071703582","sourceUpdatedAt":null,"verifiedAt":null}},{"type":"Feature","geometry":{"type":"Point","coordinates":[11.5645819,48.2828041]},"properties":{"id":"bikerack:315b48b4-65f1-4daa-9b3e-2c39a8c61a26","kind":"bikerack","longitude":11.5645819,"latitude":48.2828041,"name":"Fahrradabstellplatz","city":"Unterschleissheim","address":null,"covered":false,"access":null,"website":null,"phone":null,"source":"OpenStreetMap/node/13288825661","sourceUpdatedAt":null,"verifiedAt":null}},{"type":"Feature","geometry":{"type":"Point","coordinates":[11.5708844,48.2726217]},"properties":{"id":"bikerack:31cc3b70-ba3f-422b-b4ab-15539168eae7","kind":"bikerack","longitude":11.5708844,"latitude":48.2726217,"name":"Fahrradabstellplatz","city":"Unterschleissheim","address":null,"covered":false,"access":null,"website":null,"phone":null,"source":"OpenStreetMap/node/4827844350","sourceUpdatedAt":null,"verifiedAt":null}},{"type":"Feature","geometry":{"type":"Point","coordinates":[11.5828132,48.2678427]},"properties":{"id":"bikerack:330527ad-60e4-4650-87c8-3985f9756964","kind":"bikerack","longitude":11.5828132,"latitude":48.2678427,"name":"Fahrradabstellplatz","city":"Unterschleissheim","address":null,"covered":false,"access":null,"website":null,"phone":null,"source":"OpenStreetMap/node/11833075149","sourceUpdatedAt":null,"verifiedAt":null}},{"type":"Feature","geometry":{"type":"Point","coordinates":[11.5603549,48.2757965]},"properties":{"id":"bikerack:388cac47-1dc0-40c7-8fe3-9ae37dfc215c","kind":"bikerack","longitude":11.5603549,"latitude":48.2757965,"name":"Fahrradabstellplatz","city":"Unterschleissheim","address":null,"covered":false,"access":null,"website":null,"phone":null,"source":"OpenStreetMap/node/12466319577","sourceUpdatedAt":null,"verifiedAt":null}},{"type":"Feature","geometry":{"type":"Point","coordinates":[11.5797235,48.280921]},"properties":{"id":"bikerack:38a2605e-9f1b-4d1c-a241-6426130e97e5","kind":"bikerack","longitude":11.5797235,"latitude":48.280921,"name":"Fahrradabstellplatz","city":"Unterschleissheim","address":null,"covered":false,"access":null,"website":null,"phone":null,"source":"OpenStreetMap/node/12144150182","sourceUpdatedAt":null,"verifiedAt":null}},{"type":"Feature","geometry":{"type":"Point","coordinates":[11.5679568,48.2729158]},"properties":{"id":"bikerack:39f38719-ef99-4369-82f1-fe8daf51023b","kind":"bikerack","longitude":11.5679568,"latitude":48.2729158,"name":"Unterschleißheim (S) West","city":"Unterschleissheim","address":null,"covered":true,"access":null,"website":null,"phone":null,"source":"OpenStreetMap/way/458786013","sourceUpdatedAt":null,"verifiedAt":null}},{"type":"Feature","geometry":{"type":"Point","coordinates":[11.577652,48.282368]},"properties":{"id":"bikerack:3d94ded1-c5b1-4222-af45-5f76232340be","kind":"bikerack","longitude":11.577652,"latitude":48.282368,"name":"Fahrradabstellplatz","city":"Unterschleissheim","address":null,"covered":false,"access":null,"website":null,"phone":null,"source":"OpenStreetMap/node/12207127142","sourceUpdatedAt":null,"verifiedAt":null}},{"type":"Feature","geometry":{"type":"Point","coordinates":[11.5827259,48.2814938]},"properties":{"id":"bikerack:3da6596b-2da4-4a6b-9bf5-e9afb6623da4","kind":"bikerack","longitude":11.5827259,"latitude":48.2814938,"name":"Fahrradabstellplatz","city":"Unterschleissheim","address":null,"covered":false,"access":null,"website":null,"phone":null,"source":"OpenStreetMap/node/11888565172","sourceUpdatedAt":null,"verifiedAt":null}},{"type":"Feature","geometry":{"type":"Point","coordinates":[11.5810533,48.2701664]},"properties":{"id":"bikerack:3f2beffd-2a4c-45fe-9bb0-de9a27764c3d","kind":"bikerack","longitude":11.5810533,"latitude":48.2701664,"name":"Fahrradabstellplatz","city":"Unterschleissheim","address":null,"covered":false,"access":null,"website":null,"phone":null,"source":"OpenStreetMap/node/12207015498","sourceUpdatedAt":null,"verifiedAt":null}},{"type":"Feature","geometry":{"type":"Point","coordinates":[11.5576249,48.2587168]},"properties":{"id":"bikerack:442b3828-6636-491c-9119-7d8307ffe6d8","kind":"bikerack","longitude":11.5576249,"latitude":48.2587168,"name":"Fahrradabstellplatz","city":"Oberschleissheim","address":null,"covered":false,"access":null,"website":null,"phone":null,"source":"OpenStreetMap/node/2166043504","sourceUpdatedAt":null,"verifiedAt":null}},{"type":"Feature","geometry":{"type":"Point","coordinates":[11.5828835,48.2703506]},"properties":{"id":"bikerack:48d4bfd9-da4f-468b-8317-d27beb0071fa","kind":"bikerack","longitude":11.5828835,"latitude":48.2703506,"name":"Fahrradabstellplatz","city":"Unterschleissheim","address":null,"covered":true,"access":null,"website":null,"phone":null,"source":"OpenStreetMap/way/1302326468","sourceUpdatedAt":null,"verifiedAt":null}},{"type":"Feature","geometry":{"type":"Point","coordinates":[11.5761186,48.2699986]},"properties":{"id":"bikerack:4cdc6fcf-e29e-4fba-8a6f-4c403bd9960f","kind":"bikerack","longitude":11.5761186,"latitude":48.2699986,"name":"Fahrradabstellplatz","city":"Unterschleissheim","address":null,"covered":false,"access":null,"website":null,"phone":null,"source":"OpenStreetMap/node/12009759750","sourceUpdatedAt":null,"verifiedAt":null}},{"type":"Feature","geometry":{"type":"Point","coordinates":[11.5874861,48.2667005]},"properties":{"id":"bikerack:54fb8843-3b37-4612-b77d-73abc71316a6","kind":"bikerack","longitude":11.5874861,"latitude":48.2667005,"name":"Fahrradabstellplatz","city":"Unterschleissheim","address":null,"covered":false,"access":null,"website":null,"phone":null,"source":"OpenStreetMap/node/12439111018","sourceUpdatedAt":null,"verifiedAt":null}},{"type":"Feature","geometry":{"type":"Point","coordinates":[11.5792285,48.2827535]},"properties":{"id":"bikerack:553a0307-7e87-4bd6-9803-26659d78a5c2","kind":"bikerack","longitude":11.5792285,"latitude":48.2827535,"name":"Fahrradabstellplatz","city":"Unterschleissheim","address":null,"covered":false,"access":null,"website":null,"phone":null,"source":"OpenStreetMap/node/13580300186","sourceUpdatedAt":null,"verifiedAt":null}},{"type":"Feature","geometry":{"type":"Point","coordinates":[11.5780286,48.282489]},"properties":{"id":"bikerack:5580c5ae-31b4-4d5e-a4e2-8529773f1827","kind":"bikerack","longitude":11.5780286,"latitude":48.282489,"name":"Fahrradabstellplatz","city":"Unterschleissheim","address":null,"covered":false,"access":null,"website":null,"phone":null,"source":"OpenStreetMap/node/11972342435","sourceUpdatedAt":null,"verifiedAt":null}},{"type":"Feature","geometry":{"type":"Point","coordinates":[11.5795218,48.283123]},"properties":{"id":"bikerack:58549e83-a293-43d5-b663-dd7d85e6748b","kind":"bikerack","longitude":11.5795218,"latitude":48.283123,"name":"Fahrradabstellplatz","city":"Unterschleissheim","address":null,"covered":false,"access":null,"website":null,"phone":null,"source":"OpenStreetMap/node/12207127145","sourceUpdatedAt":null,"verifiedAt":null}},{"type":"Feature","geometry":{"type":"Point","coordinates":[11.5777205,48.2822523]},"properties":{"id":"bikerack:5a05642a-053d-4672-b189-4f5a40612f62","kind":"bikerack","longitude":11.5777205,"latitude":48.2822523,"name":"Fahrradabstellplatz","city":"Unterschleissheim","address":null,"covered":false,"access":null,"website":null,"phone":null,"source":"OpenStreetMap/node/12207127141","sourceUpdatedAt":null,"verifiedAt":null}},{"type":"Feature","geometry":{"type":"Point","coordinates":[11.5691357,48.2722407]},"properties":{"id":"bikerack:5a85bd8d-0c34-4d2f-b970-2af2cfdb620f","kind":"bikerack","longitude":11.5691357,"latitude":48.2722407,"name":"Fahrradabstellplatz","city":"Unterschleissheim","address":null,"covered":false,"access":null,"website":null,"phone":null,"source":"OpenStreetMap/node/11741643605","sourceUpdatedAt":null,"verifiedAt":null}},{"type":"Feature","geometry":{"type":"Point","coordinates":[11.5839724,48.270019]},"properties":{"id":"bikerack:5d2d7e3f-6917-452b-83e4-6ac547b1c273","kind":"bikerack","longitude":11.5839724,"latitude":48.270019,"name":"Fahrradabstellplatz","city":"Unterschleissheim","address":null,"covered":true,"access":null,"website":null,"phone":null,"source":"OpenStreetMap/way/1319011612","sourceUpdatedAt":null,"verifiedAt":null}},{"type":"Feature","geometry":{"type":"Point","coordinates":[11.560103,48.2741823]},"properties":{"id":"bikerack:5fb5ea9b-c14d-4bc4-b7cf-7da6d8ee6b74","kind":"bikerack","longitude":11.560103,"latitude":48.2741823,"name":"Fahrradabstellplatz","city":"Unterschleissheim","address":null,"covered":false,"access":null,"website":null,"phone":null,"source":"OpenStreetMap/node/12175083410","sourceUpdatedAt":null,"verifiedAt":null}},{"type":"Feature","geometry":{"type":"Point","coordinates":[11.5638227,48.2783533]},"properties":{"id":"bikerack:60b9e4d5-d57a-425d-b788-f00ba5780bda","kind":"bikerack","longitude":11.5638227,"latitude":48.2783533,"name":"Fahrradabstellplatz","city":"Unterschleissheim","address":null,"covered":false,"access":null,"website":null,"phone":null,"source":"OpenStreetMap/node/12919398828","sourceUpdatedAt":null,"verifiedAt":null}},{"type":"Feature","geometry":{"type":"Point","coordinates":[11.5850969,48.2661057]},"properties":{"id":"bikerack:668ddef1-86ee-4bc4-a172-1dbeaf355028","kind":"bikerack","longitude":11.5850969,"latitude":48.2661057,"name":"Fahrradabstellplatz","city":"Unterschleissheim","address":null,"covered":false,"access":null,"website":null,"phone":null,"source":"OpenStreetMap/node/12541852550","sourceUpdatedAt":null,"verifiedAt":null}},{"type":"Feature","geometry":{"type":"Point","coordinates":[11.5684754,48.2752849]},"properties":{"id":"bikerack:676a4849-3d9d-4cb8-bc51-3052172cd365","kind":"bikerack","longitude":11.5684754,"latitude":48.2752849,"name":"Fahrradabstellplatz","city":"Unterschleissheim","address":null,"covered":true,"access":null,"website":null,"phone":null,"source":"OpenStreetMap/way/1009645275","sourceUpdatedAt":null,"verifiedAt":null}},{"type":"Feature","geometry":{"type":"Point","coordinates":[11.5825993,48.2681685]},"properties":{"id":"bikerack:69aabfca-f98d-422b-9a34-5e4a20b1385a","kind":"bikerack","longitude":11.5825993,"latitude":48.2681685,"name":"Fahrradabstellplatz","city":"Unterschleissheim","address":null,"covered":false,"access":null,"website":null,"phone":null,"source":"OpenStreetMap/node/12077418350","sourceUpdatedAt":null,"verifiedAt":null}},{"type":"Feature","geometry":{"type":"Point","coordinates":[11.5894192,48.2817962]},"properties":{"id":"bikerack:6be43ba6-6ba7-4543-8980-26dc9dddf707","kind":"bikerack","longitude":11.5894192,"latitude":48.2817962,"name":"Fahrradabstellplatz","city":"Unterschleissheim","address":null,"covered":false,"access":null,"website":null,"phone":null,"source":"OpenStreetMap/node/13249916259","sourceUpdatedAt":null,"verifiedAt":null}},{"type":"Feature","geometry":{"type":"Point","coordinates":[11.5874687,48.2681606]},"properties":{"id":"bikerack:6d7bd466-c385-44c0-b371-011e8cca34d4","kind":"bikerack","longitude":11.5874687,"latitude":48.2681606,"name":"Fahrradabstellplatz","city":"Unterschleissheim","address":null,"covered":true,"access":null,"website":null,"phone":null,"source":"OpenStreetMap/node/12071703583","sourceUpdatedAt":null,"verifiedAt":null}},{"type":"Feature","geometry":{"type":"Point","coordinates":[11.5873611,48.2811977]},"properties":{"id":"bikerack:737b3787-69b1-471c-8ab1-241f0f0b1651","kind":"bikerack","longitude":11.5873611,"latitude":48.2811977,"name":"Fahrradabstellplatz","city":"Unterschleissheim","address":null,"covered":false,"access":null,"website":null,"phone":null,"source":"OpenStreetMap/node/13249930877","sourceUpdatedAt":null,"verifiedAt":null}},{"type":"Feature","geometry":{"type":"Point","coordinates":[11.5797656,48.2830411]},"properties":{"id":"bikerack:73816b27-1d19-4526-8cf5-70c62680191e","kind":"bikerack","longitude":11.5797656,"latitude":48.2830411,"name":"Fahrradabstellplatz","city":"Unterschleissheim","address":null,"covered":true,"access":null,"website":null,"phone":null,"source":"OpenStreetMap/node/13580315133","sourceUpdatedAt":null,"verifiedAt":null}},{"type":"Feature","geometry":{"type":"Point","coordinates":[11.5705784,48.273275]},"properties":{"id":"bikerack:7579fb87-5ed0-44ca-a0bf-0b2cbd51c944","kind":"bikerack","longitude":11.5705784,"latitude":48.273275,"name":"Fahrradabstellplatz","city":"Unterschleissheim","address":null,"covered":false,"access":null,"website":null,"phone":null,"source":"OpenStreetMap/node/4687822594","sourceUpdatedAt":null,"verifiedAt":null}},{"type":"Feature","geometry":{"type":"Point","coordinates":[11.5710474,48.2829926]},"properties":{"id":"bikerack:772d9e5a-4d0a-43b2-90db-ae3d6a1dccee","kind":"bikerack","longitude":11.5710474,"latitude":48.2829926,"name":"Fahrradabstellplatz","city":"Unterschleissheim","address":null,"covered":false,"access":null,"website":null,"phone":null,"source":"OpenStreetMap/way/454770400","sourceUpdatedAt":null,"verifiedAt":null}},{"type":"Feature","geometry":{"type":"Point","coordinates":[11.5777577,48.2827096]},"properties":{"id":"bikerack:7879407a-b07f-4d0f-acb9-770b5af17602","kind":"bikerack","longitude":11.5777577,"latitude":48.2827096,"name":"Fahrradabstellplatz","city":"Unterschleissheim","address":null,"covered":false,"access":null,"website":null,"phone":null,"source":"OpenStreetMap/node/11972337453","sourceUpdatedAt":null,"verifiedAt":null}},{"type":"Feature","geometry":{"type":"Point","coordinates":[11.572149,48.2732528]},"properties":{"id":"bikerack:787e3fb3-d1f5-48c6-84cc-f7e361205653","kind":"bikerack","longitude":11.572149,"latitude":48.2732528,"name":"Fahrradabstellplatz","city":"Unterschleissheim","address":null,"covered":false,"access":null,"website":null,"phone":null,"source":"OpenStreetMap/node/11741643604","sourceUpdatedAt":null,"verifiedAt":null}},{"type":"Feature","geometry":{"type":"Point","coordinates":[11.5897081,48.2818208]},"properties":{"id":"bikerack:7894dd0e-186f-4fa9-8a42-b3671e04ed44","kind":"bikerack","longitude":11.5897081,"latitude":48.2818208,"name":"Fahrradabstellplatz","city":"Unterschleissheim","address":null,"covered":false,"access":null,"website":null,"phone":null,"source":"OpenStreetMap/node/13249906624","sourceUpdatedAt":null,"verifiedAt":null}},{"type":"Feature","geometry":{"type":"Point","coordinates":[11.5610417,48.2747228]},"properties":{"id":"bikerack:7ab98b20-ef40-465b-8bd7-de8da23626b4","kind":"bikerack","longitude":11.5610417,"latitude":48.2747228,"name":"Fahrradabstellplatz","city":"Unterschleissheim","address":null,"covered":false,"access":null,"website":null,"phone":null,"source":"OpenStreetMap/node/12175083490","sourceUpdatedAt":null,"verifiedAt":null}},{"type":"Feature","geometry":{"type":"Point","coordinates":[11.5835338,48.2682823]},"properties":{"id":"bikerack:7d4a03ba-7dbb-4fc7-9ed9-3d3f7e610b18","kind":"bikerack","longitude":11.5835338,"latitude":48.2682823,"name":"Fahrradabstellplatz","city":"Unterschleissheim","address":null,"covered":true,"access":null,"website":null,"phone":null,"source":"OpenStreetMap/node/11782533150","sourceUpdatedAt":null,"verifiedAt":null}},{"type":"Feature","geometry":{"type":"Point","coordinates":[11.5603018,48.2741433]},"properties":{"id":"bikerack:7e570baa-c37a-40e5-8f61-8b929cf2130c","kind":"bikerack","longitude":11.5603018,"latitude":48.2741433,"name":"Fahrradabstellplatz","city":"Unterschleissheim","address":null,"covered":false,"access":null,"website":null,"phone":null,"source":"OpenStreetMap/node/12175083412","sourceUpdatedAt":null,"verifiedAt":null}},{"type":"Feature","geometry":{"type":"Point","coordinates":[11.5775206,48.2677397]},"properties":{"id":"bikerack:819ec626-d800-47f6-ba0e-a1ee5e7aa74f","kind":"bikerack","longitude":11.5775206,"latitude":48.2677397,"name":"Fahrradabstellplatz","city":"Unterschleissheim","address":null,"covered":false,"access":null,"website":null,"phone":null,"source":"OpenStreetMap/node/13590649402","sourceUpdatedAt":null,"verifiedAt":null}},{"type":"Feature","geometry":{"type":"Point","coordinates":[11.572601,48.2730984]},"properties":{"id":"bikerack:82031f82-1a87-44cd-bb44-f8a65b2f06fd","kind":"bikerack","longitude":11.572601,"latitude":48.2730984,"name":"Fahrradabstellplatz","city":"Unterschleissheim","address":null,"covered":false,"access":null,"website":null,"phone":null,"source":"OpenStreetMap/node/11741643603","sourceUpdatedAt":null,"verifiedAt":null}},{"type":"Feature","geometry":{"type":"Point","coordinates":[11.5742092,48.2805418]},"properties":{"id":"bikerack:8249a89e-4577-40c7-b5f8-aab436b972cd","kind":"bikerack","longitude":11.5742092,"latitude":48.2805418,"name":"Fahrradabstellplatz","city":"Unterschleissheim","address":null,"covered":false,"access":null,"website":null,"phone":null,"source":"OpenStreetMap/node/12997345933","sourceUpdatedAt":null,"verifiedAt":null}},{"type":"Feature","geometry":{"type":"Point","coordinates":[11.5654431,48.2792764]},"properties":{"id":"bikerack:8577a12b-1dfa-4de4-9bd2-35d5df9d7d16","kind":"bikerack","longitude":11.5654431,"latitude":48.2792764,"name":"Fahrradabstellplatz","city":"Unterschleissheim","address":null,"covered":false,"access":null,"website":null,"phone":null,"source":"OpenStreetMap/node/12846601536","sourceUpdatedAt":null,"verifiedAt":null}},{"type":"Feature","geometry":{"type":"Point","coordinates":[11.5792453,48.2830243]},"properties":{"id":"bikerack:87025fc8-8d7f-475a-be9a-abde06b34f75","kind":"bikerack","longitude":11.5792453,"latitude":48.2830243,"name":"Fahrradabstellplatz","city":"Unterschleissheim","address":null,"covered":false,"access":null,"website":null,"phone":null,"source":"OpenStreetMap/node/12738981404","sourceUpdatedAt":null,"verifiedAt":null}},{"type":"Feature","geometry":{"type":"Point","coordinates":[11.5828813,48.2677412]},"properties":{"id":"bikerack:8ab04936-89c6-48b3-b33c-5df984bea323","kind":"bikerack","longitude":11.5828813,"latitude":48.2677412,"name":"Fahrradabstellplatz","city":"Unterschleissheim","address":null,"covered":false,"access":null,"website":null,"phone":null,"source":"OpenStreetMap/node/11833075148","sourceUpdatedAt":null,"verifiedAt":null}},{"type":"Feature","geometry":{"type":"Point","coordinates":[11.5826263,48.2696472]},"properties":{"id":"bikerack:8b99f470-72b9-49e0-9a34-0260a5a261b5","kind":"bikerack","longitude":11.5826263,"latitude":48.2696472,"name":"Fahrradabstellplatz","city":"Unterschleissheim","address":null,"covered":true,"access":null,"website":null,"phone":null,"source":"OpenStreetMap/node/12612970410","sourceUpdatedAt":null,"verifiedAt":null}},{"type":"Feature","geometry":{"type":"Point","coordinates":[11.5707049,48.2732694]},"properties":{"id":"bikerack:8be682de-7c30-4892-96ec-32e45c596a44","kind":"bikerack","longitude":11.5707049,"latitude":48.2732694,"name":"Fahrradabstellplatz","city":"Unterschleissheim","address":null,"covered":false,"access":null,"website":null,"phone":null,"source":"OpenStreetMap/node/4687822595","sourceUpdatedAt":null,"verifiedAt":null}},{"type":"Feature","geometry":{"type":"Point","coordinates":[11.5696001,48.2750197]},"properties":{"id":"bikerack:90d5ec71-4293-4913-92bb-c2da51b0606e","kind":"bikerack","longitude":11.5696001,"latitude":48.2750197,"name":"Fahrradabstellplatz","city":"Unterschleissheim","address":null,"covered":true,"access":null,"website":null,"phone":null,"source":"OpenStreetMap/way/364365425","sourceUpdatedAt":null,"verifiedAt":null}},{"type":"Feature","geometry":{"type":"Point","coordinates":[11.5892033,48.2776956]},"properties":{"id":"bikerack:9110438d-a313-4eed-b738-fbc1471e30a9","kind":"bikerack","longitude":11.5892033,"latitude":48.2776956,"name":"Fahrradabstellplatz","city":"Unterschleissheim","address":null,"covered":false,"access":null,"website":null,"phone":null,"source":"OpenStreetMap/node/1825505447","sourceUpdatedAt":null,"verifiedAt":null}},{"type":"Feature","geometry":{"type":"Point","coordinates":[11.5602844,48.2767241]},"properties":{"id":"bikerack:9148432e-55d3-443e-90d7-fe06fb5a94bb","kind":"bikerack","longitude":11.5602844,"latitude":48.2767241,"name":"Fahrradabstellplatz","city":"Unterschleissheim","address":null,"covered":true,"access":null,"website":null,"phone":null,"source":"OpenStreetMap/node/12453613090","sourceUpdatedAt":null,"verifiedAt":null}},{"type":"Feature","geometry":{"type":"Point","coordinates":[11.57044,48.2732812]},"properties":{"id":"bikerack:91c86311-6adc-4d9c-89c1-10870052cee2","kind":"bikerack","longitude":11.57044,"latitude":48.2732812,"name":"Fahrradabstellplatz","city":"Unterschleissheim","address":null,"covered":false,"access":null,"website":null,"phone":null,"source":"OpenStreetMap/node/4687822593","sourceUpdatedAt":null,"verifiedAt":null}},{"type":"Feature","geometry":{"type":"Point","coordinates":[11.5830011,48.2817467]},"properties":{"id":"bikerack:929c7536-0d00-4155-883b-9a024f8b341d","kind":"bikerack","longitude":11.5830011,"latitude":48.2817467,"name":"Fahrradabstellplatz","city":"Unterschleissheim","address":null,"covered":false,"access":null,"website":null,"phone":null,"source":"OpenStreetMap/node/12430408543","sourceUpdatedAt":null,"verifiedAt":null}},{"type":"Feature","geometry":{"type":"Point","coordinates":[11.5648708,48.2790632]},"properties":{"id":"bikerack:9314323f-10e8-419b-96a1-cb1a22184c0c","kind":"bikerack","longitude":11.5648708,"latitude":48.2790632,"name":"Fahrradabstellplatz","city":"Unterschleissheim","address":null,"covered":false,"access":null,"website":null,"phone":null,"source":"OpenStreetMap/node/12655942374","sourceUpdatedAt":null,"verifiedAt":null}},{"type":"Feature","geometry":{"type":"Point","coordinates":[11.5581672,48.2584433]},"properties":{"id":"bikerack:94777284-cd52-470f-9ef9-cb00664e8e63","kind":"bikerack","longitude":11.5581672,"latitude":48.2584433,"name":"Fahrradabstellplatz","city":"Oberschleissheim","address":null,"covered":true,"access":null,"website":null,"phone":null,"source":"OpenStreetMap/way/331021324","sourceUpdatedAt":null,"verifiedAt":null}},{"type":"Feature","geometry":{"type":"Point","coordinates":[11.5709686,48.2731966]},"properties":{"id":"bikerack:963252f4-093b-44dc-8bae-fa184f8a6bb7","kind":"bikerack","longitude":11.5709686,"latitude":48.2731966,"name":"Fahrradabstellplatz","city":"Unterschleissheim","address":null,"covered":false,"access":null,"website":null,"phone":null,"source":"OpenStreetMap/node/11002219138","sourceUpdatedAt":null,"verifiedAt":null}},{"type":"Feature","geometry":{"type":"Point","coordinates":[11.5896415,48.2830143]},"properties":{"id":"bikerack:9a1d76c2-9ca0-4f19-943d-1d17b7b9c04a","kind":"bikerack","longitude":11.5896415,"latitude":48.2830143,"name":"Fahrradabstellplatz","city":"Unterschleissheim","address":null,"covered":false,"access":null,"website":null,"phone":null,"source":"OpenStreetMap/node/13623184476","sourceUpdatedAt":null,"verifiedAt":null}},{"type":"Feature","geometry":{"type":"Point","coordinates":[11.5772472,48.2789183]},"properties":{"id":"bikerack:9d4b18fa-1d90-4043-bb7b-bbd94219bbdd","kind":"bikerack","longitude":11.5772472,"latitude":48.2789183,"name":"Fahrradabstellplatz","city":"Unterschleissheim","address":null,"covered":false,"access":null,"website":null,"phone":null,"source":"OpenStreetMap/node/13698722259","sourceUpdatedAt":null,"verifiedAt":null}},{"type":"Feature","geometry":{"type":"Point","coordinates":[11.5779601,48.2825589]},"properties":{"id":"bikerack:9df96600-5348-4d40-97e8-48270cf97d78","kind":"bikerack","longitude":11.5779601,"latitude":48.2825589,"name":"Fahrradabstellplatz","city":"Unterschleissheim","address":null,"covered":false,"access":null,"website":null,"phone":null,"source":"OpenStreetMap/node/11972349802","sourceUpdatedAt":null,"verifiedAt":null}},{"type":"Feature","geometry":{"type":"Point","coordinates":[11.5714581,48.273443]},"properties":{"id":"bikerack:9e47ed6f-f71f-48c5-98f1-1ef00412c809","kind":"bikerack","longitude":11.5714581,"latitude":48.273443,"name":"Fahrradabstellplatz","city":"Unterschleissheim","address":null,"covered":false,"access":null,"website":null,"phone":null,"source":"OpenStreetMap/node/4882252012","sourceUpdatedAt":null,"verifiedAt":null}},{"type":"Feature","geometry":{"type":"Point","coordinates":[11.569521,48.2748458]},"properties":{"id":"bikerack:9e4cc542-40a3-479f-ae51-5523890f5f5f","kind":"bikerack","longitude":11.569521,"latitude":48.2748458,"name":"Fahrradabstellplatz","city":"Unterschleissheim","address":null,"covered":false,"access":null,"website":null,"phone":null,"source":"OpenStreetMap/node/12656006193","sourceUpdatedAt":null,"verifiedAt":null}},{"type":"Feature","geometry":{"type":"Point","coordinates":[11.5700625,48.2828567]},"properties":{"id":"bikerack:9e857658-6a5c-4d44-b830-7822dc2c1fa2","kind":"bikerack","longitude":11.5700625,"latitude":48.2828567,"name":"Fahrradabstellplatz","city":"Unterschleissheim","address":null,"covered":true,"access":null,"website":null,"phone":null,"source":"OpenStreetMap/node/12143926501","sourceUpdatedAt":null,"verifiedAt":null}},{"type":"Feature","geometry":{"type":"Point","coordinates":[11.5587993,48.2806819]},"properties":{"id":"bikerack:a57c4ffc-58f3-44e5-9800-62c64895efe0","kind":"bikerack","longitude":11.5587993,"latitude":48.2806819,"name":"Fahrradabstellplatz","city":"Unterschleissheim","address":null,"covered":false,"access":null,"website":null,"phone":null,"source":"OpenStreetMap/node/12206970423","sourceUpdatedAt":null,"verifiedAt":null}},{"type":"Feature","geometry":{"type":"Point","coordinates":[11.5829727,48.2703479]},"properties":{"id":"bikerack:a88d781c-8c31-42fb-b771-ecc8d71088a3","kind":"bikerack","longitude":11.5829727,"latitude":48.2703479,"name":"Fahrradabstellplatz","city":"Unterschleissheim","address":null,"covered":true,"access":null,"website":null,"phone":null,"source":"OpenStreetMap/way/1302326469","sourceUpdatedAt":null,"verifiedAt":null}},{"type":"Feature","geometry":{"type":"Point","coordinates":[11.5832358,48.2687744]},"properties":{"id":"bikerack:a97a0b5e-4b2f-491a-b48a-9168748ad6e5","kind":"bikerack","longitude":11.5832358,"latitude":48.2687744,"name":"Fahrradabstellplatz","city":"Unterschleissheim","address":null,"covered":false,"access":null,"website":null,"phone":null,"source":"OpenStreetMap/node/12612790913","sourceUpdatedAt":null,"verifiedAt":null}},{"type":"Feature","geometry":{"type":"Point","coordinates":[11.5601797,48.2741251]},"properties":{"id":"bikerack:a98265df-ddd7-4cfd-a51b-d4e228f4bdc4","kind":"bikerack","longitude":11.5601797,"latitude":48.2741251,"name":"Fahrradabstellplatz","city":"Unterschleissheim","address":null,"covered":true,"access":null,"website":null,"phone":null,"source":"OpenStreetMap/node/12175083415","sourceUpdatedAt":null,"verifiedAt":null}},{"type":"Feature","geometry":{"type":"Point","coordinates":[11.5794087,48.2700768]},"properties":{"id":"bikerack:aa12aec6-3b47-4305-94a9-7e059b1e63f8","kind":"bikerack","longitude":11.5794087,"latitude":48.2700768,"name":"Fahrradabstellplatz","city":"Unterschleissheim","address":null,"covered":true,"access":null,"website":null,"phone":null,"source":"OpenStreetMap/way/1388268749","sourceUpdatedAt":null,"verifiedAt":null}},{"type":"Feature","geometry":{"type":"Point","coordinates":[11.5677026,48.260418]},"properties":{"id":"bikerack:aa4682a8-cc8b-41f3-b2da-ac63a920aab3","kind":"bikerack","longitude":11.5677026,"latitude":48.260418,"name":"Fahrradabstellplatz","city":"Oberschleissheim","address":null,"covered":false,"access":null,"website":null,"phone":null,"source":"OpenStreetMap/node/11073445999","sourceUpdatedAt":null,"verifiedAt":null}},{"type":"Feature","geometry":{"type":"Point","coordinates":[11.5602966,48.2741036]},"properties":{"id":"bikerack:aab8a174-34e3-4f01-a324-a1f31e5c9806","kind":"bikerack","longitude":11.5602966,"latitude":48.2741036,"name":"Fahrradabstellplatz","city":"Unterschleissheim","address":null,"covered":false,"access":null,"website":null,"phone":null,"source":"OpenStreetMap/node/12175083414","sourceUpdatedAt":null,"verifiedAt":null}},{"type":"Feature","geometry":{"type":"Point","coordinates":[11.5653242,48.2793677]},"properties":{"id":"bikerack:ac6c942e-78aa-407e-b161-182ca46f7fec","kind":"bikerack","longitude":11.5653242,"latitude":48.2793677,"name":"Fahrradabstellplatz","city":"Unterschleissheim","address":null,"covered":false,"access":null,"website":null,"phone":null,"source":"OpenStreetMap/node/3678480529","sourceUpdatedAt":null,"verifiedAt":null}},{"type":"Feature","geometry":{"type":"Point","coordinates":[11.5820909,48.2771403]},"properties":{"id":"bikerack:acddea57-e5d0-4eae-ae72-7ec10a495597","kind":"bikerack","longitude":11.5820909,"latitude":48.2771403,"name":"Fahrradabstellplatz","city":"Unterschleissheim","address":null,"covered":false,"access":null,"website":null,"phone":null,"source":"OpenStreetMap/node/13168284751","sourceUpdatedAt":null,"verifiedAt":null}},{"type":"Feature","geometry":{"type":"Point","coordinates":[11.5600397,48.2741509]},"properties":{"id":"bikerack:af314bd1-613e-45fe-8b42-9016a84b8338","kind":"bikerack","longitude":11.5600397,"latitude":48.2741509,"name":"Fahrradabstellplatz","city":"Unterschleissheim","address":null,"covered":false,"access":null,"website":null,"phone":null,"source":"OpenStreetMap/node/12175083413","sourceUpdatedAt":null,"verifiedAt":null}},{"type":"Feature","geometry":{"type":"Point","coordinates":[11.5827501,48.2703256]},"properties":{"id":"bikerack:af7a0066-f3c0-44be-a52e-6a9c659caa25","kind":"bikerack","longitude":11.5827501,"latitude":48.2703256,"name":"Fahrradabstellplatz","city":"Unterschleissheim","address":null,"covered":true,"access":null,"website":null,"phone":null,"source":"OpenStreetMap/way/1302326467","sourceUpdatedAt":null,"verifiedAt":null}},{"type":"Feature","geometry":{"type":"Point","coordinates":[11.5700681,48.2737888]},"properties":{"id":"bikerack:afd9f514-c7e1-4c60-9d28-4c5b4acf4fd9","kind":"bikerack","longitude":11.5700681,"latitude":48.2737888,"name":"Fahrradabstellplatz","city":"Unterschleissheim","address":null,"covered":false,"access":null,"website":null,"phone":null,"source":"OpenStreetMap/node/12690771041","sourceUpdatedAt":null,"verifiedAt":null}},{"type":"Feature","geometry":{"type":"Point","coordinates":[11.5899565,48.2757882]},"properties":{"id":"bikerack:b1dac12f-122e-4502-9be4-66292efa20c0","kind":"bikerack","longitude":11.5899565,"latitude":48.2757882,"name":"Fahrradabstellplatz","city":"Unterschleissheim","address":null,"covered":false,"access":null,"website":null,"phone":null,"source":"OpenStreetMap/node/11815134237","sourceUpdatedAt":null,"verifiedAt":null}},{"type":"Feature","geometry":{"type":"Point","coordinates":[11.5729635,48.2739929]},"properties":{"id":"bikerack:b323f82b-7406-491e-a755-41a3d0686e39","kind":"bikerack","longitude":11.5729635,"latitude":48.2739929,"name":"Fahrradabstellplatz","city":"Unterschleissheim","address":null,"covered":false,"access":null,"website":null,"phone":null,"source":"OpenStreetMap/node/12009759745","sourceUpdatedAt":null,"verifiedAt":null}},{"type":"Feature","geometry":{"type":"Point","coordinates":[11.5787188,48.2701455]},"properties":{"id":"bikerack:b39e213f-29a2-40f1-acc5-602dda413dbb","kind":"bikerack","longitude":11.5787188,"latitude":48.2701455,"name":"Fahrradabstellplatz","city":"Unterschleissheim","address":null,"covered":false,"access":null,"website":null,"phone":null,"source":"OpenStreetMap/node/12091029137","sourceUpdatedAt":null,"verifiedAt":null}},{"type":"Feature","geometry":{"type":"Point","coordinates":[11.5701558,48.2734772]},"properties":{"id":"bikerack:b4f4448b-ef35-49cc-aad7-e63737c079fa","kind":"bikerack","longitude":11.5701558,"latitude":48.2734772,"name":"Fahrradabstellplatz","city":"Unterschleissheim","address":null,"covered":false,"access":null,"website":null,"phone":null,"source":"OpenStreetMap/node/4696285194","sourceUpdatedAt":null,"verifiedAt":null}},{"type":"Feature","geometry":{"type":"Point","coordinates":[11.5816597,48.2778923]},"properties":{"id":"bikerack:b86fbfbf-2f58-4281-afa2-7140a1270030","kind":"bikerack","longitude":11.5816597,"latitude":48.2778923,"name":"Fahrradabstellplatz","city":"Unterschleissheim","address":null,"covered":false,"access":null,"website":null,"phone":null,"source":"OpenStreetMap/node/13695729005","sourceUpdatedAt":null,"verifiedAt":null}},{"type":"Feature","geometry":{"type":"Point","coordinates":[11.5708229,48.273017]},"properties":{"id":"bikerack:bb3c01ac-38c1-4f1a-8d89-d3656108778d","kind":"bikerack","longitude":11.5708229,"latitude":48.273017,"name":"Fahrradabstellplatz","city":"Unterschleissheim","address":null,"covered":false,"access":null,"website":null,"phone":null,"source":"OpenStreetMap/node/4687822617","sourceUpdatedAt":null,"verifiedAt":null}},{"type":"Feature","geometry":{"type":"Point","coordinates":[11.5639751,48.2731073]},"properties":{"id":"bikerack:bbef4874-933e-4061-92b2-ae685c8194f6","kind":"bikerack","longitude":11.5639751,"latitude":48.2731073,"name":"Fahrradabstellplatz","city":"Unterschleissheim","address":null,"covered":false,"access":null,"website":null,"phone":null,"source":"OpenStreetMap/node/4407707524","sourceUpdatedAt":null,"verifiedAt":null}},{"type":"Feature","geometry":{"type":"Point","coordinates":[11.5721383,48.2695497]},"properties":{"id":"bikerack:bc14b607-6093-45a2-ab74-935701752656","kind":"bikerack","longitude":11.5721383,"latitude":48.2695497,"name":"Fahrradabstellplatz","city":"Unterschleissheim","address":null,"covered":false,"access":null,"website":null,"phone":null,"source":"OpenStreetMap/node/8062036421","sourceUpdatedAt":null,"verifiedAt":null}},{"type":"Feature","geometry":{"type":"Point","coordinates":[11.5772646,48.2695627]},"properties":{"id":"bikerack:bc7cbc39-4308-48e6-9cf8-03954fe9e886","kind":"bikerack","longitude":11.5772646,"latitude":48.2695627,"name":"Fahrradabstellplatz","city":"Unterschleissheim","address":null,"covered":false,"access":null,"website":null,"phone":null,"source":"OpenStreetMap/node/13590604589","sourceUpdatedAt":null,"verifiedAt":null}},{"type":"Feature","geometry":{"type":"Point","coordinates":[11.5851728,48.2660016]},"properties":{"id":"bikerack:bce2bd02-4545-434f-a28f-8076be8b43f0","kind":"bikerack","longitude":11.5851728,"latitude":48.2660016,"name":"Fahrradabstellplatz","city":"Unterschleissheim","address":null,"covered":false,"access":null,"website":null,"phone":null,"source":"OpenStreetMap/node/12541852551","sourceUpdatedAt":null,"verifiedAt":null}},{"type":"Feature","geometry":{"type":"Point","coordinates":[11.5652891,48.2792964]},"properties":{"id":"bikerack:bf471f35-5f26-498c-8714-070908174ba8","kind":"bikerack","longitude":11.5652891,"latitude":48.2792964,"name":"Fahrradabstellplatz","city":"Unterschleissheim","address":null,"covered":false,"access":null,"website":null,"phone":null,"source":"OpenStreetMap/node/3678480528","sourceUpdatedAt":null,"verifiedAt":null}},{"type":"Feature","geometry":{"type":"Point","coordinates":[11.5608934,48.2765182]},"properties":{"id":"bikerack:bf528a23-1f23-4b8d-a6f7-7162c677e411","kind":"bikerack","longitude":11.5608934,"latitude":48.2765182,"name":"Fahrradabstellplatz","city":"Unterschleissheim","address":null,"covered":false,"access":null,"website":null,"phone":null,"source":"OpenStreetMap/node/12453613089","sourceUpdatedAt":null,"verifiedAt":null}},{"type":"Feature","geometry":{"type":"Point","coordinates":[11.5581057,48.25846]},"properties":{"id":"bikerack:c63e690c-2ade-460d-83a3-b863bd2b73f4","kind":"bikerack","longitude":11.5581057,"latitude":48.25846,"name":"Fahrradabstellplatz","city":"Oberschleissheim","address":null,"covered":true,"access":null,"website":null,"phone":null,"source":"OpenStreetMap/way/331021329","sourceUpdatedAt":null,"verifiedAt":null}},{"type":"Feature","geometry":{"type":"Point","coordinates":[11.5826905,48.2692832]},"properties":{"id":"bikerack:ce00bed4-3e80-4f5d-86f9-a5dab45b8349","kind":"bikerack","longitude":11.5826905,"latitude":48.2692832,"name":"Fahrradabstellplatz","city":"Unterschleissheim","address":null,"covered":true,"access":null,"website":null,"phone":null,"source":"OpenStreetMap/node/11812099319","sourceUpdatedAt":null,"verifiedAt":null}},{"type":"Feature","geometry":{"type":"Point","coordinates":[11.5896031,48.2831805]},"properties":{"id":"bikerack:cead0cad-35bb-498d-8db8-89b455a20104","kind":"bikerack","longitude":11.5896031,"latitude":48.2831805,"name":"Fahrradabstellplatz","city":"Unterschleissheim","address":null,"covered":false,"access":null,"website":null,"phone":null,"source":"OpenStreetMap/node/13310335477","sourceUpdatedAt":null,"verifiedAt":null}},{"type":"Feature","geometry":{"type":"Point","coordinates":[11.5751294,48.2733048]},"properties":{"id":"bikerack:cf4c3789-f8ea-4dfc-a3f0-115fe7c3de23","kind":"bikerack","longitude":11.5751294,"latitude":48.2733048,"name":"Fahrradabstellplatz","city":"Unterschleissheim","address":null,"covered":false,"access":null,"website":null,"phone":null,"source":"OpenStreetMap/node/12227804198","sourceUpdatedAt":null,"verifiedAt":null}},{"type":"Feature","geometry":{"type":"Point","coordinates":[11.5783976,48.2824704]},"properties":{"id":"bikerack:cfbcdf24-3d3a-420b-ae4b-fe9040bc4372","kind":"bikerack","longitude":11.5783976,"latitude":48.2824704,"name":"Fahrradabstellplatz","city":"Unterschleissheim","address":null,"covered":false,"access":null,"website":null,"phone":null,"source":"OpenStreetMap/node/12202303659","sourceUpdatedAt":null,"verifiedAt":null}},{"type":"Feature","geometry":{"type":"Point","coordinates":[11.5833517,48.2684307]},"properties":{"id":"bikerack:d31aca34-96ab-426e-b26c-c3cc74e0bb2f","kind":"bikerack","longitude":11.5833517,"latitude":48.2684307,"name":"Fahrradabstellplatz","city":"Unterschleissheim","address":null,"covered":true,"access":null,"website":null,"phone":null,"source":"OpenStreetMap/node/12612790906","sourceUpdatedAt":null,"verifiedAt":null}},{"type":"Feature","geometry":{"type":"Point","coordinates":[11.5597016,48.2772108]},"properties":{"id":"bikerack:d43c5ecf-eabf-48a2-bd01-7ab46983268b","kind":"bikerack","longitude":11.5597016,"latitude":48.2772108,"name":"Fahrradabstellplatz","city":"Unterschleissheim","address":null,"covered":false,"access":null,"website":null,"phone":null,"source":"OpenStreetMap/node/13098975135","sourceUpdatedAt":null,"verifiedAt":null}},{"type":"Feature","geometry":{"type":"Point","coordinates":[11.5786938,48.277705]},"properties":{"id":"bikerack:d7c3ff50-27c6-46df-82ba-b7d404a97fa1","kind":"bikerack","longitude":11.5786938,"latitude":48.277705,"name":"Fahrradabstellplatz","city":"Unterschleissheim","address":null,"covered":false,"access":null,"website":null,"phone":null,"source":"OpenStreetMap/node/12009759751","sourceUpdatedAt":null,"verifiedAt":null}},{"type":"Feature","geometry":{"type":"Point","coordinates":[11.5887986,48.2793833]},"properties":{"id":"bikerack:dac469d9-6931-4778-a934-0066223a69b0","kind":"bikerack","longitude":11.5887986,"latitude":48.2793833,"name":"Fahrradabstellplatz","city":"Unterschleissheim","address":null,"covered":true,"access":null,"website":null,"phone":null,"source":"OpenStreetMap/node/12216001239","sourceUpdatedAt":null,"verifiedAt":null}},{"type":"Feature","geometry":{"type":"Point","coordinates":[11.5700375,48.2728485]},"properties":{"id":"bikerack:dacba4e7-fc39-4cba-9386-3fa9c1ca4950","kind":"bikerack","longitude":11.5700375,"latitude":48.2728485,"name":"Fahrradabstellplatz","city":"Unterschleissheim","address":null,"covered":false,"access":null,"website":null,"phone":null,"source":"OpenStreetMap/node/4424266371","sourceUpdatedAt":null,"verifiedAt":null}},{"type":"Feature","geometry":{"type":"Point","coordinates":[11.5896962,48.2827941]},"properties":{"id":"bikerack:dc79f76c-f0dc-4b01-a86a-b1789834daaf","kind":"bikerack","longitude":11.5896962,"latitude":48.2827941,"name":"Fahrradabstellplatz","city":"Unterschleissheim","address":null,"covered":false,"access":null,"website":null,"phone":null,"source":"OpenStreetMap/node/13623262027","sourceUpdatedAt":null,"verifiedAt":null}},{"type":"Feature","geometry":{"type":"Point","coordinates":[11.5786476,48.2825595]},"properties":{"id":"bikerack:ddcacb51-4090-4046-bc32-8d120a1fd2f8","kind":"bikerack","longitude":11.5786476,"latitude":48.2825595,"name":"Fahrradabstellplatz","city":"Unterschleissheim","address":null,"covered":false,"access":null,"website":null,"phone":null,"source":"OpenStreetMap/node/12202303661","sourceUpdatedAt":null,"verifiedAt":null}},{"type":"Feature","geometry":{"type":"Point","coordinates":[11.5791311,48.2768788]},"properties":{"id":"bikerack:ded4ab8f-8207-4470-a0e4-9938960a6e09","kind":"bikerack","longitude":11.5791311,"latitude":48.2768788,"name":"Fahrradabstellplatz","city":"Unterschleissheim","address":null,"covered":false,"access":null,"website":null,"phone":null,"source":"OpenStreetMap/node/12731713558","sourceUpdatedAt":null,"verifiedAt":null}},{"type":"Feature","geometry":{"type":"Point","coordinates":[11.5877445,48.2673259]},"properties":{"id":"bikerack:e0339830-e815-441d-91bc-5933fc6c9c6f","kind":"bikerack","longitude":11.5877445,"latitude":48.2673259,"name":"Fahrradabstellplatz","city":"Unterschleissheim","address":null,"covered":false,"access":null,"website":null,"phone":null,"source":"OpenStreetMap/node/12009759743","sourceUpdatedAt":null,"verifiedAt":null}},{"type":"Feature","geometry":{"type":"Point","coordinates":[11.5816741,48.2769428]},"properties":{"id":"bikerack:e9465943-71c9-4db8-ae0e-1f29571bcccb","kind":"bikerack","longitude":11.5816741,"latitude":48.2769428,"name":"Fahrradabstellplatz","city":"Unterschleissheim","address":null,"covered":true,"access":null,"website":null,"phone":null,"source":"OpenStreetMap/node/13168284747","sourceUpdatedAt":null,"verifiedAt":null}},{"type":"Feature","geometry":{"type":"Point","coordinates":[11.5784847,48.2826971]},"properties":{"id":"bikerack:edaf274e-a89c-4e95-ad1c-17707180652b","kind":"bikerack","longitude":11.5784847,"latitude":48.2826971,"name":"Fahrradabstellplatz","city":"Unterschleissheim","address":null,"covered":false,"access":null,"website":null,"phone":null,"source":"OpenStreetMap/node/12737354749","sourceUpdatedAt":null,"verifiedAt":null}},{"type":"Feature","geometry":{"type":"Point","coordinates":[11.5897453,48.2824861]},"properties":{"id":"bikerack:edc2946d-f9ef-45a9-89fc-ee528f73c97e","kind":"bikerack","longitude":11.5897453,"latitude":48.2824861,"name":"Fahrradabstellplatz","city":"Unterschleissheim","address":null,"covered":false,"access":null,"website":null,"phone":null,"source":"OpenStreetMap/node/13649914085","sourceUpdatedAt":null,"verifiedAt":null}},{"type":"Feature","geometry":{"type":"Point","coordinates":[11.5602053,48.2741622]},"properties":{"id":"bikerack:ee77a084-05d3-4320-9a0a-0ba051e3d907","kind":"bikerack","longitude":11.5602053,"latitude":48.2741622,"name":"Fahrradabstellplatz","city":"Unterschleissheim","address":null,"covered":false,"access":null,"website":null,"phone":null,"source":"OpenStreetMap/node/12175083411","sourceUpdatedAt":null,"verifiedAt":null}},{"type":"Feature","geometry":{"type":"Point","coordinates":[11.5833073,48.2684994]},"properties":{"id":"bikerack:f1a4e85f-5982-4a53-9b81-8bd024d0949b","kind":"bikerack","longitude":11.5833073,"latitude":48.2684994,"name":"Fahrradabstellplatz","city":"Unterschleissheim","address":null,"covered":false,"access":null,"website":null,"phone":null,"source":"OpenStreetMap/node/12612790905","sourceUpdatedAt":null,"verifiedAt":null}},{"type":"Feature","geometry":{"type":"Point","coordinates":[11.5785054,48.2781538]},"properties":{"id":"bikerack:f2bc1f0f-97d8-4e63-ab51-ece39c47a477","kind":"bikerack","longitude":11.5785054,"latitude":48.2781538,"name":"Fahrradabstellplatz","city":"Unterschleissheim","address":null,"covered":false,"access":null,"website":null,"phone":null,"source":"OpenStreetMap/node/12009759752","sourceUpdatedAt":null,"verifiedAt":null}},{"type":"Feature","geometry":{"type":"Point","coordinates":[11.5749157,48.272969]},"properties":{"id":"bikerack:f62b4afa-fb5a-49b2-a245-685bda46a9c8","kind":"bikerack","longitude":11.5749157,"latitude":48.272969,"name":"Fahrradabstellplatz","city":"Unterschleissheim","address":null,"covered":true,"access":null,"website":null,"phone":null,"source":"OpenStreetMap/node/11869634133","sourceUpdatedAt":null,"verifiedAt":null}},{"type":"Feature","geometry":{"type":"Point","coordinates":[11.5898222,48.2819987]},"properties":{"id":"bikerack:fab287e3-0d44-4de4-a593-f8b6046ba78d","kind":"bikerack","longitude":11.5898222,"latitude":48.2819987,"name":"Fahrradabstellplatz","city":"Unterschleissheim","address":null,"covered":false,"access":null,"website":null,"phone":null,"source":"OpenStreetMap/node/13649940652","sourceUpdatedAt":null,"verifiedAt":null}},{"type":"Feature","geometry":{"type":"Point","coordinates":[11.5798023,48.2776366]},"properties":{"id":"bikerack:fc30b108-9fd1-4db7-b719-dd5041148c91","kind":"bikerack","longitude":11.5798023,"latitude":48.2776366,"name":"Fahrradabstellplatz","city":"Unterschleissheim","address":null,"covered":true,"access":null,"website":null,"phone":null,"source":"OpenStreetMap/way/508193985","sourceUpdatedAt":null,"verifiedAt":null}},{"type":"Feature","geometry":{"type":"Point","coordinates":[11.582667,48.2787244]},"properties":{"id":"bikerack:ff623d1e-e860-4341-afeb-19d7114e7750","kind":"bikerack","longitude":11.582667,"latitude":48.2787244,"name":"Fahrradabstellplatz","city":"Unterschleissheim","address":null,"covered":false,"access":null,"website":null,"phone":null,"source":"OpenStreetMap/node/12089384124","sourceUpdatedAt":null,"verifiedAt":null}},{"type":"Feature","geometry":{"type":"Point","coordinates":[11.5763859,48.2817632]},"properties":{"id":"repair:bfd87759-fb57-417a-80b4-9d8564f70945","kind":"repair","longitude":11.5763859,"latitude":48.2817632,"name":"Fahrrad Selbstreparaturstation","city":"Unterschleissheim","address":null,"covered":false,"access":null,"website":null,"phone":null,"source":"OpenStreetMap/node/9527532448","sourceUpdatedAt":null,"verifiedAt":null}},{"type":"Feature","geometry":{"type":"Point","coordinates":[11.5579958,48.2634259]},"properties":{"id":"service:630d379f-a338-4963-9e50-2edb7088202c","kind":"service","longitude":11.5579958,"latitude":48.2634259,"name":"Louis Fahrräder","city":"Oberschleißheim","address":null,"covered":null,"access":null,"website":null,"phone":null,"source":"OpenStreetMap/node/4794227021","sourceUpdatedAt":null,"verifiedAt":null}},{"type":"Feature","geometry":{"type":"Point","coordinates":[11.5828415,48.2828376]},"properties":{"id":"service:f9bf8fb0-035c-446a-a22d-4efdf580f49a","kind":"service","longitude":11.5828415,"latitude":48.2828376,"name":"360 Grad Sportshop","city":"Unterschleißheim","address":null,"covered":null,"access":null,"website":null,"phone":null,"source":"OpenStreetMap/node/965228131","sourceUpdatedAt":null,"verifiedAt":null}},{"type":"Feature","geometry":{"type":"Point","coordinates":[11.5813943,48.2709059]},"properties":{"id":"water:92fafbaa-2866-4772-9a8a-8f7f6b072312","kind":"water","longitude":11.5813943,"latitude":48.2709059,"name":"Trinkwasser","city":"Unterschleissheim","address":null,"covered":null,"access":null,"website":null,"phone":null,"source":"OpenStreetMap/node/1660090664","sourceUpdatedAt":null,"verifiedAt":null}}]}