{"type":"FeatureCollection","features":[{"type":"Feature","geometry":{"type":"Point","coordinates":[11.5893652,48.0184841]},"properties":{"id":"bikerack:040ffcc5-d2d6-4901-9275-08f9836ce619","kind":"bikerack","longitude":11.5893652,"latitude":48.0184841,"name":"Fahrradabstellplatz","city":"Oberhaching","address":null,"covered":false,"access":null,"website":null,"phone":null,"source":"OpenStreetMap/node/13621555492","sourceUpdatedAt":null,"verifiedAt":null}},{"type":"Feature","geometry":{"type":"Point","coordinates":[11.5896025,48.0185626]},"properties":{"id":"bikerack:0671315f-ec9f-45b2-bfa0-24de6781b071","kind":"bikerack","longitude":11.5896025,"latitude":48.0185626,"name":"Fahrradabstellplatz","city":"Oberhaching","address":null,"covered":false,"access":null,"website":null,"phone":null,"source":"OpenStreetMap/node/8950593249","sourceUpdatedAt":null,"verifiedAt":null}},{"type":"Feature","geometry":{"type":"Point","coordinates":[11.5905179,48.0181218]},"properties":{"id":"bikerack:0dcc58e6-2fca-4512-8328-22486a3413dd","kind":"bikerack","longitude":11.5905179,"latitude":48.0181218,"name":"Fahrradabstellplatz","city":"Oberhaching","address":null,"covered":false,"access":null,"website":null,"phone":null,"source":"OpenStreetMap/node/10877476317","sourceUpdatedAt":null,"verifiedAt":null}},{"type":"Feature","geometry":{"type":"Point","coordinates":[11.5775154,48.018784]},"properties":{"id":"bikerack:41729233-1fca-43d6-a766-9e649a305800","kind":"bikerack","longitude":11.5775154,"latitude":48.018784,"name":"Fahrradabstellplatz","city":"Oberhaching","address":null,"covered":true,"access":null,"website":null,"phone":null,"source":"OpenStreetMap/way/1104098714","sourceUpdatedAt":null,"verifiedAt":null}},{"type":"Feature","geometry":{"type":"Point","coordinates":[11.5900323,48.0183805]},"properties":{"id":"bikerack:4205bb37-9b19-44fe-85c0-1358a1729022","kind":"bikerack","longitude":11.5900323,"latitude":48.0183805,"name":"Fahrradabstellplatz","city":"Oberhaching","address":null,"covered":false,"access":null,"website":null,"phone":null,"source":"OpenStreetMap/way/1485853465","sourceUpdatedAt":null,"verifiedAt":null}},{"type":"Feature","geometry":{"type":"Point","coordinates":[11.5897138,48.0184457]},"properties":{"id":"bikerack:ab6d64b6-5a6c-4759-a253-e3b23c0e81a5","kind":"bikerack","longitude":11.5897138,"latitude":48.0184457,"name":"Fahrradabstellplatz","city":"Oberhaching","address":null,"covered":false,"access":null,"website":null,"phone":null,"source":"OpenStreetMap/way/1485742855","sourceUpdatedAt":null,"verifiedAt":null}},{"type":"Feature","geometry":{"type":"Point","coordinates":[11.5927491,48.0109105]},"properties":{"id":"bikerack:bdfc5c54-086d-4c8a-bbff-28c80beb63ea","kind":"bikerack","longitude":11.5927491,"latitude":48.0109105,"name":"Fahrradabstellplatz","city":"Oberhaching","address":null,"covered":false,"access":null,"website":null,"phone":null,"source":"OpenStreetMap/way/751026098","sourceUpdatedAt":null,"verifiedAt":null}},{"type":"Feature","geometry":{"type":"Point","coordinates":[11.5904702,48.0190349]},"properties":{"id":"bikerack:eaa073ca-8a07-400e-96bc-932679bfb4cd","kind":"bikerack","longitude":11.5904702,"latitude":48.0190349,"name":"Fahrradabstellplatz","city":"Oberhaching","address":null,"covered":false,"access":null,"website":null,"phone":null,"source":"OpenStreetMap/node/11801728594","sourceUpdatedAt":null,"verifiedAt":null}},{"type":"Feature","geometry":{"type":"Point","coordinates":[11.5914479,48.0190161]},"properties":{"id":"bikerack:ffd11fe8-f013-4248-96d2-80e2886c50cb","kind":"bikerack","longitude":11.5914479,"latitude":48.0190161,"name":"Fahrradabstellplatz","city":"Oberhaching","address":null,"covered":false,"access":null,"website":null,"phone":null,"source":"OpenStreetMap/node/13621555474","sourceUpdatedAt":null,"verifiedAt":null}},{"type":"Feature","geometry":{"type":"Point","coordinates":[11.5906554,48.0189504]},"properties":{"id":"service:b7915b22-ea54-4b7e-8b2b-0479a06a951c","kind":"service","longitude":11.5906554,"latitude":48.0189504,"name":"VELO-KLUG","city":"Oberhaching","address":null,"covered":null,"access":null,"website":null,"phone":null,"source":"OpenStreetMap/node/1656121042","sourceUpdatedAt":null,"verifiedAt":null}}]}