{"type":"FeatureCollection","features":[{"type":"Feature","geometry":{"type":"Point","coordinates":[20.8822057,53.0195798]},"properties":{"id":"bikerack:0b565851-abf0-453c-82e8-07357b80a25a","kind":"bikerack","longitude":20.8822057,"latitude":53.0195798,"name":"Biciklitároló","city":"Przasnysz","address":null,"covered":false,"access":null,"website":null,"phone":null,"source":"OpenStreetMap/node/12312623110","sourceUpdatedAt":null,"verifiedAt":null}},{"type":"Feature","geometry":{"type":"Point","coordinates":[20.9031402,53.0240573]},"properties":{"id":"bikerack:137bdfdd-a402-40a4-8ba9-da7b547aa6d9","kind":"bikerack","longitude":20.9031402,"latitude":53.0240573,"name":"Biciklitároló","city":"Przasnysz","address":null,"covered":false,"access":null,"website":null,"phone":null,"source":"OpenStreetMap/node/10723656985","sourceUpdatedAt":null,"verifiedAt":null}},{"type":"Feature","geometry":{"type":"Point","coordinates":[20.8829421,53.0211974]},"properties":{"id":"bikerack:79267a32-583b-4c65-b6e5-14f251f836fd","kind":"bikerack","longitude":20.8829421,"latitude":53.0211974,"name":"Biciklitároló","city":"Przasnysz","address":null,"covered":false,"access":null,"website":null,"phone":null,"source":"OpenStreetMap/node/12312776228","sourceUpdatedAt":null,"verifiedAt":null}},{"type":"Feature","geometry":{"type":"Point","coordinates":[20.8996352,53.0157809]},"properties":{"id":"bikerack:7eac72d9-e91e-4a1b-a86b-87616a6f30da","kind":"bikerack","longitude":20.8996352,"latitude":53.0157809,"name":"Biciklitároló","city":"Przasnysz","address":null,"covered":false,"access":null,"website":null,"phone":null,"source":"OpenStreetMap/node/12324445718","sourceUpdatedAt":null,"verifiedAt":null}},{"type":"Feature","geometry":{"type":"Point","coordinates":[20.8824494,53.0212927]},"properties":{"id":"bikerack:d85c2cda-06e3-4ab8-ab63-3e66362f6fa1","kind":"bikerack","longitude":20.8824494,"latitude":53.0212927,"name":"Biciklitároló","city":"Przasnysz","address":null,"covered":false,"access":null,"website":null,"phone":null,"source":"OpenStreetMap/node/12312776204","sourceUpdatedAt":null,"verifiedAt":null}}]}