{"type":"FeatureCollection","features":[{"type":"Feature","geometry":{"type":"Point","coordinates":[20.887826,49.3578952]},"properties":{"id":"bikerack:57d660b7-34e7-48a5-be78-c35e15993325","kind":"bikerack","longitude":20.887826,"latitude":49.3578952,"name":"Biciklitároló","city":"Muszyna","address":null,"covered":false,"access":null,"website":null,"phone":null,"source":"OpenStreetMap/node/8666110784","sourceUpdatedAt":null,"verifiedAt":null}},{"type":"Feature","geometry":{"type":"Point","coordinates":[20.8876296,49.3569061]},"properties":{"id":"bikerack:5a9d9ed8-9ad0-4270-8100-fabc8785a079","kind":"bikerack","longitude":20.8876296,"latitude":49.3569061,"name":"Biciklitároló","city":"Muszyna","address":null,"covered":false,"access":null,"website":null,"phone":null,"source":"OpenStreetMap/node/8666110774","sourceUpdatedAt":null,"verifiedAt":null}},{"type":"Feature","geometry":{"type":"Point","coordinates":[20.8847026,49.3735808]},"properties":{"id":"bikerack:82425df6-7f7b-4da9-a7ae-d5f57fe505f8","kind":"bikerack","longitude":20.8847026,"latitude":49.3735808,"name":"Biciklitároló","city":"Muszyna","address":null,"covered":false,"access":null,"website":null,"phone":null,"source":"OpenStreetMap/node/8645361925","sourceUpdatedAt":null,"verifiedAt":null}},{"type":"Feature","geometry":{"type":"Point","coordinates":[20.9025998,49.3588428]},"properties":{"id":"bikerack:866518d1-d494-40e6-927b-19c0c0a2630d","kind":"bikerack","longitude":20.9025998,"latitude":49.3588428,"name":"Biciklitároló","city":"Muszyna","address":null,"covered":false,"access":null,"website":null,"phone":null,"source":"OpenStreetMap/node/8681435876","sourceUpdatedAt":null,"verifiedAt":null}},{"type":"Feature","geometry":{"type":"Point","coordinates":[20.89477,49.3579568]},"properties":{"id":"bikerack:a584d548-869b-4474-8c85-79cd128f6e48","kind":"bikerack","longitude":20.89477,"latitude":49.3579568,"name":"Biciklitároló","city":"Muszyna","address":null,"covered":false,"access":null,"website":null,"phone":null,"source":"OpenStreetMap/node/7780209959","sourceUpdatedAt":null,"verifiedAt":null}},{"type":"Feature","geometry":{"type":"Point","coordinates":[20.9025262,49.3588234]},"properties":{"id":"bikerack:bdbad29a-ea97-4c87-b5a2-6704e0572dad","kind":"bikerack","longitude":20.9025262,"latitude":49.3588234,"name":"Biciklitároló","city":"Muszyna","address":null,"covered":false,"access":null,"website":null,"phone":null,"source":"OpenStreetMap/node/8681435877","sourceUpdatedAt":null,"verifiedAt":null}},{"type":"Feature","geometry":{"type":"Point","coordinates":[20.8948783,49.357993]},"properties":{"id":"repair:bbdb6fe4-cb7e-4af9-91f8-4d5e499b0a45","kind":"repair","longitude":20.8948783,"latitude":49.357993,"name":"Kerékpár szervizállomás","city":"Muszyna","address":null,"covered":false,"access":null,"website":null,"phone":null,"source":"OpenStreetMap/node/7780209958","sourceUpdatedAt":null,"verifiedAt":null}},{"type":"Feature","geometry":{"type":"Point","coordinates":[20.8887966,49.3582963]},"properties":{"id":"water:065bf024-dc5b-448a-83a4-8922ed9e493a","kind":"water","longitude":20.8887966,"latitude":49.3582963,"name":"Józef","city":"Muszyna","address":null,"covered":null,"access":null,"website":null,"phone":null,"source":"OpenStreetMap/node/8666110867","sourceUpdatedAt":null,"verifiedAt":null}},{"type":"Feature","geometry":{"type":"Point","coordinates":[20.8851239,49.3733053]},"properties":{"id":"water:08927547-e3e7-47bf-bd51-8aab5355986c","kind":"water","longitude":20.8851239,"latitude":49.3733053,"name":"Ivókút","city":"Muszyna","address":null,"covered":null,"access":null,"website":null,"phone":null,"source":"OpenStreetMap/node/8645358306","sourceUpdatedAt":null,"verifiedAt":null}},{"type":"Feature","geometry":{"type":"Point","coordinates":[20.8947748,49.3580441]},"properties":{"id":"water:08dcbea1-2206-46b2-98f1-3e958f761d9a","kind":"water","longitude":20.8947748,"latitude":49.3580441,"name":"Anna","city":"Muszyna","address":null,"covered":null,"access":null,"website":null,"phone":null,"source":"OpenStreetMap/node/4790846121","sourceUpdatedAt":null,"verifiedAt":null}},{"type":"Feature","geometry":{"type":"Point","coordinates":[20.9051942,49.3591694]},"properties":{"id":"water:5162c3f2-88e4-43ec-827d-c601f889c78e","kind":"water","longitude":20.9051942,"latitude":49.3591694,"name":"Ivókút","city":"Muszyna","address":null,"covered":null,"access":null,"website":null,"phone":null,"source":"OpenStreetMap/node/11914509349","sourceUpdatedAt":null,"verifiedAt":null}},{"type":"Feature","geometry":{"type":"Point","coordinates":[20.8878695,49.3640965]},"properties":{"id":"water:89c7dafa-794d-4421-9bdf-e064d5e5835a","kind":"water","longitude":20.8878695,"latitude":49.3640965,"name":"Marcin","city":"Muszyna","address":null,"covered":null,"access":null,"website":null,"phone":null,"source":"OpenStreetMap/node/13144318883","sourceUpdatedAt":null,"verifiedAt":null}},{"type":"Feature","geometry":{"type":"Point","coordinates":[20.9018583,49.3583474]},"properties":{"id":"water:d0c6552d-b1dc-4ede-8f4f-cd434e46ac76","kind":"water","longitude":20.9018583,"latitude":49.3583474,"name":"Maryja","city":"Muszyna","address":null,"covered":null,"access":null,"website":null,"phone":null,"source":"OpenStreetMap/node/8695330161","sourceUpdatedAt":null,"verifiedAt":null}}]}