{"type":"FeatureCollection","features":[{"type":"Feature","geometry":{"type":"Point","coordinates":[17.0115952,46.4535805]},"properties":{"id":"bikerack:0660f7da-52fe-457c-b21d-fc61e21f41cd","kind":"bikerack","longitude":17.0115952,"latitude":46.4535805,"name":"Biciklitároló","city":"Nagykanizsa","address":null,"covered":false,"access":null,"website":null,"phone":null,"source":"OpenStreetMap/node/2624795620","sourceUpdatedAt":"2026-04-04T22:50:04.678779+00:00","verifiedAt":null}},{"type":"Feature","geometry":{"type":"Point","coordinates":[16.9921307,46.4483401]},"properties":{"id":"bikerack:0c632da3-36e4-4df5-b6fc-73dc409f7832","kind":"bikerack","longitude":16.9921307,"latitude":46.4483401,"name":"Biciklitároló","city":"Nagykanizsa","address":null,"covered":false,"access":null,"website":null,"phone":null,"source":"OpenStreetMap/node/11763909661","sourceUpdatedAt":"2026-04-04T22:50:04.678779+00:00","verifiedAt":null}},{"type":"Feature","geometry":{"type":"Point","coordinates":[16.9832207,46.4573885]},"properties":{"id":"bikerack:0e9baad0-12cc-4411-b651-7f871adf3a4d","kind":"bikerack","longitude":16.9832207,"latitude":46.4573885,"name":"Biciklitároló","city":"Nagykanizsa","address":null,"covered":false,"access":null,"website":null,"phone":null,"source":"OpenStreetMap/node/2587627798","sourceUpdatedAt":"2026-04-04T22:50:04.678779+00:00","verifiedAt":null}},{"type":"Feature","geometry":{"type":"Point","coordinates":[17.0455725,46.4603696]},"properties":{"id":"bikerack:161174ca-7608-4ec9-b1b5-965211e75ea1","kind":"bikerack","longitude":17.0455725,"latitude":46.4603696,"name":"Biciklitároló","city":"Nagykanizsa","address":null,"covered":false,"access":null,"website":null,"phone":null,"source":"OpenStreetMap/node/7088741833","sourceUpdatedAt":"2026-04-04T22:50:04.678779+00:00","verifiedAt":null}},{"type":"Feature","geometry":{"type":"Point","coordinates":[16.9988176,46.4556694]},"properties":{"id":"bikerack:19d41bd0-9500-4a82-8395-194a466878df","kind":"bikerack","longitude":16.9988176,"latitude":46.4556694,"name":"Biciklitároló","city":"Nagykanizsa","address":null,"covered":false,"access":null,"website":null,"phone":null,"source":"OpenStreetMap/node/2779442374","sourceUpdatedAt":"2026-04-04T22:50:04.678779+00:00","verifiedAt":null}},{"type":"Feature","geometry":{"type":"Point","coordinates":[17.0139942,46.465213]},"properties":{"id":"bikerack:1ab7d1bc-ea40-4992-84b2-03462fd8b152","kind":"bikerack","longitude":17.0139942,"latitude":46.465213,"name":"Biciklitároló","city":"Nagykanizsa","address":null,"covered":true,"access":null,"website":null,"phone":null,"source":"OpenStreetMap/node/5756409795","sourceUpdatedAt":"2026-04-04T22:50:04.678779+00:00","verifiedAt":null}},{"type":"Feature","geometry":{"type":"Point","coordinates":[17.0109484,46.4564391]},"properties":{"id":"bikerack:1e05a8e7-9885-4a03-a42a-76efe4b76dfc","kind":"bikerack","longitude":17.0109484,"latitude":46.4564391,"name":"Biciklitároló","city":"Nagykanizsa","address":null,"covered":false,"access":null,"website":null,"phone":null,"source":"OpenStreetMap/way/1198871867","sourceUpdatedAt":"2026-04-04T22:50:04.678779+00:00","verifiedAt":null}},{"type":"Feature","geometry":{"type":"Point","coordinates":[17.0229171,46.4488135]},"properties":{"id":"bikerack:22cbc247-dbba-457d-84d9-670def998e10","kind":"bikerack","longitude":17.0229171,"latitude":46.4488135,"name":"Biciklitároló","city":"Nagykanizsa","address":null,"covered":false,"access":null,"website":null,"phone":null,"source":"OpenStreetMap/node/2500651562","sourceUpdatedAt":"2026-04-04T22:50:04.678779+00:00","verifiedAt":null}},{"type":"Feature","geometry":{"type":"Point","coordinates":[16.9951753,46.455121]},"properties":{"id":"bikerack:28f597c4-0ec4-45f7-b608-dd4ca9be7140","kind":"bikerack","longitude":16.9951753,"latitude":46.455121,"name":"Biciklitároló","city":"Nagykanizsa","address":null,"covered":false,"access":null,"website":null,"phone":null,"source":"OpenStreetMap/node/3134263029","sourceUpdatedAt":"2026-04-04T22:50:04.678779+00:00","verifiedAt":null}},{"type":"Feature","geometry":{"type":"Point","coordinates":[17.0142173,46.4652823]},"properties":{"id":"bikerack:2be0a605-b297-4d71-a6c4-5facf8af5854","kind":"bikerack","longitude":17.0142173,"latitude":46.4652823,"name":"Biciklitároló","city":"Nagykanizsa","address":null,"covered":true,"access":null,"website":null,"phone":null,"source":"OpenStreetMap/node/5756409799","sourceUpdatedAt":"2026-04-04T22:50:04.678779+00:00","verifiedAt":null}},{"type":"Feature","geometry":{"type":"Point","coordinates":[17.174651,46.5471315]},"properties":{"id":"bikerack:2d6e5029-6a71-498d-a2b4-5f7b4b9572eb","kind":"bikerack","longitude":17.174651,"latitude":46.5471315,"name":"Biciklitároló","city":"Zalakomar","address":null,"covered":false,"access":null,"website":null,"phone":null,"source":"OpenStreetMap/node/11763812039","sourceUpdatedAt":"2026-04-04T22:50:04.678779+00:00","verifiedAt":null}},{"type":"Feature","geometry":{"type":"Point","coordinates":[16.9940475,46.4566634]},"properties":{"id":"bikerack:31152f33-c8de-4301-b358-3d6b894a145c","kind":"bikerack","longitude":16.9940475,"latitude":46.4566634,"name":"Biciklitároló","city":"Nagykanizsa","address":null,"covered":false,"access":null,"website":null,"phone":null,"source":"OpenStreetMap/node/2492810607","sourceUpdatedAt":"2026-04-04T22:50:04.678779+00:00","verifiedAt":null}},{"type":"Feature","geometry":{"type":"Point","coordinates":[17.1293756,46.5509304]},"properties":{"id":"bikerack:34938144-00db-4725-b2da-a843da57de9f","kind":"bikerack","longitude":17.1293756,"latitude":46.5509304,"name":"Biciklitároló","city":"Zalakomar","address":null,"covered":false,"access":null,"website":null,"phone":null,"source":"OpenStreetMap/node/4482978175","sourceUpdatedAt":"2026-04-04T22:50:04.678779+00:00","verifiedAt":null}},{"type":"Feature","geometry":{"type":"Point","coordinates":[16.994096,46.4562638]},"properties":{"id":"bikerack:36bb0054-d5f7-4675-810e-89f13a29d897","kind":"bikerack","longitude":16.994096,"latitude":46.4562638,"name":"Biciklitároló","city":"Nagykanizsa","address":null,"covered":false,"access":null,"website":null,"phone":null,"source":"OpenStreetMap/node/2545770502","sourceUpdatedAt":"2026-04-04T22:50:04.678779+00:00","verifiedAt":null}},{"type":"Feature","geometry":{"type":"Point","coordinates":[17.0713913,46.4975739]},"properties":{"id":"bikerack:375446b1-9dee-4d16-9e1b-c4fb6a656527","kind":"bikerack","longitude":17.0713913,"latitude":46.4975739,"name":"Biciklitároló","city":"Nagykanizsa","address":null,"covered":false,"access":null,"website":null,"phone":null,"source":"OpenStreetMap/node/11054642707","sourceUpdatedAt":"2026-04-04T22:50:04.678779+00:00","verifiedAt":null}},{"type":"Feature","geometry":{"type":"Point","coordinates":[16.9895554,46.4537188]},"properties":{"id":"bikerack:3ca36364-4e05-4382-a222-54e9bace1f52","kind":"bikerack","longitude":16.9895554,"latitude":46.4537188,"name":"Biciklitároló","city":"Nagykanizsa","address":null,"covered":false,"access":null,"website":null,"phone":null,"source":"OpenStreetMap/node/5024301096","sourceUpdatedAt":"2026-04-04T22:50:04.678779+00:00","verifiedAt":null}},{"type":"Feature","geometry":{"type":"Point","coordinates":[17.0354507,46.4454698]},"properties":{"id":"bikerack:44d666d6-3199-45de-ad42-0d037c879228","kind":"bikerack","longitude":17.0354507,"latitude":46.4454698,"name":"Biciklitároló","city":"Nagykanizsa","address":null,"covered":false,"access":null,"website":null,"phone":null,"source":"OpenStreetMap/node/4973979148","sourceUpdatedAt":"2026-04-04T22:50:04.678779+00:00","verifiedAt":null}},{"type":"Feature","geometry":{"type":"Point","coordinates":[16.9918592,46.4645797]},"properties":{"id":"bikerack:4eb0f8df-f042-49cd-941c-611a94793764","kind":"bikerack","longitude":16.9918592,"latitude":46.4645797,"name":"Biciklitároló","city":"Nagykanizsa","address":null,"covered":true,"access":null,"website":null,"phone":null,"source":"OpenStreetMap/way/1444782221","sourceUpdatedAt":"2026-04-04T22:50:04.678779+00:00","verifiedAt":null}},{"type":"Feature","geometry":{"type":"Point","coordinates":[17.1237873,46.5507347]},"properties":{"id":"bikerack:62da717e-9009-453e-bcf9-e26a4a17205f","kind":"bikerack","longitude":17.1237873,"latitude":46.5507347,"name":"Biciklitároló","city":"Zalakomar","address":null,"covered":false,"access":null,"website":null,"phone":null,"source":"OpenStreetMap/node/11401361479","sourceUpdatedAt":"2026-04-04T22:50:04.678779+00:00","verifiedAt":null}},{"type":"Feature","geometry":{"type":"Point","coordinates":[16.9876595,46.4520574]},"properties":{"id":"bikerack:6aa59d53-75a1-4660-a6c7-1f5f6fefbb54","kind":"bikerack","longitude":16.9876595,"latitude":46.4520574,"name":"Biciklitároló","city":"Nagykanizsa","address":null,"covered":false,"access":null,"website":null,"phone":null,"source":"OpenStreetMap/node/13380869106","sourceUpdatedAt":"2026-04-04T22:50:04.678779+00:00","verifiedAt":null}},{"type":"Feature","geometry":{"type":"Point","coordinates":[17.0107557,46.4556496]},"properties":{"id":"bikerack:7255af3d-1e2e-4532-84fd-c29c4e7dd258","kind":"bikerack","longitude":17.0107557,"latitude":46.4556496,"name":"Biciklitároló","city":"Nagykanizsa","address":null,"covered":false,"access":null,"website":null,"phone":null,"source":"OpenStreetMap/way/1198871868","sourceUpdatedAt":"2026-04-04T22:50:04.678779+00:00","verifiedAt":null}},{"type":"Feature","geometry":{"type":"Point","coordinates":[16.9917236,46.4547444]},"properties":{"id":"bikerack:82a83945-60f2-4ef9-8ed3-4fabc340c479","kind":"bikerack","longitude":16.9917236,"latitude":46.4547444,"name":"Biciklitároló","city":"Nagykanizsa","address":null,"covered":false,"access":null,"website":null,"phone":null,"source":"OpenStreetMap/node/4143672489","sourceUpdatedAt":"2026-04-04T22:50:04.678779+00:00","verifiedAt":null}},{"type":"Feature","geometry":{"type":"Point","coordinates":[16.9940528,46.4550713]},"properties":{"id":"bikerack:82d823b8-ac44-4409-9761-b98778deb877","kind":"bikerack","longitude":16.9940528,"latitude":46.4550713,"name":"Biciklitároló","city":"Nagykanizsa","address":null,"covered":false,"access":null,"website":null,"phone":null,"source":"OpenStreetMap/node/4845696033","sourceUpdatedAt":"2026-04-04T22:50:04.678779+00:00","verifiedAt":null}},{"type":"Feature","geometry":{"type":"Point","coordinates":[17.0115693,46.4534733]},"properties":{"id":"bikerack:87ad623d-f0cc-4ad3-827e-bc5b5efdcd89","kind":"bikerack","longitude":17.0115693,"latitude":46.4534733,"name":"Biciklitároló","city":"Nagykanizsa","address":null,"covered":false,"access":null,"website":null,"phone":null,"source":"OpenStreetMap/node/2624795621","sourceUpdatedAt":"2026-04-04T22:50:04.678779+00:00","verifiedAt":null}},{"type":"Feature","geometry":{"type":"Point","coordinates":[17.1232653,46.5558051]},"properties":{"id":"bikerack:886152eb-fd7b-46cc-aa7b-483106ca4adc","kind":"bikerack","longitude":17.1232653,"latitude":46.5558051,"name":"Biciklitároló","city":"Zalakomar","address":null,"covered":false,"access":null,"website":null,"phone":null,"source":"OpenStreetMap/node/11762158357","sourceUpdatedAt":"2026-04-04T22:50:04.678779+00:00","verifiedAt":null}},{"type":"Feature","geometry":{"type":"Point","coordinates":[16.9850446,46.4570363]},"properties":{"id":"bikerack:8db88591-171d-44b3-8888-52a87937d13b","kind":"bikerack","longitude":16.9850446,"latitude":46.4570363,"name":"Biciklitároló","city":"Nagykanizsa","address":null,"covered":false,"access":null,"website":null,"phone":null,"source":"OpenStreetMap/node/2607943973","sourceUpdatedAt":"2026-04-04T22:50:04.678779+00:00","verifiedAt":null}},{"type":"Feature","geometry":{"type":"Point","coordinates":[16.9860463,46.4615824]},"properties":{"id":"bikerack:91d70419-b4a5-452c-ab15-143169c753ff","kind":"bikerack","longitude":16.9860463,"latitude":46.4615824,"name":"Biciklitároló","city":"Nagykanizsa","address":null,"covered":false,"access":null,"website":null,"phone":null,"source":"OpenStreetMap/node/3744899221","sourceUpdatedAt":"2026-04-04T22:50:04.678779+00:00","verifiedAt":null}},{"type":"Feature","geometry":{"type":"Point","coordinates":[17.1220536,46.5546588]},"properties":{"id":"bikerack:9916a443-9d1e-456b-9083-c339ba7fdf09","kind":"bikerack","longitude":17.1220536,"latitude":46.5546588,"name":"Biciklitároló","city":"Zalakomar","address":null,"covered":false,"access":null,"website":null,"phone":null,"source":"OpenStreetMap/node/11762187973","sourceUpdatedAt":"2026-04-04T22:50:04.678779+00:00","verifiedAt":null}},{"type":"Feature","geometry":{"type":"Point","coordinates":[17.0408433,46.444988]},"properties":{"id":"bikerack:9a3a6616-5346-48dc-b091-7b3527e88354","kind":"bikerack","longitude":17.0408433,"latitude":46.444988,"name":"Biciklitároló","city":"Nagykanizsa","address":null,"covered":false,"access":null,"website":null,"phone":null,"source":"OpenStreetMap/node/11140267573","sourceUpdatedAt":"2026-04-04T22:50:04.678779+00:00","verifiedAt":null}},{"type":"Feature","geometry":{"type":"Point","coordinates":[17.0097635,46.4598864]},"properties":{"id":"bikerack:a1235edc-047c-4802-8e38-4a2c1e8c8f7c","kind":"bikerack","longitude":17.0097635,"latitude":46.4598864,"name":"Biciklitároló","city":"Nagykanizsa","address":null,"covered":false,"access":null,"website":null,"phone":null,"source":"OpenStreetMap/node/2618622971","sourceUpdatedAt":"2026-04-04T22:50:04.678779+00:00","verifiedAt":null}},{"type":"Feature","geometry":{"type":"Point","coordinates":[17.0023685,46.4575009]},"properties":{"id":"bikerack:a811c084-b97f-412d-809a-4f79fcb4131c","kind":"bikerack","longitude":17.0023685,"latitude":46.4575009,"name":"Biciklitároló","city":"Nagykanizsa","address":null,"covered":false,"access":null,"website":null,"phone":null,"source":"OpenStreetMap/node/6135309034","sourceUpdatedAt":"2026-04-04T22:50:04.678779+00:00","verifiedAt":null}},{"type":"Feature","geometry":{"type":"Point","coordinates":[17.0115362,46.4542269]},"properties":{"id":"bikerack:a937a9f3-9710-4c11-aaf9-afcf6fee1b56","kind":"bikerack","longitude":17.0115362,"latitude":46.4542269,"name":"Biciklitároló","city":"Nagykanizsa","address":null,"covered":false,"access":null,"website":null,"phone":null,"source":"OpenStreetMap/node/2271890135","sourceUpdatedAt":"2026-04-04T22:50:04.678779+00:00","verifiedAt":null}},{"type":"Feature","geometry":{"type":"Point","coordinates":[17.0115951,46.4544932]},"properties":{"id":"bikerack:b7b9e54f-5fe8-403b-b285-5711a07f26d6","kind":"bikerack","longitude":17.0115951,"latitude":46.4544932,"name":"Biciklitároló","city":"Nagykanizsa","address":null,"covered":false,"access":null,"website":null,"phone":null,"source":"OpenStreetMap/node/2624815221","sourceUpdatedAt":"2026-04-04T22:50:04.678779+00:00","verifiedAt":null}},{"type":"Feature","geometry":{"type":"Point","coordinates":[17.1237427,46.5508163]},"properties":{"id":"bikerack:bd72e4d3-9946-435e-98d7-15391287c1e1","kind":"bikerack","longitude":17.1237427,"latitude":46.5508163,"name":"Biciklitároló","city":"Zalakomar","address":null,"covered":false,"access":null,"website":null,"phone":null,"source":"OpenStreetMap/node/13401685087","sourceUpdatedAt":"2026-04-04T22:50:04.678779+00:00","verifiedAt":null}},{"type":"Feature","geometry":{"type":"Point","coordinates":[17.1736968,46.5469471]},"properties":{"id":"bikerack:bdf189ca-f7b7-4c98-9b9e-11cb38d9b722","kind":"bikerack","longitude":17.1736968,"latitude":46.5469471,"name":"Biciklitároló","city":"Zalakomar","address":null,"covered":false,"access":null,"website":null,"phone":null,"source":"OpenStreetMap/node/11763812035","sourceUpdatedAt":"2026-04-04T22:50:04.678779+00:00","verifiedAt":null}},{"type":"Feature","geometry":{"type":"Point","coordinates":[17.079229,46.5002103]},"properties":{"id":"bikerack:c175ac7d-da50-42ce-b069-05214701715a","kind":"bikerack","longitude":17.079229,"latitude":46.5002103,"name":"Biciklitároló","city":"Nagykanizsa","address":null,"covered":false,"access":null,"website":null,"phone":null,"source":"OpenStreetMap/node/11762188102","sourceUpdatedAt":"2026-04-04T22:50:04.678779+00:00","verifiedAt":null}},{"type":"Feature","geometry":{"type":"Point","coordinates":[16.9922957,46.448317]},"properties":{"id":"bikerack:c94a7c8e-4276-4148-9b3b-266332cadb87","kind":"bikerack","longitude":16.9922957,"latitude":46.448317,"name":"Biciklitároló","city":"Nagykanizsa","address":null,"covered":false,"access":null,"website":null,"phone":null,"source":"OpenStreetMap/node/11763909660","sourceUpdatedAt":"2026-04-04T22:50:04.678779+00:00","verifiedAt":null}},{"type":"Feature","geometry":{"type":"Point","coordinates":[16.9944098,46.4542735]},"properties":{"id":"bikerack:ca5287bb-5e69-436a-8d10-4531a71d773b","kind":"bikerack","longitude":16.9944098,"latitude":46.4542735,"name":"Biciklitároló","city":"Nagykanizsa","address":null,"covered":false,"access":null,"website":null,"phone":null,"source":"OpenStreetMap/node/2584854852","sourceUpdatedAt":"2026-04-04T22:50:04.678779+00:00","verifiedAt":null}},{"type":"Feature","geometry":{"type":"Point","coordinates":[16.9932577,46.4569274]},"properties":{"id":"bikerack:cbab0c37-8481-46b6-9ac4-a6d98424480c","kind":"bikerack","longitude":16.9932577,"latitude":46.4569274,"name":"Biciklitároló","city":"Nagykanizsa","address":null,"covered":false,"access":null,"website":null,"phone":null,"source":"OpenStreetMap/node/2451988926","sourceUpdatedAt":"2026-04-04T22:50:04.678779+00:00","verifiedAt":null}},{"type":"Feature","geometry":{"type":"Point","coordinates":[17.1215942,46.5556013]},"properties":{"id":"bikerack:d02e87b6-ddad-4cd1-b728-6c6535e15f75","kind":"bikerack","longitude":17.1215942,"latitude":46.5556013,"name":"Biciklitároló","city":"Zalakomar","address":null,"covered":false,"access":null,"website":null,"phone":null,"source":"OpenStreetMap/node/11762187971","sourceUpdatedAt":"2026-04-04T22:50:04.678779+00:00","verifiedAt":null}},{"type":"Feature","geometry":{"type":"Point","coordinates":[17.1745317,46.5471338]},"properties":{"id":"bikerack:d0eb6073-3d22-4a3b-8517-6f2ac97b3245","kind":"bikerack","longitude":17.1745317,"latitude":46.5471338,"name":"Biciklitároló","city":"Zalakomar","address":null,"covered":false,"access":null,"website":null,"phone":null,"source":"OpenStreetMap/node/11763812036","sourceUpdatedAt":"2026-04-04T22:50:04.678779+00:00","verifiedAt":null}},{"type":"Feature","geometry":{"type":"Point","coordinates":[16.9913461,46.4680681]},"properties":{"id":"bikerack:de8f5597-3681-4269-a493-20c8526c491b","kind":"bikerack","longitude":16.9913461,"latitude":46.4680681,"name":"Biciklitároló","city":"Nagykanizsa","address":null,"covered":true,"access":null,"website":null,"phone":null,"source":"OpenStreetMap/way/203394823","sourceUpdatedAt":"2026-04-04T22:50:04.678779+00:00","verifiedAt":null}},{"type":"Feature","geometry":{"type":"Point","coordinates":[16.9615219,46.4429515]},"properties":{"id":"bikerack:e89aa477-6374-4e42-b316-22886f05c160","kind":"bikerack","longitude":16.9615219,"latitude":46.4429515,"name":"Biciklitároló","city":"Nagykanizsa","address":null,"covered":false,"access":null,"website":null,"phone":null,"source":"OpenStreetMap/node/12749873128","sourceUpdatedAt":"2026-04-04T22:50:04.678779+00:00","verifiedAt":null}},{"type":"Feature","geometry":{"type":"Point","coordinates":[16.9929658,46.4569856]},"properties":{"id":"bikerack:e9b682d7-7e55-42a3-80dc-a3e1c25530aa","kind":"bikerack","longitude":16.9929658,"latitude":46.4569856,"name":"Biciklitároló","city":"Nagykanizsa","address":null,"covered":true,"access":null,"website":null,"phone":null,"source":"OpenStreetMap/node/2493996506","sourceUpdatedAt":"2026-04-04T22:50:04.678779+00:00","verifiedAt":null}},{"type":"Feature","geometry":{"type":"Point","coordinates":[17.0121465,46.4566309]},"properties":{"id":"bikerack:ece33d5a-f58c-44eb-a65f-43142f393dd3","kind":"bikerack","longitude":17.0121465,"latitude":46.4566309,"name":"Biciklitároló","city":"Nagykanizsa","address":null,"covered":false,"access":null,"website":null,"phone":null,"source":"OpenStreetMap/way/1198871855","sourceUpdatedAt":"2026-04-04T22:50:04.678779+00:00","verifiedAt":null}},{"type":"Feature","geometry":{"type":"Point","coordinates":[16.9929398,46.4570809]},"properties":{"id":"bikerack:f3132139-97fd-4378-935b-9df0d3598116","kind":"bikerack","longitude":16.9929398,"latitude":46.4570809,"name":"Biciklitároló","city":"Nagykanizsa","address":null,"covered":false,"access":null,"website":null,"phone":null,"source":"OpenStreetMap/node/13217340392","sourceUpdatedAt":"2026-04-04T22:50:04.678779+00:00","verifiedAt":null}},{"type":"Feature","geometry":{"type":"Point","coordinates":[16.9871443,46.4588544]},"properties":{"id":"service:02374c4c-80c7-4384-a562-fcee241f818f","kind":"service","longitude":16.9871443,"latitude":46.4588544,"name":"Kanizsa Kerékpárcentrum","city":"Nagykanizsa","address":null,"covered":null,"access":null,"website":null,"phone":null,"source":"OpenStreetMap/node/2366239644","sourceUpdatedAt":"2026-04-04T22:53:59.890375+00:00","verifiedAt":null}},{"type":"Feature","geometry":{"type":"Point","coordinates":[17.0126795,46.4516958]},"properties":{"id":"service:7018e3b0-54bb-4ade-bed4-a681a1c95d04","kind":"service","longitude":17.0126795,"latitude":46.4516958,"name":"Halász Jav.-Tech Műhely","city":"Nagykanizsa","address":null,"covered":null,"access":null,"website":null,"phone":null,"source":"OpenStreetMap/way/351226593","sourceUpdatedAt":"2026-04-04T22:50:18.216926+00:00","verifiedAt":null}},{"type":"Feature","geometry":{"type":"Point","coordinates":[17.0513403,46.4951052]},"properties":{"id":"water:049bf71c-7896-4706-b21f-885c079d9bb5","kind":"water","longitude":17.0513403,"latitude":46.4951052,"name":"Ivókút","city":null,"address":null,"covered":null,"access":null,"website":null,"phone":null,"source":"OpenStreetMap","sourceUpdatedAt":"2026-04-04T22:50:22.71606+00:00","verifiedAt":null}},{"type":"Feature","geometry":{"type":"Point","coordinates":[16.9933417,46.45481]},"properties":{"id":"water:0df6c067-210d-49b3-b937-9500d3decef4","kind":"water","longitude":16.9933417,"latitude":46.45481,"name":"Ivókút","city":null,"address":null,"covered":null,"access":null,"website":null,"phone":null,"source":"OpenStreetMap","sourceUpdatedAt":"2026-04-04T22:50:22.71606+00:00","verifiedAt":null}},{"type":"Feature","geometry":{"type":"Point","coordinates":[17.0413185,46.4442315]},"properties":{"id":"water:1556f8bb-7bde-4b5b-a1d0-8d41ade06d15","kind":"water","longitude":17.0413185,"latitude":46.4442315,"name":"Ivókút","city":null,"address":null,"covered":null,"access":null,"website":null,"phone":null,"source":"OpenStreetMap","sourceUpdatedAt":"2026-04-04T22:50:22.71606+00:00","verifiedAt":null}},{"type":"Feature","geometry":{"type":"Point","coordinates":[17.1259076,46.5219029]},"properties":{"id":"water:2743f994-abe2-40b2-a416-5dc26003b95a","kind":"water","longitude":17.1259076,"latitude":46.5219029,"name":"Ivókút","city":null,"address":null,"covered":null,"access":null,"website":null,"phone":null,"source":"OpenStreetMap","sourceUpdatedAt":"2026-04-04T22:50:22.71606+00:00","verifiedAt":null}},{"type":"Feature","geometry":{"type":"Point","coordinates":[17.190807,46.5124909]},"properties":{"id":"water:2d252010-9924-437a-8343-1b12fe558ac6","kind":"water","longitude":17.190807,"latitude":46.5124909,"name":"Ivókút","city":null,"address":null,"covered":null,"access":null,"website":null,"phone":null,"source":"OpenStreetMap","sourceUpdatedAt":"2026-04-04T22:50:22.71606+00:00","verifiedAt":null}},{"type":"Feature","geometry":{"type":"Point","coordinates":[17.1746457,46.4380716]},"properties":{"id":"water:3467734a-f9ae-409f-a2a8-9e306095bee7","kind":"water","longitude":17.1746457,"latitude":46.4380716,"name":"Ivókút","city":null,"address":null,"covered":null,"access":null,"website":null,"phone":null,"source":"OpenStreetMap","sourceUpdatedAt":"2026-04-04T22:50:22.71606+00:00","verifiedAt":null}},{"type":"Feature","geometry":{"type":"Point","coordinates":[17.1431592,46.5525856]},"properties":{"id":"water:3f8aa5fd-4d31-4bde-89e2-373d0c90d483","kind":"water","longitude":17.1431592,"latitude":46.5525856,"name":"Ivókút","city":null,"address":null,"covered":null,"access":null,"website":null,"phone":null,"source":"OpenStreetMap","sourceUpdatedAt":"2026-04-04T22:50:22.71606+00:00","verifiedAt":null}},{"type":"Feature","geometry":{"type":"Point","coordinates":[17.0667818,46.5023033]},"properties":{"id":"water:42d1ee6c-0004-494e-a9a4-d8dbc2dc532e","kind":"water","longitude":17.0667818,"latitude":46.5023033,"name":"Ivókút","city":null,"address":null,"covered":null,"access":null,"website":null,"phone":null,"source":"OpenStreetMap","sourceUpdatedAt":"2026-04-04T22:50:22.71606+00:00","verifiedAt":null}},{"type":"Feature","geometry":{"type":"Point","coordinates":[16.8904613,46.4319547]},"properties":{"id":"water:721da1f8-bed8-49ea-b11d-1089490f77d9","kind":"water","longitude":16.8904613,"latitude":46.4319547,"name":"Artézi kút","city":null,"address":null,"covered":null,"access":null,"website":null,"phone":null,"source":"OpenStreetMap","sourceUpdatedAt":"2026-04-04T22:50:25.78631+00:00","verifiedAt":null}},{"type":"Feature","geometry":{"type":"Point","coordinates":[17.1908353,46.5102715]},"properties":{"id":"water:796d871a-5b2d-4604-821c-57307fd3bc04","kind":"water","longitude":17.1908353,"latitude":46.5102715,"name":"Ivókút","city":null,"address":null,"covered":null,"access":null,"website":null,"phone":null,"source":"OpenStreetMap","sourceUpdatedAt":"2026-04-04T22:50:22.71606+00:00","verifiedAt":null}},{"type":"Feature","geometry":{"type":"Point","coordinates":[16.9054098,46.3742831]},"properties":{"id":"water:8c3f9eb7-d5ff-4206-a2ce-5eed998be592","kind":"water","longitude":16.9054098,"latitude":46.3742831,"name":"Ivókút","city":null,"address":null,"covered":null,"access":null,"website":null,"phone":null,"source":"OpenStreetMap","sourceUpdatedAt":"2026-04-04T22:50:22.71606+00:00","verifiedAt":null}},{"type":"Feature","geometry":{"type":"Point","coordinates":[16.9868621,46.4410293]},"properties":{"id":"water:b5dfdcda-67dd-4a08-a16c-ca0ee01e9557","kind":"water","longitude":16.9868621,"latitude":46.4410293,"name":"Ivókút","city":null,"address":null,"covered":null,"access":null,"website":null,"phone":null,"source":"OpenStreetMap","sourceUpdatedAt":"2026-04-04T22:50:22.71606+00:00","verifiedAt":null}},{"type":"Feature","geometry":{"type":"Point","coordinates":[17.2098309,46.4879524]},"properties":{"id":"water:c1be1b3f-50a9-4e21-a6ac-f08f13da90a8","kind":"water","longitude":17.2098309,"latitude":46.4879524,"name":"Ivókút","city":null,"address":null,"covered":null,"access":null,"website":null,"phone":null,"source":"OpenStreetMap","sourceUpdatedAt":"2026-04-04T22:50:22.71606+00:00","verifiedAt":null}},{"type":"Feature","geometry":{"type":"Point","coordinates":[17.1322862,46.5218376]},"properties":{"id":"water:c44aa5c5-6248-4a54-b28b-18b2ee7ce891","kind":"water","longitude":17.1322862,"latitude":46.5218376,"name":"Ivókút","city":null,"address":null,"covered":null,"access":null,"website":null,"phone":null,"source":"OpenStreetMap","sourceUpdatedAt":"2026-04-04T22:50:22.71606+00:00","verifiedAt":null}},{"type":"Feature","geometry":{"type":"Point","coordinates":[17.1243234,46.5506209]},"properties":{"id":"water:d9f29122-1334-4f5d-ab47-7b909d61d0b1","kind":"water","longitude":17.1243234,"latitude":46.5506209,"name":"Ivókút","city":null,"address":null,"covered":null,"access":null,"website":null,"phone":null,"source":"OpenStreetMap","sourceUpdatedAt":"2026-04-04T22:50:22.71606+00:00","verifiedAt":null}},{"type":"Feature","geometry":{"type":"Point","coordinates":[17.2212269,46.3183311]},"properties":{"id":"water:da7a94c5-2d58-4148-881a-2e30726428c6","kind":"water","longitude":17.2212269,"latitude":46.3183311,"name":"Herceg kútja","city":null,"address":null,"covered":null,"access":null,"website":null,"phone":null,"source":"OpenStreetMap","sourceUpdatedAt":"2026-04-04T22:50:25.787737+00:00","verifiedAt":null}},{"type":"Feature","geometry":{"type":"Point","coordinates":[17.0037669,46.4072513]},"properties":{"id":"water:da8d3875-1e30-40b2-a4be-e6596ae2e1d1","kind":"water","longitude":17.0037669,"latitude":46.4072513,"name":"Ivókút","city":null,"address":null,"covered":null,"access":null,"website":null,"phone":null,"source":"OpenStreetMap","sourceUpdatedAt":"2026-04-04T22:50:22.71606+00:00","verifiedAt":null}},{"type":"Feature","geometry":{"type":"Point","coordinates":[16.9150279,46.504028]},"properties":{"id":"water:decfb561-9095-41e9-bd56-15815447bea8","kind":"water","longitude":16.9150279,"latitude":46.504028,"name":"Ivókút","city":null,"address":null,"covered":null,"access":null,"website":null,"phone":null,"source":"OpenStreetMap","sourceUpdatedAt":"2026-04-04T22:50:22.71606+00:00","verifiedAt":null}},{"type":"Feature","geometry":{"type":"Point","coordinates":[17.1082846,46.5546377]},"properties":{"id":"water:e51ea93d-5e0c-43ca-95f7-a8ffc76b1308","kind":"water","longitude":17.1082846,"latitude":46.5546377,"name":"Ivókút","city":null,"address":null,"covered":null,"access":null,"website":null,"phone":null,"source":"OpenStreetMap","sourceUpdatedAt":"2026-04-04T22:50:22.71606+00:00","verifiedAt":null}},{"type":"Feature","geometry":{"type":"Point","coordinates":[17.1237769,46.5519022]},"properties":{"id":"water:fa82f0d9-254c-4b52-9520-bdf9070dfa77","kind":"water","longitude":17.1237769,"latitude":46.5519022,"name":"Ivókút","city":null,"address":null,"covered":null,"access":null,"website":null,"phone":null,"source":"OpenStreetMap","sourceUpdatedAt":"2026-04-04T22:50:22.71606+00:00","verifiedAt":null}}]}