{"type":"FeatureCollection","features":[{"type":"Feature","geometry":{"type":"Point","coordinates":[14.5909112,47.5815424]},"properties":{"id":"water:1073aa29-665c-4107-9e4e-40f8d03d8b4c","kind":"water","longitude":14.5909112,"latitude":47.5815424,"name":"Ivókút","city":"Johnsbach","address":null,"covered":null,"access":null,"website":null,"phone":null,"source":"OpenStreetMap/node/3758054402","sourceUpdatedAt":null,"verifiedAt":null}},{"type":"Feature","geometry":{"type":"Point","coordinates":[14.6283813,47.5893943]},"properties":{"id":"water:2dee7196-565b-4041-afd9-fae9182fa347","kind":"water","longitude":14.6283813,"latitude":47.5893943,"name":"Ivókút","city":"Johnsbach","address":null,"covered":null,"access":null,"website":null,"phone":null,"source":"OpenStreetMap/node/4958896630","sourceUpdatedAt":null,"verifiedAt":null}},{"type":"Feature","geometry":{"type":"Point","coordinates":[14.5984101,47.5790382]},"properties":{"id":"water:459463ed-d754-4011-8d91-c4db152964fc","kind":"water","longitude":14.5984101,"latitude":47.5790382,"name":"Ivókút","city":"Johnsbach","address":null,"covered":null,"access":null,"website":null,"phone":null,"source":"OpenStreetMap/node/444949582","sourceUpdatedAt":null,"verifiedAt":null}},{"type":"Feature","geometry":{"type":"Point","coordinates":[14.6080586,47.5861691]},"properties":{"id":"water:5230a09f-d9db-411b-9b77-c57ff9fac833","kind":"water","longitude":14.6080586,"latitude":47.5861691,"name":"Ivókút","city":"Johnsbach","address":null,"covered":null,"access":null,"website":null,"phone":null,"source":"OpenStreetMap/node/6231436300","sourceUpdatedAt":null,"verifiedAt":null}}]}