{"type":"FeatureCollection","features":[{"type":"Feature","geometry":{"type":"Point","coordinates":[11.1345547,54.8328911]},"properties":{"id":"bikerack:3231b118-a7a1-4d8f-8512-060438dbe62f","kind":"bikerack","longitude":11.1345547,"latitude":54.8328911,"name":"Bicycle Parking","city":"Nakskov","address":null,"covered":false,"access":null,"website":null,"phone":null,"source":"OpenStreetMap/way/1047149751","sourceUpdatedAt":null,"verifiedAt":null}},{"type":"Feature","geometry":{"type":"Point","coordinates":[11.1549463,54.837088]},"properties":{"id":"bikerack:6d0df503-f4a5-4d0a-81a9-28cd8e547a60","kind":"bikerack","longitude":11.1549463,"latitude":54.837088,"name":"Bicycle Parking","city":"Nakskov","address":null,"covered":false,"access":null,"website":null,"phone":null,"source":"OpenStreetMap/way/261179870","sourceUpdatedAt":null,"verifiedAt":null}},{"type":"Feature","geometry":{"type":"Point","coordinates":[11.1392601,54.8331481]},"properties":{"id":"bikerack:d3fce652-51cf-49a5-a020-4af7dbd2ab2c","kind":"bikerack","longitude":11.1392601,"latitude":54.8331481,"name":"Bicycle Parking","city":"Nakskov","address":null,"covered":true,"access":null,"website":null,"phone":null,"source":"OpenStreetMap/way/613332174","sourceUpdatedAt":null,"verifiedAt":null}},{"type":"Feature","geometry":{"type":"Point","coordinates":[11.1391513,54.8331651]},"properties":{"id":"bikerack:f4e1154f-42b9-415c-9580-d5daa3706a62","kind":"bikerack","longitude":11.1391513,"latitude":54.8331651,"name":"Bicycle Parking","city":"Nakskov","address":null,"covered":true,"access":null,"website":null,"phone":null,"source":"OpenStreetMap/way/613325204","sourceUpdatedAt":null,"verifiedAt":null}},{"type":"Feature","geometry":{"type":"Point","coordinates":[11.1384651,54.8312996]},"properties":{"id":"service:b84b76e0-4c53-4873-b985-bfb0ac23d62b","kind":"service","longitude":11.1384651,"latitude":54.8312996,"name":"Storgaard Cykler","city":"Nakskov","address":null,"covered":null,"access":null,"website":null,"phone":null,"source":"OpenStreetMap/node/1435361075","sourceUpdatedAt":null,"verifiedAt":null}},{"type":"Feature","geometry":{"type":"Point","coordinates":[11.1254563,54.83747]},"properties":{"id":"service:dd4a9832-0d04-49ae-9f5b-cab073e1c578","kind":"service","longitude":11.1254563,"latitude":54.83747,"name":"Fri BikeShop","city":"Nakskov","address":null,"covered":null,"access":null,"website":null,"phone":null,"source":"OpenStreetMap/node/1173287255","sourceUpdatedAt":null,"verifiedAt":null}}]}