{"type":"FeatureCollection","features":[{"type":"Feature","geometry":{"type":"Point","coordinates":[11.1265714,51.1646778]},"properties":{"id":"bikerack:33d40d41-348a-4eca-98b5-3c194c318d3b","kind":"bikerack","longitude":11.1265714,"latitude":51.1646778,"name":"Fahrradabstellplatz","city":"Soemmerda","address":null,"covered":false,"access":null,"website":null,"phone":null,"source":"OpenStreetMap/node/3258691712","sourceUpdatedAt":null,"verifiedAt":null}},{"type":"Feature","geometry":{"type":"Point","coordinates":[11.1339541,51.1619601]},"properties":{"id":"bikerack:79d6df06-2588-4fbd-bc38-10de9a2f6667","kind":"bikerack","longitude":11.1339541,"latitude":51.1619601,"name":"Fahrradabstellplatz","city":"Soemmerda","address":null,"covered":false,"access":null,"website":null,"phone":null,"source":"OpenStreetMap/way/932310659","sourceUpdatedAt":null,"verifiedAt":null}},{"type":"Feature","geometry":{"type":"Point","coordinates":[11.127434,51.1652506]},"properties":{"id":"bikerack:88d16b89-de56-4577-ac5f-7713473a1605","kind":"bikerack","longitude":11.127434,"latitude":51.1652506,"name":"Fahrradabstellplatz","city":"Soemmerda","address":null,"covered":true,"access":null,"website":null,"phone":null,"source":"OpenStreetMap/way/1117442473","sourceUpdatedAt":null,"verifiedAt":null}},{"type":"Feature","geometry":{"type":"Point","coordinates":[11.1261669,51.1586519]},"properties":{"id":"bikerack:980368f4-866d-4a7f-bbf2-747b185112fb","kind":"bikerack","longitude":11.1261669,"latitude":51.1586519,"name":"Fahrradabstellplatz","city":"Soemmerda","address":null,"covered":false,"access":null,"website":null,"phone":null,"source":"OpenStreetMap/node/12323664276","sourceUpdatedAt":null,"verifiedAt":null}},{"type":"Feature","geometry":{"type":"Point","coordinates":[11.1203007,51.1564176]},"properties":{"id":"bikerack:9eb5294d-ea42-476c-941a-080ffc2df849","kind":"bikerack","longitude":11.1203007,"latitude":51.1564176,"name":"Fahrradabstellplatz","city":"Soemmerda","address":null,"covered":false,"access":null,"website":null,"phone":null,"source":"OpenStreetMap/node/8846167284","sourceUpdatedAt":null,"verifiedAt":null}},{"type":"Feature","geometry":{"type":"Point","coordinates":[11.118481,51.1564717]},"properties":{"id":"bikerack:b8b67b0e-2634-4bf8-b37e-d3f4ad34f3b9","kind":"bikerack","longitude":11.118481,"latitude":51.1564717,"name":"Fahrradabstellplatz","city":"Soemmerda","address":null,"covered":false,"access":null,"website":null,"phone":null,"source":"OpenStreetMap/node/8846167307","sourceUpdatedAt":null,"verifiedAt":null}},{"type":"Feature","geometry":{"type":"Point","coordinates":[11.1187036,51.1564942]},"properties":{"id":"bikerack:e64880d7-6b98-49b9-af67-268b9a424054","kind":"bikerack","longitude":11.1187036,"latitude":51.1564942,"name":"Fahrradabstellplatz","city":"Soemmerda","address":null,"covered":true,"access":null,"website":null,"phone":null,"source":"OpenStreetMap/way/955819644","sourceUpdatedAt":null,"verifiedAt":null}},{"type":"Feature","geometry":{"type":"Point","coordinates":[11.1268267,51.1709964]},"properties":{"id":"service:05bc018c-dd7d-476c-892b-826440018136","kind":"service","longitude":11.1268267,"latitude":51.1709964,"name":"Fahrradhaus Gräfe","city":"Sömmerda","address":null,"covered":null,"access":null,"website":null,"phone":null,"source":"OpenStreetMap/way/223278841","sourceUpdatedAt":null,"verifiedAt":null}}]}