{"type":"FeatureCollection","features":[{"type":"Feature","geometry":{"type":"Point","coordinates":[11.1394357,51.1033947]},"properties":{"id":"bikerack:b1d58ca7-cc00-4f3f-81bf-e77d88997457","kind":"bikerack","longitude":11.1394357,"latitude":51.1033947,"name":"Fahrradabstellplatz","city":"Schlossvippach","address":null,"covered":false,"access":null,"website":null,"phone":null,"source":"OpenStreetMap/node/12723544110","sourceUpdatedAt":null,"verifiedAt":null}},{"type":"Feature","geometry":{"type":"Point","coordinates":[11.1391377,51.1033952]},"properties":{"id":"bikerack:f22a0c1b-0aeb-431a-8687-564630c4e6e6","kind":"bikerack","longitude":11.1391377,"latitude":51.1033952,"name":"Fahrradabstellplatz","city":"Schlossvippach","address":null,"covered":false,"access":null,"website":null,"phone":null,"source":"OpenStreetMap/node/12722669427","sourceUpdatedAt":null,"verifiedAt":null}}]}