{"type":"FeatureCollection","features":[{"type":"Feature","geometry":{"type":"Point","coordinates":[11.1278163,49.4821486]},"properties":{"id":"bikerack:0688ef97-4f9b-48a6-9d8a-49092fbb7f34","kind":"bikerack","longitude":11.1278163,"latitude":49.4821486,"name":"Fahrradabstellplatz","city":"Heroldsberg","address":null,"covered":true,"access":null,"website":null,"phone":null,"source":"OpenStreetMap/way/372883076","sourceUpdatedAt":null,"verifiedAt":null}},{"type":"Feature","geometry":{"type":"Point","coordinates":[11.135166,49.4748911]},"properties":{"id":"bikerack:086b6188-e37d-4160-8796-3fb5d8101279","kind":"bikerack","longitude":11.135166,"latitude":49.4748911,"name":"Fahrradabstellplatz","city":"Heroldsberg","address":null,"covered":false,"access":null,"website":null,"phone":null,"source":"OpenStreetMap/node/434554574","sourceUpdatedAt":null,"verifiedAt":null}},{"type":"Feature","geometry":{"type":"Point","coordinates":[11.1271583,49.479928]},"properties":{"id":"bikerack:0f10e90d-3f3b-45ad-8889-3d6438c47467","kind":"bikerack","longitude":11.1271583,"latitude":49.479928,"name":"Fahrradabstellplatz","city":"Nuernberg","address":null,"covered":true,"access":null,"website":null,"phone":null,"source":"OpenStreetMap/way/372883077","sourceUpdatedAt":null,"verifiedAt":null}},{"type":"Feature","geometry":{"type":"Point","coordinates":[11.1222838,49.480543]},"properties":{"id":"bikerack:1239eee0-1dbd-4cce-850f-6a22f92058bd","kind":"bikerack","longitude":11.1222838,"latitude":49.480543,"name":"Fahrradabstellplatz","city":"Nuernberg","address":null,"covered":true,"access":null,"website":null,"phone":null,"source":"OpenStreetMap/way/1053410545","sourceUpdatedAt":null,"verifiedAt":null}},{"type":"Feature","geometry":{"type":"Point","coordinates":[11.1364185,49.4722377]},"properties":{"id":"bikerack:20344679-f779-4299-acc8-3a2807865bd8","kind":"bikerack","longitude":11.1364185,"latitude":49.4722377,"name":"Fahrradabstellplatz","city":"Nuernberg","address":null,"covered":false,"access":null,"website":null,"phone":null,"source":"OpenStreetMap/way/256044721","sourceUpdatedAt":null,"verifiedAt":null}},{"type":"Feature","geometry":{"type":"Point","coordinates":[11.1197873,49.48107]},"properties":{"id":"bikerack:24474c97-66eb-4ca8-aba1-74fb4c8db43a","kind":"bikerack","longitude":11.1197873,"latitude":49.48107,"name":"Fahrradabstellplatz","city":"Nuernberg","address":null,"covered":false,"access":null,"website":null,"phone":null,"source":"OpenStreetMap/node/3762666090","sourceUpdatedAt":null,"verifiedAt":null}},{"type":"Feature","geometry":{"type":"Point","coordinates":[11.1251083,49.4882148]},"properties":{"id":"bikerack:26fd98ff-e389-4978-8165-042087867128","kind":"bikerack","longitude":11.1251083,"latitude":49.4882148,"name":"Fahrradabstellplatz","city":"Heroldsberg","address":null,"covered":true,"access":null,"website":null,"phone":null,"source":"OpenStreetMap/node/681684556","sourceUpdatedAt":null,"verifiedAt":null}},{"type":"Feature","geometry":{"type":"Point","coordinates":[11.1203836,49.4805974]},"properties":{"id":"bikerack:2beafafc-c1b2-49c5-b479-3b96f4de75d0","kind":"bikerack","longitude":11.1203836,"latitude":49.4805974,"name":"Fahrradabstellplatz","city":"Nuernberg","address":null,"covered":true,"access":null,"website":null,"phone":null,"source":"OpenStreetMap/way/235175121","sourceUpdatedAt":null,"verifiedAt":null}},{"type":"Feature","geometry":{"type":"Point","coordinates":[11.121355,49.4806051]},"properties":{"id":"bikerack:6cf7ba62-9aa9-4854-9772-825317d62361","kind":"bikerack","longitude":11.121355,"latitude":49.4806051,"name":"Fahrradabstellplatz","city":"Nuernberg","address":null,"covered":true,"access":null,"website":null,"phone":null,"source":"OpenStreetMap/way/235175123","sourceUpdatedAt":null,"verifiedAt":null}},{"type":"Feature","geometry":{"type":"Point","coordinates":[11.1254425,49.4869027]},"properties":{"id":"bikerack:6e0c9bad-ce12-42a8-82f6-5680400766bd","kind":"bikerack","longitude":11.1254425,"latitude":49.4869027,"name":"Fahrradabstellplatz","city":"Heroldsberg","address":null,"covered":false,"access":null,"website":null,"phone":null,"source":"OpenStreetMap/node/3736508590","sourceUpdatedAt":null,"verifiedAt":null}},{"type":"Feature","geometry":{"type":"Point","coordinates":[11.1374743,49.4698611]},"properties":{"id":"bikerack:718cc112-b6c0-43ad-a876-cc0223c78b8c","kind":"bikerack","longitude":11.1374743,"latitude":49.4698611,"name":"Fahrradabstellplatz","city":"Nuernberg","address":null,"covered":false,"access":null,"website":null,"phone":null,"source":"OpenStreetMap/way/1184858476","sourceUpdatedAt":null,"verifiedAt":null}},{"type":"Feature","geometry":{"type":"Point","coordinates":[11.1255993,49.4868798]},"properties":{"id":"bikerack:831f5534-f73e-4d38-b5ce-35808ac225bc","kind":"bikerack","longitude":11.1255993,"latitude":49.4868798,"name":"Fahrradabstellplatz","city":"Heroldsberg","address":null,"covered":true,"access":null,"website":null,"phone":null,"source":"OpenStreetMap/node/3736508588","sourceUpdatedAt":null,"verifiedAt":null}},{"type":"Feature","geometry":{"type":"Point","coordinates":[11.1257727,49.4868037]},"properties":{"id":"bikerack:83724b3c-3fbc-4536-91c6-f41568d2d7c1","kind":"bikerack","longitude":11.1257727,"latitude":49.4868037,"name":"Fahrradabstellplatz","city":"Heroldsberg","address":null,"covered":true,"access":null,"website":null,"phone":null,"source":"OpenStreetMap/node/3736508587","sourceUpdatedAt":null,"verifiedAt":null}},{"type":"Feature","geometry":{"type":"Point","coordinates":[11.127303,49.4881067]},"properties":{"id":"bikerack:8ea5ab04-19a2-4af4-a86a-346fae27c56a","kind":"bikerack","longitude":11.127303,"latitude":49.4881067,"name":"Fahrradabstellplatz","city":"Heroldsberg","address":null,"covered":false,"access":null,"website":null,"phone":null,"source":"OpenStreetMap/node/4984774332","sourceUpdatedAt":null,"verifiedAt":null}},{"type":"Feature","geometry":{"type":"Point","coordinates":[11.1376364,49.4697501]},"properties":{"id":"bikerack:98ad5a4f-564b-4925-bd80-a02f0e46b126","kind":"bikerack","longitude":11.1376364,"latitude":49.4697501,"name":"Fahrradabstellplatz","city":"Nuernberg","address":null,"covered":false,"access":null,"website":null,"phone":null,"source":"OpenStreetMap/node/528105487","sourceUpdatedAt":null,"verifiedAt":null}},{"type":"Feature","geometry":{"type":"Point","coordinates":[11.1260122,49.4800732]},"properties":{"id":"bikerack:a0d364c8-c6c2-46a9-9309-16a5f18af549","kind":"bikerack","longitude":11.1260122,"latitude":49.4800732,"name":"Fahrradabstellplatz","city":"Nuernberg","address":null,"covered":false,"access":null,"website":null,"phone":null,"source":"OpenStreetMap/node/5649462429","sourceUpdatedAt":null,"verifiedAt":null}},{"type":"Feature","geometry":{"type":"Point","coordinates":[11.1214268,49.4804572]},"properties":{"id":"bikerack:a9bf3a68-4647-432a-8307-decd6fd13674","kind":"bikerack","longitude":11.1214268,"latitude":49.4804572,"name":"Fahrradabstellplatz","city":"Nuernberg","address":null,"covered":true,"access":null,"website":null,"phone":null,"source":"OpenStreetMap/way/235175122","sourceUpdatedAt":null,"verifiedAt":null}},{"type":"Feature","geometry":{"type":"Point","coordinates":[11.1183973,49.4802796]},"properties":{"id":"bikerack:c52aa0f2-2805-4f2d-a966-ef3ab653d575","kind":"bikerack","longitude":11.1183973,"latitude":49.4802796,"name":"Fahrradabstellplatz","city":"Nuernberg","address":null,"covered":true,"access":null,"website":null,"phone":null,"source":"OpenStreetMap/way/398614797","sourceUpdatedAt":null,"verifiedAt":null}},{"type":"Feature","geometry":{"type":"Point","coordinates":[11.1253895,49.4869645]},"properties":{"id":"bikerack:cba395c8-fe64-4c5e-b410-c11f3e9f53a3","kind":"bikerack","longitude":11.1253895,"latitude":49.4869645,"name":"Fahrradabstellplatz","city":"Heroldsberg","address":null,"covered":true,"access":null,"website":null,"phone":null,"source":"OpenStreetMap/node/3736508589","sourceUpdatedAt":null,"verifiedAt":null}},{"type":"Feature","geometry":{"type":"Point","coordinates":[11.1277568,49.487998]},"properties":{"id":"bikerack:d4ff9c45-edf0-40d3-bc1b-c55536044417","kind":"bikerack","longitude":11.1277568,"latitude":49.487998,"name":"Fahrradabstellplatz","city":"Heroldsberg","address":null,"covered":false,"access":null,"website":null,"phone":null,"source":"OpenStreetMap/node/2029024571","sourceUpdatedAt":null,"verifiedAt":null}},{"type":"Feature","geometry":{"type":"Point","coordinates":[11.125987,49.4867234]},"properties":{"id":"bikerack:df5aad50-9bd4-41c5-a719-bc92a58ad19d","kind":"bikerack","longitude":11.125987,"latitude":49.4867234,"name":"Fahrradabstellplatz","city":"Heroldsberg","address":null,"covered":true,"access":null,"website":null,"phone":null,"source":"OpenStreetMap/node/1260873562","sourceUpdatedAt":null,"verifiedAt":null}},{"type":"Feature","geometry":{"type":"Point","coordinates":[11.1347754,49.4818747]},"properties":{"id":"bikerack:df9bdd2e-94aa-40d7-a0c3-dfbaadae521c","kind":"bikerack","longitude":11.1347754,"latitude":49.4818747,"name":"Fahrradabstellplatz","city":"Heroldsberg","address":null,"covered":false,"access":null,"website":null,"phone":null,"source":"OpenStreetMap/node/763527060","sourceUpdatedAt":null,"verifiedAt":null}},{"type":"Feature","geometry":{"type":"Point","coordinates":[11.1190504,49.4790773]},"properties":{"id":"bikerack:f164da70-6b9e-4aa9-930a-0ba8127a1868","kind":"bikerack","longitude":11.1190504,"latitude":49.4790773,"name":"Fahrradabstellplatz","city":"Nuernberg","address":null,"covered":false,"access":null,"website":null,"phone":null,"source":"OpenStreetMap/way/1332678039","sourceUpdatedAt":null,"verifiedAt":null}},{"type":"Feature","geometry":{"type":"Point","coordinates":[11.1263306,49.488062]},"properties":{"id":"bikerack:f49da7cf-1e31-45ac-b4f0-17c64c4c4d19","kind":"bikerack","longitude":11.1263306,"latitude":49.488062,"name":"Fahrradabstellplatz","city":"Heroldsberg","address":null,"covered":false,"access":null,"website":null,"phone":null,"source":"OpenStreetMap/node/1260875904","sourceUpdatedAt":null,"verifiedAt":null}},{"type":"Feature","geometry":{"type":"Point","coordinates":[11.1418039,49.4720375]},"properties":{"id":"water:96b3f665-fe28-4b27-84f8-feb3ef02f097","kind":"water","longitude":11.1418039,"latitude":49.4720375,"name":"Trinkwasser","city":"Schwaig","address":null,"covered":null,"access":null,"website":null,"phone":null,"source":"OpenStreetMap/node/2579530009","sourceUpdatedAt":null,"verifiedAt":null}}]}