{"type":"FeatureCollection","features":[{"type":"Feature","geometry":{"type":"Point","coordinates":[11.1440911,48.4573487]},"properties":{"id":"bikerack:1e0bef70-a57a-4685-a174-d65a2996c36e","kind":"bikerack","longitude":11.1440911,"latitude":48.4573487,"name":"Fahrradabstellplatz","city":"Aichach","address":null,"covered":true,"access":null,"website":null,"phone":null,"source":"OpenStreetMap/way/122755474","sourceUpdatedAt":null,"verifiedAt":null}},{"type":"Feature","geometry":{"type":"Point","coordinates":[11.1441164,48.4574151]},"properties":{"id":"bikerack:2c3a6c87-c32e-44e7-a3c3-14378ef867cb","kind":"bikerack","longitude":11.1441164,"latitude":48.4574151,"name":"Fahrradabstellplatz","city":"Aichach","address":null,"covered":true,"access":null,"website":null,"phone":null,"source":"OpenStreetMap/way/122755476","sourceUpdatedAt":null,"verifiedAt":null}},{"type":"Feature","geometry":{"type":"Point","coordinates":[11.1441037,48.4573819]},"properties":{"id":"bikerack:35939a12-cd9a-4d8c-8f3f-6d2600e79c88","kind":"bikerack","longitude":11.1441037,"latitude":48.4573819,"name":"Fahrradabstellplatz","city":"Aichach","address":null,"covered":true,"access":null,"website":null,"phone":null,"source":"OpenStreetMap/way/122755496","sourceUpdatedAt":null,"verifiedAt":null}},{"type":"Feature","geometry":{"type":"Point","coordinates":[11.1280703,48.4558071]},"properties":{"id":"bikerack:4be3bd7b-dba2-4adc-b9f5-08008a6554a7","kind":"bikerack","longitude":11.1280703,"latitude":48.4558071,"name":"Fahrradabstellplatz","city":"Aichach","address":null,"covered":false,"access":null,"website":null,"phone":null,"source":"OpenStreetMap/node/7141901611","sourceUpdatedAt":null,"verifiedAt":null}},{"type":"Feature","geometry":{"type":"Point","coordinates":[11.1286797,48.4565073]},"properties":{"id":"bikerack:4d8dbac7-851f-485e-98b1-cde8b5fa5f30","kind":"bikerack","longitude":11.1286797,"latitude":48.4565073,"name":"Fahrradabstellplatz","city":"Aichach","address":null,"covered":false,"access":null,"website":null,"phone":null,"source":"OpenStreetMap/node/11456197851","sourceUpdatedAt":null,"verifiedAt":null}},{"type":"Feature","geometry":{"type":"Point","coordinates":[11.1262804,48.4579454]},"properties":{"id":"bikerack:737ae5f7-7c60-4477-888e-c10512d33468","kind":"bikerack","longitude":11.1262804,"latitude":48.4579454,"name":"Fahrradabstellplatz","city":"Aichach","address":null,"covered":false,"access":null,"website":null,"phone":null,"source":"OpenStreetMap/node/11456197918","sourceUpdatedAt":null,"verifiedAt":null}},{"type":"Feature","geometry":{"type":"Point","coordinates":[11.1288815,48.4568204]},"properties":{"id":"bikerack:75a0fdf6-67e8-450f-a0bd-d1a02cd2e4b2","kind":"bikerack","longitude":11.1288815,"latitude":48.4568204,"name":"Fahrradabstellplatz","city":"Aichach","address":null,"covered":false,"access":null,"website":null,"phone":null,"source":"OpenStreetMap/node/11456197906","sourceUpdatedAt":null,"verifiedAt":null}},{"type":"Feature","geometry":{"type":"Point","coordinates":[11.1440785,48.4573155]},"properties":{"id":"bikerack:7f0b3f82-7e7c-47a3-8635-948d5b07003c","kind":"bikerack","longitude":11.1440785,"latitude":48.4573155,"name":"Fahrradabstellplatz","city":"Aichach","address":null,"covered":true,"access":null,"website":null,"phone":null,"source":"OpenStreetMap/way/122755491","sourceUpdatedAt":null,"verifiedAt":null}},{"type":"Feature","geometry":{"type":"Point","coordinates":[11.123391,48.4451214]},"properties":{"id":"bikerack:bc32060e-548c-4c31-a277-c0533fa17cbb","kind":"bikerack","longitude":11.123391,"latitude":48.4451214,"name":"Fahrradabstellplatz","city":"Aichach","address":null,"covered":false,"access":null,"website":null,"phone":null,"source":"OpenStreetMap/node/13451614362","sourceUpdatedAt":null,"verifiedAt":null}},{"type":"Feature","geometry":{"type":"Point","coordinates":[11.1390183,48.4449298]},"properties":{"id":"service:0ada5b62-7116-47a1-9fc4-ea558e3b2739","kind":"service","longitude":11.1390183,"latitude":48.4449298,"name":"R&R e-Bikes","city":"Aichach","address":null,"covered":null,"access":null,"website":null,"phone":null,"source":"OpenStreetMap/node/8964414506","sourceUpdatedAt":null,"verifiedAt":null}},{"type":"Feature","geometry":{"type":"Point","coordinates":[11.1360102,48.4476791]},"properties":{"id":"service:404f46ca-2bcc-4e07-837c-b4925a35014d","kind":"service","longitude":11.1360102,"latitude":48.4476791,"name":"Fahrradcenter Velo Rosso","city":"Aichach","address":null,"covered":null,"access":null,"website":null,"phone":null,"source":"OpenStreetMap/node/2202445548","sourceUpdatedAt":null,"verifiedAt":null}},{"type":"Feature","geometry":{"type":"Point","coordinates":[11.1289462,48.4557847]},"properties":{"id":"service:53e3c3e9-0413-4e52-9080-289e36785c79","kind":"service","longitude":11.1289462,"latitude":48.4557847,"name":"MyBike-Aichach","city":"Aichach","address":null,"covered":null,"access":null,"website":null,"phone":null,"source":"OpenStreetMap/node/946052648","sourceUpdatedAt":null,"verifiedAt":null}},{"type":"Feature","geometry":{"type":"Point","coordinates":[11.1295221,48.4576669]},"properties":{"id":"service:d715e069-4f01-4161-8f63-8a8f36235a40","kind":"service","longitude":11.1295221,"latitude":48.4576669,"name":"HoVelo","city":"Aichach","address":null,"covered":null,"access":null,"website":null,"phone":null,"source":"OpenStreetMap/node/966238869","sourceUpdatedAt":null,"verifiedAt":null}},{"type":"Feature","geometry":{"type":"Point","coordinates":[11.1282358,48.4551696]},"properties":{"id":"service:ebab3f9e-3b85-4f07-8abd-ec2e56e79f98","kind":"service","longitude":11.1282358,"latitude":48.4551696,"name":"Fahrrad Lochner","city":"Aichach","address":null,"covered":null,"access":null,"website":null,"phone":null,"source":"OpenStreetMap/node/5330979006","sourceUpdatedAt":null,"verifiedAt":null}},{"type":"Feature","geometry":{"type":"Point","coordinates":[11.1494246,48.4328872]},"properties":{"id":"water:0e0340c7-2c87-4fbc-968c-2d1ec795f196","kind":"water","longitude":11.1494246,"latitude":48.4328872,"name":"Trinkwasser","city":"Aichach","address":null,"covered":null,"access":null,"website":null,"phone":null,"source":"OpenStreetMap/node/7796201909","sourceUpdatedAt":null,"verifiedAt":null}}]}