{"type":"FeatureCollection","features":[{"type":"Feature","geometry":{"type":"Point","coordinates":[11.1300237,47.8115975]},"properties":{"id":"bikerack:2ee320e3-54b3-4222-b44e-d69ccfbcafbd","kind":"bikerack","longitude":11.1300237,"latitude":47.8115975,"name":"Fahrradabstellplatz","city":"Polling","address":null,"covered":false,"access":null,"website":null,"phone":null,"source":"OpenStreetMap/node/9720662397","sourceUpdatedAt":null,"verifiedAt":null}},{"type":"Feature","geometry":{"type":"Point","coordinates":[11.1315455,47.8115891]},"properties":{"id":"bikerack:4d39ea40-aa90-445d-a26a-5e20a47a2af3","kind":"bikerack","longitude":11.1315455,"latitude":47.8115891,"name":"Fahrradabstellplatz","city":"Polling","address":null,"covered":false,"access":null,"website":null,"phone":null,"source":"OpenStreetMap/node/9720690601","sourceUpdatedAt":null,"verifiedAt":null}},{"type":"Feature","geometry":{"type":"Point","coordinates":[11.1304057,47.8124514]},"properties":{"id":"bikerack:6f2fb3ff-12ab-4484-9656-509452bfe930","kind":"bikerack","longitude":11.1304057,"latitude":47.8124514,"name":"Fahrradabstellplatz","city":"Polling","address":null,"covered":false,"access":null,"website":null,"phone":null,"source":"OpenStreetMap/node/9720654979","sourceUpdatedAt":null,"verifiedAt":null}},{"type":"Feature","geometry":{"type":"Point","coordinates":[11.1316627,47.8104513]},"properties":{"id":"service:bd132f19-b60e-4145-99ef-388f9b96748e","kind":"service","longitude":11.1316627,"latitude":47.8104513,"name":"Zweirad Schweiger","city":"Polling","address":null,"covered":null,"access":null,"website":null,"phone":null,"source":"OpenStreetMap/node/6957244448","sourceUpdatedAt":null,"verifiedAt":null}}]}