{"type":"FeatureCollection","features":[{"type":"Feature","geometry":{"type":"Point","coordinates":[11.144292,45.7588658]},"properties":{"id":"water:04ffde0f-db53-4cde-93ff-9a31a300f771","kind":"water","longitude":11.144292,"latitude":45.7588658,"name":"Fontanella","city":"Vallarsa","address":null,"covered":null,"access":null,"website":null,"phone":null,"source":"OpenStreetMap/node/856319461","sourceUpdatedAt":null,"verifiedAt":null}},{"type":"Feature","geometry":{"type":"Point","coordinates":[11.1573029,45.7565763]},"properties":{"id":"water:1b583c8b-4224-484c-bef9-f346bd739d41","kind":"water","longitude":11.1573029,"latitude":45.7565763,"name":"Fontanella","city":"Vallarsa","address":null,"covered":null,"access":null,"website":null,"phone":null,"source":"OpenStreetMap/node/4980620725","sourceUpdatedAt":null,"verifiedAt":null}},{"type":"Feature","geometry":{"type":"Point","coordinates":[11.1449863,45.7578613]},"properties":{"id":"water:30c7f24c-6a95-4d15-bad3-6b9cff7ee0b5","kind":"water","longitude":11.1449863,"latitude":45.7578613,"name":"Fontanella","city":"Vallarsa","address":null,"covered":null,"access":null,"website":null,"phone":null,"source":"OpenStreetMap/node/306399514","sourceUpdatedAt":null,"verifiedAt":null}},{"type":"Feature","geometry":{"type":"Point","coordinates":[11.1484824,45.7534149]},"properties":{"id":"water:57c87567-0e8c-419b-9343-17ff1f74bfb9","kind":"water","longitude":11.1484824,"latitude":45.7534149,"name":"Fontanella","city":"Vallarsa","address":null,"covered":null,"access":null,"website":null,"phone":null,"source":"OpenStreetMap/node/1864782493","sourceUpdatedAt":null,"verifiedAt":null}},{"type":"Feature","geometry":{"type":"Point","coordinates":[11.1190883,45.7436293]},"properties":{"id":"water:5d93d099-b47d-491f-8e6e-ffebf9887cd8","kind":"water","longitude":11.1190883,"latitude":45.7436293,"name":"Fontanella","city":"Vallarsa","address":null,"covered":null,"access":null,"website":null,"phone":null,"source":"OpenStreetMap/node/1864782405","sourceUpdatedAt":null,"verifiedAt":null}},{"type":"Feature","geometry":{"type":"Point","coordinates":[11.1285506,45.7623015]},"properties":{"id":"water:938c08d9-4c9c-488a-b78e-ed89a24ef4f9","kind":"water","longitude":11.1285506,"latitude":45.7623015,"name":"Fontanella","city":"Vallarsa","address":null,"covered":null,"access":null,"website":null,"phone":null,"source":"OpenStreetMap/node/11960219277","sourceUpdatedAt":null,"verifiedAt":null}},{"type":"Feature","geometry":{"type":"Point","coordinates":[11.1296668,45.7441394]},"properties":{"id":"water:a34ec7c8-4710-4046-948f-0edb028f02a0","kind":"water","longitude":11.1296668,"latitude":45.7441394,"name":"Fontanella","city":"Vallarsa","address":null,"covered":null,"access":null,"website":null,"phone":null,"source":"OpenStreetMap/node/1864782406","sourceUpdatedAt":null,"verifiedAt":null}},{"type":"Feature","geometry":{"type":"Point","coordinates":[11.1437797,45.7596837]},"properties":{"id":"water:dee97377-5fbd-47d2-875d-cb99750fced3","kind":"water","longitude":11.1437797,"latitude":45.7596837,"name":"Fontana della chiesa","city":"Vallarsa","address":null,"covered":null,"access":null,"website":null,"phone":null,"source":"OpenStreetMap/node/457161848","sourceUpdatedAt":null,"verifiedAt":null}}]}