{"type":"FeatureCollection","features":[{"type":"Feature","geometry":{"type":"Point","coordinates":[19.6505893,46.9120613]},"properties":{"id":"bikerack:04ce15df-9e3a-42a8-ace9-18ec7b7b5684","kind":"bikerack","longitude":19.6505893,"latitude":46.9120613,"name":"Biciklitároló","city":"Kecskemet","address":null,"covered":false,"access":null,"website":null,"phone":null,"source":"OpenStreetMap/node/5174969053","sourceUpdatedAt":null,"verifiedAt":null}},{"type":"Feature","geometry":{"type":"Point","coordinates":[19.6575671,46.9156935]},"properties":{"id":"bikerack:33224064-6cd9-4439-b145-d51d1ca40a17","kind":"bikerack","longitude":19.6575671,"latitude":46.9156935,"name":"Biciklitároló","city":"Kecskemet","address":null,"covered":false,"access":null,"website":null,"phone":null,"source":"OpenStreetMap/node/5071110273","sourceUpdatedAt":null,"verifiedAt":null}},{"type":"Feature","geometry":{"type":"Point","coordinates":[19.6682966,46.900893]},"properties":{"id":"bikerack:38f9aad8-b4bc-4a06-90ab-a68fe56617d2","kind":"bikerack","longitude":19.6682966,"latitude":46.900893,"name":"Biciklitároló","city":"Kecskemet","address":null,"covered":false,"access":null,"website":null,"phone":null,"source":"OpenStreetMap/node/9211898298","sourceUpdatedAt":null,"verifiedAt":null}},{"type":"Feature","geometry":{"type":"Point","coordinates":[19.6869193,46.9052455]},"properties":{"id":"bikerack:3a3e821a-2a57-4c07-96e8-8fbe0f344689","kind":"bikerack","longitude":19.6869193,"latitude":46.9052455,"name":"Biciklitároló","city":"Kecskemet","address":null,"covered":false,"access":null,"website":null,"phone":null,"source":"OpenStreetMap/node/10810977612","sourceUpdatedAt":null,"verifiedAt":null}},{"type":"Feature","geometry":{"type":"Point","coordinates":[19.6573629,46.9157237]},"properties":{"id":"bikerack:488762fb-5398-4f05-a5ab-70205acde4e7","kind":"bikerack","longitude":19.6573629,"latitude":46.9157237,"name":"Biciklitároló","city":"Kecskemet","address":null,"covered":false,"access":null,"website":null,"phone":null,"source":"OpenStreetMap/node/5071103640","sourceUpdatedAt":null,"verifiedAt":null}},{"type":"Feature","geometry":{"type":"Point","coordinates":[19.6597809,46.914999]},"properties":{"id":"bikerack:5d82d117-ec33-4815-9aff-0cd339838cd6","kind":"bikerack","longitude":19.6597809,"latitude":46.914999,"name":"Biciklitároló","city":"Kecskemet","address":null,"covered":false,"access":null,"website":null,"phone":null,"source":"OpenStreetMap/node/4989813325","sourceUpdatedAt":null,"verifiedAt":null}},{"type":"Feature","geometry":{"type":"Point","coordinates":[19.6858035,46.9040938]},"properties":{"id":"bikerack:69a51f18-55de-4550-9410-6821557ad47b","kind":"bikerack","longitude":19.6858035,"latitude":46.9040938,"name":"Biciklitároló","city":"Kecskemet","address":null,"covered":false,"access":null,"website":null,"phone":null,"source":"OpenStreetMap/node/10810976561","sourceUpdatedAt":null,"verifiedAt":null}},{"type":"Feature","geometry":{"type":"Point","coordinates":[19.6625895,46.9151656]},"properties":{"id":"bikerack:6ce79c00-baa7-440f-9a89-722cbc84ad2c","kind":"bikerack","longitude":19.6625895,"latitude":46.9151656,"name":"Biciklitároló","city":"Kecskemet","address":null,"covered":false,"access":null,"website":null,"phone":null,"source":"OpenStreetMap/node/12318483956","sourceUpdatedAt":null,"verifiedAt":null}},{"type":"Feature","geometry":{"type":"Point","coordinates":[19.6716889,46.9104958]},"properties":{"id":"bikerack:b7b247f6-28a8-4ef5-9dad-357550c0f21a","kind":"bikerack","longitude":19.6716889,"latitude":46.9104958,"name":"Biciklitároló","city":"Kecskemet","address":null,"covered":false,"access":null,"website":null,"phone":null,"source":"OpenStreetMap/node/9824218793","sourceUpdatedAt":null,"verifiedAt":null}},{"type":"Feature","geometry":{"type":"Point","coordinates":[19.6841613,46.9083639]},"properties":{"id":"bikerack:c99e2bcc-22bb-41cc-88dd-9a1f686c5381","kind":"bikerack","longitude":19.6841613,"latitude":46.9083639,"name":"Biciklitároló","city":"Kecskemet","address":null,"covered":false,"access":null,"website":null,"phone":null,"source":"OpenStreetMap/node/11266175379","sourceUpdatedAt":null,"verifiedAt":null}},{"type":"Feature","geometry":{"type":"Point","coordinates":[19.6717549,46.9105046]},"properties":{"id":"bikerack:d4829a6b-a0a5-4527-83b6-b47d00fa998d","kind":"bikerack","longitude":19.6717549,"latitude":46.9105046,"name":"Biciklitároló","city":"Kecskemet","address":null,"covered":false,"access":null,"website":null,"phone":null,"source":"OpenStreetMap/node/9824218792","sourceUpdatedAt":null,"verifiedAt":null}},{"type":"Feature","geometry":{"type":"Point","coordinates":[19.6857653,46.9040545]},"properties":{"id":"bikerack:f61f2dbb-1037-45e5-b6e0-66f9123067ea","kind":"bikerack","longitude":19.6857653,"latitude":46.9040545,"name":"Biciklitároló","city":"Kecskemet","address":null,"covered":false,"access":null,"website":null,"phone":null,"source":"OpenStreetMap/node/10129013129","sourceUpdatedAt":null,"verifiedAt":null}},{"type":"Feature","geometry":{"type":"Point","coordinates":[19.6845463,46.9032934]},"properties":{"id":"service:37764de5-8060-4cde-a248-ce4d598b6267","kind":"service","longitude":19.6845463,"latitude":46.9032934,"name":"Veloroom","city":"Kecskemét","address":null,"covered":null,"access":null,"website":null,"phone":null,"source":"OpenStreetMap/node/4401563919","sourceUpdatedAt":null,"verifiedAt":null}},{"type":"Feature","geometry":{"type":"Point","coordinates":[19.6818245,46.901809]},"properties":{"id":"service:73c6ddac-225c-48e0-8f6c-7b2fcedf72da","kind":"service","longitude":19.6818245,"latitude":46.901809,"name":"Localbike","city":"Kecskemét","address":null,"covered":null,"access":null,"website":null,"phone":null,"source":"OpenStreetMap/node/2623365994","sourceUpdatedAt":null,"verifiedAt":null}},{"type":"Feature","geometry":{"type":"Point","coordinates":[19.680353,46.907196]},"properties":{"id":"water:0bd7f635-d850-4da1-8b72-75767c812ec6","kind":"water","longitude":19.680353,"latitude":46.907196,"name":"Ivókút","city":null,"address":null,"covered":null,"access":null,"website":null,"phone":null,"source":"OpenStreetMap","sourceUpdatedAt":null,"verifiedAt":null}},{"type":"Feature","geometry":{"type":"Point","coordinates":[19.6776254,46.9136007]},"properties":{"id":"water:0e62bf04-6bf2-4ad5-8f1f-172073267cf7","kind":"water","longitude":19.6776254,"latitude":46.9136007,"name":"Ivókút","city":null,"address":null,"covered":null,"access":null,"website":null,"phone":null,"source":"OpenStreetMap","sourceUpdatedAt":null,"verifiedAt":null}},{"type":"Feature","geometry":{"type":"Point","coordinates":[19.64841,46.90547]},"properties":{"id":"water:1b276966-764e-44d6-be04-21091c01f512","kind":"water","longitude":19.64841,"latitude":46.90547,"name":"Ivókút","city":null,"address":null,"covered":null,"access":null,"website":null,"phone":null,"source":"OpenStreetMap","sourceUpdatedAt":null,"verifiedAt":null}},{"type":"Feature","geometry":{"type":"Point","coordinates":[19.681213,46.904272]},"properties":{"id":"water:1d637a77-4d9f-452d-b35a-f9984dcdd912","kind":"water","longitude":19.681213,"latitude":46.904272,"name":"Ivókút","city":null,"address":null,"covered":null,"access":null,"website":null,"phone":null,"source":"OpenStreetMap","sourceUpdatedAt":null,"verifiedAt":null}},{"type":"Feature","geometry":{"type":"Point","coordinates":[19.6776711,46.9125363]},"properties":{"id":"water:2a712e94-0c96-4500-91f6-edea41ae68f5","kind":"water","longitude":19.6776711,"latitude":46.9125363,"name":"Ivókút","city":null,"address":null,"covered":null,"access":null,"website":null,"phone":null,"source":"OpenStreetMap","sourceUpdatedAt":null,"verifiedAt":null}},{"type":"Feature","geometry":{"type":"Point","coordinates":[19.683956,46.9137901]},"properties":{"id":"water:2cc51bc3-d0c7-4c00-b429-9b7a59e9016a","kind":"water","longitude":19.683956,"latitude":46.9137901,"name":"Ivókút","city":null,"address":null,"covered":null,"access":null,"website":null,"phone":null,"source":"OpenStreetMap","sourceUpdatedAt":null,"verifiedAt":null}},{"type":"Feature","geometry":{"type":"Point","coordinates":[19.6682895,46.9161227]},"properties":{"id":"water:38b06ca6-c196-47f8-888e-449496087a22","kind":"water","longitude":19.6682895,"latitude":46.9161227,"name":"Ivókút","city":null,"address":null,"covered":null,"access":null,"website":null,"phone":null,"source":"OpenStreetMap","sourceUpdatedAt":null,"verifiedAt":null}},{"type":"Feature","geometry":{"type":"Point","coordinates":[19.6627,46.89324]},"properties":{"id":"water:3e3d3520-4876-416a-bafb-2cf6ab7a16a6","kind":"water","longitude":19.6627,"latitude":46.89324,"name":"Ivókút","city":null,"address":null,"covered":null,"access":null,"website":null,"phone":null,"source":"OpenStreetMap","sourceUpdatedAt":null,"verifiedAt":null}},{"type":"Feature","geometry":{"type":"Point","coordinates":[19.6748365,46.9052914]},"properties":{"id":"water:512b9ecc-67ad-4ee9-a837-8788c35396d1","kind":"water","longitude":19.6748365,"latitude":46.9052914,"name":"Ivókút","city":null,"address":null,"covered":null,"access":null,"website":null,"phone":null,"source":"OpenStreetMap","sourceUpdatedAt":null,"verifiedAt":null}},{"type":"Feature","geometry":{"type":"Point","coordinates":[19.6710168,46.9140577]},"properties":{"id":"water:587f71a5-e276-4ca0-8c6f-7e4fae47a572","kind":"water","longitude":19.6710168,"latitude":46.9140577,"name":"Ivókút","city":null,"address":null,"covered":null,"access":null,"website":null,"phone":null,"source":"OpenStreetMap","sourceUpdatedAt":null,"verifiedAt":null}},{"type":"Feature","geometry":{"type":"Point","coordinates":[19.6808306,46.901316]},"properties":{"id":"water:5e49f64f-e907-4eef-9499-0d084f034a95","kind":"water","longitude":19.6808306,"latitude":46.901316,"name":"Ivókút","city":null,"address":null,"covered":null,"access":null,"website":null,"phone":null,"source":"OpenStreetMap","sourceUpdatedAt":null,"verifiedAt":null}},{"type":"Feature","geometry":{"type":"Point","coordinates":[19.684528,46.902083]},"properties":{"id":"water:62b2cbad-46dc-48f2-a810-4ded88b80e3c","kind":"water","longitude":19.684528,"latitude":46.902083,"name":"Ivókút","city":null,"address":null,"covered":null,"access":null,"website":null,"phone":null,"source":"OpenStreetMap","sourceUpdatedAt":null,"verifiedAt":null}},{"type":"Feature","geometry":{"type":"Point","coordinates":[19.6748013,46.9031001]},"properties":{"id":"water:679a7b61-c9fc-459a-97a8-2bb4ebdb517f","kind":"water","longitude":19.6748013,"latitude":46.9031001,"name":"Ivókút","city":null,"address":null,"covered":null,"access":null,"website":null,"phone":null,"source":"OpenStreetMap","sourceUpdatedAt":null,"verifiedAt":null}},{"type":"Feature","geometry":{"type":"Point","coordinates":[19.6873875,46.9103151]},"properties":{"id":"water:711bd849-379f-46bd-90d9-2cbdf6eecff9","kind":"water","longitude":19.6873875,"latitude":46.9103151,"name":"Ivókút","city":null,"address":null,"covered":null,"access":null,"website":null,"phone":null,"source":"OpenStreetMap","sourceUpdatedAt":null,"verifiedAt":null}},{"type":"Feature","geometry":{"type":"Point","coordinates":[19.6579,46.91585]},"properties":{"id":"water:72bd8df6-6677-42eb-8a50-cc8368ce099b","kind":"water","longitude":19.6579,"latitude":46.91585,"name":"Ivókút","city":null,"address":null,"covered":null,"access":null,"website":null,"phone":null,"source":"OpenStreetMap","sourceUpdatedAt":null,"verifiedAt":null}},{"type":"Feature","geometry":{"type":"Point","coordinates":[19.6689498,46.9165484]},"properties":{"id":"water:7d64a7c8-a4de-480b-93e9-2d5837c09431","kind":"water","longitude":19.6689498,"latitude":46.9165484,"name":"Ivókút","city":null,"address":null,"covered":null,"access":null,"website":null,"phone":null,"source":"OpenStreetMap","sourceUpdatedAt":null,"verifiedAt":null}},{"type":"Feature","geometry":{"type":"Point","coordinates":[19.677307,46.906833]},"properties":{"id":"water:7eb77c8c-1a71-453e-98fd-460e115c52a8","kind":"water","longitude":19.677307,"latitude":46.906833,"name":"Ivókút","city":null,"address":null,"covered":null,"access":null,"website":null,"phone":null,"source":"OpenStreetMap","sourceUpdatedAt":null,"verifiedAt":null}},{"type":"Feature","geometry":{"type":"Point","coordinates":[19.68509,46.90463]},"properties":{"id":"water:8c63fc80-5581-4ec8-9636-a0e0e7879b86","kind":"water","longitude":19.68509,"latitude":46.90463,"name":"Ivókút","city":null,"address":null,"covered":null,"access":null,"website":null,"phone":null,"source":"OpenStreetMap","sourceUpdatedAt":null,"verifiedAt":null}},{"type":"Feature","geometry":{"type":"Point","coordinates":[19.681307,46.907862]},"properties":{"id":"water:9555c1ce-c5fa-476c-8b22-edafe357d5aa","kind":"water","longitude":19.681307,"latitude":46.907862,"name":"Ivókút","city":null,"address":null,"covered":null,"access":null,"website":null,"phone":null,"source":"OpenStreetMap","sourceUpdatedAt":null,"verifiedAt":null}},{"type":"Feature","geometry":{"type":"Point","coordinates":[19.6843754,46.9084409]},"properties":{"id":"water:9561f1c0-5dfe-4316-8427-898299aa419c","kind":"water","longitude":19.6843754,"latitude":46.9084409,"name":"Ivókút","city":null,"address":null,"covered":null,"access":null,"website":null,"phone":null,"source":"OpenStreetMap","sourceUpdatedAt":null,"verifiedAt":null}},{"type":"Feature","geometry":{"type":"Point","coordinates":[19.6646837,46.8928025]},"properties":{"id":"water:9e7109a6-8d57-41e7-885d-9f910732f754","kind":"water","longitude":19.6646837,"latitude":46.8928025,"name":"Ivókút","city":null,"address":null,"covered":null,"access":null,"website":null,"phone":null,"source":"OpenStreetMap","sourceUpdatedAt":null,"verifiedAt":null}},{"type":"Feature","geometry":{"type":"Point","coordinates":[19.6805883,46.8998455]},"properties":{"id":"water:a3cb196b-645b-46bd-bfff-8fa6c4443bd7","kind":"water","longitude":19.6805883,"latitude":46.8998455,"name":"Ivókút","city":null,"address":null,"covered":null,"access":null,"website":null,"phone":null,"source":"OpenStreetMap","sourceUpdatedAt":null,"verifiedAt":null}},{"type":"Feature","geometry":{"type":"Point","coordinates":[19.6765,46.904057]},"properties":{"id":"water:a70e7c63-5320-4214-9afd-e51ccc65162f","kind":"water","longitude":19.6765,"latitude":46.904057,"name":"Ivókút","city":null,"address":null,"covered":null,"access":null,"website":null,"phone":null,"source":"OpenStreetMap","sourceUpdatedAt":null,"verifiedAt":null}},{"type":"Feature","geometry":{"type":"Point","coordinates":[19.6765838,46.9120478]},"properties":{"id":"water:b24db4c9-20c3-40c7-bce6-d42baa8a6038","kind":"water","longitude":19.6765838,"latitude":46.9120478,"name":"Ivókút","city":null,"address":null,"covered":null,"access":null,"website":null,"phone":null,"source":"OpenStreetMap","sourceUpdatedAt":null,"verifiedAt":null}},{"type":"Feature","geometry":{"type":"Point","coordinates":[19.65909,46.894203]},"properties":{"id":"water:b324ebce-f5fd-4284-8efa-7d68fa33e417","kind":"water","longitude":19.65909,"latitude":46.894203,"name":"Ivókút","city":null,"address":null,"covered":null,"access":null,"website":null,"phone":null,"source":"OpenStreetMap","sourceUpdatedAt":null,"verifiedAt":null}},{"type":"Feature","geometry":{"type":"Point","coordinates":[19.685901,46.9062725]},"properties":{"id":"water:b37f851d-40fa-42e6-8141-b22098c0f8b2","kind":"water","longitude":19.685901,"latitude":46.9062725,"name":"Ivókút","city":null,"address":null,"covered":null,"access":null,"website":null,"phone":null,"source":"OpenStreetMap","sourceUpdatedAt":null,"verifiedAt":null}},{"type":"Feature","geometry":{"type":"Point","coordinates":[19.682638,46.906557]},"properties":{"id":"water:ba265195-b9ae-45d5-96da-13dcbaef1243","kind":"water","longitude":19.682638,"latitude":46.906557,"name":"Ivókút","city":null,"address":null,"covered":null,"access":null,"website":null,"phone":null,"source":"OpenStreetMap","sourceUpdatedAt":null,"verifiedAt":null}},{"type":"Feature","geometry":{"type":"Point","coordinates":[19.652145,46.912035]},"properties":{"id":"water:be7735dd-cf04-4f99-8201-904ddaa84f8c","kind":"water","longitude":19.652145,"latitude":46.912035,"name":"Ivókút","city":null,"address":null,"covered":null,"access":null,"website":null,"phone":null,"source":"OpenStreetMap","sourceUpdatedAt":null,"verifiedAt":null}},{"type":"Feature","geometry":{"type":"Point","coordinates":[19.650677,46.911786]},"properties":{"id":"water:c042bbcd-8b79-4631-b21c-e9e19323d3b1","kind":"water","longitude":19.650677,"latitude":46.911786,"name":"Ivókút","city":null,"address":null,"covered":null,"access":null,"website":null,"phone":null,"source":"OpenStreetMap","sourceUpdatedAt":null,"verifiedAt":null}},{"type":"Feature","geometry":{"type":"Point","coordinates":[19.683171,46.9002785]},"properties":{"id":"water:c254aa06-b5dc-47d9-90b5-7fa2ab34d37a","kind":"water","longitude":19.683171,"latitude":46.9002785,"name":"Ivókút","city":null,"address":null,"covered":null,"access":null,"website":null,"phone":null,"source":"OpenStreetMap","sourceUpdatedAt":null,"verifiedAt":null}},{"type":"Feature","geometry":{"type":"Point","coordinates":[19.6792956,46.903123]},"properties":{"id":"water:de511402-f1d6-4dcc-9406-b4c973dff862","kind":"water","longitude":19.6792956,"latitude":46.903123,"name":"Ivókút","city":null,"address":null,"covered":null,"access":null,"website":null,"phone":null,"source":"OpenStreetMap","sourceUpdatedAt":null,"verifiedAt":null}},{"type":"Feature","geometry":{"type":"Point","coordinates":[19.6819732,46.905439]},"properties":{"id":"water:e4da9f97-0bfb-41db-831c-687a2fd68a48","kind":"water","longitude":19.6819732,"latitude":46.905439,"name":"Ivókút","city":null,"address":null,"covered":null,"access":null,"website":null,"phone":null,"source":"OpenStreetMap","sourceUpdatedAt":null,"verifiedAt":null}},{"type":"Feature","geometry":{"type":"Point","coordinates":[19.673197,46.904163]},"properties":{"id":"water:fd575bec-93e9-4aa5-b107-979bfa2ce724","kind":"water","longitude":19.673197,"latitude":46.904163,"name":"Ivókút","city":null,"address":null,"covered":null,"access":null,"website":null,"phone":null,"source":"OpenStreetMap","sourceUpdatedAt":null,"verifiedAt":null}}]}