{"type":"FeatureCollection","features":[{"type":"Feature","geometry":{"type":"Point","coordinates":[12.7441757,52.3202936]},"properties":{"id":"bikerack:d8eeb065-69f9-43b2-9af2-95eebc7d2869","kind":"bikerack","longitude":12.7441757,"latitude":52.3202936,"name":"Fahrradabstellplatz","city":"Gross Kreutz","address":null,"covered":false,"access":null,"website":null,"phone":null,"source":"OpenStreetMap/node/5810180935","sourceUpdatedAt":null,"verifiedAt":null}},{"type":"Feature","geometry":{"type":"Point","coordinates":[12.7465011,52.3204095]},"properties":{"id":"bikerack:df7151b2-00d1-48cb-9a6c-1a2b18976c65","kind":"bikerack","longitude":12.7465011,"latitude":52.3204095,"name":"Fahrradabstellplatz","city":"Gross Kreutz","address":null,"covered":false,"access":null,"website":null,"phone":null,"source":"OpenStreetMap/node/11076812815","sourceUpdatedAt":null,"verifiedAt":null}},{"type":"Feature","geometry":{"type":"Point","coordinates":[12.7452271,52.3181587]},"properties":{"id":"bikerack:dfbdf711-8e34-48e1-b21f-5febd93d3ecb","kind":"bikerack","longitude":12.7452271,"latitude":52.3181587,"name":"Fahrradabstellplatz","city":"Gross Kreutz","address":null,"covered":true,"access":null,"website":null,"phone":null,"source":"OpenStreetMap/way/502779656","sourceUpdatedAt":null,"verifiedAt":null}},{"type":"Feature","geometry":{"type":"Point","coordinates":[12.7451785,52.3180468]},"properties":{"id":"bikerack:e097e62b-f9fb-491f-a9cf-85bdf1b3ada8","kind":"bikerack","longitude":12.7451785,"latitude":52.3180468,"name":"Fahrradabstellplatz","city":"Gross Kreutz","address":null,"covered":true,"access":null,"website":null,"phone":null,"source":"OpenStreetMap/way/502779654","sourceUpdatedAt":null,"verifiedAt":null}}]}