{"type":"FeatureCollection","features":[{"type":"Feature","geometry":{"type":"Point","coordinates":[12.7445982,46.7247362]},"properties":{"id":"water:1bfdf285-c57c-4ba2-abcc-d777d9fa1071","kind":"water","longitude":12.7445982,"latitude":46.7247362,"name":"Ivókút","city":"Untertilliach","address":null,"covered":null,"access":null,"website":null,"phone":null,"source":"OpenStreetMap/node/11022359866","sourceUpdatedAt":null,"verifiedAt":null}},{"type":"Feature","geometry":{"type":"Point","coordinates":[12.7444551,46.7279817]},"properties":{"id":"water:29bf0559-1cc0-40e3-8874-2b8fb8dc8dec","kind":"water","longitude":12.7444551,"latitude":46.7279817,"name":"Ivókút","city":"Untertilliach","address":null,"covered":null,"access":null,"website":null,"phone":null,"source":"OpenStreetMap/node/12142912352","sourceUpdatedAt":null,"verifiedAt":null}},{"type":"Feature","geometry":{"type":"Point","coordinates":[12.7652903,46.7241421]},"properties":{"id":"water:69fb2bd4-8094-42e0-b8e3-8d34ccce8480","kind":"water","longitude":12.7652903,"latitude":46.7241421,"name":"Ivókút","city":"Untertilliach","address":null,"covered":null,"access":null,"website":null,"phone":null,"source":"OpenStreetMap/node/12142912362","sourceUpdatedAt":null,"verifiedAt":null}}]}