{"type":"FeatureCollection","features":[{"type":"Feature","geometry":{"type":"Point","coordinates":[13.1202317,46.526825]},"properties":{"id":"water:7387fd22-e2e2-44cd-b70c-483df838f042","kind":"water","longitude":13.1202317,"latitude":46.526825,"name":"Fontanella","city":"Paularo","address":null,"covered":null,"access":null,"website":null,"phone":null,"source":"OpenStreetMap/node/11117858561","sourceUpdatedAt":null,"verifiedAt":null}},{"type":"Feature","geometry":{"type":"Point","coordinates":[13.1093594,46.5071555]},"properties":{"id":"water:8173b13e-8246-4c6a-8c58-4b7ad212489e","kind":"water","longitude":13.1093594,"latitude":46.5071555,"name":"Fontanella","city":"Paularo","address":null,"covered":null,"access":null,"website":null,"phone":null,"source":"OpenStreetMap/node/12941933837","sourceUpdatedAt":null,"verifiedAt":null}}]}