{"type":"FeatureCollection","features":[{"type":"Feature","geometry":{"type":"Point","coordinates":[13.1178548,45.8771166]},"properties":{"id":"water:0fa94dcb-b73d-4206-bf9c-974c008ff71f","kind":"water","longitude":13.1178548,"latitude":45.8771166,"name":"Fontanella","city":"Pocenia","address":null,"covered":null,"access":null,"website":null,"phone":null,"source":"OpenStreetMap/node/859306726","sourceUpdatedAt":null,"verifiedAt":null}},{"type":"Feature","geometry":{"type":"Point","coordinates":[13.1161592,45.8786172]},"properties":{"id":"water:733e6ea5-16b1-4617-8294-048ae26825cf","kind":"water","longitude":13.1161592,"latitude":45.8786172,"name":"Fontanella","city":"Pocenia","address":null,"covered":null,"access":null,"website":null,"phone":null,"source":"OpenStreetMap/node/859306722","sourceUpdatedAt":null,"verifiedAt":null}}]}