{"type":"FeatureCollection","features":[{"type":"Feature","geometry":{"type":"Point","coordinates":[14.3200787,53.5364567]},"properties":{"id":"bikerack:665a182a-6e24-4e20-aa02-3efc94b726ed","kind":"bikerack","longitude":14.3200787,"latitude":53.5364567,"name":"Biciklitároló","city":"Dobra","address":null,"covered":false,"access":null,"website":null,"phone":null,"source":"OpenStreetMap/node/11040103381","sourceUpdatedAt":null,"verifiedAt":null}},{"type":"Feature","geometry":{"type":"Point","coordinates":[14.3139534,53.538475]},"properties":{"id":"bikerack:83e585d5-b8e6-442e-b9d3-39c6c1791a70","kind":"bikerack","longitude":14.3139534,"latitude":53.538475,"name":"Biciklitároló","city":"Dobra","address":null,"covered":false,"access":null,"website":null,"phone":null,"source":"OpenStreetMap/node/11040103383","sourceUpdatedAt":null,"verifiedAt":null}},{"type":"Feature","geometry":{"type":"Point","coordinates":[14.3221889,53.528499]},"properties":{"id":"bikerack:904d8af0-15d8-4a2f-97b0-69843c14ffc4","kind":"bikerack","longitude":14.3221889,"latitude":53.528499,"name":"Biciklitároló","city":"Dobra","address":null,"covered":false,"access":null,"website":null,"phone":null,"source":"OpenStreetMap/node/11040103377","sourceUpdatedAt":null,"verifiedAt":null}},{"type":"Feature","geometry":{"type":"Point","coordinates":[14.3224709,53.5317725]},"properties":{"id":"bikerack:c3ae3c61-bd53-4f75-8bde-36a8c7b06dc9","kind":"bikerack","longitude":14.3224709,"latitude":53.5317725,"name":"Biciklitároló","city":"Dobra","address":null,"covered":false,"access":null,"website":null,"phone":null,"source":"OpenStreetMap/node/11040103379","sourceUpdatedAt":null,"verifiedAt":null}},{"type":"Feature","geometry":{"type":"Point","coordinates":[14.3219326,53.5161813]},"properties":{"id":"bikerack:ca6d0a59-f1be-4297-a0be-6ed5e34b10ff","kind":"bikerack","longitude":14.3219326,"latitude":53.5161813,"name":"Biciklitároló","city":"Dobra","address":null,"covered":false,"access":null,"website":null,"phone":null,"source":"OpenStreetMap/node/11040103370","sourceUpdatedAt":null,"verifiedAt":null}},{"type":"Feature","geometry":{"type":"Point","coordinates":[14.3219304,53.5186803]},"properties":{"id":"bikerack:e87ddce7-3608-45b9-a26d-7710220f665b","kind":"bikerack","longitude":14.3219304,"latitude":53.5186803,"name":"Biciklitároló","city":"Dobra","address":null,"covered":false,"access":null,"website":null,"phone":null,"source":"OpenStreetMap/node/11040103372","sourceUpdatedAt":null,"verifiedAt":null}},{"type":"Feature","geometry":{"type":"Point","coordinates":[14.3212847,53.5243832]},"properties":{"id":"bikerack:ff47e5f1-40f0-4223-9002-55d3f822459d","kind":"bikerack","longitude":14.3212847,"latitude":53.5243832,"name":"Biciklitároló","city":"Dobra","address":null,"covered":false,"access":null,"website":null,"phone":null,"source":"OpenStreetMap/node/11040103375","sourceUpdatedAt":null,"verifiedAt":null}}]}