{"type":"FeatureCollection","features":[{"type":"Feature","geometry":{"type":"Point","coordinates":[14.3240453,49.6662208]},"properties":{"id":"bikerack:8b003380-9cd2-421e-ba72-f20674d3c0ea","kind":"bikerack","longitude":14.3240453,"latitude":49.6662208,"name":"Bicycle Parking","city":"Krasna Hora nad Vltavou","address":null,"covered":false,"access":null,"website":null,"phone":null,"source":"OpenStreetMap/node/2112198055","sourceUpdatedAt":null,"verifiedAt":null}},{"type":"Feature","geometry":{"type":"Point","coordinates":[14.2920421,49.6534449]},"properties":{"id":"bikerack:b89ae686-3b00-4945-93fa-091ec3ba5381","kind":"bikerack","longitude":14.2920421,"latitude":49.6534449,"name":"Bicycle Parking","city":"Krasna Hora nad Vltavou","address":null,"covered":false,"access":null,"website":null,"phone":null,"source":"OpenStreetMap/node/12779736776","sourceUpdatedAt":null,"verifiedAt":null}}]}