{"type":"FeatureCollection","features":[{"type":"Feature","geometry":{"type":"Point","coordinates":[14.3243695,47.7752318]},"properties":{"id":"water:98999a2a-5516-4b5f-8979-275d7439244b","kind":"water","longitude":14.3243695,"latitude":47.7752318,"name":"Merkensteinbründl","city":"Rossleithen","address":null,"covered":null,"access":null,"website":null,"phone":null,"source":"OpenStreetMap/node/947178764","sourceUpdatedAt":null,"verifiedAt":null}},{"type":"Feature","geometry":{"type":"Point","coordinates":[14.3059509,47.7585205]},"properties":{"id":"water:b7d14968-e390-447f-9033-93fb7e04f4a2","kind":"water","longitude":14.3059509,"latitude":47.7585205,"name":"Ivókút","city":"Rossleithen","address":null,"covered":null,"access":null,"website":null,"phone":null,"source":"OpenStreetMap/node/1525232273","sourceUpdatedAt":null,"verifiedAt":null}}]}