{"type":"FeatureCollection","features":[{"type":"Feature","geometry":{"type":"Point","coordinates":[14.3109676,46.1558321]},"properties":{"id":"bikerack:99eaefd4-81f9-4c8b-b15b-33feafa72aba","kind":"bikerack","longitude":14.3109676,"latitude":46.1558321,"name":"Biciklitároló","city":"Skofja Loka","address":null,"covered":false,"access":null,"website":null,"phone":null,"source":"OpenStreetMap/node/12919240081","sourceUpdatedAt":null,"verifiedAt":null}},{"type":"Feature","geometry":{"type":"Point","coordinates":[14.3109514,46.1559874]},"properties":{"id":"water:b7677e9b-620b-4ed6-a6e1-a865ab331f39","kind":"water","longitude":14.3109514,"latitude":46.1559874,"name":"Pitnik na otroškem igrišču Žovšče","city":"Skofja Loka","address":null,"covered":null,"access":null,"website":null,"phone":null,"source":"OpenStreetMap/node/12919240067","sourceUpdatedAt":null,"verifiedAt":null}}]}