{"type":"FeatureCollection","features":[{"type":"Feature","geometry":{"type":"Point","coordinates":[22.0256743,47.9466563]},"properties":{"id":"water:1ea66b08-985f-4845-86d0-ca8dfcfd39a2","kind":"water","longitude":22.0256743,"latitude":47.9466563,"name":"Ivókút","city":null,"address":null,"covered":null,"access":null,"website":null,"phone":null,"source":"OpenStreetMap","sourceUpdatedAt":null,"verifiedAt":null}},{"type":"Feature","geometry":{"type":"Point","coordinates":[22.0350622,47.933181]},"properties":{"id":"water:37fcc48e-cb38-4176-8c45-06ef1c0f30e1","kind":"water","longitude":22.0350622,"latitude":47.933181,"name":"Ivókút","city":null,"address":null,"covered":null,"access":null,"website":null,"phone":null,"source":"OpenStreetMap","sourceUpdatedAt":null,"verifiedAt":null}},{"type":"Feature","geometry":{"type":"Point","coordinates":[22.0299611,47.9419491]},"properties":{"id":"water:65b93118-f255-4f06-b100-a59ee5e64d0a","kind":"water","longitude":22.0299611,"latitude":47.9419491,"name":"Ivókút","city":null,"address":null,"covered":null,"access":null,"website":null,"phone":null,"source":"OpenStreetMap","sourceUpdatedAt":null,"verifiedAt":null}},{"type":"Feature","geometry":{"type":"Point","coordinates":[22.0281073,47.9450856]},"properties":{"id":"water:92fe39e8-69d7-495b-97d6-5aaea6b67a26","kind":"water","longitude":22.0281073,"latitude":47.9450856,"name":"Ivókút","city":null,"address":null,"covered":null,"access":null,"website":null,"phone":null,"source":"OpenStreetMap","sourceUpdatedAt":null,"verifiedAt":null}},{"type":"Feature","geometry":{"type":"Point","coordinates":[22.041134,47.9346714]},"properties":{"id":"water:a8209e1f-9d45-4607-803e-1f3be2306224","kind":"water","longitude":22.041134,"latitude":47.9346714,"name":"Ivókút","city":null,"address":null,"covered":null,"access":null,"website":null,"phone":null,"source":"OpenStreetMap","sourceUpdatedAt":null,"verifiedAt":null}},{"type":"Feature","geometry":{"type":"Point","coordinates":[22.0313623,47.9393257]},"properties":{"id":"water:cede918c-0fcf-4fcc-b8a8-faaeee8161c9","kind":"water","longitude":22.0313623,"latitude":47.9393257,"name":"Ivókút","city":null,"address":null,"covered":null,"access":null,"website":null,"phone":null,"source":"OpenStreetMap","sourceUpdatedAt":null,"verifiedAt":null}},{"type":"Feature","geometry":{"type":"Point","coordinates":[22.0331541,47.9381197]},"properties":{"id":"water:d89c95ce-6557-433d-96da-071c2ca1ba90","kind":"water","longitude":22.0331541,"latitude":47.9381197,"name":"Ivókút","city":null,"address":null,"covered":null,"access":null,"website":null,"phone":null,"source":"OpenStreetMap","sourceUpdatedAt":null,"verifiedAt":null}},{"type":"Feature","geometry":{"type":"Point","coordinates":[22.04065,47.94018]},"properties":{"id":"water:fc1bc499-e64e-4c54-930f-aadbe6255b34","kind":"water","longitude":22.04065,"latitude":47.94018,"name":"Ivókút","city":null,"address":null,"covered":null,"access":null,"website":null,"phone":null,"source":"OpenStreetMap","sourceUpdatedAt":null,"verifiedAt":null}}]}