{"type":"FeatureCollection","features":[{"type":"Feature","geometry":{"type":"Point","coordinates":[22.0462813,47.6988158]},"properties":{"id":"water:0f805900-137c-4779-9ace-9e816cdadd5c","kind":"water","longitude":22.0462813,"latitude":47.6988158,"name":"Ivókút","city":null,"address":null,"covered":null,"access":null,"website":null,"phone":null,"source":"OpenStreetMap","sourceUpdatedAt":null,"verifiedAt":null}},{"type":"Feature","geometry":{"type":"Point","coordinates":[22.0235845,47.7167532]},"properties":{"id":"water:7021e44f-1df1-4467-8779-d47ae0941beb","kind":"water","longitude":22.0235845,"latitude":47.7167532,"name":"Ivókút","city":null,"address":null,"covered":null,"access":null,"website":null,"phone":null,"source":"OpenStreetMap","sourceUpdatedAt":null,"verifiedAt":null}},{"type":"Feature","geometry":{"type":"Point","coordinates":[22.0560799,47.7230752]},"properties":{"id":"water:b0423066-4bdb-451f-a001-f106640d2ff9","kind":"water","longitude":22.0560799,"latitude":47.7230752,"name":"Ivókút","city":null,"address":null,"covered":null,"access":null,"website":null,"phone":null,"source":"OpenStreetMap","sourceUpdatedAt":null,"verifiedAt":null}}]}