{"type":"FeatureCollection","features":[{"type":"Feature","geometry":{"type":"Point","coordinates":[20.7400075,48.4525029]},"properties":{"id":"water:5b1a4c81-968e-4488-bc21-a903b495ee4f","kind":"water","longitude":20.7400075,"latitude":48.4525029,"name":"Ivókút","city":null,"address":null,"covered":null,"access":null,"website":null,"phone":null,"source":"OpenStreetMap","sourceUpdatedAt":null,"verifiedAt":null}},{"type":"Feature","geometry":{"type":"Point","coordinates":[20.73835,48.44815]},"properties":{"id":"water:8e5f0b83-aae0-424f-bedc-d74d7daefad2","kind":"water","longitude":20.73835,"latitude":48.44815,"name":"Ivókút","city":null,"address":null,"covered":null,"access":null,"website":null,"phone":null,"source":"OpenStreetMap","sourceUpdatedAt":null,"verifiedAt":null}}]}