{"type":"FeatureCollection","features":[{"type":"Feature","geometry":{"type":"Point","coordinates":[9.0193245,54.0301245]},"properties":{"id":"bikerack:4e3a3af8-90bb-4bcf-912e-2ba33eb4e87d","kind":"bikerack","longitude":9.0193245,"latitude":54.0301245,"name":"Fahrradabstellplatz","city":"Busenwurth","address":null,"covered":false,"access":null,"website":null,"phone":null,"source":"OpenStreetMap/node/13040982902","sourceUpdatedAt":null,"verifiedAt":null}},{"type":"Feature","geometry":{"type":"Point","coordinates":[9.0463929,54.0196069]},"properties":{"id":"bikerack:765ce8ff-6ea3-4fbb-b544-9189f84821b4","kind":"bikerack","longitude":9.0463929,"latitude":54.0196069,"name":"Fahrradabstellplatz","city":"Barlt","address":null,"covered":false,"access":null,"website":null,"phone":null,"source":"OpenStreetMap/way/257917782","sourceUpdatedAt":null,"verifiedAt":null}},{"type":"Feature","geometry":{"type":"Point","coordinates":[9.0463833,54.0196646]},"properties":{"id":"bikerack:aecddfe9-a8f1-4ffd-a4c3-20da0ade97d7","kind":"bikerack","longitude":9.0463833,"latitude":54.0196646,"name":"Fahrradabstellplatz","city":"Barlt","address":null,"covered":false,"access":null,"website":null,"phone":null,"source":"OpenStreetMap/way/257917781","sourceUpdatedAt":null,"verifiedAt":null}}]}