{"type":"FeatureCollection","features":[{"type":"Feature","geometry":{"type":"Point","coordinates":[9.0127115,53.1296612]},"properties":{"id":"bikerack:7e90455e-af7c-4f31-a050-8a6caffdb340","kind":"bikerack","longitude":9.0127115,"latitude":53.1296612,"name":"Fahrradabstellplatz","city":"Grasberg","address":null,"covered":false,"access":null,"website":null,"phone":null,"source":"OpenStreetMap/node/4047979225","sourceUpdatedAt":null,"verifiedAt":null}},{"type":"Feature","geometry":{"type":"Point","coordinates":[9.0242171,53.1279742]},"properties":{"id":"bikerack:ce30418c-3651-46cd-acd4-6541c58ee66c","kind":"bikerack","longitude":9.0242171,"latitude":53.1279742,"name":"Fahrradabstellplatz","city":"Grasberg","address":null,"covered":false,"access":null,"website":null,"phone":null,"source":"OpenStreetMap/node/6893872416","sourceUpdatedAt":null,"verifiedAt":null}},{"type":"Feature","geometry":{"type":"Point","coordinates":[9.0515502,53.1416672]},"properties":{"id":"bikerack:e3028e51-a4fc-402a-a622-df3f4b4a2103","kind":"bikerack","longitude":9.0515502,"latitude":53.1416672,"name":"Fahrradabstellplatz","city":"Wilstedt","address":null,"covered":false,"access":null,"website":null,"phone":null,"source":"OpenStreetMap/node/13176658663","sourceUpdatedAt":null,"verifiedAt":null}}]}