{"type":"FeatureCollection","features":[{"type":"Feature","geometry":{"type":"Point","coordinates":[9.0253109,51.3711796]},"properties":{"id":"bikerack:4c9e510c-e8d3-4f82-9852-151220e35c1c","kind":"bikerack","longitude":9.0253109,"latitude":51.3711796,"name":"Fahrradabstellplatz","city":"Bad Arolsen","address":null,"covered":false,"access":null,"website":null,"phone":null,"source":"OpenStreetMap/node/11985143113","sourceUpdatedAt":null,"verifiedAt":null}},{"type":"Feature","geometry":{"type":"Point","coordinates":[9.0159535,51.3717538]},"properties":{"id":"water:74036d49-e120-4c85-929e-dfbfe9c9bc94","kind":"water","longitude":9.0159535,"latitude":51.3717538,"name":"Trinkwasser","city":"Bad Arolsen","address":null,"covered":null,"access":null,"website":null,"phone":null,"source":"OpenStreetMap/node/3683159240","sourceUpdatedAt":null,"verifiedAt":null}}]}