{"type":"FeatureCollection","features":[{"type":"Feature","geometry":{"type":"Point","coordinates":[9.033806,50.6455266]},"properties":{"id":"bikerack:31d93ddf-7285-4aa4-b570-08172ee4cd6e","kind":"bikerack","longitude":9.033806,"latitude":50.6455266,"name":"Fahrradabstellplatz","city":"Grunberg","address":null,"covered":true,"access":null,"website":null,"phone":null,"source":"OpenStreetMap/node/4187838183","sourceUpdatedAt":null,"verifiedAt":null}},{"type":"Feature","geometry":{"type":"Point","coordinates":[9.0312794,50.6469009]},"properties":{"id":"bikerack:661b2a14-7929-46f6-a911-3d6b83aae4fb","kind":"bikerack","longitude":9.0312794,"latitude":50.6469009,"name":"Fahrradabstellplatz","city":"Grunberg","address":null,"covered":false,"access":null,"website":null,"phone":null,"source":"OpenStreetMap/node/5555187475","sourceUpdatedAt":null,"verifiedAt":null}},{"type":"Feature","geometry":{"type":"Point","coordinates":[9.0303827,50.6352277]},"properties":{"id":"bikerack:8b4cb8ed-7d25-4883-89b9-eccac8742e48","kind":"bikerack","longitude":9.0303827,"latitude":50.6352277,"name":"Fahrradabstellplatz","city":"Grunberg","address":null,"covered":false,"access":null,"website":null,"phone":null,"source":"OpenStreetMap/node/3066294670","sourceUpdatedAt":null,"verifiedAt":null}},{"type":"Feature","geometry":{"type":"Point","coordinates":[9.0302593,50.6348977]},"properties":{"id":"bikerack:a523a47d-91b0-4e66-a88b-21da8ca0b085","kind":"bikerack","longitude":9.0302593,"latitude":50.6348977,"name":"Fahrradabstellplatz","city":"Grunberg","address":null,"covered":false,"access":null,"website":null,"phone":null,"source":"OpenStreetMap/node/3066294669","sourceUpdatedAt":null,"verifiedAt":null}},{"type":"Feature","geometry":{"type":"Point","coordinates":[9.0328083,50.6453408]},"properties":{"id":"service:65ec2222-4b34-4bc3-833c-d3d7c36960a3","kind":"service","longitude":9.0328083,"latitude":50.6453408,"name":"Ernst Reitz","city":"Mücke","address":null,"covered":null,"access":null,"website":null,"phone":null,"source":"OpenStreetMap/node/4769096248","sourceUpdatedAt":null,"verifiedAt":null}}]}