{"type":"FeatureCollection","features":[{"type":"Feature","geometry":{"type":"Point","coordinates":[9.0166812,49.0863993]},"properties":{"id":"bikerack:21c0c2b3-ecab-459f-ad5e-3901315d55d0","kind":"bikerack","longitude":9.0166812,"latitude":49.0863993,"name":"Fahrradabstellplatz","city":"Guglingen","address":null,"covered":false,"access":null,"website":null,"phone":null,"source":"OpenStreetMap/node/5516352924","sourceUpdatedAt":null,"verifiedAt":null}},{"type":"Feature","geometry":{"type":"Point","coordinates":[9.0493864,49.0819783]},"properties":{"id":"bikerack:988f4789-b73f-49ff-b300-aae66eafba7d","kind":"bikerack","longitude":9.0493864,"latitude":49.0819783,"name":"Fahrradabstellplatz","city":"Brackenheim","address":null,"covered":true,"access":null,"website":null,"phone":null,"source":"OpenStreetMap/node/8779241331","sourceUpdatedAt":null,"verifiedAt":null}}]}