{"type":"FeatureCollection","features":[{"type":"Feature","geometry":{"type":"Point","coordinates":[9.0119366,47.8206255]},"properties":{"id":"bikerack:3ed773a6-9737-4577-92be-51456da530fb","kind":"bikerack","longitude":9.0119366,"latitude":47.8206255,"name":"Fahrradabstellplatz","city":"Stockach","address":null,"covered":false,"access":null,"website":null,"phone":null,"source":"OpenStreetMap/node/7974924573","sourceUpdatedAt":null,"verifiedAt":null}},{"type":"Feature","geometry":{"type":"Point","coordinates":[9.0285356,47.8391934]},"properties":{"id":"bikerack:f137e5fd-d5d3-4abe-8f96-ea07a6b87b7d","kind":"bikerack","longitude":9.0285356,"latitude":47.8391934,"name":"Fahrradabstellplatz","city":"Stockach","address":null,"covered":false,"access":null,"website":null,"phone":null,"source":"OpenStreetMap/way/975720689","sourceUpdatedAt":null,"verifiedAt":null}},{"type":"Feature","geometry":{"type":"Point","coordinates":[9.038432,47.8176437]},"properties":{"id":"water:63784001-5d6c-4ccf-9ca8-ed3f2b29916a","kind":"water","longitude":9.038432,"latitude":47.8176437,"name":"Trinkwasser","city":"Bodman-Ludwigshafen","address":null,"covered":null,"access":null,"website":null,"phone":null,"source":"OpenStreetMap/node/11576366617","sourceUpdatedAt":null,"verifiedAt":null}}]}