{"type":"FeatureCollection","features":[{"type":"Feature","geometry":{"type":"Point","coordinates":[9.0489636,46.9911408]},"properties":{"id":"water:68c614c7-9e1e-4da3-8a9f-2e358776133f","kind":"water","longitude":9.0489636,"latitude":46.9911408,"name":"Drinking Fountain","city":"Schwanden","address":null,"covered":null,"access":null,"website":null,"phone":null,"source":"OpenStreetMap/node/1388903806","sourceUpdatedAt":null,"verifiedAt":null}},{"type":"Feature","geometry":{"type":"Point","coordinates":[9.0422617,46.9872434]},"properties":{"id":"water:dd09b6f1-7d6e-4fdf-bb58-5a87f2859a3e","kind":"water","longitude":9.0422617,"latitude":46.9872434,"name":"Drinking Fountain","city":"Luchsingen","address":null,"covered":null,"access":null,"website":null,"phone":null,"source":"OpenStreetMap/node/1388903814","sourceUpdatedAt":null,"verifiedAt":null}},{"type":"Feature","geometry":{"type":"Point","coordinates":[9.0393013,46.9984329]},"properties":{"id":"water:fefa3bc6-1126-47ce-b825-e6bb5b6891f7","kind":"water","longitude":9.0393013,"latitude":46.9984329,"name":"Drinking Fountain","city":"Schwanden","address":null,"covered":null,"access":null,"website":null,"phone":null,"source":"OpenStreetMap/node/2102114144","sourceUpdatedAt":null,"verifiedAt":null}}]}