{"type":"FeatureCollection","features":[{"type":"Feature","geometry":{"type":"Point","coordinates":[9.0329977,46.1037131]},"properties":{"id":"water:06e34435-b919-4e9b-a4fe-378ad514735e","kind":"water","longitude":9.0329977,"latitude":46.1037131,"name":"Drinking Fountain","city":"Camorino","address":null,"covered":null,"access":null,"website":null,"phone":null,"source":"OpenStreetMap/node/11252361598","sourceUpdatedAt":null,"verifiedAt":null}},{"type":"Feature","geometry":{"type":"Point","coordinates":[9.0264125,46.1104503]},"properties":{"id":"water:e8e9afab-bc40-4030-aec5-cdb60abc2717","kind":"water","longitude":9.0264125,"latitude":46.1104503,"name":"Drinking Fountain","city":"Camorino","address":null,"covered":null,"access":null,"website":null,"phone":null,"source":"OpenStreetMap/node/4196195538","sourceUpdatedAt":null,"verifiedAt":null}}]}