{"type":"FeatureCollection","features":[{"type":"Feature","geometry":{"type":"Point","coordinates":[11.9389915,49.7670729]},"properties":{"id":"bikerack:73ab6ec6-3172-418e-8d31-350789c66d08","kind":"bikerack","longitude":11.9389915,"latitude":49.7670729,"name":"Fahrradabstellplatz","city":"Pressath","address":null,"covered":false,"access":null,"website":null,"phone":null,"source":"OpenStreetMap/node/7840869342","sourceUpdatedAt":null,"verifiedAt":null}},{"type":"Feature","geometry":{"type":"Point","coordinates":[11.9389911,49.7670143]},"properties":{"id":"bikerack:7efa55bd-1278-49f1-ad07-5c91e09eb669","kind":"bikerack","longitude":11.9389911,"latitude":49.7670143,"name":"Fahrradabstellplatz","city":"Pressath","address":null,"covered":false,"access":null,"website":null,"phone":null,"source":"OpenStreetMap/node/7840869344","sourceUpdatedAt":null,"verifiedAt":null}},{"type":"Feature","geometry":{"type":"Point","coordinates":[11.9387806,49.764037]},"properties":{"id":"bikerack:ba4fce6e-e47d-4e3d-8393-91fabc73a0e2","kind":"bikerack","longitude":11.9387806,"latitude":49.764037,"name":"Fahrradabstellplatz","city":"Pressath","address":null,"covered":true,"access":null,"website":null,"phone":null,"source":"OpenStreetMap/way/479226138","sourceUpdatedAt":null,"verifiedAt":null}},{"type":"Feature","geometry":{"type":"Point","coordinates":[11.9357433,49.7671754]},"properties":{"id":"service:fb80278f-8342-4cd1-9980-2624687f8948","kind":"service","longitude":11.9357433,"latitude":49.7671754,"name":"Fahrradhaus Girisch","city":"Pressath","address":null,"covered":null,"access":null,"website":null,"phone":null,"source":"OpenStreetMap/node/2355980150","sourceUpdatedAt":null,"verifiedAt":null}}]}