{"type":"FeatureCollection","features":[{"type":"Feature","geometry":{"type":"Point","coordinates":[11.9250799,48.4559226]},"properties":{"id":"bikerack:795f5fcc-f1f8-4359-b2aa-3d465c1982aa","kind":"bikerack","longitude":11.9250799,"latitude":48.4559226,"name":"Fahrradabstellplatz","city":"Moosburg","address":null,"covered":false,"access":null,"website":null,"phone":null,"source":"OpenStreetMap/node/9856582453","sourceUpdatedAt":null,"verifiedAt":null}},{"type":"Feature","geometry":{"type":"Point","coordinates":[11.9254905,48.4565841]},"properties":{"id":"bikerack:cad68c7c-bca3-493c-a27b-183d9c46306d","kind":"bikerack","longitude":11.9254905,"latitude":48.4565841,"name":"Fahrradabstellplatz","city":"Moosburg","address":null,"covered":false,"access":null,"website":null,"phone":null,"source":"OpenStreetMap/node/8094677452","sourceUpdatedAt":null,"verifiedAt":null}}]}