{"type":"FeatureCollection","features":[{"type":"Feature","geometry":{"type":"Point","coordinates":[11.9433248,46.8999034]},"properties":{"id":"service:7082bb5b-ee3e-413f-a81a-62c28b17d84d","kind":"service","longitude":11.9433248,"latitude":46.8999034,"name":"FORBIKER","city":"Molini di Tures","address":null,"covered":null,"access":null,"website":null,"phone":null,"source":"OpenStreetMap/way/246075935","sourceUpdatedAt":null,"verifiedAt":null}},{"type":"Feature","geometry":{"type":"Point","coordinates":[11.940921,46.897977]},"properties":{"id":"water:00125851-1acb-4ea0-ab1e-5bf26f3299bd","kind":"water","longitude":11.940921,"latitude":46.897977,"name":"Fontanella","city":"Molini di Tures","address":null,"covered":null,"access":null,"website":null,"phone":null,"source":"OpenStreetMap/node/12641010801","sourceUpdatedAt":null,"verifiedAt":null}},{"type":"Feature","geometry":{"type":"Point","coordinates":[11.949386,46.910384]},"properties":{"id":"water:09c211b5-252b-4672-9f94-a5f125329559","kind":"water","longitude":11.949386,"latitude":46.910384,"name":"Fontanella","city":"Campo Tures","address":null,"covered":null,"access":null,"website":null,"phone":null,"source":"OpenStreetMap/node/13467836845","sourceUpdatedAt":null,"verifiedAt":null}},{"type":"Feature","geometry":{"type":"Point","coordinates":[11.943228,46.904329]},"properties":{"id":"water:3b953be0-c5e4-42a6-9ac5-a0c0010bcc2e","kind":"water","longitude":11.943228,"latitude":46.904329,"name":"Fontanella","city":"Molini di Tures","address":null,"covered":null,"access":null,"website":null,"phone":null,"source":"OpenStreetMap/node/12641011001","sourceUpdatedAt":null,"verifiedAt":null}},{"type":"Feature","geometry":{"type":"Point","coordinates":[11.9421045,46.8998272]},"properties":{"id":"water:44e580e8-a6f0-4f13-8d61-d753b7132839","kind":"water","longitude":11.9421045,"latitude":46.8998272,"name":"Fontanella","city":"Molini di Tures","address":null,"covered":null,"access":null,"website":null,"phone":null,"source":"OpenStreetMap/node/5827922189","sourceUpdatedAt":null,"verifiedAt":null}},{"type":"Feature","geometry":{"type":"Point","coordinates":[11.952739,46.918275]},"properties":{"id":"water:67ff7071-4ac7-451f-8a45-a6f4e1d1611f","kind":"water","longitude":11.952739,"latitude":46.918275,"name":"Fontanella","city":"Campo Tures","address":null,"covered":null,"access":null,"website":null,"phone":null,"source":"OpenStreetMap/node/7744132585","sourceUpdatedAt":null,"verifiedAt":null}},{"type":"Feature","geometry":{"type":"Point","coordinates":[11.952503,46.918508]},"properties":{"id":"water:68cbb2c1-a36b-4059-a81a-22bbb5c628c2","kind":"water","longitude":11.952503,"latitude":46.918508,"name":"Fontanella","city":"Campo Tures","address":null,"covered":null,"access":null,"website":null,"phone":null,"source":"OpenStreetMap/node/12587149301","sourceUpdatedAt":null,"verifiedAt":null}},{"type":"Feature","geometry":{"type":"Point","coordinates":[11.951961,46.91983]},"properties":{"id":"water:69aaa55f-ff55-412c-914b-e5c8587144f8","kind":"water","longitude":11.951961,"latitude":46.91983,"name":"Fontanella","city":"Campo Tures","address":null,"covered":null,"access":null,"website":null,"phone":null,"source":"OpenStreetMap/node/7744044586","sourceUpdatedAt":null,"verifiedAt":null}},{"type":"Feature","geometry":{"type":"Point","coordinates":[11.949386,46.910384]},"properties":{"id":"water:98b1dcfb-7133-4184-a496-f9c391cc0d55","kind":"water","longitude":11.949386,"latitude":46.910384,"name":"Fontanella","city":"Campo Tures","address":null,"covered":null,"access":null,"website":null,"phone":null,"source":"OpenStreetMap/node/7744219785","sourceUpdatedAt":null,"verifiedAt":null}},{"type":"Feature","geometry":{"type":"Point","coordinates":[11.9137256,46.9193552]},"properties":{"id":"water:c6314ade-31af-44d6-abd2-a9e45a4568ae","kind":"water","longitude":11.9137256,"latitude":46.9193552,"name":"Fontanella","city":"Molini di Tures","address":null,"covered":null,"access":null,"website":null,"phone":null,"source":"OpenStreetMap/node/9884683477","sourceUpdatedAt":null,"verifiedAt":null}},{"type":"Feature","geometry":{"type":"Point","coordinates":[11.9522075,46.9196598]},"properties":{"id":"water:d8086449-c947-4a02-ad36-f475291483fa","kind":"water","longitude":11.9522075,"latitude":46.9196598,"name":"Fontanella","city":"Campo Tures","address":null,"covered":null,"access":null,"website":null,"phone":null,"source":"OpenStreetMap/node/9180091759","sourceUpdatedAt":null,"verifiedAt":null}},{"type":"Feature","geometry":{"type":"Point","coordinates":[11.940967,46.900391]},"properties":{"id":"water:ef9ddced-3dfc-414c-89fb-7dbd0f005c6e","kind":"water","longitude":11.940967,"latitude":46.900391,"name":"Fontanella","city":"Molini di Tures","address":null,"covered":null,"access":null,"website":null,"phone":null,"source":"OpenStreetMap/node/5827922188","sourceUpdatedAt":null,"verifiedAt":null}},{"type":"Feature","geometry":{"type":"Point","coordinates":[11.94046,46.899865]},"properties":{"id":"water:f0242c7b-73c5-41ea-9c0f-c6b6ae83968e","kind":"water","longitude":11.94046,"latitude":46.899865,"name":"Fontanella","city":"Molini di Tures","address":null,"covered":null,"access":null,"website":null,"phone":null,"source":"OpenStreetMap/node/12587178203","sourceUpdatedAt":null,"verifiedAt":null}},{"type":"Feature","geometry":{"type":"Point","coordinates":[11.944583,46.899959]},"properties":{"id":"water:fbd37299-e61f-4f8a-b6f4-24cda7fdddd9","kind":"water","longitude":11.944583,"latitude":46.899959,"name":"Fontanella","city":"Molini di Tures","address":null,"covered":null,"access":null,"website":null,"phone":null,"source":"OpenStreetMap/node/5841544006","sourceUpdatedAt":null,"verifiedAt":null}}]}