{"type":"FeatureCollection","features":[{"type":"Feature","geometry":{"type":"Point","coordinates":[11.9252448,46.2053472]},"properties":{"id":"water:18bc42d7-2c69-45ab-8418-313d9e1ab819","kind":"water","longitude":11.9252448,"latitude":46.2053472,"name":"Fontanella","city":"Sagron Mis","address":null,"covered":null,"access":null,"website":null,"phone":null,"source":"OpenStreetMap/node/8998465569","sourceUpdatedAt":null,"verifiedAt":null}},{"type":"Feature","geometry":{"type":"Point","coordinates":[11.9371041,46.2073423]},"properties":{"id":"water:828fca1f-338b-4bfa-a3f6-5d985fa12877","kind":"water","longitude":11.9371041,"latitude":46.2073423,"name":"Fontanella","city":"Sagron Mis","address":null,"covered":null,"access":null,"website":null,"phone":null,"source":"OpenStreetMap/node/8998490114","sourceUpdatedAt":null,"verifiedAt":null}}]}