{"type":"FeatureCollection","features":[{"type":"Feature","geometry":{"type":"Point","coordinates":[11.9109344,45.8671447]},"properties":{"id":"water:09ef2d6a-05c1-4997-837b-ce0036bcb92f","kind":"water","longitude":11.9109344,"latitude":45.8671447,"name":"Fontanella","city":"Cavaso del Tomba","address":null,"covered":null,"access":null,"website":null,"phone":null,"source":"OpenStreetMap/node/7598314120","sourceUpdatedAt":null,"verifiedAt":null}},{"type":"Feature","geometry":{"type":"Point","coordinates":[11.9472808,45.87393]},"properties":{"id":"water:b3e75a31-d99a-4a04-b5b6-7359a31ef413","kind":"water","longitude":11.9472808,"latitude":45.87393,"name":"Fontanella","city":"Pederobba","address":null,"covered":null,"access":null,"website":null,"phone":null,"source":"OpenStreetMap/node/11062124641","sourceUpdatedAt":null,"verifiedAt":null}}]}