{"type":"FeatureCollection","features":[{"type":"Feature","geometry":{"type":"Point","coordinates":[11.9432141,45.8488303]},"properties":{"id":"water:4d1ee3f2-fc90-44b8-bea1-fbfc0ec67aed","kind":"water","longitude":11.9432141,"latitude":45.8488303,"name":"Fontanella","city":"Pederobba","address":null,"covered":null,"access":null,"website":null,"phone":null,"source":"OpenStreetMap/node/11342125403","sourceUpdatedAt":null,"verifiedAt":null}},{"type":"Feature","geometry":{"type":"Point","coordinates":[11.9214752,45.8305312]},"properties":{"id":"water:8bf27973-49ef-49f1-bc71-ea30627c2f81","kind":"water","longitude":11.9214752,"latitude":45.8305312,"name":"Fontanella","city":"Monfumo","address":null,"covered":null,"access":null,"website":null,"phone":null,"source":"OpenStreetMap/node/7632860754","sourceUpdatedAt":null,"verifiedAt":null}},{"type":"Feature","geometry":{"type":"Point","coordinates":[11.9202149,45.8485092]},"properties":{"id":"water:c0b02ce4-391e-4a19-ab47-560396281f4b","kind":"water","longitude":11.9202149,"latitude":45.8485092,"name":"Fontanella","city":"Monfumo","address":null,"covered":null,"access":null,"website":null,"phone":null,"source":"OpenStreetMap/node/5568704612","sourceUpdatedAt":null,"verifiedAt":null}}]}