{"type":"FeatureCollection","features":[{"type":"Feature","geometry":{"type":"Point","coordinates":[22.3368196,53.8348282]},"properties":{"id":"bikerack:044ddf36-22df-4d99-bf1d-bb1cd6487f3b","kind":"bikerack","longitude":22.3368196,"latitude":53.8348282,"name":"Biciklitároló","city":"Elk","address":null,"covered":false,"access":null,"website":null,"phone":null,"source":"OpenStreetMap/node/13147798055","sourceUpdatedAt":null,"verifiedAt":null}},{"type":"Feature","geometry":{"type":"Point","coordinates":[22.3445832,53.835113]},"properties":{"id":"bikerack:04f76067-a602-4ca2-90e6-cb8121287901","kind":"bikerack","longitude":22.3445832,"latitude":53.835113,"name":"Biciklitároló","city":"Elk","address":null,"covered":false,"access":null,"website":null,"phone":null,"source":"OpenStreetMap/node/13094664757","sourceUpdatedAt":null,"verifiedAt":null}},{"type":"Feature","geometry":{"type":"Point","coordinates":[22.3406978,53.8360461]},"properties":{"id":"bikerack:080121d5-ebaf-41d2-a050-d30e550ed7cb","kind":"bikerack","longitude":22.3406978,"latitude":53.8360461,"name":"Biciklitároló","city":"Elk","address":null,"covered":false,"access":null,"website":null,"phone":null,"source":"OpenStreetMap/way/1306367565","sourceUpdatedAt":null,"verifiedAt":null}},{"type":"Feature","geometry":{"type":"Point","coordinates":[22.3425777,53.8345353]},"properties":{"id":"bikerack:0ca8b4c5-bff7-4bdb-b2f0-68d506f287f2","kind":"bikerack","longitude":22.3425777,"latitude":53.8345353,"name":"Biciklitároló","city":"Elk","address":null,"covered":false,"access":null,"website":null,"phone":null,"source":"OpenStreetMap/node/13107091555","sourceUpdatedAt":null,"verifiedAt":null}},{"type":"Feature","geometry":{"type":"Point","coordinates":[22.3426059,53.8347632]},"properties":{"id":"bikerack:140e68db-1a8f-43c0-a623-5f2c82130fcf","kind":"bikerack","longitude":22.3426059,"latitude":53.8347632,"name":"Biciklitároló","city":"Elk","address":null,"covered":false,"access":null,"website":null,"phone":null,"source":"OpenStreetMap/node/13107091526","sourceUpdatedAt":null,"verifiedAt":null}},{"type":"Feature","geometry":{"type":"Point","coordinates":[22.3455814,53.8322548]},"properties":{"id":"bikerack:147125d7-a0a0-453b-b78a-876ae524c8bd","kind":"bikerack","longitude":22.3455814,"latitude":53.8322548,"name":"Biciklitároló","city":"Elk","address":null,"covered":false,"access":null,"website":null,"phone":null,"source":"OpenStreetMap/node/13094716762","sourceUpdatedAt":null,"verifiedAt":null}},{"type":"Feature","geometry":{"type":"Point","coordinates":[22.359007,53.8370943]},"properties":{"id":"bikerack:1aa28cbd-ae95-4b83-aee4-2f9c1bd401c1","kind":"bikerack","longitude":22.359007,"latitude":53.8370943,"name":"Biciklitároló","city":"Elk","address":null,"covered":false,"access":null,"website":null,"phone":null,"source":"OpenStreetMap/node/12666563401","sourceUpdatedAt":null,"verifiedAt":null}},{"type":"Feature","geometry":{"type":"Point","coordinates":[22.3496588,53.8314056]},"properties":{"id":"bikerack:1aa2fef6-80d5-439f-b99c-e9b1e785a4da","kind":"bikerack","longitude":22.3496588,"latitude":53.8314056,"name":"Biciklitároló","city":"Elk","address":null,"covered":false,"access":null,"website":null,"phone":null,"source":"OpenStreetMap/node/12663124269","sourceUpdatedAt":null,"verifiedAt":null}},{"type":"Feature","geometry":{"type":"Point","coordinates":[22.3384177,53.8360928]},"properties":{"id":"bikerack:1aa39786-8a2a-4fc4-bf4f-82e8aa61444d","kind":"bikerack","longitude":22.3384177,"latitude":53.8360928,"name":"Biciklitároló","city":"Elk","address":null,"covered":false,"access":null,"website":null,"phone":null,"source":"OpenStreetMap/way/1415446928","sourceUpdatedAt":null,"verifiedAt":null}},{"type":"Feature","geometry":{"type":"Point","coordinates":[22.344355,53.8312793]},"properties":{"id":"bikerack:1dd56028-02c8-4895-a614-b74acd028941","kind":"bikerack","longitude":22.344355,"latitude":53.8312793,"name":"Biciklitároló","city":"Elk","address":null,"covered":false,"access":null,"website":null,"phone":null,"source":"OpenStreetMap/node/12901644534","sourceUpdatedAt":null,"verifiedAt":null}},{"type":"Feature","geometry":{"type":"Point","coordinates":[22.3451367,53.8314203]},"properties":{"id":"bikerack:1fc76cf3-35c9-454c-b3d3-3a079aef5d9b","kind":"bikerack","longitude":22.3451367,"latitude":53.8314203,"name":"Biciklitároló","city":"Elk","address":null,"covered":false,"access":null,"website":null,"phone":null,"source":"OpenStreetMap/node/13058189158","sourceUpdatedAt":null,"verifiedAt":null}},{"type":"Feature","geometry":{"type":"Point","coordinates":[22.3385049,53.8352352]},"properties":{"id":"bikerack:238a27e7-8c18-445d-929f-2128378b37c1","kind":"bikerack","longitude":22.3385049,"latitude":53.8352352,"name":"Biciklitároló","city":"Elk","address":null,"covered":false,"access":null,"website":null,"phone":null,"source":"OpenStreetMap/node/13162326849","sourceUpdatedAt":null,"verifiedAt":null}},{"type":"Feature","geometry":{"type":"Point","coordinates":[22.3480494,53.8343735]},"properties":{"id":"bikerack:23b822c3-e9bc-49e1-82bf-bf960f411a36","kind":"bikerack","longitude":22.3480494,"latitude":53.8343735,"name":"Biciklitároló","city":"Elk","address":null,"covered":false,"access":null,"website":null,"phone":null,"source":"OpenStreetMap/node/13094664758","sourceUpdatedAt":null,"verifiedAt":null}},{"type":"Feature","geometry":{"type":"Point","coordinates":[22.3430317,53.8295354]},"properties":{"id":"bikerack:247046c0-1011-4d71-ab1f-2370cf5f0fa6","kind":"bikerack","longitude":22.3430317,"latitude":53.8295354,"name":"Biciklitároló","city":"Elk","address":null,"covered":false,"access":null,"website":null,"phone":null,"source":"OpenStreetMap/node/12663124271","sourceUpdatedAt":null,"verifiedAt":null}},{"type":"Feature","geometry":{"type":"Point","coordinates":[22.3448831,53.8339426]},"properties":{"id":"bikerack:2a025178-1b2b-4660-8eb7-f377b42ef8b4","kind":"bikerack","longitude":22.3448831,"latitude":53.8339426,"name":"Biciklitároló","city":"Elk","address":null,"covered":false,"access":null,"website":null,"phone":null,"source":"OpenStreetMap/node/13108522115","sourceUpdatedAt":null,"verifiedAt":null}},{"type":"Feature","geometry":{"type":"Point","coordinates":[22.3359048,53.8334772]},"properties":{"id":"bikerack:2aeff1cc-b1dc-4d59-9d6a-0335b56332bd","kind":"bikerack","longitude":22.3359048,"latitude":53.8334772,"name":"Biciklitároló","city":"Elk","address":null,"covered":false,"access":null,"website":null,"phone":null,"source":"OpenStreetMap/node/13159529849","sourceUpdatedAt":null,"verifiedAt":null}},{"type":"Feature","geometry":{"type":"Point","coordinates":[22.3419657,53.8338436]},"properties":{"id":"bikerack:2d5e2aeb-2c1c-4800-a9c5-a24789a7839a","kind":"bikerack","longitude":22.3419657,"latitude":53.8338436,"name":"Biciklitároló","city":"Elk","address":null,"covered":false,"access":null,"website":null,"phone":null,"source":"OpenStreetMap/node/13107091553","sourceUpdatedAt":null,"verifiedAt":null}},{"type":"Feature","geometry":{"type":"Point","coordinates":[22.3386634,53.8344058]},"properties":{"id":"bikerack:2d9dd104-9a54-4fba-9fbb-ab2129f332dd","kind":"bikerack","longitude":22.3386634,"latitude":53.8344058,"name":"Biciklitároló","city":"Elk","address":null,"covered":false,"access":null,"website":null,"phone":null,"source":"OpenStreetMap/node/13147798035","sourceUpdatedAt":null,"verifiedAt":null}},{"type":"Feature","geometry":{"type":"Point","coordinates":[22.3363781,53.834014]},"properties":{"id":"bikerack:2f168690-63e3-4096-a9e2-d489851e2c6e","kind":"bikerack","longitude":22.3363781,"latitude":53.834014,"name":"Biciklitároló","city":"Elk","address":null,"covered":false,"access":null,"website":null,"phone":null,"source":"OpenStreetMap/way/1420774045","sourceUpdatedAt":null,"verifiedAt":null}},{"type":"Feature","geometry":{"type":"Point","coordinates":[22.3459951,53.8326178]},"properties":{"id":"bikerack:3002f485-dcfc-467b-9085-7261c49c0b55","kind":"bikerack","longitude":22.3459951,"latitude":53.8326178,"name":"Biciklitároló","city":"Elk","address":null,"covered":false,"access":null,"website":null,"phone":null,"source":"OpenStreetMap/node/13108402822","sourceUpdatedAt":null,"verifiedAt":null}},{"type":"Feature","geometry":{"type":"Point","coordinates":[22.3443761,53.831843]},"properties":{"id":"bikerack:31757d6e-f50a-4c2a-8d2e-a313251379dd","kind":"bikerack","longitude":22.3443761,"latitude":53.831843,"name":"Biciklitároló","city":"Elk","address":null,"covered":false,"access":null,"website":null,"phone":null,"source":"OpenStreetMap/node/13058251059","sourceUpdatedAt":null,"verifiedAt":null}},{"type":"Feature","geometry":{"type":"Point","coordinates":[22.346448,53.8324581]},"properties":{"id":"bikerack:32f2f27a-dd51-47a6-a5d2-0b824046eb3e","kind":"bikerack","longitude":22.346448,"latitude":53.8324581,"name":"Biciklitároló","city":"Elk","address":null,"covered":false,"access":null,"website":null,"phone":null,"source":"OpenStreetMap/node/12697538857","sourceUpdatedAt":null,"verifiedAt":null}},{"type":"Feature","geometry":{"type":"Point","coordinates":[22.3441374,53.8295938]},"properties":{"id":"bikerack:36016bdc-c9cf-4cdc-9fe0-09810c549866","kind":"bikerack","longitude":22.3441374,"latitude":53.8295938,"name":"Biciklitároló","city":"Elk","address":null,"covered":false,"access":null,"website":null,"phone":null,"source":"OpenStreetMap/node/12673573383","sourceUpdatedAt":null,"verifiedAt":null}},{"type":"Feature","geometry":{"type":"Point","coordinates":[22.3355823,53.835254]},"properties":{"id":"bikerack:366dfe0d-b50f-4fb5-a185-a65d4e40a30c","kind":"bikerack","longitude":22.3355823,"latitude":53.835254,"name":"Biciklitároló","city":"Elk","address":null,"covered":false,"access":null,"website":null,"phone":null,"source":"OpenStreetMap/node/13162341096","sourceUpdatedAt":null,"verifiedAt":null}},{"type":"Feature","geometry":{"type":"Point","coordinates":[22.3399447,53.8315119]},"properties":{"id":"bikerack:393bc8b6-5920-45cb-8401-6118c5da5248","kind":"bikerack","longitude":22.3399447,"latitude":53.8315119,"name":"Biciklitároló","city":"Elk","address":null,"covered":false,"access":null,"website":null,"phone":null,"source":"OpenStreetMap/node/13155708042","sourceUpdatedAt":null,"verifiedAt":null}},{"type":"Feature","geometry":{"type":"Point","coordinates":[22.3410185,53.8351286]},"properties":{"id":"bikerack:3d00c623-4676-4a51-bdbc-2fbfe80e0c60","kind":"bikerack","longitude":22.3410185,"latitude":53.8351286,"name":"Biciklitároló","city":"Elk","address":null,"covered":false,"access":null,"website":null,"phone":null,"source":"OpenStreetMap/node/13159503931","sourceUpdatedAt":null,"verifiedAt":null}},{"type":"Feature","geometry":{"type":"Point","coordinates":[22.3353726,53.8352134]},"properties":{"id":"bikerack:406b82b9-7c52-415f-b842-61374dad6d08","kind":"bikerack","longitude":22.3353726,"latitude":53.8352134,"name":"Biciklitároló","city":"Elk","address":null,"covered":false,"access":null,"website":null,"phone":null,"source":"OpenStreetMap/node/13162341091","sourceUpdatedAt":null,"verifiedAt":null}},{"type":"Feature","geometry":{"type":"Point","coordinates":[22.3444934,53.8347247]},"properties":{"id":"bikerack:453588fc-9626-4299-8ea7-5aaa9d60b8e2","kind":"bikerack","longitude":22.3444934,"latitude":53.8347247,"name":"Biciklitároló","city":"Elk","address":null,"covered":false,"access":null,"website":null,"phone":null,"source":"OpenStreetMap/node/13094664749","sourceUpdatedAt":null,"verifiedAt":null}},{"type":"Feature","geometry":{"type":"Point","coordinates":[22.3339002,53.8346534]},"properties":{"id":"bikerack:45dcbc0e-3451-4940-8f31-0d2e7c1c14c4","kind":"bikerack","longitude":22.3339002,"latitude":53.8346534,"name":"Biciklitároló","city":"Elk","address":null,"covered":false,"access":null,"website":null,"phone":null,"source":"OpenStreetMap/node/9838962833","sourceUpdatedAt":null,"verifiedAt":null}},{"type":"Feature","geometry":{"type":"Point","coordinates":[22.3648234,53.8364398]},"properties":{"id":"bikerack:45e00e66-7697-480b-b5bf-dcd2b68e0be3","kind":"bikerack","longitude":22.3648234,"latitude":53.8364398,"name":"Biciklitároló","city":"Elk","address":null,"covered":false,"access":null,"website":null,"phone":null,"source":"OpenStreetMap/node/12666561399","sourceUpdatedAt":null,"verifiedAt":null}},{"type":"Feature","geometry":{"type":"Point","coordinates":[22.3339275,53.8339354]},"properties":{"id":"bikerack:462f9dda-21da-4734-b07d-0beef09978a5","kind":"bikerack","longitude":22.3339275,"latitude":53.8339354,"name":"Biciklitároló","city":"Elk","address":null,"covered":false,"access":null,"website":null,"phone":null,"source":"OpenStreetMap/node/13159540945","sourceUpdatedAt":null,"verifiedAt":null}},{"type":"Feature","geometry":{"type":"Point","coordinates":[22.3440713,53.8344259]},"properties":{"id":"bikerack:4708364f-c84a-41c0-ad8c-782a631f439b","kind":"bikerack","longitude":22.3440713,"latitude":53.8344259,"name":"Biciklitároló","city":"Elk","address":null,"covered":false,"access":null,"website":null,"phone":null,"source":"OpenStreetMap/node/13094664776","sourceUpdatedAt":null,"verifiedAt":null}},{"type":"Feature","geometry":{"type":"Point","coordinates":[22.3465604,53.8322]},"properties":{"id":"bikerack:4955b598-679c-4ae8-b979-9f949a98030f","kind":"bikerack","longitude":22.3465604,"latitude":53.8322,"name":"Biciklitároló","city":"Elk","address":null,"covered":false,"access":null,"website":null,"phone":null,"source":"OpenStreetMap/way/1370982937","sourceUpdatedAt":null,"verifiedAt":null}},{"type":"Feature","geometry":{"type":"Point","coordinates":[22.3439083,53.8320061]},"properties":{"id":"bikerack:498e207f-cff3-47d8-9673-a6a6b4413628","kind":"bikerack","longitude":22.3439083,"latitude":53.8320061,"name":"Biciklitároló","city":"Elk","address":null,"covered":false,"access":null,"website":null,"phone":null,"source":"OpenStreetMap/node/13058251067","sourceUpdatedAt":null,"verifiedAt":null}},{"type":"Feature","geometry":{"type":"Point","coordinates":[22.3392977,53.835278]},"properties":{"id":"bikerack:518a734b-1867-4b90-9e2a-a3d28683a496","kind":"bikerack","longitude":22.3392977,"latitude":53.835278,"name":"Biciklitároló","city":"Elk","address":null,"covered":false,"access":null,"website":null,"phone":null,"source":"OpenStreetMap/node/13162326852","sourceUpdatedAt":null,"verifiedAt":null}},{"type":"Feature","geometry":{"type":"Point","coordinates":[22.3454722,53.8342186]},"properties":{"id":"bikerack:51f68a0c-da47-4cb8-89e2-594d8264194d","kind":"bikerack","longitude":22.3454722,"latitude":53.8342186,"name":"Biciklitároló","city":"Elk","address":null,"covered":false,"access":null,"website":null,"phone":null,"source":"OpenStreetMap/node/13094664766","sourceUpdatedAt":null,"verifiedAt":null}},{"type":"Feature","geometry":{"type":"Point","coordinates":[22.345089,53.8297755]},"properties":{"id":"bikerack:52571a1d-efd3-40e6-a8b7-566f2656fa2f","kind":"bikerack","longitude":22.345089,"latitude":53.8297755,"name":"Biciklitároló","city":"Elk","address":null,"covered":false,"access":null,"website":null,"phone":null,"source":"OpenStreetMap/node/12663124270","sourceUpdatedAt":null,"verifiedAt":null}},{"type":"Feature","geometry":{"type":"Point","coordinates":[22.3444721,53.8344381]},"properties":{"id":"bikerack:535d90d5-c910-4882-a19e-562d26750a97","kind":"bikerack","longitude":22.3444721,"latitude":53.8344381,"name":"Biciklitároló","city":"Elk","address":null,"covered":false,"access":null,"website":null,"phone":null,"source":"OpenStreetMap/node/13094664754","sourceUpdatedAt":null,"verifiedAt":null}},{"type":"Feature","geometry":{"type":"Point","coordinates":[22.3443892,53.8322007]},"properties":{"id":"bikerack:54170b5d-e7fe-42f2-851f-aeaaf8ca2a40","kind":"bikerack","longitude":22.3443892,"latitude":53.8322007,"name":"Biciklitároló","city":"Elk","address":null,"covered":false,"access":null,"website":null,"phone":null,"source":"OpenStreetMap/node/13058251055","sourceUpdatedAt":null,"verifiedAt":null}},{"type":"Feature","geometry":{"type":"Point","coordinates":[22.3405719,53.834591]},"properties":{"id":"bikerack:55ae5061-b0cb-45bf-85e8-c3046049b110","kind":"bikerack","longitude":22.3405719,"latitude":53.834591,"name":"Biciklitároló","city":"Elk","address":null,"covered":false,"access":null,"website":null,"phone":null,"source":"OpenStreetMap/node/13147829677","sourceUpdatedAt":null,"verifiedAt":null}},{"type":"Feature","geometry":{"type":"Point","coordinates":[22.3406014,53.8315595]},"properties":{"id":"bikerack:560bcebb-fe70-4aaf-959e-273900027011","kind":"bikerack","longitude":22.3406014,"latitude":53.8315595,"name":"Biciklitároló","city":"Elk","address":null,"covered":false,"access":null,"website":null,"phone":null,"source":"OpenStreetMap/node/13155708041","sourceUpdatedAt":null,"verifiedAt":null}},{"type":"Feature","geometry":{"type":"Point","coordinates":[22.3480329,53.8334249]},"properties":{"id":"bikerack:59685874-3749-4b9d-8ce7-5bb3b978b1bd","kind":"bikerack","longitude":22.3480329,"latitude":53.8334249,"name":"Biciklitároló","city":"Elk","address":null,"covered":false,"access":null,"website":null,"phone":null,"source":"OpenStreetMap/node/13107091535","sourceUpdatedAt":null,"verifiedAt":null}},{"type":"Feature","geometry":{"type":"Point","coordinates":[22.3380029,53.8331062]},"properties":{"id":"bikerack:5b1e7ef2-bcd0-4c60-84b6-7a6173fb0dd8","kind":"bikerack","longitude":22.3380029,"latitude":53.8331062,"name":"Biciklitároló","city":"Elk","address":null,"covered":false,"access":null,"website":null,"phone":null,"source":"OpenStreetMap/node/13159503944","sourceUpdatedAt":null,"verifiedAt":null}},{"type":"Feature","geometry":{"type":"Point","coordinates":[22.3335533,53.8322365]},"properties":{"id":"bikerack:5f5218cf-cda3-45bb-851d-f234ce50ac3a","kind":"bikerack","longitude":22.3335533,"latitude":53.8322365,"name":"Biciklitároló","city":"Elk","address":null,"covered":false,"access":null,"website":null,"phone":null,"source":"OpenStreetMap/way/1334801433","sourceUpdatedAt":null,"verifiedAt":null}},{"type":"Feature","geometry":{"type":"Point","coordinates":[22.3398709,53.8339461]},"properties":{"id":"bikerack:60dfae07-a6ba-4bc1-8c58-b075d56b69e3","kind":"bikerack","longitude":22.3398709,"latitude":53.8339461,"name":"Biciklitároló","city":"Elk","address":null,"covered":false,"access":null,"website":null,"phone":null,"source":"OpenStreetMap/node/13147798038","sourceUpdatedAt":null,"verifiedAt":null}},{"type":"Feature","geometry":{"type":"Point","coordinates":[22.3426537,53.8349254]},"properties":{"id":"bikerack:62c7b965-50b9-42f3-a485-a04580bbb75c","kind":"bikerack","longitude":22.3426537,"latitude":53.8349254,"name":"Biciklitároló","city":"Elk","address":null,"covered":false,"access":null,"website":null,"phone":null,"source":"OpenStreetMap/node/13107091560","sourceUpdatedAt":null,"verifiedAt":null}},{"type":"Feature","geometry":{"type":"Point","coordinates":[22.3353089,53.8332746]},"properties":{"id":"bikerack:649bae11-023d-4d69-b83e-cc59623daf46","kind":"bikerack","longitude":22.3353089,"latitude":53.8332746,"name":"Biciklitároló","city":"Elk","address":null,"covered":false,"access":null,"website":null,"phone":null,"source":"OpenStreetMap/node/13159529843","sourceUpdatedAt":null,"verifiedAt":null}},{"type":"Feature","geometry":{"type":"Point","coordinates":[22.3444579,53.8326911]},"properties":{"id":"bikerack:649cd7f0-c5ba-49d8-801d-6d814d7b7392","kind":"bikerack","longitude":22.3444579,"latitude":53.8326911,"name":"Biciklitároló","city":"Elk","address":null,"covered":false,"access":null,"website":null,"phone":null,"source":"OpenStreetMap/node/13058251057","sourceUpdatedAt":null,"verifiedAt":null}},{"type":"Feature","geometry":{"type":"Point","coordinates":[22.3443795,53.8319566]},"properties":{"id":"bikerack:64f6134c-8366-4e2e-90be-8d9de3a8dcc4","kind":"bikerack","longitude":22.3443795,"latitude":53.8319566,"name":"Biciklitároló","city":"Elk","address":null,"covered":false,"access":null,"website":null,"phone":null,"source":"OpenStreetMap/node/13058251063","sourceUpdatedAt":null,"verifiedAt":null}},{"type":"Feature","geometry":{"type":"Point","coordinates":[22.3464547,53.8325852]},"properties":{"id":"bikerack:66a59a46-02bf-48b6-9d78-50d378c10247","kind":"bikerack","longitude":22.3464547,"latitude":53.8325852,"name":"Biciklitároló","city":"Elk","address":null,"covered":false,"access":null,"website":null,"phone":null,"source":"OpenStreetMap/node/12697538860","sourceUpdatedAt":null,"verifiedAt":null}},{"type":"Feature","geometry":{"type":"Point","coordinates":[22.3407828,53.8359681]},"properties":{"id":"bikerack:672eceaa-98ae-45b0-bc99-c8981c0b321a","kind":"bikerack","longitude":22.3407828,"latitude":53.8359681,"name":"Biciklitároló","city":"Elk","address":null,"covered":false,"access":null,"website":null,"phone":null,"source":"OpenStreetMap/way/1306367564","sourceUpdatedAt":null,"verifiedAt":null}},{"type":"Feature","geometry":{"type":"Point","coordinates":[22.3425583,53.8340744]},"properties":{"id":"bikerack:69c264e8-ef3b-4985-a1aa-770ad96f7c68","kind":"bikerack","longitude":22.3425583,"latitude":53.8340744,"name":"Biciklitároló","city":"Elk","address":null,"covered":false,"access":null,"website":null,"phone":null,"source":"OpenStreetMap/node/13107091552","sourceUpdatedAt":null,"verifiedAt":null}},{"type":"Feature","geometry":{"type":"Point","coordinates":[22.3401886,53.8316793]},"properties":{"id":"bikerack:6a352eaf-752c-465d-87bb-bebf88973a88","kind":"bikerack","longitude":22.3401886,"latitude":53.8316793,"name":"Biciklitároló","city":"Elk","address":null,"covered":false,"access":null,"website":null,"phone":null,"source":"OpenStreetMap/node/13155708043","sourceUpdatedAt":null,"verifiedAt":null}},{"type":"Feature","geometry":{"type":"Point","coordinates":[22.3464541,53.8325444]},"properties":{"id":"bikerack:6b0d13a1-f666-4bbd-9fd9-5a5c0f169157","kind":"bikerack","longitude":22.3464541,"latitude":53.8325444,"name":"Biciklitároló","city":"Elk","address":null,"covered":false,"access":null,"website":null,"phone":null,"source":"OpenStreetMap/node/12697538859","sourceUpdatedAt":null,"verifiedAt":null}},{"type":"Feature","geometry":{"type":"Point","coordinates":[22.336369,53.8349228]},"properties":{"id":"bikerack:6bfa467a-fcf7-44a1-9a10-0f0611638250","kind":"bikerack","longitude":22.336369,"latitude":53.8349228,"name":"Biciklitároló","city":"Elk","address":null,"covered":false,"access":null,"website":null,"phone":null,"source":"OpenStreetMap/node/13162341087","sourceUpdatedAt":null,"verifiedAt":null}},{"type":"Feature","geometry":{"type":"Point","coordinates":[22.3458803,53.8355555]},"properties":{"id":"bikerack:6d57a15a-4ae7-4b43-ba6e-7491ca37c49e","kind":"bikerack","longitude":22.3458803,"latitude":53.8355555,"name":"Biciklitároló","city":"Elk","address":null,"covered":false,"access":null,"website":null,"phone":null,"source":"OpenStreetMap/node/12666563405","sourceUpdatedAt":null,"verifiedAt":null}},{"type":"Feature","geometry":{"type":"Point","coordinates":[22.3444534,53.8326074]},"properties":{"id":"bikerack:6db68bb2-878f-42ef-87f4-1277804024cf","kind":"bikerack","longitude":22.3444534,"latitude":53.8326074,"name":"Biciklitároló","city":"Elk","address":null,"covered":false,"access":null,"website":null,"phone":null,"source":"OpenStreetMap/node/13058251044","sourceUpdatedAt":null,"verifiedAt":null}},{"type":"Feature","geometry":{"type":"Point","coordinates":[22.3441689,53.8348227]},"properties":{"id":"bikerack:6e6132b5-7cfa-465d-8d06-9ee09e931ad4","kind":"bikerack","longitude":22.3441689,"latitude":53.8348227,"name":"Biciklitároló","city":"Elk","address":null,"covered":false,"access":null,"website":null,"phone":null,"source":"OpenStreetMap/node/13094664744","sourceUpdatedAt":null,"verifiedAt":null}},{"type":"Feature","geometry":{"type":"Point","coordinates":[22.3467692,53.8310643]},"properties":{"id":"bikerack:6ee30d76-4864-480b-bb48-a031a161d3e4","kind":"bikerack","longitude":22.3467692,"latitude":53.8310643,"name":"Biciklitároló","city":"Elk","address":null,"covered":false,"access":null,"website":null,"phone":null,"source":"OpenStreetMap/node/13108450273","sourceUpdatedAt":null,"verifiedAt":null}},{"type":"Feature","geometry":{"type":"Point","coordinates":[22.3388509,53.8344141]},"properties":{"id":"bikerack:6fae497c-fbe6-44d8-8069-ae8c81b7e10b","kind":"bikerack","longitude":22.3388509,"latitude":53.8344141,"name":"Biciklitároló","city":"Elk","address":null,"covered":false,"access":null,"website":null,"phone":null,"source":"OpenStreetMap/node/13147798051","sourceUpdatedAt":null,"verifiedAt":null}},{"type":"Feature","geometry":{"type":"Point","coordinates":[22.3479845,53.8331702]},"properties":{"id":"bikerack:77eb6faa-4540-47cc-b66d-3b23e4fe37c5","kind":"bikerack","longitude":22.3479845,"latitude":53.8331702,"name":"Biciklitároló","city":"Elk","address":null,"covered":false,"access":null,"website":null,"phone":null,"source":"OpenStreetMap/node/13107091525","sourceUpdatedAt":null,"verifiedAt":null}},{"type":"Feature","geometry":{"type":"Point","coordinates":[22.3446942,53.8339159]},"properties":{"id":"bikerack:78cbf71c-b739-4691-b2ef-08e023ceed39","kind":"bikerack","longitude":22.3446942,"latitude":53.8339159,"name":"Biciklitároló","city":"Elk","address":null,"covered":false,"access":null,"website":null,"phone":null,"source":"OpenStreetMap/node/13108522114","sourceUpdatedAt":null,"verifiedAt":null}},{"type":"Feature","geometry":{"type":"Point","coordinates":[22.3399061,53.8317135]},"properties":{"id":"bikerack:78ed47fd-f5de-46d4-b86d-c77f43399264","kind":"bikerack","longitude":22.3399061,"latitude":53.8317135,"name":"Biciklitároló","city":"Elk","address":null,"covered":false,"access":null,"website":null,"phone":null,"source":"OpenStreetMap/node/13155708059","sourceUpdatedAt":null,"verifiedAt":null}},{"type":"Feature","geometry":{"type":"Point","coordinates":[22.3504843,53.8317926]},"properties":{"id":"bikerack:7eb7895f-6916-44a7-aa59-8c60c83eb010","kind":"bikerack","longitude":22.3504843,"latitude":53.8317926,"name":"Biciklitároló","city":"Elk","address":null,"covered":false,"access":null,"website":null,"phone":null,"source":"OpenStreetMap/node/12666563402","sourceUpdatedAt":null,"verifiedAt":null}},{"type":"Feature","geometry":{"type":"Point","coordinates":[22.347245,53.8327622]},"properties":{"id":"bikerack:802f2e5f-ddec-4be0-928f-7c307c8a4113","kind":"bikerack","longitude":22.347245,"latitude":53.8327622,"name":"Biciklitároló","city":"Elk","address":null,"covered":false,"access":null,"website":null,"phone":null,"source":"OpenStreetMap/node/13107091543","sourceUpdatedAt":null,"verifiedAt":null}},{"type":"Feature","geometry":{"type":"Point","coordinates":[22.3476187,53.8335104]},"properties":{"id":"bikerack:81f9b7f3-1e9c-4626-8538-76ca0971a00f","kind":"bikerack","longitude":22.3476187,"latitude":53.8335104,"name":"Biciklitároló","city":"Elk","address":null,"covered":false,"access":null,"website":null,"phone":null,"source":"OpenStreetMap/node/13094664745","sourceUpdatedAt":null,"verifiedAt":null}},{"type":"Feature","geometry":{"type":"Point","coordinates":[22.3421769,53.8345911]},"properties":{"id":"bikerack:83ab53d6-b847-46d9-93b1-352a76e47e3c","kind":"bikerack","longitude":22.3421769,"latitude":53.8345911,"name":"Biciklitároló","city":"Elk","address":null,"covered":false,"access":null,"website":null,"phone":null,"source":"OpenStreetMap/node/13107091556","sourceUpdatedAt":null,"verifiedAt":null}},{"type":"Feature","geometry":{"type":"Point","coordinates":[22.3422403,53.8343335]},"properties":{"id":"bikerack:85d80b82-42d8-4a2a-ae04-d4acce5f4f02","kind":"bikerack","longitude":22.3422403,"latitude":53.8343335,"name":"Biciklitároló","city":"Elk","address":null,"covered":false,"access":null,"website":null,"phone":null,"source":"OpenStreetMap/node/13107091537","sourceUpdatedAt":null,"verifiedAt":null}},{"type":"Feature","geometry":{"type":"Point","coordinates":[22.3511146,53.8319387]},"properties":{"id":"bikerack:898212c8-9824-4c25-9bbf-3f348037f181","kind":"bikerack","longitude":22.3511146,"latitude":53.8319387,"name":"Biciklitároló","city":"Elk","address":null,"covered":false,"access":null,"website":null,"phone":null,"source":"OpenStreetMap/node/12666563403","sourceUpdatedAt":null,"verifiedAt":null}},{"type":"Feature","geometry":{"type":"Point","coordinates":[22.3467246,53.8311239]},"properties":{"id":"bikerack:8bc250b5-d33d-45ab-8924-0a6c9f62e323","kind":"bikerack","longitude":22.3467246,"latitude":53.8311239,"name":"Biciklitároló","city":"Elk","address":null,"covered":false,"access":null,"website":null,"phone":null,"source":"OpenStreetMap/node/13108450292","sourceUpdatedAt":null,"verifiedAt":null}},{"type":"Feature","geometry":{"type":"Point","coordinates":[22.3484258,53.8345726]},"properties":{"id":"bikerack:8c8b0f8f-bd89-43b2-938f-3fd70e116fce","kind":"bikerack","longitude":22.3484258,"latitude":53.8345726,"name":"Biciklitároló","city":"Elk","address":null,"covered":false,"access":null,"website":null,"phone":null,"source":"OpenStreetMap/node/13107091545","sourceUpdatedAt":null,"verifiedAt":null}},{"type":"Feature","geometry":{"type":"Point","coordinates":[22.3350851,53.8352538]},"properties":{"id":"bikerack:8db8f9bb-43b1-4c2e-8316-a85a1f37b84f","kind":"bikerack","longitude":22.3350851,"latitude":53.8352538,"name":"Biciklitároló","city":"Elk","address":null,"covered":false,"access":null,"website":null,"phone":null,"source":"OpenStreetMap/node/13162341097","sourceUpdatedAt":null,"verifiedAt":null}},{"type":"Feature","geometry":{"type":"Point","coordinates":[22.3392572,53.8359344]},"properties":{"id":"bikerack:948fb1aa-acca-4370-ad75-aa6ca9885c44","kind":"bikerack","longitude":22.3392572,"latitude":53.8359344,"name":"Biciklitároló","city":"Elk","address":null,"covered":false,"access":null,"website":null,"phone":null,"source":"OpenStreetMap/way/1415446929","sourceUpdatedAt":null,"verifiedAt":null}},{"type":"Feature","geometry":{"type":"Point","coordinates":[22.344611,53.8331736]},"properties":{"id":"bikerack:96b12fb3-1a46-4036-8330-adcab0f10c01","kind":"bikerack","longitude":22.344611,"latitude":53.8331736,"name":"Biciklitároló","city":"Elk","address":null,"covered":false,"access":null,"website":null,"phone":null,"source":"OpenStreetMap/node/13094716772","sourceUpdatedAt":null,"verifiedAt":null}},{"type":"Feature","geometry":{"type":"Point","coordinates":[22.3436058,53.8314603]},"properties":{"id":"bikerack:998cfac5-384b-434f-bdca-be3f3d2fc2fe","kind":"bikerack","longitude":22.3436058,"latitude":53.8314603,"name":"Biciklitároló","city":"Elk","address":null,"covered":false,"access":null,"website":null,"phone":null,"source":"OpenStreetMap/node/13107091549","sourceUpdatedAt":null,"verifiedAt":null}},{"type":"Feature","geometry":{"type":"Point","coordinates":[22.3454662,53.8349112]},"properties":{"id":"bikerack:9e894e54-f963-4d3e-a70c-d37033257945","kind":"bikerack","longitude":22.3454662,"latitude":53.8349112,"name":"Biciklitároló","city":"Elk","address":null,"covered":false,"access":null,"website":null,"phone":null,"source":"OpenStreetMap/node/13094716776","sourceUpdatedAt":null,"verifiedAt":null}},{"type":"Feature","geometry":{"type":"Point","coordinates":[22.3440677,53.8341705]},"properties":{"id":"bikerack:a2997ac1-70e6-47af-b607-0b55cff72ce0","kind":"bikerack","longitude":22.3440677,"latitude":53.8341705,"name":"Biciklitároló","city":"Elk","address":null,"covered":false,"access":null,"website":null,"phone":null,"source":"OpenStreetMap/node/13094664747","sourceUpdatedAt":null,"verifiedAt":null}},{"type":"Feature","geometry":{"type":"Point","coordinates":[22.3373969,53.8356926]},"properties":{"id":"bikerack:a47bf2d7-edd2-4b57-a0d4-43533e6fb501","kind":"bikerack","longitude":22.3373969,"latitude":53.8356926,"name":"Biciklitároló","city":"Elk","address":null,"covered":false,"access":null,"website":null,"phone":null,"source":"OpenStreetMap/node/13147798061","sourceUpdatedAt":null,"verifiedAt":null}},{"type":"Feature","geometry":{"type":"Point","coordinates":[22.3471236,53.8309613]},"properties":{"id":"bikerack:b0d7a928-3b54-46c2-a68b-68c2f4b42ade","kind":"bikerack","longitude":22.3471236,"latitude":53.8309613,"name":"Biciklitároló","city":"Elk","address":null,"covered":false,"access":null,"website":null,"phone":null,"source":"OpenStreetMap/node/13107091567","sourceUpdatedAt":null,"verifiedAt":null}},{"type":"Feature","geometry":{"type":"Point","coordinates":[22.3476083,53.833217]},"properties":{"id":"bikerack:b5454f0f-e0a8-42e8-af5f-50184a5e0c94","kind":"bikerack","longitude":22.3476083,"latitude":53.833217,"name":"Biciklitároló","city":"Elk","address":null,"covered":false,"access":null,"website":null,"phone":null,"source":"OpenStreetMap/node/13094664777","sourceUpdatedAt":null,"verifiedAt":null}},{"type":"Feature","geometry":{"type":"Point","coordinates":[22.350321,53.8325129]},"properties":{"id":"bikerack:ba13370c-5e48-47e6-831d-0d24f3b15ae4","kind":"bikerack","longitude":22.350321,"latitude":53.8325129,"name":"Biciklitároló","city":"Elk","address":null,"covered":false,"access":null,"website":null,"phone":null,"source":"OpenStreetMap/node/12666563404","sourceUpdatedAt":null,"verifiedAt":null}},{"type":"Feature","geometry":{"type":"Point","coordinates":[22.3441133,53.8349959]},"properties":{"id":"bikerack:bac8b219-3405-46a5-b701-bf406ce0c3bb","kind":"bikerack","longitude":22.3441133,"latitude":53.8349959,"name":"Biciklitároló","city":"Elk","address":null,"covered":false,"access":null,"website":null,"phone":null,"source":"OpenStreetMap/node/13094664765","sourceUpdatedAt":null,"verifiedAt":null}},{"type":"Feature","geometry":{"type":"Point","coordinates":[22.3464496,53.8325011]},"properties":{"id":"bikerack:bb163a55-f72d-4d39-8e4b-41dde40f51ed","kind":"bikerack","longitude":22.3464496,"latitude":53.8325011,"name":"Biciklitároló","city":"Elk","address":null,"covered":false,"access":null,"website":null,"phone":null,"source":"OpenStreetMap/node/12697538858","sourceUpdatedAt":null,"verifiedAt":null}},{"type":"Feature","geometry":{"type":"Point","coordinates":[22.3363468,53.8345193]},"properties":{"id":"bikerack:bbdcb628-e499-43db-986a-60ce98800a84","kind":"bikerack","longitude":22.3363468,"latitude":53.8345193,"name":"Biciklitároló","city":"Elk","address":null,"covered":false,"access":null,"website":null,"phone":null,"source":"OpenStreetMap/node/13162364305","sourceUpdatedAt":null,"verifiedAt":null}},{"type":"Feature","geometry":{"type":"Point","coordinates":[22.3405905,53.8321171]},"properties":{"id":"bikerack:bd516190-ada2-4576-87ed-1e762d56ddd5","kind":"bikerack","longitude":22.3405905,"latitude":53.8321171,"name":"Biciklitároló","city":"Elk","address":null,"covered":false,"access":null,"website":null,"phone":null,"source":"OpenStreetMap/node/13155708052","sourceUpdatedAt":null,"verifiedAt":null}},{"type":"Feature","geometry":{"type":"Point","coordinates":[22.3438584,53.8322568]},"properties":{"id":"bikerack:bea33c61-4ea0-4505-ab54-bdd38bd3cd21","kind":"bikerack","longitude":22.3438584,"latitude":53.8322568,"name":"Biciklitároló","city":"Elk","address":null,"covered":false,"access":null,"website":null,"phone":null,"source":"OpenStreetMap/node/13058251062","sourceUpdatedAt":null,"verifiedAt":null}},{"type":"Feature","geometry":{"type":"Point","coordinates":[22.3454069,53.8314744]},"properties":{"id":"bikerack:c1611e7f-02ef-4ad4-baf5-a680177f3f0d","kind":"bikerack","longitude":22.3454069,"latitude":53.8314744,"name":"Biciklitároló","city":"Elk","address":null,"covered":false,"access":null,"website":null,"phone":null,"source":"OpenStreetMap/node/13058189162","sourceUpdatedAt":null,"verifiedAt":null}},{"type":"Feature","geometry":{"type":"Point","coordinates":[22.3444127,53.8323232]},"properties":{"id":"bikerack:c16be440-2498-4e28-bb03-1c32f813f52e","kind":"bikerack","longitude":22.3444127,"latitude":53.8323232,"name":"Biciklitároló","city":"Elk","address":null,"covered":false,"access":null,"website":null,"phone":null,"source":"OpenStreetMap/node/13058251065","sourceUpdatedAt":null,"verifiedAt":null}},{"type":"Feature","geometry":{"type":"Point","coordinates":[22.3459381,53.8321713]},"properties":{"id":"bikerack:c29e41f1-0556-4720-9c90-e7f002861817","kind":"bikerack","longitude":22.3459381,"latitude":53.8321713,"name":"Biciklitároló","city":"Elk","address":null,"covered":false,"access":null,"website":null,"phone":null,"source":"OpenStreetMap/node/13108402821","sourceUpdatedAt":null,"verifiedAt":null}},{"type":"Feature","geometry":{"type":"Point","coordinates":[22.3385028,53.8342588]},"properties":{"id":"bikerack:c611a0a3-ae06-4e67-9e61-0135d26cb447","kind":"bikerack","longitude":22.3385028,"latitude":53.8342588,"name":"Biciklitároló","city":"Elk","address":null,"covered":false,"access":null,"website":null,"phone":null,"source":"OpenStreetMap/node/13147798075","sourceUpdatedAt":null,"verifiedAt":null}},{"type":"Feature","geometry":{"type":"Point","coordinates":[22.3590935,53.8369748]},"properties":{"id":"bikerack:c87efe52-0c68-41c6-8004-1759cde145cb","kind":"bikerack","longitude":22.3590935,"latitude":53.8369748,"name":"Biciklitároló","city":"Elk","address":null,"covered":false,"access":null,"website":null,"phone":null,"source":"OpenStreetMap/node/12666561400","sourceUpdatedAt":null,"verifiedAt":null}},{"type":"Feature","geometry":{"type":"Point","coordinates":[22.3373115,53.8341796]},"properties":{"id":"bikerack:c9322255-c333-4772-9954-d1393732dd67","kind":"bikerack","longitude":22.3373115,"latitude":53.8341796,"name":"Biciklitároló","city":"Elk","address":null,"covered":false,"access":null,"website":null,"phone":null,"source":"OpenStreetMap/node/13162326844","sourceUpdatedAt":null,"verifiedAt":null}},{"type":"Feature","geometry":{"type":"Point","coordinates":[22.3406772,53.8322949]},"properties":{"id":"bikerack:cbfc087f-543b-4bd3-8455-42d735ebc31b","kind":"bikerack","longitude":22.3406772,"latitude":53.8322949,"name":"Biciklitároló","city":"Elk","address":null,"covered":false,"access":null,"website":null,"phone":null,"source":"OpenStreetMap/node/13155708039","sourceUpdatedAt":null,"verifiedAt":null}},{"type":"Feature","geometry":{"type":"Point","coordinates":[22.3464339,53.8321833]},"properties":{"id":"bikerack:cf4ad547-beab-4ab8-a167-010765e6cce3","kind":"bikerack","longitude":22.3464339,"latitude":53.8321833,"name":"Biciklitároló","city":"Elk","address":null,"covered":false,"access":null,"website":null,"phone":null,"source":"OpenStreetMap/way/1368059946","sourceUpdatedAt":null,"verifiedAt":null}},{"type":"Feature","geometry":{"type":"Point","coordinates":[22.3368347,53.8346515]},"properties":{"id":"bikerack:d44adeca-1363-4f1d-80a6-d19202f9c137","kind":"bikerack","longitude":22.3368347,"latitude":53.8346515,"name":"Biciklitároló","city":"Elk","address":null,"covered":false,"access":null,"website":null,"phone":null,"source":"OpenStreetMap/node/13147798074","sourceUpdatedAt":null,"verifiedAt":null}},{"type":"Feature","geometry":{"type":"Point","coordinates":[22.3390503,53.8353392]},"properties":{"id":"bikerack:d5aeede8-c2ee-4c6e-8e11-629de2b039af","kind":"bikerack","longitude":22.3390503,"latitude":53.8353392,"name":"Biciklitároló","city":"Elk","address":null,"covered":false,"access":null,"website":null,"phone":null,"source":"OpenStreetMap/node/13162326848","sourceUpdatedAt":null,"verifiedAt":null}},{"type":"Feature","geometry":{"type":"Point","coordinates":[22.3468154,53.8310873]},"properties":{"id":"bikerack:d7217bd1-fce7-4ae4-90e3-ae000eb5f706","kind":"bikerack","longitude":22.3468154,"latitude":53.8310873,"name":"Biciklitároló","city":"Elk","address":null,"covered":false,"access":null,"website":null,"phone":null,"source":"OpenStreetMap/node/13108450275","sourceUpdatedAt":null,"verifiedAt":null}},{"type":"Feature","geometry":{"type":"Point","coordinates":[22.3408949,53.8360042]},"properties":{"id":"bikerack:d767fa4a-2e83-4c59-9c8f-1d6e4a06c15f","kind":"bikerack","longitude":22.3408949,"latitude":53.8360042,"name":"Biciklitároló","city":"Elk","address":null,"covered":false,"access":null,"website":null,"phone":null,"source":"OpenStreetMap/way/1306367563","sourceUpdatedAt":null,"verifiedAt":null}},{"type":"Feature","geometry":{"type":"Point","coordinates":[22.3384044,53.8330708]},"properties":{"id":"bikerack:d7f662db-f27c-4a22-a626-72b09fb95b77","kind":"bikerack","longitude":22.3384044,"latitude":53.8330708,"name":"Biciklitároló","city":"Elk","address":null,"covered":false,"access":null,"website":null,"phone":null,"source":"OpenStreetMap/node/13159503946","sourceUpdatedAt":null,"verifiedAt":null}},{"type":"Feature","geometry":{"type":"Point","coordinates":[22.3464563,53.8326269]},"properties":{"id":"bikerack:de400b6f-b230-43cd-9958-7fa5e3dcc292","kind":"bikerack","longitude":22.3464563,"latitude":53.8326269,"name":"Biciklitároló","city":"Elk","address":null,"covered":false,"access":null,"website":null,"phone":null,"source":"OpenStreetMap/node/12697538861","sourceUpdatedAt":null,"verifiedAt":null}},{"type":"Feature","geometry":{"type":"Point","coordinates":[22.344965,53.8297803]},"properties":{"id":"bikerack:e011efb0-c06d-48a6-ac45-be068335ba56","kind":"bikerack","longitude":22.344965,"latitude":53.8297803,"name":"Biciklitároló","city":"Elk","address":null,"covered":false,"access":null,"website":null,"phone":null,"source":"OpenStreetMap/node/12663124267","sourceUpdatedAt":null,"verifiedAt":null}},{"type":"Feature","geometry":{"type":"Point","coordinates":[22.3444711,53.8342864]},"properties":{"id":"bikerack:e4e3d18c-83ff-49e5-88fc-38dac6171058","kind":"bikerack","longitude":22.3444711,"latitude":53.8342864,"name":"Biciklitároló","city":"Elk","address":null,"covered":false,"access":null,"website":null,"phone":null,"source":"OpenStreetMap/node/13094664761","sourceUpdatedAt":null,"verifiedAt":null}},{"type":"Feature","geometry":{"type":"Point","coordinates":[22.3367914,53.8347134]},"properties":{"id":"bikerack:e788dec2-bdfd-4e4c-ad47-160ed26b15f5","kind":"bikerack","longitude":22.3367914,"latitude":53.8347134,"name":"Biciklitároló","city":"Elk","address":null,"covered":false,"access":null,"website":null,"phone":null,"source":"OpenStreetMap/node/13147798069","sourceUpdatedAt":null,"verifiedAt":null}},{"type":"Feature","geometry":{"type":"Point","coordinates":[22.3390688,53.8326555]},"properties":{"id":"bikerack:e816379f-8f1c-4716-b8dc-af62b86021ba","kind":"bikerack","longitude":22.3390688,"latitude":53.8326555,"name":"Biciklitároló","city":"Elk","address":null,"covered":false,"access":null,"website":null,"phone":null,"source":"OpenStreetMap/node/13159503943","sourceUpdatedAt":null,"verifiedAt":null}},{"type":"Feature","geometry":{"type":"Point","coordinates":[22.3393541,53.8326]},"properties":{"id":"bikerack:e9ebbae0-8c15-4ea1-a36e-c1500e546a60","kind":"bikerack","longitude":22.3393541,"latitude":53.8326,"name":"Biciklitároló","city":"Elk","address":null,"covered":false,"access":null,"website":null,"phone":null,"source":"OpenStreetMap/node/13159503930","sourceUpdatedAt":null,"verifiedAt":null}},{"type":"Feature","geometry":{"type":"Point","coordinates":[22.3426498,53.8349924]},"properties":{"id":"bikerack:eed88617-6ebd-4c20-862e-cf96aa566462","kind":"bikerack","longitude":22.3426498,"latitude":53.8349924,"name":"Biciklitároló","city":"Elk","address":null,"covered":false,"access":null,"website":null,"phone":null,"source":"OpenStreetMap/node/13107091532","sourceUpdatedAt":null,"verifiedAt":null}},{"type":"Feature","geometry":{"type":"Point","coordinates":[22.3370161,53.8347202]},"properties":{"id":"bikerack:ef0f3c88-204c-4a52-a001-b8f40f63b2b7","kind":"bikerack","longitude":22.3370161,"latitude":53.8347202,"name":"Biciklitároló","city":"Elk","address":null,"covered":false,"access":null,"website":null,"phone":null,"source":"OpenStreetMap/node/13147798043","sourceUpdatedAt":null,"verifiedAt":null}},{"type":"Feature","geometry":{"type":"Point","coordinates":[22.3375137,53.8333203]},"properties":{"id":"bikerack:f0281ae3-2389-461e-aee1-32c5fe8c3194","kind":"bikerack","longitude":22.3375137,"latitude":53.8333203,"name":"Biciklitároló","city":"Elk","address":null,"covered":false,"access":null,"website":null,"phone":null,"source":"OpenStreetMap/node/13159503925","sourceUpdatedAt":null,"verifiedAt":null}},{"type":"Feature","geometry":{"type":"Point","coordinates":[22.3382709,53.8359581]},"properties":{"id":"bikerack:f2107408-42f1-4da0-8cbd-a03eee6cc94c","kind":"bikerack","longitude":22.3382709,"latitude":53.8359581,"name":"Biciklitároló","city":"Elk","address":null,"covered":false,"access":null,"website":null,"phone":null,"source":"OpenStreetMap/way/1415446927","sourceUpdatedAt":null,"verifiedAt":null}},{"type":"Feature","geometry":{"type":"Point","coordinates":[22.3438737,53.8323312]},"properties":{"id":"bikerack:f3353636-be08-4265-a9cf-fc12b61aae9b","kind":"bikerack","longitude":22.3438737,"latitude":53.8323312,"name":"Biciklitároló","city":"Elk","address":null,"covered":false,"access":null,"website":null,"phone":null,"source":"OpenStreetMap/node/13058251046","sourceUpdatedAt":null,"verifiedAt":null}},{"type":"Feature","geometry":{"type":"Point","coordinates":[22.3388394,53.8334649]},"properties":{"id":"bikerack:f525e2b5-d9c9-4216-b789-ca4660f55a4d","kind":"bikerack","longitude":22.3388394,"latitude":53.8334649,"name":"Biciklitároló","city":"Elk","address":null,"covered":false,"access":null,"website":null,"phone":null,"source":"OpenStreetMap/node/13147798066","sourceUpdatedAt":null,"verifiedAt":null}},{"type":"Feature","geometry":{"type":"Point","coordinates":[22.3464402,53.8322941]},"properties":{"id":"bikerack:f97fa309-318c-498f-a533-628c225e51ad","kind":"bikerack","longitude":22.3464402,"latitude":53.8322941,"name":"Biciklitároló","city":"Elk","address":null,"covered":false,"access":null,"website":null,"phone":null,"source":"OpenStreetMap/node/12697538856","sourceUpdatedAt":null,"verifiedAt":null}},{"type":"Feature","geometry":{"type":"Point","coordinates":[22.3364683,53.8338769]},"properties":{"id":"bikerack:f9deb21a-6118-41e4-8c12-6b25da71f8ef","kind":"bikerack","longitude":22.3364683,"latitude":53.8338769,"name":"Biciklitároló","city":"Elk","address":null,"covered":false,"access":null,"website":null,"phone":null,"source":"OpenStreetMap/way/1420774046","sourceUpdatedAt":null,"verifiedAt":null}},{"type":"Feature","geometry":{"type":"Point","coordinates":[22.3370796,53.8358039]},"properties":{"id":"bikerack:fc38fde3-37de-4139-8dd3-f26d597fae85","kind":"bikerack","longitude":22.3370796,"latitude":53.8358039,"name":"Biciklitároló","city":"Elk","address":null,"covered":false,"access":null,"website":null,"phone":null,"source":"OpenStreetMap/node/13147798060","sourceUpdatedAt":null,"verifiedAt":null}},{"type":"Feature","geometry":{"type":"Point","coordinates":[22.3375288,53.8355076]},"properties":{"id":"water:4e7c596c-9c3c-415d-8c62-0dd3c644aa88","kind":"water","longitude":22.3375288,"latitude":53.8355076,"name":"Ivókút","city":"Elk","address":null,"covered":null,"access":null,"website":null,"phone":null,"source":"OpenStreetMap/node/13037014576","sourceUpdatedAt":null,"verifiedAt":null}}]}