{"type":"FeatureCollection","features":[{"type":"Feature","geometry":{"type":"Point","coordinates":[20.1405811,47.5123673]},"properties":{"id":"bikerack:32d164f8-c91a-41b5-9f02-6b8b4aa8bff9","kind":"bikerack","longitude":20.1405811,"latitude":47.5123673,"name":"Biciklitároló","city":"Jaszapati","address":null,"covered":false,"access":null,"website":null,"phone":null,"source":"OpenStreetMap/node/2316450230","sourceUpdatedAt":null,"verifiedAt":null}},{"type":"Feature","geometry":{"type":"Point","coordinates":[20.1285467,47.5098522]},"properties":{"id":"water:23f2051f-52cd-412a-bc95-e122bb034463","kind":"water","longitude":20.1285467,"latitude":47.5098522,"name":"Ivókút","city":null,"address":null,"covered":null,"access":null,"website":null,"phone":null,"source":"OpenStreetMap","sourceUpdatedAt":null,"verifiedAt":null}},{"type":"Feature","geometry":{"type":"Point","coordinates":[20.1526811,47.5153943]},"properties":{"id":"water:445e604d-5db5-487d-ae8d-af2399f98f63","kind":"water","longitude":20.1526811,"latitude":47.5153943,"name":"Ivókút","city":null,"address":null,"covered":null,"access":null,"website":null,"phone":null,"source":"OpenStreetMap","sourceUpdatedAt":null,"verifiedAt":null}},{"type":"Feature","geometry":{"type":"Point","coordinates":[20.155174,47.5139331]},"properties":{"id":"water:4afbdc3c-e934-4bc5-9929-1ab9b47c888c","kind":"water","longitude":20.155174,"latitude":47.5139331,"name":"Ivókút","city":null,"address":null,"covered":null,"access":null,"website":null,"phone":null,"source":"OpenStreetMap","sourceUpdatedAt":null,"verifiedAt":null}},{"type":"Feature","geometry":{"type":"Point","coordinates":[20.141403,47.509374]},"properties":{"id":"water:8c6876d2-3eee-4d51-b68d-ac29cd9c44e8","kind":"water","longitude":20.141403,"latitude":47.509374,"name":"Ivókút","city":null,"address":null,"covered":null,"access":null,"website":null,"phone":null,"source":"OpenStreetMap","sourceUpdatedAt":null,"verifiedAt":null}},{"type":"Feature","geometry":{"type":"Point","coordinates":[20.1405627,47.5164444]},"properties":{"id":"water:8eae62d1-6f41-4632-a679-6a4f127076ca","kind":"water","longitude":20.1405627,"latitude":47.5164444,"name":"Ivókút","city":null,"address":null,"covered":null,"access":null,"website":null,"phone":null,"source":"OpenStreetMap","sourceUpdatedAt":null,"verifiedAt":null}},{"type":"Feature","geometry":{"type":"Point","coordinates":[20.1408054,47.5119847]},"properties":{"id":"water:b48dd915-f512-42ef-97db-45bc6d318f4f","kind":"water","longitude":20.1408054,"latitude":47.5119847,"name":"Ivókút","city":null,"address":null,"covered":null,"access":null,"website":null,"phone":null,"source":"OpenStreetMap","sourceUpdatedAt":null,"verifiedAt":null}},{"type":"Feature","geometry":{"type":"Point","coordinates":[20.143801,47.508586]},"properties":{"id":"water:bed6850a-7ac0-43e6-8cec-de799ec3870f","kind":"water","longitude":20.143801,"latitude":47.508586,"name":"Ivókút","city":null,"address":null,"covered":null,"access":null,"website":null,"phone":null,"source":"OpenStreetMap","sourceUpdatedAt":null,"verifiedAt":null}},{"type":"Feature","geometry":{"type":"Point","coordinates":[20.1291834,47.5101108]},"properties":{"id":"water:f27feb8b-67c1-43d0-b61b-52b7043dd57f","kind":"water","longitude":20.1291834,"latitude":47.5101108,"name":"Ivókút","city":null,"address":null,"covered":null,"access":null,"website":null,"phone":null,"source":"OpenStreetMap","sourceUpdatedAt":null,"verifiedAt":null}}]}