{"type":"FeatureCollection","features":[{"type":"Feature","geometry":{"type":"Point","coordinates":[20.1360354,47.0166367]},"properties":{"id":"water:1f3c5df9-b203-41e6-b5cd-cd6f0c2f5915","kind":"water","longitude":20.1360354,"latitude":47.0166367,"name":"Ivókút","city":null,"address":null,"covered":null,"access":null,"website":null,"phone":null,"source":"OpenStreetMap","sourceUpdatedAt":null,"verifiedAt":null}},{"type":"Feature","geometry":{"type":"Point","coordinates":[20.1431274,47.0344725]},"properties":{"id":"water:808c3026-2f06-44a5-8284-fe80c291bbf0","kind":"water","longitude":20.1431274,"latitude":47.0344725,"name":"Ivókút","city":null,"address":null,"covered":null,"access":null,"website":null,"phone":null,"source":"OpenStreetMap","sourceUpdatedAt":null,"verifiedAt":null}},{"type":"Feature","geometry":{"type":"Point","coordinates":[20.1469003,47.0167154]},"properties":{"id":"water:d9aa1f4b-835d-4337-b1aa-bac015bb120d","kind":"water","longitude":20.1469003,"latitude":47.0167154,"name":"Ivókút","city":null,"address":null,"covered":null,"access":null,"website":null,"phone":null,"source":"OpenStreetMap","sourceUpdatedAt":null,"verifiedAt":null}}]}