{"type":"FeatureCollection","features":[{"type":"Feature","geometry":{"type":"Point","coordinates":[20.1390913,46.4372639]},"properties":{"id":"water:5f0b264f-fee9-41f7-ad0f-d602e13a3a40","kind":"water","longitude":20.1390913,"latitude":46.4372639,"name":"Ivókút","city":null,"address":null,"covered":null,"access":null,"website":null,"phone":null,"source":"OpenStreetMap","sourceUpdatedAt":null,"verifiedAt":null}},{"type":"Feature","geometry":{"type":"Point","coordinates":[20.1364559,46.4350687]},"properties":{"id":"water:62b797dd-1bf9-4eaf-a548-bcb8a4b90140","kind":"water","longitude":20.1364559,"latitude":46.4350687,"name":"Ivókút","city":null,"address":null,"covered":null,"access":null,"website":null,"phone":null,"source":"OpenStreetMap","sourceUpdatedAt":null,"verifiedAt":null}},{"type":"Feature","geometry":{"type":"Point","coordinates":[20.1314928,46.4377987]},"properties":{"id":"water:b36cd344-6234-4fa6-9338-0692e7f6ab66","kind":"water","longitude":20.1314928,"latitude":46.4377987,"name":"Ivókút","city":null,"address":null,"covered":null,"access":null,"website":null,"phone":null,"source":"OpenStreetMap","sourceUpdatedAt":null,"verifiedAt":null}},{"type":"Feature","geometry":{"type":"Point","coordinates":[20.1387696,46.4348095]},"properties":{"id":"water:d7bf16ab-df36-47bc-a09b-b742ca3f0dfc","kind":"water","longitude":20.1387696,"latitude":46.4348095,"name":"Ivókút","city":null,"address":null,"covered":null,"access":null,"website":null,"phone":null,"source":"OpenStreetMap","sourceUpdatedAt":null,"verifiedAt":null}}]}