{"type":"FeatureCollection","features":[{"type":"Feature","geometry":{"type":"Point","coordinates":[22.8263678,52.9997906]},"properties":{"id":"bikerack:ae49ab9d-03df-4d4e-8c34-8a78ebe26fb0","kind":"bikerack","longitude":22.8263678,"latitude":52.9997906,"name":"MOR Płonka Kościelna","city":"Lapy","address":null,"covered":true,"access":null,"website":null,"phone":null,"source":"OpenStreetMap/way/1304237095","sourceUpdatedAt":null,"verifiedAt":null}},{"type":"Feature","geometry":{"type":"Point","coordinates":[22.8146123,52.9986534]},"properties":{"id":"water:35e9dc27-2013-47ae-9d03-f2a175af0f7b","kind":"water","longitude":22.8146123,"latitude":52.9986534,"name":"Źródło cudownej wody na Łasku","city":"Lapy","address":null,"covered":null,"access":null,"website":null,"phone":null,"source":"OpenStreetMap/node/1248780330","sourceUpdatedAt":null,"verifiedAt":null}}]}