{"type":"FeatureCollection","features":[{"type":"Feature","geometry":{"type":"Point","coordinates":[10.6857203,52.2674036]},"properties":{"id":"bikerack:c46a572b-b8a9-486f-bdcf-4652df00a856","kind":"bikerack","longitude":10.6857203,"latitude":52.2674036,"name":"Schandelah","city":"Cremlingen","address":null,"covered":false,"access":null,"website":null,"phone":null,"source":"OpenStreetMap/node/12662661600","sourceUpdatedAt":null,"verifiedAt":null}},{"type":"Feature","geometry":{"type":"Point","coordinates":[10.6857273,52.267404]},"properties":{"id":"bikerack:de76cb09-d2ff-4f15-9220-2ea1b11dcab3","kind":"bikerack","longitude":10.6857273,"latitude":52.267404,"name":"Fahrradabstellplatz","city":"Cremlingen","address":null,"covered":false,"access":null,"website":null,"phone":null,"source":"OpenStreetMap/way/727102813","sourceUpdatedAt":null,"verifiedAt":null}},{"type":"Feature","geometry":{"type":"Point","coordinates":[10.7207563,52.2459586]},"properties":{"id":"water:4e182ca9-4245-460f-a231-22895f98b4dc","kind":"water","longitude":10.7207563,"latitude":52.2459586,"name":"Trinkwasser","city":"Erkerode","address":null,"covered":null,"access":null,"website":null,"phone":null,"source":"OpenStreetMap/node/12059164169","sourceUpdatedAt":null,"verifiedAt":null}}]}