{"type":"FeatureCollection","features":[{"type":"Feature","geometry":{"type":"Point","coordinates":[10.7175248,50.9377595]},"properties":{"id":"bikerack:030d417c-6c53-4105-ae7d-a876fe51ba16","kind":"bikerack","longitude":10.7175248,"latitude":50.9377595,"name":"Fahrradabstellplatz","city":"Gotha","address":null,"covered":false,"access":null,"website":null,"phone":null,"source":"OpenStreetMap/node/8587888571","sourceUpdatedAt":null,"verifiedAt":null}},{"type":"Feature","geometry":{"type":"Point","coordinates":[10.7041649,50.9504624]},"properties":{"id":"bikerack:18fd2f04-691f-4f17-aebf-1904aede8e8d","kind":"bikerack","longitude":10.7041649,"latitude":50.9504624,"name":"Fahrradabstellplatz","city":"Gotha","address":null,"covered":false,"access":null,"website":null,"phone":null,"source":"OpenStreetMap/node/2851619642","sourceUpdatedAt":null,"verifiedAt":null}},{"type":"Feature","geometry":{"type":"Point","coordinates":[10.6991346,50.9502114]},"properties":{"id":"bikerack:1be5706a-2060-4e35-8386-8eb8e741e9b1","kind":"bikerack","longitude":10.6991346,"latitude":50.9502114,"name":"Fahrradabstellplatz","city":"Gotha","address":null,"covered":false,"access":null,"website":null,"phone":null,"source":"OpenStreetMap/node/2851619639","sourceUpdatedAt":null,"verifiedAt":null}},{"type":"Feature","geometry":{"type":"Point","coordinates":[10.7053499,50.9501257]},"properties":{"id":"bikerack:3b91c124-389e-44a3-acda-99ade23751e6","kind":"bikerack","longitude":10.7053499,"latitude":50.9501257,"name":"Fahrradabstellplatz","city":"Gotha","address":null,"covered":false,"access":null,"website":null,"phone":null,"source":"OpenStreetMap/node/2851619638","sourceUpdatedAt":null,"verifiedAt":null}},{"type":"Feature","geometry":{"type":"Point","coordinates":[10.7015012,50.9493292]},"properties":{"id":"bikerack:42fab5dc-b920-4d70-90bb-6c179d1722a0","kind":"bikerack","longitude":10.7015012,"latitude":50.9493292,"name":"Fahrradabstellplatz","city":"Gotha","address":null,"covered":false,"access":null,"website":null,"phone":null,"source":"OpenStreetMap/node/2851619633","sourceUpdatedAt":null,"verifiedAt":null}},{"type":"Feature","geometry":{"type":"Point","coordinates":[10.7039248,50.9500534]},"properties":{"id":"bikerack:47ae6190-34b3-47fb-aa14-f5d39cce18de","kind":"bikerack","longitude":10.7039248,"latitude":50.9500534,"name":"Fahrradabstellplatz","city":"Gotha","address":null,"covered":false,"access":null,"website":null,"phone":null,"source":"OpenStreetMap/node/2851619637","sourceUpdatedAt":null,"verifiedAt":null}},{"type":"Feature","geometry":{"type":"Point","coordinates":[10.6959161,50.9509093]},"properties":{"id":"bikerack:57c803a7-ae56-4f52-ae09-c06e4efcf215","kind":"bikerack","longitude":10.6959161,"latitude":50.9509093,"name":"Fahrradabstellplatz","city":"Gotha","address":null,"covered":false,"access":null,"website":null,"phone":null,"source":"OpenStreetMap/node/933315112","sourceUpdatedAt":null,"verifiedAt":null}},{"type":"Feature","geometry":{"type":"Point","coordinates":[10.7156542,50.9408627]},"properties":{"id":"bikerack:5ca98cb4-a45b-4cc6-99f0-2093564d1790","kind":"bikerack","longitude":10.7156542,"latitude":50.9408627,"name":"Fahrradabstellplatz","city":"Gotha","address":null,"covered":false,"access":null,"website":null,"phone":null,"source":"OpenStreetMap/node/8223683342","sourceUpdatedAt":null,"verifiedAt":null}},{"type":"Feature","geometry":{"type":"Point","coordinates":[10.6974775,50.93959]},"properties":{"id":"bikerack:65dd2bcc-9545-4b24-b1fd-cf3a92069ade","kind":"bikerack","longitude":10.6974775,"latitude":50.93959,"name":"Fahrradabstellplatz","city":"Gotha","address":null,"covered":false,"access":null,"website":null,"phone":null,"source":"OpenStreetMap/node/8919706088","sourceUpdatedAt":null,"verifiedAt":null}},{"type":"Feature","geometry":{"type":"Point","coordinates":[10.7122442,50.9393216]},"properties":{"id":"bikerack:9d1d77ab-7c0d-484d-9014-3c4b609a126c","kind":"bikerack","longitude":10.7122442,"latitude":50.9393216,"name":"DB Kunden","city":"Gotha","address":null,"covered":false,"access":null,"website":null,"phone":null,"source":"OpenStreetMap/way/128424612","sourceUpdatedAt":null,"verifiedAt":null}},{"type":"Feature","geometry":{"type":"Point","coordinates":[10.6996907,50.9472266]},"properties":{"id":"bikerack:afecbafd-d37b-48ed-b56b-10b2e5cf7ae4","kind":"bikerack","longitude":10.6996907,"latitude":50.9472266,"name":"Fahrradabstellplatz","city":"Gotha","address":null,"covered":false,"access":null,"website":null,"phone":null,"source":"OpenStreetMap/node/9045425030","sourceUpdatedAt":null,"verifiedAt":null}},{"type":"Feature","geometry":{"type":"Point","coordinates":[10.6974047,50.9466464]},"properties":{"id":"bikerack:c1cc7ab6-0199-42fe-a3df-8921196f7b94","kind":"bikerack","longitude":10.6974047,"latitude":50.9466464,"name":"Fahrradabstellplatz","city":"Gotha","address":null,"covered":false,"access":null,"website":null,"phone":null,"source":"OpenStreetMap/node/7840976602","sourceUpdatedAt":null,"verifiedAt":null}},{"type":"Feature","geometry":{"type":"Point","coordinates":[10.7033563,50.9505805]},"properties":{"id":"bikerack:c808144a-e047-4577-8179-ffda64454584","kind":"bikerack","longitude":10.7033563,"latitude":50.9505805,"name":"Fahrradabstellplatz","city":"Gotha","address":null,"covered":false,"access":null,"website":null,"phone":null,"source":"OpenStreetMap/node/2851619643","sourceUpdatedAt":null,"verifiedAt":null}},{"type":"Feature","geometry":{"type":"Point","coordinates":[10.7033239,50.9499861]},"properties":{"id":"bikerack:df880a7a-62ce-4835-b296-049027c5456e","kind":"bikerack","longitude":10.7033239,"latitude":50.9499861,"name":"Fahrradabstellplatz","city":"Gotha","address":null,"covered":false,"access":null,"website":null,"phone":null,"source":"OpenStreetMap/node/13686533995","sourceUpdatedAt":null,"verifiedAt":null}},{"type":"Feature","geometry":{"type":"Point","coordinates":[10.7011085,50.9492124]},"properties":{"id":"bikerack:fa45f33f-c951-4b59-bb82-fbc3f4326c94","kind":"bikerack","longitude":10.7011085,"latitude":50.9492124,"name":"Fahrradabstellplatz","city":"Gotha","address":null,"covered":false,"access":null,"website":null,"phone":null,"source":"OpenStreetMap/node/2851619632","sourceUpdatedAt":null,"verifiedAt":null}},{"type":"Feature","geometry":{"type":"Point","coordinates":[10.7091102,50.9490362]},"properties":{"id":"repair:21943b8f-3b90-4836-9dec-7d8ed8674087","kind":"repair","longitude":10.7091102,"latitude":50.9490362,"name":"Fahrradreparaturstation","city":"Gotha","address":null,"covered":false,"access":null,"website":null,"phone":null,"source":"OpenStreetMap/node/12034817021","sourceUpdatedAt":null,"verifiedAt":null}},{"type":"Feature","geometry":{"type":"Point","coordinates":[10.707072,50.9497562]},"properties":{"id":"service:22af9978-4c82-48ab-89ff-e67a21b87388","kind":"service","longitude":10.707072,"latitude":50.9497562,"name":"Fahrrad Fähling","city":"Gotha","address":null,"covered":null,"access":null,"website":null,"phone":null,"source":"OpenStreetMap/node/8665736704","sourceUpdatedAt":null,"verifiedAt":null}},{"type":"Feature","geometry":{"type":"Point","coordinates":[10.6977585,50.9502993]},"properties":{"id":"service:408ddb77-c121-402c-aad3-c5cd7be29f1e","kind":"service","longitude":10.6977585,"latitude":50.9502993,"name":"Little John Bikes","city":"Gotha","address":null,"covered":null,"access":null,"website":null,"phone":null,"source":"OpenStreetMap/node/9629770089","sourceUpdatedAt":null,"verifiedAt":null}},{"type":"Feature","geometry":{"type":"Point","coordinates":[10.7104991,50.9554385]},"properties":{"id":"service:75a311b6-2f51-4f6c-82ab-6ed12a247b9d","kind":"service","longitude":10.7104991,"latitude":50.9554385,"name":"Fahrrad-Eberhardt","city":"Gotha","address":null,"covered":null,"access":null,"website":null,"phone":null,"source":"OpenStreetMap/node/7704643966","sourceUpdatedAt":null,"verifiedAt":null}},{"type":"Feature","geometry":{"type":"Point","coordinates":[10.6982274,50.9458951]},"properties":{"id":"service:d0ecb11f-6b28-4770-a36f-1cb5a9bcfa37","kind":"service","longitude":10.6982274,"latitude":50.9458951,"name":"Rad-Art","city":"Gotha","address":null,"covered":null,"access":null,"website":null,"phone":null,"source":"OpenStreetMap/node/8729379148","sourceUpdatedAt":null,"verifiedAt":null}}]}