{"type":"FeatureCollection","features":[{"type":"Feature","geometry":{"type":"Point","coordinates":[10.7134831,47.6835688]},"properties":{"id":"bikerack:c72b0314-7497-4af2-9508-5257b27de4ac","kind":"bikerack","longitude":10.7134831,"latitude":47.6835688,"name":"Fahrradabstellplatz","city":"Rosshaupten","address":null,"covered":false,"access":null,"website":null,"phone":null,"source":"OpenStreetMap/node/12171149661","sourceUpdatedAt":null,"verifiedAt":null}},{"type":"Feature","geometry":{"type":"Point","coordinates":[10.7133524,47.6836099]},"properties":{"id":"repair:daaa5409-8b86-4693-8f9e-00e1449c01b8","kind":"repair","longitude":10.7133524,"latitude":47.6836099,"name":"Fahrradreparaturstation","city":"Rosshaupten","address":null,"covered":false,"access":null,"website":null,"phone":null,"source":"OpenStreetMap/node/8720766260","sourceUpdatedAt":null,"verifiedAt":null}}]}