{"type":"FeatureCollection","features":[{"type":"Feature","geometry":{"type":"Point","coordinates":[10.7189381,47.4052135]},"properties":{"id":"water:514090ca-196c-4b87-98d6-c657745d80ba","kind":"water","longitude":10.7189381,"latitude":47.4052135,"name":"Ivókút","city":"Berwang","address":null,"covered":null,"access":null,"website":null,"phone":null,"source":"OpenStreetMap/node/11198048683","sourceUpdatedAt":null,"verifiedAt":null}},{"type":"Feature","geometry":{"type":"Point","coordinates":[10.6907624,47.4031236]},"properties":{"id":"water:bbc31fa7-f027-4a5f-8b5d-60a304517e51","kind":"water","longitude":10.6907624,"latitude":47.4031236,"name":"Ivókút","city":"Berwang","address":null,"covered":null,"access":null,"website":null,"phone":null,"source":"OpenStreetMap/node/7248716248","sourceUpdatedAt":null,"verifiedAt":null}},{"type":"Feature","geometry":{"type":"Point","coordinates":[10.6837453,47.4199949]},"properties":{"id":"water:ca85cff3-0a77-4e27-bfe5-77673cce3d2e","kind":"water","longitude":10.6837453,"latitude":47.4199949,"name":"Ivókút","city":"Hofen","address":null,"covered":null,"access":null,"website":null,"phone":null,"source":"OpenStreetMap/node/11198048684","sourceUpdatedAt":null,"verifiedAt":null}}]}