{"type":"FeatureCollection","features":[{"type":"Feature","geometry":{"type":"Point","coordinates":[23.8689158,53.7188564]},"properties":{"id":"bikerack:0bf21f6e-0c7e-41d3-819a-58fff90b0648","kind":"bikerack","longitude":23.8689158,"latitude":53.7188564,"name":"Bicycle Parking","city":"Hrodna","address":null,"covered":true,"access":null,"website":null,"phone":null,"source":"OpenStreetMap/node/7498044283","sourceUpdatedAt":null,"verifiedAt":null}},{"type":"Feature","geometry":{"type":"Point","coordinates":[23.8669443,53.7204903]},"properties":{"id":"bikerack:101837ac-e60a-4ae8-b5de-08f66fee2b80","kind":"bikerack","longitude":23.8669443,"latitude":53.7204903,"name":"Bicycle Parking","city":"Hrodna","address":null,"covered":true,"access":null,"website":null,"phone":null,"source":"OpenStreetMap/node/8313376266","sourceUpdatedAt":null,"verifiedAt":null}},{"type":"Feature","geometry":{"type":"Point","coordinates":[23.8779235,53.7179011]},"properties":{"id":"bikerack:12a9274f-1eff-4000-88a6-aae961258083","kind":"bikerack","longitude":23.8779235,"latitude":53.7179011,"name":"Bicycle Parking","city":"Hrodna","address":null,"covered":false,"access":null,"website":null,"phone":null,"source":"OpenStreetMap/node/11711617491","sourceUpdatedAt":null,"verifiedAt":null}},{"type":"Feature","geometry":{"type":"Point","coordinates":[23.8739587,53.7215993]},"properties":{"id":"bikerack:2037cd15-dba8-456e-a5ea-6e3783a0566e","kind":"bikerack","longitude":23.8739587,"latitude":53.7215993,"name":"Bicycle Parking","city":"Hrodna","address":null,"covered":false,"access":null,"website":null,"phone":null,"source":"OpenStreetMap/way/1292901840","sourceUpdatedAt":null,"verifiedAt":null}},{"type":"Feature","geometry":{"type":"Point","coordinates":[23.8797864,53.7184075]},"properties":{"id":"bikerack:27e99010-59af-4b19-822f-f502bf8e2b54","kind":"bikerack","longitude":23.8797864,"latitude":53.7184075,"name":"Bicycle Parking","city":"Hrodna","address":null,"covered":false,"access":null,"website":null,"phone":null,"source":"OpenStreetMap/way/1473271837","sourceUpdatedAt":null,"verifiedAt":null}},{"type":"Feature","geometry":{"type":"Point","coordinates":[23.8773847,53.7176961]},"properties":{"id":"bikerack:2f3e64d6-197c-432f-b39b-afd478fc11fe","kind":"bikerack","longitude":23.8773847,"latitude":53.7176961,"name":"Bicycle Parking","city":"Hrodna","address":null,"covered":false,"access":null,"website":null,"phone":null,"source":"OpenStreetMap/node/11711617490","sourceUpdatedAt":null,"verifiedAt":null}},{"type":"Feature","geometry":{"type":"Point","coordinates":[23.8727837,53.7205424]},"properties":{"id":"bikerack:3331f89b-e3bd-419b-81b9-5a26ee8a0cc3","kind":"bikerack","longitude":23.8727837,"latitude":53.7205424,"name":"Bicycle Parking","city":"Hrodna","address":null,"covered":false,"access":null,"website":null,"phone":null,"source":"OpenStreetMap/node/8644729840","sourceUpdatedAt":null,"verifiedAt":null}},{"type":"Feature","geometry":{"type":"Point","coordinates":[23.8755625,53.7225551]},"properties":{"id":"bikerack:46b58678-9e44-42b9-92f2-6968270dfb4c","kind":"bikerack","longitude":23.8755625,"latitude":53.7225551,"name":"Bicycle Parking","city":"Hrodna","address":null,"covered":false,"access":null,"website":null,"phone":null,"source":"OpenStreetMap/node/12148362514","sourceUpdatedAt":null,"verifiedAt":null}},{"type":"Feature","geometry":{"type":"Point","coordinates":[23.874663,53.7205408]},"properties":{"id":"bikerack:4b330e03-31d4-4806-aa19-4164cd6db6e3","kind":"bikerack","longitude":23.874663,"latitude":53.7205408,"name":"Bicycle Parking","city":"Hrodna","address":null,"covered":false,"access":null,"website":null,"phone":null,"source":"OpenStreetMap/node/8906634640","sourceUpdatedAt":null,"verifiedAt":null}},{"type":"Feature","geometry":{"type":"Point","coordinates":[23.8681326,53.71736]},"properties":{"id":"bikerack:537a94e6-be32-46e1-8f7e-39877c4ce569","kind":"bikerack","longitude":23.8681326,"latitude":53.71736,"name":"Bicycle Parking","city":"Hrodna","address":null,"covered":true,"access":null,"website":null,"phone":null,"source":"OpenStreetMap/node/9210287562","sourceUpdatedAt":null,"verifiedAt":null}},{"type":"Feature","geometry":{"type":"Point","coordinates":[23.8633689,53.7190573]},"properties":{"id":"bikerack:5d8e99c3-232f-4701-aa8b-7dbc352fc1c0","kind":"bikerack","longitude":23.8633689,"latitude":53.7190573,"name":"Bicycle Parking","city":"Hrodna","address":null,"covered":true,"access":null,"website":null,"phone":null,"source":"OpenStreetMap/node/6756037152","sourceUpdatedAt":null,"verifiedAt":null}},{"type":"Feature","geometry":{"type":"Point","coordinates":[23.8640425,53.7204714]},"properties":{"id":"bikerack:646ae75c-996b-4176-8951-0a38364a9bfc","kind":"bikerack","longitude":23.8640425,"latitude":53.7204714,"name":"Bicycle Parking","city":"Hrodna","address":null,"covered":false,"access":null,"website":null,"phone":null,"source":"OpenStreetMap/node/11027721422","sourceUpdatedAt":null,"verifiedAt":null}},{"type":"Feature","geometry":{"type":"Point","coordinates":[23.8647376,53.7181137]},"properties":{"id":"bikerack:74f4a747-797f-4310-b4ba-ad3d0a12317a","kind":"bikerack","longitude":23.8647376,"latitude":53.7181137,"name":"Bicycle Parking","city":"Hrodna","address":null,"covered":true,"access":null,"website":null,"phone":null,"source":"OpenStreetMap/way/789627946","sourceUpdatedAt":null,"verifiedAt":null}},{"type":"Feature","geometry":{"type":"Point","coordinates":[23.8645651,53.7209589]},"properties":{"id":"bikerack:76791ac5-ef4b-47d8-84b3-22876a56c3c7","kind":"bikerack","longitude":23.8645651,"latitude":53.7209589,"name":"Bicycle Parking","city":"Hrodna","address":null,"covered":true,"access":null,"website":null,"phone":null,"source":"OpenStreetMap/node/9315133542","sourceUpdatedAt":null,"verifiedAt":null}},{"type":"Feature","geometry":{"type":"Point","coordinates":[23.8644574,53.7206504]},"properties":{"id":"bikerack:7b6f0e98-c919-4d0c-a054-341a54683bb2","kind":"bikerack","longitude":23.8644574,"latitude":53.7206504,"name":"Bicycle Parking","city":"Hrodna","address":null,"covered":false,"access":null,"website":null,"phone":null,"source":"OpenStreetMap/node/10965819186","sourceUpdatedAt":null,"verifiedAt":null}},{"type":"Feature","geometry":{"type":"Point","coordinates":[23.8671088,53.7132136]},"properties":{"id":"bikerack:80c5a30c-1eb4-4ed1-b078-cf9676b7ae6f","kind":"bikerack","longitude":23.8671088,"latitude":53.7132136,"name":"Bicycle Parking","city":"Hrodna","address":null,"covered":false,"access":null,"website":null,"phone":null,"source":"OpenStreetMap/node/4919077986","sourceUpdatedAt":null,"verifiedAt":null}},{"type":"Feature","geometry":{"type":"Point","coordinates":[23.882302,53.7199832]},"properties":{"id":"bikerack:8a3c38c2-20f5-42be-b43a-8e1e9a9b5da3","kind":"bikerack","longitude":23.882302,"latitude":53.7199832,"name":"Bicycle Parking","city":"Hrodna","address":null,"covered":false,"access":null,"website":null,"phone":null,"source":"OpenStreetMap/node/10209854231","sourceUpdatedAt":null,"verifiedAt":null}},{"type":"Feature","geometry":{"type":"Point","coordinates":[23.8667276,53.7183485]},"properties":{"id":"bikerack:8ed90d46-c2b2-429d-a926-918707ad9d91","kind":"bikerack","longitude":23.8667276,"latitude":53.7183485,"name":"Bicycle Parking","city":"Hrodna","address":null,"covered":true,"access":null,"website":null,"phone":null,"source":"OpenStreetMap/node/9315158088","sourceUpdatedAt":null,"verifiedAt":null}},{"type":"Feature","geometry":{"type":"Point","coordinates":[23.8685067,53.7183807]},"properties":{"id":"bikerack:90134105-df07-4684-ac6b-b5ccb68605b3","kind":"bikerack","longitude":23.8685067,"latitude":53.7183807,"name":"Bicycle Parking","city":"Hrodna","address":null,"covered":true,"access":null,"website":null,"phone":null,"source":"OpenStreetMap/node/8346220335","sourceUpdatedAt":null,"verifiedAt":null}},{"type":"Feature","geometry":{"type":"Point","coordinates":[23.8661267,53.7179314]},"properties":{"id":"bikerack:95c07798-bd8f-4d84-8b6e-a520f806789e","kind":"bikerack","longitude":23.8661267,"latitude":53.7179314,"name":"Bicycle Parking","city":"Hrodna","address":null,"covered":true,"access":null,"website":null,"phone":null,"source":"OpenStreetMap/node/6719646811","sourceUpdatedAt":null,"verifiedAt":null}},{"type":"Feature","geometry":{"type":"Point","coordinates":[23.8822179,53.7219049]},"properties":{"id":"bikerack:b00da0db-d02a-4139-af0f-22b02fa0772f","kind":"bikerack","longitude":23.8822179,"latitude":53.7219049,"name":"Bicycle Parking","city":"Hrodna","address":null,"covered":false,"access":null,"website":null,"phone":null,"source":"OpenStreetMap/node/9972271431","sourceUpdatedAt":null,"verifiedAt":null}},{"type":"Feature","geometry":{"type":"Point","coordinates":[23.8700433,53.7214817]},"properties":{"id":"bikerack:b661d5b7-715b-4c7c-9b22-a56e48cb579b","kind":"bikerack","longitude":23.8700433,"latitude":53.7214817,"name":"Bicycle Parking","city":"Hrodna","address":null,"covered":false,"access":null,"website":null,"phone":null,"source":"OpenStreetMap/node/13342197871","sourceUpdatedAt":null,"verifiedAt":null}},{"type":"Feature","geometry":{"type":"Point","coordinates":[23.8637472,53.7208765]},"properties":{"id":"bikerack:c2a38f35-e0ec-4c0b-954b-05b73d70a79e","kind":"bikerack","longitude":23.8637472,"latitude":53.7208765,"name":"Bicycle Parking","city":"Hrodna","address":null,"covered":false,"access":null,"website":null,"phone":null,"source":"OpenStreetMap/node/10777943977","sourceUpdatedAt":null,"verifiedAt":null}},{"type":"Feature","geometry":{"type":"Point","coordinates":[23.8738595,53.7205303]},"properties":{"id":"bikerack:cb7f0de9-4a50-400a-9a03-18b6c162c444","kind":"bikerack","longitude":23.8738595,"latitude":53.7205303,"name":"Bicycle Parking","city":"Hrodna","address":null,"covered":false,"access":null,"website":null,"phone":null,"source":"OpenStreetMap/node/9051516002","sourceUpdatedAt":null,"verifiedAt":null}},{"type":"Feature","geometry":{"type":"Point","coordinates":[23.882194,53.7215096]},"properties":{"id":"bikerack:ccac609c-32f1-46db-ba10-78caef2db055","kind":"bikerack","longitude":23.882194,"latitude":53.7215096,"name":"Bicycle Parking","city":"Hrodna","address":null,"covered":false,"access":null,"website":null,"phone":null,"source":"OpenStreetMap/node/9972271432","sourceUpdatedAt":null,"verifiedAt":null}},{"type":"Feature","geometry":{"type":"Point","coordinates":[23.8746918,53.7186446]},"properties":{"id":"bikerack:d20a72e8-6eae-4c8f-9f52-c2314d73c2f4","kind":"bikerack","longitude":23.8746918,"latitude":53.7186446,"name":"Bicycle Parking","city":"Hrodna","address":null,"covered":false,"access":null,"website":null,"phone":null,"source":"OpenStreetMap/node/11711617478","sourceUpdatedAt":null,"verifiedAt":null}},{"type":"Feature","geometry":{"type":"Point","coordinates":[23.866782,53.7179205]},"properties":{"id":"bikerack:d358903b-b4ef-48dc-8199-21645f617fec","kind":"bikerack","longitude":23.866782,"latitude":53.7179205,"name":"Bicycle Parking","city":"Hrodna","address":null,"covered":true,"access":null,"website":null,"phone":null,"source":"OpenStreetMap/node/7270674790","sourceUpdatedAt":null,"verifiedAt":null}},{"type":"Feature","geometry":{"type":"Point","coordinates":[23.8752574,53.7171235]},"properties":{"id":"bikerack:d69f540d-482a-4bc9-a08b-796daf2e9dcd","kind":"bikerack","longitude":23.8752574,"latitude":53.7171235,"name":"Bicycle Parking","city":"Hrodna","address":null,"covered":false,"access":null,"website":null,"phone":null,"source":"OpenStreetMap/node/11711616335","sourceUpdatedAt":null,"verifiedAt":null}},{"type":"Feature","geometry":{"type":"Point","coordinates":[23.8730949,53.7215258]},"properties":{"id":"bikerack:d7049e3b-bd76-4925-a09a-6e27acd95629","kind":"bikerack","longitude":23.8730949,"latitude":53.7215258,"name":"Bicycle Parking","city":"Hrodna","address":null,"covered":false,"access":null,"website":null,"phone":null,"source":"OpenStreetMap/node/8644729841","sourceUpdatedAt":null,"verifiedAt":null}},{"type":"Feature","geometry":{"type":"Point","coordinates":[23.8680172,53.7196474]},"properties":{"id":"bikerack:d9f94be2-1adc-48f2-8440-adbe532f1086","kind":"bikerack","longitude":23.8680172,"latitude":53.7196474,"name":"Bicycle Parking","city":"Hrodna","address":null,"covered":true,"access":null,"website":null,"phone":null,"source":"OpenStreetMap/node/8313353252","sourceUpdatedAt":null,"verifiedAt":null}},{"type":"Feature","geometry":{"type":"Point","coordinates":[23.8844872,53.722229]},"properties":{"id":"bikerack:df34316f-b9b8-49bd-bb0d-c506a2f2e3e4","kind":"bikerack","longitude":23.8844872,"latitude":53.722229,"name":"Bicycle Parking","city":"Hrodna","address":null,"covered":false,"access":null,"website":null,"phone":null,"source":"OpenStreetMap/node/12346881043","sourceUpdatedAt":null,"verifiedAt":null}},{"type":"Feature","geometry":{"type":"Point","coordinates":[23.8737962,53.7182406]},"properties":{"id":"bikerack:e6b2d771-cb20-47a2-be7d-a6883a723d22","kind":"bikerack","longitude":23.8737962,"latitude":53.7182406,"name":"Bicycle Parking","city":"Hrodna","address":null,"covered":false,"access":null,"website":null,"phone":null,"source":"OpenStreetMap/node/11711617472","sourceUpdatedAt":null,"verifiedAt":null}},{"type":"Feature","geometry":{"type":"Point","coordinates":[23.8731139,53.7187828]},"properties":{"id":"bikerack:e71ba682-5d37-4a1f-a313-fa75a075e260","kind":"bikerack","longitude":23.8731139,"latitude":53.7187828,"name":"Bicycle Parking","city":"Hrodna","address":null,"covered":false,"access":null,"website":null,"phone":null,"source":"OpenStreetMap/node/10293803361","sourceUpdatedAt":null,"verifiedAt":null}}]}