{"type":"FeatureCollection","features":[{"type":"Feature","geometry":{"type":"Point","coordinates":[14.853802,51.1253923]},"properties":{"id":"bikerack:2fea3505-12c3-41aa-b5d2-4ce15ef3fa55","kind":"bikerack","longitude":14.853802,"latitude":51.1253923,"name":"Fahrradabstellplatz","city":"Markersdorf","address":null,"covered":true,"access":null,"website":null,"phone":null,"source":"OpenStreetMap/node/6834173410","sourceUpdatedAt":null,"verifiedAt":null}},{"type":"Feature","geometry":{"type":"Point","coordinates":[14.8537593,51.1251918]},"properties":{"id":"bikerack:4adfcdf9-7b5c-4f68-8d58-e0dfdaa1e2a5","kind":"bikerack","longitude":14.8537593,"latitude":51.1251918,"name":"Fahrradabstellplatz","city":"Markersdorf","address":null,"covered":true,"access":null,"website":null,"phone":null,"source":"OpenStreetMap/node/2548913676","sourceUpdatedAt":null,"verifiedAt":null}},{"type":"Feature","geometry":{"type":"Point","coordinates":[14.8841551,51.1362505]},"properties":{"id":"bikerack:5314e70f-330c-4d93-b4e2-152d2a51572a","kind":"bikerack","longitude":14.8841551,"latitude":51.1362505,"name":"Fahrradabstellplatz","city":"Markersdorf","address":null,"covered":true,"access":null,"website":null,"phone":null,"source":"OpenStreetMap/way/1427064851","sourceUpdatedAt":null,"verifiedAt":null}},{"type":"Feature","geometry":{"type":"Point","coordinates":[14.8818624,51.1423785]},"properties":{"id":"bikerack:6d845dca-4f67-4949-b3e7-4894458b5761","kind":"bikerack","longitude":14.8818624,"latitude":51.1423785,"name":"Fahrradabstellplatz","city":"Markersdorf","address":null,"covered":true,"access":null,"website":null,"phone":null,"source":"OpenStreetMap/way/1431446177","sourceUpdatedAt":null,"verifiedAt":null}},{"type":"Feature","geometry":{"type":"Point","coordinates":[14.8873113,51.1463801]},"properties":{"id":"bikerack:951c8fd3-800c-4b35-83a3-773715ea1de4","kind":"bikerack","longitude":14.8873113,"latitude":51.1463801,"name":"Fahrradabstellplatz","city":"Markersdorf","address":null,"covered":false,"access":null,"website":null,"phone":null,"source":"OpenStreetMap/node/11306848739","sourceUpdatedAt":null,"verifiedAt":null}},{"type":"Feature","geometry":{"type":"Point","coordinates":[14.8900159,51.1466557]},"properties":{"id":"bikerack:c509b924-dba8-4e54-8bd0-f7cf88fc8893","kind":"bikerack","longitude":14.8900159,"latitude":51.1466557,"name":"Fahrradabstellplatz","city":"Markersdorf","address":null,"covered":false,"access":null,"website":null,"phone":null,"source":"OpenStreetMap/node/11265502710","sourceUpdatedAt":null,"verifiedAt":null}},{"type":"Feature","geometry":{"type":"Point","coordinates":[14.8902137,51.1465714]},"properties":{"id":"bikerack:fb5a2eb9-c475-48bd-8c1d-59dd87972593","kind":"bikerack","longitude":14.8902137,"latitude":51.1465714,"name":"Fahrradabstellplatz","city":"Markersdorf","address":null,"covered":false,"access":null,"website":null,"phone":null,"source":"OpenStreetMap/node/11265502709","sourceUpdatedAt":null,"verifiedAt":null}}]}