{"type":"FeatureCollection","features":[{"type":"Feature","geometry":{"type":"Point","coordinates":[14.8723241,48.1229965]},"properties":{"id":"bikerack:08858725-6314-4a0f-9804-2ece2af4b5f7","kind":"bikerack","longitude":14.8723241,"latitude":48.1229965,"name":"Biciklitároló","city":"Amstetten","address":null,"covered":false,"access":null,"website":null,"phone":null,"source":"OpenStreetMap/node/12075653088","sourceUpdatedAt":null,"verifiedAt":null}},{"type":"Feature","geometry":{"type":"Point","coordinates":[14.8799424,48.1222806]},"properties":{"id":"bikerack:099cc619-659a-48f0-a117-afa7765d2608","kind":"bikerack","longitude":14.8799424,"latitude":48.1222806,"name":"Biciklitároló","city":"Amstetten","address":null,"covered":true,"access":null,"website":null,"phone":null,"source":"OpenStreetMap/way/157114619","sourceUpdatedAt":null,"verifiedAt":null}},{"type":"Feature","geometry":{"type":"Point","coordinates":[14.8727204,48.1229513]},"properties":{"id":"bikerack:1c3c381d-3059-4eb3-a5be-fa1d61f1b8f3","kind":"bikerack","longitude":14.8727204,"latitude":48.1229513,"name":"Biciklitároló","city":"Amstetten","address":null,"covered":false,"access":null,"website":null,"phone":null,"source":"OpenStreetMap/node/12075653091","sourceUpdatedAt":null,"verifiedAt":null}},{"type":"Feature","geometry":{"type":"Point","coordinates":[14.8731351,48.1228557]},"properties":{"id":"bikerack:1f4e7a51-a9dc-45ac-95ca-163b7fab8d67","kind":"bikerack","longitude":14.8731351,"latitude":48.1228557,"name":"Biciklitároló","city":"Amstetten","address":null,"covered":false,"access":null,"website":null,"phone":null,"source":"OpenStreetMap/node/12075632659","sourceUpdatedAt":null,"verifiedAt":null}},{"type":"Feature","geometry":{"type":"Point","coordinates":[14.8690416,48.1217492]},"properties":{"id":"bikerack:1fbfe82f-4293-4209-929d-f7b54625a222","kind":"bikerack","longitude":14.8690416,"latitude":48.1217492,"name":"Biciklitároló","city":"Amstetten","address":null,"covered":false,"access":null,"website":null,"phone":null,"source":"OpenStreetMap/node/4921776357","sourceUpdatedAt":null,"verifiedAt":null}},{"type":"Feature","geometry":{"type":"Point","coordinates":[14.8766408,48.1086277]},"properties":{"id":"bikerack:29bd6080-f6f1-43c5-84ef-d04368cda3f0","kind":"bikerack","longitude":14.8766408,"latitude":48.1086277,"name":"Biciklitároló","city":"Amstetten","address":null,"covered":false,"access":null,"website":null,"phone":null,"source":"OpenStreetMap/node/11260260262","sourceUpdatedAt":null,"verifiedAt":null}},{"type":"Feature","geometry":{"type":"Point","coordinates":[14.873235,48.1228363]},"properties":{"id":"bikerack:2b7380ff-0784-4286-845d-6775ccda907a","kind":"bikerack","longitude":14.873235,"latitude":48.1228363,"name":"Biciklitároló","city":"Amstetten","address":null,"covered":true,"access":null,"website":null,"phone":null,"source":"OpenStreetMap/node/12075632658","sourceUpdatedAt":null,"verifiedAt":null}},{"type":"Feature","geometry":{"type":"Point","coordinates":[14.8732939,48.1228202]},"properties":{"id":"bikerack:30c739b6-156c-4a6c-98a7-946aea04c733","kind":"bikerack","longitude":14.8732939,"latitude":48.1228202,"name":"Biciklitároló","city":"Amstetten","address":null,"covered":true,"access":null,"website":null,"phone":null,"source":"OpenStreetMap/node/12075632653","sourceUpdatedAt":null,"verifiedAt":null}},{"type":"Feature","geometry":{"type":"Point","coordinates":[14.8663043,48.1223599]},"properties":{"id":"bikerack:38db6ca7-6ba2-4e78-b363-d3aea02edde1","kind":"bikerack","longitude":14.8663043,"latitude":48.1223599,"name":"Biciklitároló","city":"Amstetten","address":null,"covered":false,"access":null,"website":null,"phone":null,"source":"OpenStreetMap/node/4921777371","sourceUpdatedAt":null,"verifiedAt":null}},{"type":"Feature","geometry":{"type":"Point","coordinates":[14.8716546,48.1191291]},"properties":{"id":"bikerack:398a7802-0470-4b49-b24e-6341157aeceb","kind":"bikerack","longitude":14.8716546,"latitude":48.1191291,"name":"Biciklitároló","city":"Amstetten","address":null,"covered":false,"access":null,"website":null,"phone":null,"source":"OpenStreetMap/node/4359309128","sourceUpdatedAt":null,"verifiedAt":null}},{"type":"Feature","geometry":{"type":"Point","coordinates":[14.8728292,48.1234788]},"properties":{"id":"bikerack:40798409-283d-416e-800a-119d02cff993","kind":"bikerack","longitude":14.8728292,"latitude":48.1234788,"name":"Biciklitároló","city":"Amstetten","address":null,"covered":false,"access":null,"website":null,"phone":null,"source":"OpenStreetMap/node/12075653070","sourceUpdatedAt":null,"verifiedAt":null}},{"type":"Feature","geometry":{"type":"Point","coordinates":[14.8767425,48.1193384]},"properties":{"id":"bikerack:46416fce-26d5-480c-8496-b111ad909811","kind":"bikerack","longitude":14.8767425,"latitude":48.1193384,"name":"Biciklitároló","city":"Amstetten","address":null,"covered":true,"access":null,"website":null,"phone":null,"source":"OpenStreetMap/node/4359309334","sourceUpdatedAt":null,"verifiedAt":null}},{"type":"Feature","geometry":{"type":"Point","coordinates":[14.8714903,48.1198189]},"properties":{"id":"bikerack:4b3b1355-0dc1-439b-a104-b1592a4a30b1","kind":"bikerack","longitude":14.8714903,"latitude":48.1198189,"name":"Biciklitároló","city":"Amstetten","address":null,"covered":false,"access":null,"website":null,"phone":null,"source":"OpenStreetMap/node/4359309903","sourceUpdatedAt":null,"verifiedAt":null}},{"type":"Feature","geometry":{"type":"Point","coordinates":[14.8779723,48.1221659]},"properties":{"id":"bikerack:4cfe9381-eadd-4d24-84ea-965ba6e37b65","kind":"bikerack","longitude":14.8779723,"latitude":48.1221659,"name":"Biciklitároló","city":"Amstetten","address":null,"covered":false,"access":null,"website":null,"phone":null,"source":"OpenStreetMap/node/4921777044","sourceUpdatedAt":null,"verifiedAt":null}},{"type":"Feature","geometry":{"type":"Point","coordinates":[14.872054,48.119066]},"properties":{"id":"bikerack:4d9dbd16-9854-49a3-ae96-e3a0aa58ee5a","kind":"bikerack","longitude":14.872054,"latitude":48.119066,"name":"Biciklitároló","city":"Amstetten","address":null,"covered":false,"access":null,"website":null,"phone":null,"source":"OpenStreetMap/node/4359309084","sourceUpdatedAt":null,"verifiedAt":null}},{"type":"Feature","geometry":{"type":"Point","coordinates":[14.8796271,48.1192177]},"properties":{"id":"bikerack:5b934525-42e4-4d3e-87e8-ee3e0fe50268","kind":"bikerack","longitude":14.8796271,"latitude":48.1192177,"name":"Biciklitároló","city":"Amstetten","address":null,"covered":false,"access":null,"website":null,"phone":null,"source":"OpenStreetMap/node/4359309229","sourceUpdatedAt":null,"verifiedAt":null}},{"type":"Feature","geometry":{"type":"Point","coordinates":[14.8759823,48.1227146]},"properties":{"id":"bikerack:5eb12502-9982-4956-bab0-fba3053981e7","kind":"bikerack","longitude":14.8759823,"latitude":48.1227146,"name":"Biciklitároló","city":"Amstetten","address":null,"covered":false,"access":null,"website":null,"phone":null,"source":"OpenStreetMap/node/4921778070","sourceUpdatedAt":null,"verifiedAt":null}},{"type":"Feature","geometry":{"type":"Point","coordinates":[14.8785145,48.1171786]},"properties":{"id":"bikerack:68aebefd-fee4-4fc9-aca2-d52ac96361ef","kind":"bikerack","longitude":14.8785145,"latitude":48.1171786,"name":"Biciklitároló","city":"Amstetten","address":null,"covered":false,"access":null,"website":null,"phone":null,"source":"OpenStreetMap/way/438197939","sourceUpdatedAt":null,"verifiedAt":null}},{"type":"Feature","geometry":{"type":"Point","coordinates":[14.8734154,48.1161192]},"properties":{"id":"bikerack:69f3e9a0-9521-40aa-851b-af3646f18948","kind":"bikerack","longitude":14.8734154,"latitude":48.1161192,"name":"Biciklitároló","city":"Amstetten","address":null,"covered":false,"access":null,"website":null,"phone":null,"source":"OpenStreetMap/way/464110956","sourceUpdatedAt":null,"verifiedAt":null}},{"type":"Feature","geometry":{"type":"Point","coordinates":[14.8711187,48.1234204]},"properties":{"id":"bikerack:79792d73-6eea-4d41-8d92-f165dc337434","kind":"bikerack","longitude":14.8711187,"latitude":48.1234204,"name":"Biciklitároló","city":"Amstetten","address":null,"covered":true,"access":null,"website":null,"phone":null,"source":"OpenStreetMap/node/12075632663","sourceUpdatedAt":null,"verifiedAt":null}},{"type":"Feature","geometry":{"type":"Point","coordinates":[14.8729552,48.1235552]},"properties":{"id":"bikerack:955a53a1-2803-4b03-b393-aea6f0137676","kind":"bikerack","longitude":14.8729552,"latitude":48.1235552,"name":"Biciklitároló","city":"Amstetten","address":null,"covered":false,"access":null,"website":null,"phone":null,"source":"OpenStreetMap/node/12075653104","sourceUpdatedAt":null,"verifiedAt":null}},{"type":"Feature","geometry":{"type":"Point","coordinates":[14.872528,48.1230241]},"properties":{"id":"bikerack:97c2c76c-e7e9-4fd0-93b7-cb47f8436a8e","kind":"bikerack","longitude":14.872528,"latitude":48.1230241,"name":"Biciklitároló","city":"Amstetten","address":null,"covered":false,"access":null,"website":null,"phone":null,"source":"OpenStreetMap/node/12075653096","sourceUpdatedAt":null,"verifiedAt":null}},{"type":"Feature","geometry":{"type":"Point","coordinates":[14.8753453,48.1202068]},"properties":{"id":"bikerack:a482696b-f0c1-412b-804e-3781916d3f2b","kind":"bikerack","longitude":14.8753453,"latitude":48.1202068,"name":"Biciklitároló","city":"Amstetten","address":null,"covered":false,"access":null,"website":null,"phone":null,"source":"OpenStreetMap/node/4359310146","sourceUpdatedAt":null,"verifiedAt":null}},{"type":"Feature","geometry":{"type":"Point","coordinates":[14.8719647,48.1230688]},"properties":{"id":"bikerack:a4ad5b6b-8b49-4181-8ce2-43b9efbf482e","kind":"bikerack","longitude":14.8719647,"latitude":48.1230688,"name":"Biciklitároló","city":"Amstetten","address":null,"covered":false,"access":null,"website":null,"phone":null,"source":"OpenStreetMap/node/12075653074","sourceUpdatedAt":null,"verifiedAt":null}},{"type":"Feature","geometry":{"type":"Point","coordinates":[14.8767937,48.1157589]},"properties":{"id":"bikerack:a774998e-fe28-4db5-8cc0-d9a0d333b86e","kind":"bikerack","longitude":14.8767937,"latitude":48.1157589,"name":"Biciklitároló","city":"Amstetten","address":null,"covered":false,"access":null,"website":null,"phone":null,"source":"OpenStreetMap/node/4592649272","sourceUpdatedAt":null,"verifiedAt":null}},{"type":"Feature","geometry":{"type":"Point","coordinates":[14.8726357,48.1197429]},"properties":{"id":"bikerack:b66c3cb7-85ce-4c93-87ab-8b0f0b6b1476","kind":"bikerack","longitude":14.8726357,"latitude":48.1197429,"name":"Biciklitároló","city":"Amstetten","address":null,"covered":false,"access":null,"website":null,"phone":null,"source":"OpenStreetMap/node/4359309780","sourceUpdatedAt":null,"verifiedAt":null}},{"type":"Feature","geometry":{"type":"Point","coordinates":[14.8778952,48.1220965]},"properties":{"id":"bikerack:b69c821c-2658-42a0-b1bc-52ae214b21de","kind":"bikerack","longitude":14.8778952,"latitude":48.1220965,"name":"Biciklitároló","city":"Amstetten","address":null,"covered":false,"access":null,"website":null,"phone":null,"source":"OpenStreetMap/node/4921776960","sourceUpdatedAt":null,"verifiedAt":null}},{"type":"Feature","geometry":{"type":"Point","coordinates":[14.8725518,48.1232853]},"properties":{"id":"bikerack:cfac70ea-ef39-4d0e-b405-b6e8e7200ab5","kind":"bikerack","longitude":14.8725518,"latitude":48.1232853,"name":"Biciklitároló","city":"Amstetten","address":null,"covered":false,"access":null,"website":null,"phone":null,"source":"OpenStreetMap/node/12075632652","sourceUpdatedAt":null,"verifiedAt":null}},{"type":"Feature","geometry":{"type":"Point","coordinates":[14.8796641,48.1223885]},"properties":{"id":"bikerack:d8468574-05be-434f-b51f-3ab9bc818907","kind":"bikerack","longitude":14.8796641,"latitude":48.1223885,"name":"Biciklitároló","city":"Amstetten","address":null,"covered":false,"access":null,"website":null,"phone":null,"source":"OpenStreetMap/way/25689959","sourceUpdatedAt":null,"verifiedAt":null}},{"type":"Feature","geometry":{"type":"Point","coordinates":[14.8710108,48.1235607]},"properties":{"id":"bikerack:d987ceec-dda4-47e8-870d-e2cffab1245d","kind":"bikerack","longitude":14.8710108,"latitude":48.1235607,"name":"Biciklitároló","city":"Amstetten","address":null,"covered":true,"access":null,"website":null,"phone":null,"source":"OpenStreetMap/node/12075653087","sourceUpdatedAt":null,"verifiedAt":null}},{"type":"Feature","geometry":{"type":"Point","coordinates":[14.870056,48.1208204]},"properties":{"id":"bikerack:dbc7687c-c71a-4e13-8e1b-105193922b20","kind":"bikerack","longitude":14.870056,"latitude":48.1208204,"name":"Biciklitároló","city":"Amstetten","address":null,"covered":false,"access":null,"website":null,"phone":null,"source":"OpenStreetMap/node/3421571902","sourceUpdatedAt":null,"verifiedAt":null}},{"type":"Feature","geometry":{"type":"Point","coordinates":[14.87935,48.1199108]},"properties":{"id":"bikerack:ddea1872-e479-40fb-939a-7363097e1be3","kind":"bikerack","longitude":14.87935,"latitude":48.1199108,"name":"Biciklitároló","city":"Amstetten","address":null,"covered":true,"access":null,"website":null,"phone":null,"source":"OpenStreetMap/way/1074818755","sourceUpdatedAt":null,"verifiedAt":null}},{"type":"Feature","geometry":{"type":"Point","coordinates":[14.8720234,48.1198632]},"properties":{"id":"bikerack:def6044d-995c-4695-9b0a-00174e3615bc","kind":"bikerack","longitude":14.8720234,"latitude":48.1198632,"name":"Biciklitároló","city":"Amstetten","address":null,"covered":false,"access":null,"website":null,"phone":null,"source":"OpenStreetMap/node/4359309949","sourceUpdatedAt":null,"verifiedAt":null}},{"type":"Feature","geometry":{"type":"Point","coordinates":[14.8794794,48.1204601]},"properties":{"id":"bikerack:e0ab1d25-de85-4d2a-b919-ccd604bdc5fc","kind":"bikerack","longitude":14.8794794,"latitude":48.1204601,"name":"Biciklitároló","city":"Amstetten","address":null,"covered":false,"access":null,"website":null,"phone":null,"source":"OpenStreetMap/way/724688974","sourceUpdatedAt":null,"verifiedAt":null}},{"type":"Feature","geometry":{"type":"Point","coordinates":[14.876968,48.1227754]},"properties":{"id":"bikerack:ff553712-15f0-4d8a-9acb-66f01c92b4d1","kind":"bikerack","longitude":14.876968,"latitude":48.1227754,"name":"Biciklitároló","city":"Amstetten","address":null,"covered":false,"access":null,"website":null,"phone":null,"source":"OpenStreetMap/node/4921778162","sourceUpdatedAt":null,"verifiedAt":null}},{"type":"Feature","geometry":{"type":"Point","coordinates":[14.8733784,48.1227999]},"properties":{"id":"repair:474c36ed-12a2-4031-8928-53a555f10f65","kind":"repair","longitude":14.8733784,"latitude":48.1227999,"name":"Kerékpár szervizállomás","city":"Amstetten","address":null,"covered":false,"access":null,"website":null,"phone":null,"source":"OpenStreetMap/node/12075632655","sourceUpdatedAt":null,"verifiedAt":null}},{"type":"Feature","geometry":{"type":"Point","coordinates":[14.8938038,48.1200647]},"properties":{"id":"service:36494d31-53c1-474e-b299-b1c1196b9e4b","kind":"service","longitude":14.8938038,"latitude":48.1200647,"name":"Radsport Ginner","city":"Amstetten","address":null,"covered":null,"access":null,"website":null,"phone":null,"source":"OpenStreetMap/node/1021144280","sourceUpdatedAt":null,"verifiedAt":null}},{"type":"Feature","geometry":{"type":"Point","coordinates":[14.8733563,48.1228061]},"properties":{"id":"water:23e9f6dd-7ead-46d4-991d-8225b9db9e16","kind":"water","longitude":14.8733563,"latitude":48.1228061,"name":"Ivókút","city":"Amstetten","address":null,"covered":null,"access":null,"website":null,"phone":null,"source":"OpenStreetMap/node/12075632654","sourceUpdatedAt":null,"verifiedAt":null}}]}