{"type":"FeatureCollection","features":[{"type":"Feature","geometry":{"type":"Point","coordinates":[12.0544436,46.3236641]},"properties":{"id":"water:965bab5c-b107-4c8c-bec9-fbfda9cc7bd8","kind":"water","longitude":12.0544436,"latitude":46.3236641,"name":"Fontanella","city":"La Valle Agordina","address":null,"covered":null,"access":null,"website":null,"phone":null,"source":"OpenStreetMap/node/11161744073","sourceUpdatedAt":null,"verifiedAt":null}},{"type":"Feature","geometry":{"type":"Point","coordinates":[12.0821929,46.321897]},"properties":{"id":"water:adff666a-44f2-4408-9bcb-4d65c793f238","kind":"water","longitude":12.0821929,"latitude":46.321897,"name":"Fontanella","city":"La Valle Agordina","address":null,"covered":null,"access":null,"website":null,"phone":null,"source":"OpenStreetMap/node/5917156222","sourceUpdatedAt":null,"verifiedAt":null}},{"type":"Feature","geometry":{"type":"Point","coordinates":[12.0671407,46.318199]},"properties":{"id":"water:cca7deef-4abc-400d-b046-b1c3899d520a","kind":"water","longitude":12.0671407,"latitude":46.318199,"name":"Fontanella","city":"La Valle Agordina","address":null,"covered":null,"access":null,"website":null,"phone":null,"source":"OpenStreetMap/node/6536947336","sourceUpdatedAt":null,"verifiedAt":null}}]}