{"type":"FeatureCollection","features":[{"type":"Feature","geometry":{"type":"Point","coordinates":[12.0492352,45.3282423]},"properties":{"id":"bikerack:03051833-25a1-4dfc-a035-9018b5ddfa03","kind":"bikerack","longitude":12.0492352,"latitude":45.3282423,"name":"Parcheggio bici","city":"Campolongo Maggiore","address":null,"covered":false,"access":null,"website":null,"phone":null,"source":"OpenStreetMap/node/13289471610","sourceUpdatedAt":null,"verifiedAt":null}},{"type":"Feature","geometry":{"type":"Point","coordinates":[12.0771656,45.3073179]},"properties":{"id":"bikerack:c5fa9d2b-db91-490f-90d4-9704e4fe202a","kind":"bikerack","longitude":12.0771656,"latitude":45.3073179,"name":"Parcheggio bici","city":"Corte","address":null,"covered":true,"access":null,"website":null,"phone":null,"source":"OpenStreetMap/way/189728540","sourceUpdatedAt":null,"verifiedAt":null}}]}