{"type":"FeatureCollection","features":[{"type":"Feature","geometry":{"type":"Point","coordinates":[10.6007752,53.9352683]},"properties":{"id":"bikerack:4af3d08e-c055-46f4-962d-b35a5611152c","kind":"bikerack","longitude":10.6007752,"latitude":53.9352683,"name":"Fahrradabstellplatz","city":"Monkhagen","address":null,"covered":false,"access":null,"website":null,"phone":null,"source":"OpenStreetMap/node/11100187792","sourceUpdatedAt":null,"verifiedAt":null}},{"type":"Feature","geometry":{"type":"Point","coordinates":[10.600864,53.9352708]},"properties":{"id":"repair:faff4371-f805-4a63-a2f1-606ae1dca446","kind":"repair","longitude":10.600864,"latitude":53.9352708,"name":"Fahrradreparaturstation","city":"Monkhagen","address":null,"covered":false,"access":null,"website":null,"phone":null,"source":"OpenStreetMap/node/11100187791","sourceUpdatedAt":null,"verifiedAt":null}}]}