{"type":"FeatureCollection","features":[{"type":"Feature","geometry":{"type":"Point","coordinates":[10.6060013,49.5813771]},"properties":{"id":"bikerack:177dfac5-0ea7-4a16-8e0b-ed595642513b","kind":"bikerack","longitude":10.6060013,"latitude":49.5813771,"name":"Fahrradabstellplatz","city":"Neustadt an der Aisch","address":null,"covered":false,"access":null,"website":null,"phone":null,"source":"OpenStreetMap/node/498429492","sourceUpdatedAt":null,"verifiedAt":null}},{"type":"Feature","geometry":{"type":"Point","coordinates":[10.6067829,49.5819613]},"properties":{"id":"bikerack:1c92e702-3955-4ab4-9708-279d1dac9ab3","kind":"bikerack","longitude":10.6067829,"latitude":49.5819613,"name":"Fahrradabstellplatz","city":"Neustadt an der Aisch","address":null,"covered":false,"access":null,"website":null,"phone":null,"source":"OpenStreetMap/node/498435536","sourceUpdatedAt":null,"verifiedAt":null}},{"type":"Feature","geometry":{"type":"Point","coordinates":[10.6304211,49.574619]},"properties":{"id":"bikerack:6463a46f-1236-4e37-97b3-67ca0210a3c3","kind":"bikerack","longitude":10.6304211,"latitude":49.574619,"name":"Fahrradabstellplatz","city":"Neustadt an der Aisch","address":null,"covered":false,"access":null,"website":null,"phone":null,"source":"OpenStreetMap/node/4392991796","sourceUpdatedAt":null,"verifiedAt":null}},{"type":"Feature","geometry":{"type":"Point","coordinates":[10.6090935,49.5801224]},"properties":{"id":"bikerack:75846df1-a565-4ac9-9fcd-7e5ba0b1d70b","kind":"bikerack","longitude":10.6090935,"latitude":49.5801224,"name":"Fahrradabstellplatz","city":"Neustadt an der Aisch","address":null,"covered":false,"access":null,"website":null,"phone":null,"source":"OpenStreetMap/node/497261118","sourceUpdatedAt":null,"verifiedAt":null}},{"type":"Feature","geometry":{"type":"Point","coordinates":[10.6097998,49.5819027]},"properties":{"id":"bikerack:a5c16ad7-5d1a-460a-b288-dd5a8e24b3f2","kind":"bikerack","longitude":10.6097998,"latitude":49.5819027,"name":"Fahrradabstellplatz","city":"Neustadt an der Aisch","address":null,"covered":false,"access":null,"website":null,"phone":null,"source":"OpenStreetMap/node/496352162","sourceUpdatedAt":null,"verifiedAt":null}},{"type":"Feature","geometry":{"type":"Point","coordinates":[10.6102629,49.5745022]},"properties":{"id":"bikerack:d4534014-6a41-4f59-ad22-3e93424c341f","kind":"bikerack","longitude":10.6102629,"latitude":49.5745022,"name":"Fahrradabstellplatz","city":"Neustadt an der Aisch","address":null,"covered":true,"access":null,"website":null,"phone":null,"source":"OpenStreetMap/way/455103414","sourceUpdatedAt":null,"verifiedAt":null}},{"type":"Feature","geometry":{"type":"Point","coordinates":[10.6038693,49.5779527]},"properties":{"id":"service:a3746f27-448e-48f7-ba55-3fb3a03c1892","kind":"service","longitude":10.6038693,"latitude":49.5779527,"name":"Bahnhofstraße 12 – Fahrradladen","city":"Neustadt an der Aisch","address":null,"covered":null,"access":null,"website":null,"phone":null,"source":"OpenStreetMap/node/8748881275","sourceUpdatedAt":null,"verifiedAt":null}},{"type":"Feature","geometry":{"type":"Point","coordinates":[10.6097777,49.5798427]},"properties":{"id":"service:e91968cf-52f6-406a-8c5f-4457a419976d","kind":"service","longitude":10.6097777,"latitude":49.5798427,"name":"Zweirad Hofmann","city":"Neustadt an der Aisch","address":null,"covered":null,"access":null,"website":null,"phone":null,"source":"OpenStreetMap/node/495479843","sourceUpdatedAt":null,"verifiedAt":null}},{"type":"Feature","geometry":{"type":"Point","coordinates":[10.6088126,49.5799791]},"properties":{"id":"water:fe35fa47-564c-4b8a-b342-71ccbd51ef2c","kind":"water","longitude":10.6088126,"latitude":49.5799791,"name":"Trinkwasser","city":"Neustadt an der Aisch","address":null,"covered":null,"access":null,"website":null,"phone":null,"source":"OpenStreetMap/node/497261125","sourceUpdatedAt":null,"verifiedAt":null}}]}