{"type":"FeatureCollection","features":[{"type":"Feature","geometry":{"type":"Point","coordinates":[10.6293922,45.4036478]},"properties":{"id":"bikerack:d11b234e-fee7-46a8-9ab6-06381037d1d3","kind":"bikerack","longitude":10.6293922,"latitude":45.4036478,"name":"Parcheggio bici","city":"Pozzolengo","address":null,"covered":false,"access":null,"website":null,"phone":null,"source":"OpenStreetMap/node/13114905599","sourceUpdatedAt":null,"verifiedAt":null}},{"type":"Feature","geometry":{"type":"Point","coordinates":[10.6031384,45.4261559]},"properties":{"id":"bikerack:f1516acf-ee5b-474e-b063-1160199646fb","kind":"bikerack","longitude":10.6031384,"latitude":45.4261559,"name":"Parcheggio bici","city":"San Martino della Battaglia","address":null,"covered":true,"access":null,"website":null,"phone":null,"source":"OpenStreetMap/node/10896204602","sourceUpdatedAt":null,"verifiedAt":null}},{"type":"Feature","geometry":{"type":"Point","coordinates":[10.6298795,45.4033674]},"properties":{"id":"bikerack:f337e258-a514-48e7-9e32-97065cbd2a5b","kind":"bikerack","longitude":10.6298795,"latitude":45.4033674,"name":"Parcheggio bici","city":"Pozzolengo","address":null,"covered":false,"access":null,"website":null,"phone":null,"source":"OpenStreetMap/node/13114920538","sourceUpdatedAt":null,"verifiedAt":null}},{"type":"Feature","geometry":{"type":"Point","coordinates":[10.6335649,45.4078756]},"properties":{"id":"water:b38a51a0-20e1-4112-9b5c-3720783e357c","kind":"water","longitude":10.6335649,"latitude":45.4078756,"name":"Fontanella","city":"Pozzolengo","address":null,"covered":null,"access":null,"website":null,"phone":null,"source":"OpenStreetMap/node/719154273","sourceUpdatedAt":null,"verifiedAt":null}},{"type":"Feature","geometry":{"type":"Point","coordinates":[10.6333734,45.4082828]},"properties":{"id":"water:ca5d5f26-49b1-4c9c-9db4-a4d7bcc6c3fa","kind":"water","longitude":10.6333734,"latitude":45.4082828,"name":"Punto Acqua","city":"Pozzolengo","address":null,"covered":null,"access":null,"website":null,"phone":null,"source":"OpenStreetMap/node/1543049391","sourceUpdatedAt":null,"verifiedAt":null}},{"type":"Feature","geometry":{"type":"Point","coordinates":[10.6033353,45.4260555]},"properties":{"id":"water:dca7d81f-9c02-4933-bcdd-488df00ce5a2","kind":"water","longitude":10.6033353,"latitude":45.4260555,"name":"Fontanella","city":"San Martino della Battaglia","address":null,"covered":null,"access":null,"website":null,"phone":null,"source":"OpenStreetMap/node/1607625751","sourceUpdatedAt":null,"verifiedAt":null}},{"type":"Feature","geometry":{"type":"Point","coordinates":[10.6031199,45.426191]},"properties":{"id":"water:e16a8192-4fda-477d-bc5e-fee620d4b028","kind":"water","longitude":10.6031199,"latitude":45.426191,"name":"Fontanella","city":"San Martino della Battaglia","address":null,"covered":null,"access":null,"website":null,"phone":null,"source":"OpenStreetMap/node/10896204603","sourceUpdatedAt":null,"verifiedAt":null}}]}