{"type":"FeatureCollection","features":[{"type":"Feature","geometry":{"type":"Point","coordinates":[17.0685472,52.3888473]},"properties":{"id":"bikerack:043775cd-fb71-429f-be02-3457e0cb9889","kind":"bikerack","longitude":17.0685472,"latitude":52.3888473,"name":"Biciklitároló","city":"Swarzedz","address":null,"covered":true,"access":null,"website":null,"phone":null,"source":"OpenStreetMap/way/965041377","sourceUpdatedAt":null,"verifiedAt":null}},{"type":"Feature","geometry":{"type":"Point","coordinates":[17.0694127,52.3925027]},"properties":{"id":"bikerack:134a2802-627b-473b-bdde-d91a4905948c","kind":"bikerack","longitude":17.0694127,"latitude":52.3925027,"name":"Biciklitároló","city":"Swarzedz","address":null,"covered":false,"access":null,"website":null,"phone":null,"source":"OpenStreetMap/way/541936698","sourceUpdatedAt":null,"verifiedAt":null}},{"type":"Feature","geometry":{"type":"Point","coordinates":[17.060421,52.3831859]},"properties":{"id":"bikerack:1abf3a58-196e-42f2-becb-8071c18a5140","kind":"bikerack","longitude":17.060421,"latitude":52.3831859,"name":"Biciklitároló","city":"Swarzedz","address":null,"covered":true,"access":null,"website":null,"phone":null,"source":"OpenStreetMap/node/6627230191","sourceUpdatedAt":null,"verifiedAt":null}},{"type":"Feature","geometry":{"type":"Point","coordinates":[17.06207,52.3976018]},"properties":{"id":"bikerack:255204b7-9abc-4a2a-b488-bd7d00115b9b","kind":"bikerack","longitude":17.06207,"latitude":52.3976018,"name":"Biciklitároló","city":"Swarzedz","address":null,"covered":true,"access":null,"website":null,"phone":null,"source":"OpenStreetMap/node/12750108441","sourceUpdatedAt":null,"verifiedAt":null}},{"type":"Feature","geometry":{"type":"Point","coordinates":[17.0680012,52.3901634]},"properties":{"id":"bikerack:32b84f47-92ba-498b-b3e3-392754c084a5","kind":"bikerack","longitude":17.0680012,"latitude":52.3901634,"name":"Biciklitároló","city":"Swarzedz","address":null,"covered":true,"access":null,"website":null,"phone":null,"source":"OpenStreetMap/node/9439082187","sourceUpdatedAt":null,"verifiedAt":null}},{"type":"Feature","geometry":{"type":"Point","coordinates":[17.0531071,52.3905589]},"properties":{"id":"bikerack:35a62439-9005-4e3a-97f4-f6c814c4f8b4","kind":"bikerack","longitude":17.0531071,"latitude":52.3905589,"name":"Biciklitároló","city":"Swarzedz","address":null,"covered":false,"access":null,"website":null,"phone":null,"source":"OpenStreetMap/node/11539344722","sourceUpdatedAt":null,"verifiedAt":null}},{"type":"Feature","geometry":{"type":"Point","coordinates":[17.0640368,52.3987688]},"properties":{"id":"bikerack:38939754-5091-4bfd-ae99-64b7a291fe2e","kind":"bikerack","longitude":17.0640368,"latitude":52.3987688,"name":"Biciklitároló","city":"Swarzedz","address":null,"covered":false,"access":null,"website":null,"phone":null,"source":"OpenStreetMap/node/12010263192","sourceUpdatedAt":null,"verifiedAt":null}},{"type":"Feature","geometry":{"type":"Point","coordinates":[17.0688609,52.3882105]},"properties":{"id":"bikerack:669e0b2d-f039-4382-b16b-7e79c629c472","kind":"bikerack","longitude":17.0688609,"latitude":52.3882105,"name":"Biciklitároló","city":"Swarzedz","address":null,"covered":true,"access":null,"website":null,"phone":null,"source":"OpenStreetMap/way/1015404479","sourceUpdatedAt":null,"verifiedAt":null}},{"type":"Feature","geometry":{"type":"Point","coordinates":[17.070926,52.3856004]},"properties":{"id":"bikerack:6b65bded-5c7c-405d-bc26-6e6567a032f8","kind":"bikerack","longitude":17.070926,"latitude":52.3856004,"name":"Biciklitároló","city":"Swarzedz","address":null,"covered":false,"access":null,"website":null,"phone":null,"source":"OpenStreetMap/way/973254754","sourceUpdatedAt":null,"verifiedAt":null}},{"type":"Feature","geometry":{"type":"Point","coordinates":[17.0668162,52.4009984]},"properties":{"id":"bikerack:6d0f9bde-e565-47a1-bfa4-9650907f519b","kind":"bikerack","longitude":17.0668162,"latitude":52.4009984,"name":"Biciklitároló","city":"Swarzedz","address":null,"covered":false,"access":null,"website":null,"phone":null,"source":"OpenStreetMap/node/11806614880","sourceUpdatedAt":null,"verifiedAt":null}},{"type":"Feature","geometry":{"type":"Point","coordinates":[17.0643212,52.398766]},"properties":{"id":"bikerack:759fd7e4-cc45-4a02-9ec9-a1c3f20e7346","kind":"bikerack","longitude":17.0643212,"latitude":52.398766,"name":"Biciklitároló","city":"Swarzedz","address":null,"covered":false,"access":null,"website":null,"phone":null,"source":"OpenStreetMap/node/12010263193","sourceUpdatedAt":null,"verifiedAt":null}},{"type":"Feature","geometry":{"type":"Point","coordinates":[17.0621534,52.3976523]},"properties":{"id":"bikerack:7aeb206a-8fac-47c7-97d5-2cd73f92b3cf","kind":"bikerack","longitude":17.0621534,"latitude":52.3976523,"name":"Biciklitároló","city":"Swarzedz","address":null,"covered":false,"access":null,"website":null,"phone":null,"source":"OpenStreetMap/node/12750108440","sourceUpdatedAt":null,"verifiedAt":null}},{"type":"Feature","geometry":{"type":"Point","coordinates":[17.0749685,52.3848438]},"properties":{"id":"bikerack:7d0ae50b-127b-4d68-9d08-ec83b2841cf1","kind":"bikerack","longitude":17.0749685,"latitude":52.3848438,"name":"Biciklitároló","city":"Swarzedz","address":null,"covered":false,"access":null,"website":null,"phone":null,"source":"OpenStreetMap/node/7751999967","sourceUpdatedAt":null,"verifiedAt":null}},{"type":"Feature","geometry":{"type":"Point","coordinates":[17.0689656,52.3861679]},"properties":{"id":"bikerack:9b238e41-0a15-4fff-83b3-c0e8095d15be","kind":"bikerack","longitude":17.0689656,"latitude":52.3861679,"name":"Biciklitároló","city":"Swarzedz","address":null,"covered":false,"access":null,"website":null,"phone":null,"source":"OpenStreetMap/way/973254758","sourceUpdatedAt":null,"verifiedAt":null}},{"type":"Feature","geometry":{"type":"Point","coordinates":[17.0748632,52.3848582]},"properties":{"id":"bikerack:b7b5c8ec-83f2-431c-8bd0-0244cb37893b","kind":"bikerack","longitude":17.0748632,"latitude":52.3848582,"name":"Biciklitároló","city":"Swarzedz","address":null,"covered":false,"access":null,"website":null,"phone":null,"source":"OpenStreetMap/node/7751999966","sourceUpdatedAt":null,"verifiedAt":null}},{"type":"Feature","geometry":{"type":"Point","coordinates":[17.0582317,52.4013452]},"properties":{"id":"bikerack:c65994a0-fa5f-4546-8544-63204ab3ee65","kind":"bikerack","longitude":17.0582317,"latitude":52.4013452,"name":"Biciklitároló","city":"Swarzedz","address":null,"covered":false,"access":null,"website":null,"phone":null,"source":"OpenStreetMap/node/9469870754","sourceUpdatedAt":null,"verifiedAt":null}},{"type":"Feature","geometry":{"type":"Point","coordinates":[17.0565129,52.4012393]},"properties":{"id":"bikerack:d214c2ef-ae63-48a7-82b5-781548ff0f6e","kind":"bikerack","longitude":17.0565129,"latitude":52.4012393,"name":"Biciklitároló","city":"Swarzedz","address":null,"covered":false,"access":null,"website":null,"phone":null,"source":"OpenStreetMap/node/4335191866","sourceUpdatedAt":null,"verifiedAt":null}},{"type":"Feature","geometry":{"type":"Point","coordinates":[17.074601,52.3848934]},"properties":{"id":"bikerack:d7963be5-9b43-4f79-b6ff-5085f10bf575","kind":"bikerack","longitude":17.074601,"latitude":52.3848934,"name":"Biciklitároló","city":"Swarzedz","address":null,"covered":false,"access":null,"website":null,"phone":null,"source":"OpenStreetMap/node/7751999968","sourceUpdatedAt":null,"verifiedAt":null}},{"type":"Feature","geometry":{"type":"Point","coordinates":[17.0677807,52.3907535]},"properties":{"id":"bikerack:e901cd2e-0b8e-44b2-949e-920f8b3ec9fd","kind":"bikerack","longitude":17.0677807,"latitude":52.3907535,"name":"Biciklitároló","city":"Swarzedz","address":null,"covered":false,"access":null,"website":null,"phone":null,"source":"OpenStreetMap/node/9439074122","sourceUpdatedAt":null,"verifiedAt":null}},{"type":"Feature","geometry":{"type":"Point","coordinates":[17.0607234,52.383228]},"properties":{"id":"bikerack:f4daf88f-195c-4fed-9b33-c9b73de218f7","kind":"bikerack","longitude":17.0607234,"latitude":52.383228,"name":"Biciklitároló","city":"Swarzedz","address":null,"covered":true,"access":null,"website":null,"phone":null,"source":"OpenStreetMap/node/6627230192","sourceUpdatedAt":null,"verifiedAt":null}},{"type":"Feature","geometry":{"type":"Point","coordinates":[17.0690125,52.3920743]},"properties":{"id":"repair:310cc90e-49fd-41e5-afa4-472459e50444","kind":"repair","longitude":17.0690125,"latitude":52.3920743,"name":"Kerékpár szervizállomás","city":"Swarzedz","address":null,"covered":false,"access":null,"website":null,"phone":null,"source":"OpenStreetMap/node/8829933207","sourceUpdatedAt":null,"verifiedAt":null}},{"type":"Feature","geometry":{"type":"Point","coordinates":[17.068855,52.388176]},"properties":{"id":"repair:354575bf-a498-48a2-8420-8f1d6cbf4a04","kind":"repair","longitude":17.068855,"latitude":52.388176,"name":"Kerékpár szervizállomás","city":"Swarzedz","address":null,"covered":false,"access":null,"website":null,"phone":null,"source":"OpenStreetMap/node/9366760559","sourceUpdatedAt":null,"verifiedAt":null}},{"type":"Feature","geometry":{"type":"Point","coordinates":[17.0692057,52.3921486]},"properties":{"id":"repair:3b8eded8-8249-4aed-b63b-d3f65a991219","kind":"repair","longitude":17.0692057,"latitude":52.3921486,"name":"Kerékpár szervizállomás","city":"Swarzedz","address":null,"covered":false,"access":null,"website":null,"phone":null,"source":"OpenStreetMap/node/9542739845","sourceUpdatedAt":null,"verifiedAt":null}},{"type":"Feature","geometry":{"type":"Point","coordinates":[17.0685482,52.3888956]},"properties":{"id":"repair:707aa410-3773-4afc-8a76-4013000dbbb1","kind":"repair","longitude":17.0685482,"latitude":52.3888956,"name":"Kerékpár szervizállomás","city":"Swarzedz","address":null,"covered":false,"access":null,"website":null,"phone":null,"source":"OpenStreetMap/node/9362946092","sourceUpdatedAt":null,"verifiedAt":null}},{"type":"Feature","geometry":{"type":"Point","coordinates":[17.0692489,52.390127]},"properties":{"id":"repair:d8ab555d-1851-4cad-aec3-8ef93bef9307","kind":"repair","longitude":17.0692489,"latitude":52.390127,"name":"FogtBikes","city":"Zalasewo","address":null,"covered":false,"access":null,"website":null,"phone":null,"source":"OpenStreetMap/node/3461394709","sourceUpdatedAt":null,"verifiedAt":null}},{"type":"Feature","geometry":{"type":"Point","coordinates":[17.0692489,52.390127]},"properties":{"id":"service:c4a56ac0-88dc-4c19-911e-8972999143a7","kind":"service","longitude":17.0692489,"latitude":52.390127,"name":"FogtBikes","city":"Zalasewo","address":null,"covered":null,"access":null,"website":null,"phone":null,"source":"OpenStreetMap/node/3461394709","sourceUpdatedAt":null,"verifiedAt":null}}]}