{"type":"FeatureCollection","features":[{"type":"Feature","geometry":{"type":"Point","coordinates":[17.073959,49.692479]},"properties":{"id":"bikerack:028ea8c7-0805-4d09-9861-87feb04a44a4","kind":"bikerack","longitude":17.073959,"latitude":49.692479,"name":"Bicycle Parking","city":"Litovel","address":null,"covered":true,"access":null,"website":null,"phone":null,"source":"OpenStreetMap/node/2657625352","sourceUpdatedAt":null,"verifiedAt":null}},{"type":"Feature","geometry":{"type":"Point","coordinates":[17.0739124,49.6926032]},"properties":{"id":"bikerack:e59cdcb7-2ee0-4ee2-8ab1-56fa5a62d512","kind":"bikerack","longitude":17.0739124,"latitude":49.6926032,"name":"Bicycle Parking","city":"Litovel","address":null,"covered":false,"access":null,"website":null,"phone":null,"source":"OpenStreetMap/node/2657625344","sourceUpdatedAt":null,"verifiedAt":null}}]}