{"type":"FeatureCollection","features":[{"type":"Feature","geometry":{"type":"Point","coordinates":[17.0713913,46.4975739]},"properties":{"id":"bikerack:375446b1-9dee-4d16-9e1b-c4fb6a656527","kind":"bikerack","longitude":17.0713913,"latitude":46.4975739,"name":"Biciklitároló","city":"Nagykanizsa","address":null,"covered":false,"access":null,"website":null,"phone":null,"source":"OpenStreetMap/node/11054642707","sourceUpdatedAt":null,"verifiedAt":null}},{"type":"Feature","geometry":{"type":"Point","coordinates":[17.0513403,46.4951052]},"properties":{"id":"water:049bf71c-7896-4706-b21f-885c079d9bb5","kind":"water","longitude":17.0513403,"latitude":46.4951052,"name":"Ivókút","city":null,"address":null,"covered":null,"access":null,"website":null,"phone":null,"source":"OpenStreetMap","sourceUpdatedAt":null,"verifiedAt":null}}]}