{"type":"FeatureCollection","features":[{"type":"Feature","geometry":{"type":"Point","coordinates":[18.9854955,46.5260931]},"properties":{"id":"bikerack:553d0e68-0d2c-44dd-8661-da94aa8a895a","kind":"bikerack","longitude":18.9854955,"latitude":46.5260931,"name":"Biciklitároló","city":"Kalocsa","address":null,"covered":false,"access":null,"website":null,"phone":null,"source":"OpenStreetMap/node/13165384917","sourceUpdatedAt":"2026-04-04T22:50:04.678779+00:00","verifiedAt":null}},{"type":"Feature","geometry":{"type":"Point","coordinates":[18.9855619,46.5263349]},"properties":{"id":"bikerack:769663ff-55b9-4f76-9693-9284fbb60f7c","kind":"bikerack","longitude":18.9855619,"latitude":46.5263349,"name":"Biciklitároló","city":"Kalocsa","address":null,"covered":false,"access":null,"website":null,"phone":null,"source":"OpenStreetMap/node/13165384915","sourceUpdatedAt":"2026-04-04T22:50:04.678779+00:00","verifiedAt":null}},{"type":"Feature","geometry":{"type":"Point","coordinates":[18.9856336,46.5262555]},"properties":{"id":"bikerack:80291cac-0c1b-41f5-9dec-f898eda7bdaf","kind":"bikerack","longitude":18.9856336,"latitude":46.5262555,"name":"Biciklitároló","city":"Kalocsa","address":null,"covered":false,"access":null,"website":null,"phone":null,"source":"OpenStreetMap/node/13165384916","sourceUpdatedAt":"2026-04-04T22:50:04.678779+00:00","verifiedAt":null}},{"type":"Feature","geometry":{"type":"Point","coordinates":[19.1154358,46.4000217]},"properties":{"id":"bikerack:9fb21b3b-b93b-4339-b661-40d4529163fc","kind":"bikerack","longitude":19.1154358,"latitude":46.4000217,"name":"Biciklitároló","city":"Hajos","address":null,"covered":true,"access":null,"website":null,"phone":null,"source":"OpenStreetMap/node/11176567885","sourceUpdatedAt":"2026-04-04T22:50:04.678779+00:00","verifiedAt":null}},{"type":"Feature","geometry":{"type":"Point","coordinates":[19.0527101,46.3397945]},"properties":{"id":"bikerack:beb55e39-991f-43a5-90ea-3378a8bbde30","kind":"bikerack","longitude":19.0527101,"latitude":46.3397945,"name":"Biciklitároló","city":"Nemesnadudvar","address":null,"covered":false,"access":null,"website":null,"phone":null,"source":"OpenStreetMap/node/3168589358","sourceUpdatedAt":"2026-04-04T22:50:04.678779+00:00","verifiedAt":null}},{"type":"Feature","geometry":{"type":"Point","coordinates":[18.9859543,46.5257844]},"properties":{"id":"service:1189bf71-f7c0-464c-9e4a-2054fa658fdb","kind":"service","longitude":18.9859543,"latitude":46.5257844,"name":"Bicikli szervíz","city":"Kalocsa","address":null,"covered":null,"access":null,"website":null,"phone":null,"source":"OpenStreetMap/node/2830915801","sourceUpdatedAt":"2026-04-04T22:50:13.956046+00:00","verifiedAt":null}},{"type":"Feature","geometry":{"type":"Point","coordinates":[19.2513816,46.5225667]},"properties":{"id":"service:b0f3a344-3533-4d1d-a95a-75b714ee0096","kind":"service","longitude":19.2513816,"latitude":46.5225667,"name":"Bicikli szervíz","city":"Kecel","address":null,"covered":null,"access":null,"website":null,"phone":null,"source":"OpenStreetMap/way/1212121598","sourceUpdatedAt":"2026-04-04T22:50:13.956046+00:00","verifiedAt":null}},{"type":"Feature","geometry":{"type":"Point","coordinates":[19.3087582,46.4899309]},"properties":{"id":"water:06123061-6056-4c67-b970-22c73a00f64c","kind":"water","longitude":19.3087582,"latitude":46.4899309,"name":"Ivókút","city":null,"address":null,"covered":null,"access":null,"website":null,"phone":null,"source":"OpenStreetMap","sourceUpdatedAt":"2026-04-04T22:50:22.71606+00:00","verifiedAt":null}},{"type":"Feature","geometry":{"type":"Point","coordinates":[19.065485,46.492789]},"properties":{"id":"water:0827f274-dba3-4fad-bd4a-d4dbf6a59d4f","kind":"water","longitude":19.065485,"latitude":46.492789,"name":"Ivókút","city":null,"address":null,"covered":null,"access":null,"website":null,"phone":null,"source":"OpenStreetMap","sourceUpdatedAt":"2026-04-04T22:50:22.71606+00:00","verifiedAt":null}},{"type":"Feature","geometry":{"type":"Point","coordinates":[19.0698555,46.492098]},"properties":{"id":"water:0bb9a347-ac55-40d8-acb2-e17ca4fa9016","kind":"water","longitude":19.0698555,"latitude":46.492098,"name":"Ivókút","city":null,"address":null,"covered":null,"access":null,"website":null,"phone":null,"source":"OpenStreetMap","sourceUpdatedAt":"2026-04-04T22:50:22.71606+00:00","verifiedAt":null}},{"type":"Feature","geometry":{"type":"Point","coordinates":[19.119975,46.487633]},"properties":{"id":"water:1c745a5c-cab4-4a10-8e85-5ff03009708c","kind":"water","longitude":19.119975,"latitude":46.487633,"name":"Ivókút","city":null,"address":null,"covered":null,"access":null,"website":null,"phone":null,"source":"OpenStreetMap","sourceUpdatedAt":"2026-04-04T22:50:22.71606+00:00","verifiedAt":null}},{"type":"Feature","geometry":{"type":"Point","coordinates":[19.1717283,46.4142722]},"properties":{"id":"water:1d85dbb3-3ef7-4580-9ab2-4e88c1ee4571","kind":"water","longitude":19.1717283,"latitude":46.4142722,"name":"Ivókút","city":null,"address":null,"covered":null,"access":null,"website":null,"phone":null,"source":"OpenStreetMap","sourceUpdatedAt":"2026-04-04T22:50:22.71606+00:00","verifiedAt":null}},{"type":"Feature","geometry":{"type":"Point","coordinates":[19.1493784,46.3857213]},"properties":{"id":"water:1fa0d4f1-e448-42d4-9799-39aa2ba831bc","kind":"water","longitude":19.1493784,"latitude":46.3857213,"name":"Ivókút","city":null,"address":null,"covered":null,"access":null,"website":null,"phone":null,"source":"OpenStreetMap","sourceUpdatedAt":"2026-04-04T22:50:22.71606+00:00","verifiedAt":null}},{"type":"Feature","geometry":{"type":"Point","coordinates":[19.1210402,46.3489603]},"properties":{"id":"water:283d29ce-c41d-4fa0-9b5e-8becc5a4e730","kind":"water","longitude":19.1210402,"latitude":46.3489603,"name":"Ivókút","city":null,"address":null,"covered":null,"access":null,"website":null,"phone":null,"source":"OpenStreetMap","sourceUpdatedAt":"2026-04-04T22:50:22.71606+00:00","verifiedAt":null}},{"type":"Feature","geometry":{"type":"Point","coordinates":[19.1937366,46.4381338]},"properties":{"id":"water:2cdb095a-888b-45f7-8214-a6fd30f119ae","kind":"water","longitude":19.1937366,"latitude":46.4381338,"name":"Ivókút","city":null,"address":null,"covered":null,"access":null,"website":null,"phone":null,"source":"OpenStreetMap","sourceUpdatedAt":"2026-04-04T22:50:22.71606+00:00","verifiedAt":null}},{"type":"Feature","geometry":{"type":"Point","coordinates":[19.1109402,46.4002608]},"properties":{"id":"water:3e4e111e-3492-412c-9ca4-652317735a75","kind":"water","longitude":19.1109402,"latitude":46.4002608,"name":"Ivókút","city":null,"address":null,"covered":null,"access":null,"website":null,"phone":null,"source":"OpenStreetMap","sourceUpdatedAt":"2026-04-04T22:50:22.71606+00:00","verifiedAt":null}},{"type":"Feature","geometry":{"type":"Point","coordinates":[19.279094,46.370372]},"properties":{"id":"water:44154666-5150-4b1a-8034-e4ac849b59ed","kind":"water","longitude":19.279094,"latitude":46.370372,"name":"Ivókút","city":null,"address":null,"covered":null,"access":null,"website":null,"phone":null,"source":"OpenStreetMap","sourceUpdatedAt":"2026-04-04T22:50:22.71606+00:00","verifiedAt":null}},{"type":"Feature","geometry":{"type":"Point","coordinates":[19.3022444,46.4868399]},"properties":{"id":"water:55ec7197-e225-46bb-a6dc-401022b980c5","kind":"water","longitude":19.3022444,"latitude":46.4868399,"name":"Ivókút","city":null,"address":null,"covered":null,"access":null,"website":null,"phone":null,"source":"OpenStreetMap","sourceUpdatedAt":"2026-04-04T22:50:22.71606+00:00","verifiedAt":null}},{"type":"Feature","geometry":{"type":"Point","coordinates":[19.1452703,46.3861815]},"properties":{"id":"water:5870ef92-ce3d-4fbe-93b3-09c473209e3f","kind":"water","longitude":19.1452703,"latitude":46.3861815,"name":"Ivókút","city":null,"address":null,"covered":null,"access":null,"website":null,"phone":null,"source":"OpenStreetMap","sourceUpdatedAt":"2026-04-04T22:50:22.71606+00:00","verifiedAt":null}},{"type":"Feature","geometry":{"type":"Point","coordinates":[19.030644,46.4467113]},"properties":{"id":"water:590a9b30-3013-48bf-9615-47be6b7c3a78","kind":"water","longitude":19.030644,"latitude":46.4467113,"name":"Ivókút","city":null,"address":null,"covered":null,"access":null,"website":null,"phone":null,"source":"OpenStreetMap","sourceUpdatedAt":"2026-04-04T22:50:22.71606+00:00","verifiedAt":null}},{"type":"Feature","geometry":{"type":"Point","coordinates":[19.0030926,46.5323441]},"properties":{"id":"water:5ce820aa-158a-4697-bb23-b28d89fdd548","kind":"water","longitude":19.0030926,"latitude":46.5323441,"name":"Ivókút","city":null,"address":null,"covered":null,"access":null,"website":null,"phone":null,"source":"OpenStreetMap","sourceUpdatedAt":"2026-04-04T22:50:22.71606+00:00","verifiedAt":null}},{"type":"Feature","geometry":{"type":"Point","coordinates":[19.1826725,46.4235216]},"properties":{"id":"water:5d5721a8-dbad-482a-a5bc-f552303488b8","kind":"water","longitude":19.1826725,"latitude":46.4235216,"name":"Ivókút","city":null,"address":null,"covered":null,"access":null,"website":null,"phone":null,"source":"OpenStreetMap","sourceUpdatedAt":"2026-04-04T22:50:22.71606+00:00","verifiedAt":null}},{"type":"Feature","geometry":{"type":"Point","coordinates":[19.0736698,46.4868374]},"properties":{"id":"water:62a34ea3-78c3-4fa6-aeda-248796387c39","kind":"water","longitude":19.0736698,"latitude":46.4868374,"name":"Ivókút","city":null,"address":null,"covered":null,"access":null,"website":null,"phone":null,"source":"OpenStreetMap","sourceUpdatedAt":"2026-04-04T22:50:22.71606+00:00","verifiedAt":null}},{"type":"Feature","geometry":{"type":"Point","coordinates":[19.3059871,46.4891807]},"properties":{"id":"water:669e1921-b584-4b28-8051-afb4b70a7aca","kind":"water","longitude":19.3059871,"latitude":46.4891807,"name":"Ivókút","city":null,"address":null,"covered":null,"access":null,"website":null,"phone":null,"source":"OpenStreetMap","sourceUpdatedAt":"2026-04-04T22:50:22.71606+00:00","verifiedAt":null}},{"type":"Feature","geometry":{"type":"Point","coordinates":[19.1765934,46.4220925]},"properties":{"id":"water:680d3635-a199-44b0-9e39-d6f5f47ba9ea","kind":"water","longitude":19.1765934,"latitude":46.4220925,"name":"Ivókút","city":null,"address":null,"covered":null,"access":null,"website":null,"phone":null,"source":"OpenStreetMap","sourceUpdatedAt":"2026-04-04T22:50:22.71606+00:00","verifiedAt":null}},{"type":"Feature","geometry":{"type":"Point","coordinates":[18.9878444,46.5230504]},"properties":{"id":"water:68dc71bf-1db0-4083-9d34-9375ea3cbf54","kind":"water","longitude":18.9878444,"latitude":46.5230504,"name":"Ivókút","city":null,"address":null,"covered":null,"access":null,"website":null,"phone":null,"source":"OpenStreetMap","sourceUpdatedAt":"2026-04-04T22:50:22.71606+00:00","verifiedAt":null}},{"type":"Feature","geometry":{"type":"Point","coordinates":[19.285732,46.36359]},"properties":{"id":"water:6ee5ed1f-8660-4a23-a262-f5c044ea1e66","kind":"water","longitude":19.285732,"latitude":46.36359,"name":"Ivókút","city":null,"address":null,"covered":null,"access":null,"website":null,"phone":null,"source":"OpenStreetMap","sourceUpdatedAt":"2026-04-04T22:50:22.71606+00:00","verifiedAt":null}},{"type":"Feature","geometry":{"type":"Point","coordinates":[18.9893831,46.5312626]},"properties":{"id":"water:725915a3-926b-4b95-a71b-908ffd718289","kind":"water","longitude":18.9893831,"latitude":46.5312626,"name":"Ivókút","city":null,"address":null,"covered":null,"access":null,"website":null,"phone":null,"source":"OpenStreetMap","sourceUpdatedAt":"2026-04-04T22:50:22.71606+00:00","verifiedAt":null}},{"type":"Feature","geometry":{"type":"Point","coordinates":[19.282493,46.365681]},"properties":{"id":"water:73180153-7e66-45d3-97c9-27876100d10e","kind":"water","longitude":19.282493,"latitude":46.365681,"name":"Ivókút","city":null,"address":null,"covered":null,"access":null,"website":null,"phone":null,"source":"OpenStreetMap","sourceUpdatedAt":"2026-04-04T22:50:22.71606+00:00","verifiedAt":null}},{"type":"Feature","geometry":{"type":"Point","coordinates":[19.0562222,46.3381272]},"properties":{"id":"water:74d3e288-7bbd-4902-a1b5-83112275e84f","kind":"water","longitude":19.0562222,"latitude":46.3381272,"name":"Ivókút","city":null,"address":null,"covered":null,"access":null,"website":null,"phone":null,"source":"OpenStreetMap","sourceUpdatedAt":"2026-04-04T22:50:22.71606+00:00","verifiedAt":null}},{"type":"Feature","geometry":{"type":"Point","coordinates":[18.9854539,46.5274949]},"properties":{"id":"water:782cbd1f-3b17-4731-90b1-2e292c7fc9f4","kind":"water","longitude":18.9854539,"latitude":46.5274949,"name":"Ivókút","city":null,"address":null,"covered":null,"access":null,"website":null,"phone":null,"source":"OpenStreetMap","sourceUpdatedAt":"2026-04-04T22:50:22.71606+00:00","verifiedAt":null}},{"type":"Feature","geometry":{"type":"Point","coordinates":[19.0765055,46.5556873]},"properties":{"id":"water:78c817f8-530d-4d55-9d9d-a0b951ca21ad","kind":"water","longitude":19.0765055,"latitude":46.5556873,"name":"Ivókút","city":null,"address":null,"covered":null,"access":null,"website":null,"phone":null,"source":"OpenStreetMap","sourceUpdatedAt":"2026-04-04T22:50:22.71606+00:00","verifiedAt":null}},{"type":"Feature","geometry":{"type":"Point","coordinates":[19.18252,46.426579]},"properties":{"id":"water:803ce6ef-55ed-4594-ba25-61f7b0bbe911","kind":"water","longitude":19.18252,"latitude":46.426579,"name":"Ivókút","city":null,"address":null,"covered":null,"access":null,"website":null,"phone":null,"source":"OpenStreetMap","sourceUpdatedAt":"2026-04-04T22:50:22.71606+00:00","verifiedAt":null}},{"type":"Feature","geometry":{"type":"Point","coordinates":[19.2065295,46.5150549]},"properties":{"id":"water:80cec327-6040-4834-9abd-944a13ab66d6","kind":"water","longitude":19.2065295,"latitude":46.5150549,"name":"Ivókút","city":null,"address":null,"covered":null,"access":null,"website":null,"phone":null,"source":"OpenStreetMap","sourceUpdatedAt":"2026-04-04T22:50:22.71606+00:00","verifiedAt":null}},{"type":"Feature","geometry":{"type":"Point","coordinates":[19.0271317,46.5288344]},"properties":{"id":"water:85c077a4-32ab-41f3-8f37-b370df97daaf","kind":"water","longitude":19.0271317,"latitude":46.5288344,"name":"Ivókút","city":null,"address":null,"covered":null,"access":null,"website":null,"phone":null,"source":"OpenStreetMap","sourceUpdatedAt":"2026-04-04T22:50:22.71606+00:00","verifiedAt":null}},{"type":"Feature","geometry":{"type":"Point","coordinates":[19.12256,46.484385]},"properties":{"id":"water:8d679f3b-3f2b-4c1f-824b-5f7e61b5f8f4","kind":"water","longitude":19.12256,"latitude":46.484385,"name":"Ivókút","city":null,"address":null,"covered":null,"access":null,"website":null,"phone":null,"source":"OpenStreetMap","sourceUpdatedAt":"2026-04-04T22:50:22.71606+00:00","verifiedAt":null}},{"type":"Feature","geometry":{"type":"Point","coordinates":[19.1851524,46.4209763]},"properties":{"id":"water:9904f51a-1bbf-4f68-aa48-92112f511a76","kind":"water","longitude":19.1851524,"latitude":46.4209763,"name":"Ivókút","city":null,"address":null,"covered":null,"access":null,"website":null,"phone":null,"source":"OpenStreetMap","sourceUpdatedAt":"2026-04-04T22:50:22.71606+00:00","verifiedAt":null}},{"type":"Feature","geometry":{"type":"Point","coordinates":[19.08132,46.483403]},"properties":{"id":"water:a3fcfc64-3e67-4751-a2c0-d477f9733bff","kind":"water","longitude":19.08132,"latitude":46.483403,"name":"Ivókút","city":null,"address":null,"covered":null,"access":null,"website":null,"phone":null,"source":"OpenStreetMap","sourceUpdatedAt":"2026-04-04T22:50:22.71606+00:00","verifiedAt":null}},{"type":"Feature","geometry":{"type":"Point","coordinates":[19.175331,46.42085]},"properties":{"id":"water:a5ec7210-03d0-4ff1-8d1a-dc3504a34a26","kind":"water","longitude":19.175331,"latitude":46.42085,"name":"Ivókút","city":null,"address":null,"covered":null,"access":null,"website":null,"phone":null,"source":"OpenStreetMap","sourceUpdatedAt":"2026-04-04T22:50:22.71606+00:00","verifiedAt":null}},{"type":"Feature","geometry":{"type":"Point","coordinates":[19.072373,46.4905652]},"properties":{"id":"water:b2fe34ee-0739-4e46-820b-1cae4b3d495f","kind":"water","longitude":19.072373,"latitude":46.4905652,"name":"Ivókút","city":null,"address":null,"covered":null,"access":null,"website":null,"phone":null,"source":"OpenStreetMap","sourceUpdatedAt":"2026-04-04T22:50:22.71606+00:00","verifiedAt":null}},{"type":"Feature","geometry":{"type":"Point","coordinates":[19.1155452,46.4032082]},"properties":{"id":"water:c443993e-53e4-463b-90d4-6919b73aae6d","kind":"water","longitude":19.1155452,"latitude":46.4032082,"name":"Ivókút","city":null,"address":null,"covered":null,"access":null,"website":null,"phone":null,"source":"OpenStreetMap","sourceUpdatedAt":"2026-04-04T22:50:22.71606+00:00","verifiedAt":null}},{"type":"Feature","geometry":{"type":"Point","coordinates":[19.178828,46.42208]},"properties":{"id":"water:c4c46497-9c18-4b20-9ac6-3564144c7255","kind":"water","longitude":19.178828,"latitude":46.42208,"name":"Ivókút","city":null,"address":null,"covered":null,"access":null,"website":null,"phone":null,"source":"OpenStreetMap","sourceUpdatedAt":"2026-04-04T22:50:22.71606+00:00","verifiedAt":null}},{"type":"Feature","geometry":{"type":"Point","coordinates":[18.984601,46.526149]},"properties":{"id":"water:c9987253-ed07-4acb-bc90-5d153f202fc0","kind":"water","longitude":18.984601,"latitude":46.526149,"name":"Ivókút","city":null,"address":null,"covered":null,"access":null,"website":null,"phone":null,"source":"OpenStreetMap","sourceUpdatedAt":"2026-04-04T22:50:22.71606+00:00","verifiedAt":null}},{"type":"Feature","geometry":{"type":"Point","coordinates":[19.0211043,46.5310237]},"properties":{"id":"water:d0f3012d-9f70-46fc-aca3-f20048377c5b","kind":"water","longitude":19.0211043,"latitude":46.5310237,"name":"Ivókút","city":null,"address":null,"covered":null,"access":null,"website":null,"phone":null,"source":"OpenStreetMap","sourceUpdatedAt":"2026-04-04T22:50:22.71606+00:00","verifiedAt":null}},{"type":"Feature","geometry":{"type":"Point","coordinates":[18.9938593,46.5312551]},"properties":{"id":"water:d3f3357c-3f79-4088-ba9d-b885880ce600","kind":"water","longitude":18.9938593,"latitude":46.5312551,"name":"Ivókút","city":null,"address":null,"covered":null,"access":null,"website":null,"phone":null,"source":"OpenStreetMap","sourceUpdatedAt":"2026-04-04T22:50:22.71606+00:00","verifiedAt":null}},{"type":"Feature","geometry":{"type":"Point","coordinates":[19.0785439,46.5580602]},"properties":{"id":"water:d5c1d35a-e9f3-4d48-816e-77f3ed40248c","kind":"water","longitude":19.0785439,"latitude":46.5580602,"name":"Ivókút","city":null,"address":null,"covered":null,"access":null,"website":null,"phone":null,"source":"OpenStreetMap","sourceUpdatedAt":"2026-04-04T22:50:22.71606+00:00","verifiedAt":null}},{"type":"Feature","geometry":{"type":"Point","coordinates":[19.0292235,46.443445]},"properties":{"id":"water:dd8faa86-0d4f-4427-839b-a42fe52d1bc4","kind":"water","longitude":19.0292235,"latitude":46.443445,"name":"Ivókút","city":null,"address":null,"covered":null,"access":null,"website":null,"phone":null,"source":"OpenStreetMap","sourceUpdatedAt":"2026-04-04T22:50:22.71606+00:00","verifiedAt":null}},{"type":"Feature","geometry":{"type":"Point","coordinates":[19.2450336,46.5364619]},"properties":{"id":"water:e9d95706-faeb-4088-bec2-bc4c5e811102","kind":"water","longitude":19.2450336,"latitude":46.5364619,"name":"Ivókút","city":null,"address":null,"covered":null,"access":null,"website":null,"phone":null,"source":"OpenStreetMap","sourceUpdatedAt":"2026-04-04T22:50:22.71606+00:00","verifiedAt":null}},{"type":"Feature","geometry":{"type":"Point","coordinates":[19.1476404,46.3875184]},"properties":{"id":"water:ec2fb5c7-788e-4519-804e-a931f1d7581d","kind":"water","longitude":19.1476404,"latitude":46.3875184,"name":"Ivókút","city":null,"address":null,"covered":null,"access":null,"website":null,"phone":null,"source":"OpenStreetMap","sourceUpdatedAt":"2026-04-04T22:50:22.71606+00:00","verifiedAt":null}},{"type":"Feature","geometry":{"type":"Point","coordinates":[19.0527548,46.339842]},"properties":{"id":"water:ecc12694-1d7f-4122-baf7-f55c6a200378","kind":"water","longitude":19.0527548,"latitude":46.339842,"name":"Ivókút","city":null,"address":null,"covered":null,"access":null,"website":null,"phone":null,"source":"OpenStreetMap","sourceUpdatedAt":"2026-04-04T22:50:22.71606+00:00","verifiedAt":null}},{"type":"Feature","geometry":{"type":"Point","coordinates":[19.1190566,46.521626]},"properties":{"id":"water:f119dafd-a01a-460a-842e-946b31c13f25","kind":"water","longitude":19.1190566,"latitude":46.521626,"name":"Ivókút","city":null,"address":null,"covered":null,"access":null,"website":null,"phone":null,"source":"OpenStreetMap","sourceUpdatedAt":"2026-04-04T22:50:22.71606+00:00","verifiedAt":null}},{"type":"Feature","geometry":{"type":"Point","coordinates":[19.254302,46.5261826]},"properties":{"id":"water:f258b387-6095-420b-bcf2-595742ff8701","kind":"water","longitude":19.254302,"latitude":46.5261826,"name":"Ivókút","city":null,"address":null,"covered":null,"access":null,"website":null,"phone":null,"source":"OpenStreetMap","sourceUpdatedAt":"2026-04-04T22:50:22.71606+00:00","verifiedAt":null}}]}