{"type":"FeatureCollection","features":[{"type":"Feature","geometry":{"type":"Point","coordinates":[8.3464154,52.3228374]},"properties":{"id":"bikerack:d07b1f02-c594-4325-8e65-21e4ba5f8cac","kind":"bikerack","longitude":8.3464154,"latitude":52.3228374,"name":"Fahrradabstellplatz","city":"Bad Essen","address":null,"covered":false,"access":null,"website":null,"phone":null,"source":"OpenStreetMap/way/1033294698","sourceUpdatedAt":null,"verifiedAt":null}},{"type":"Feature","geometry":{"type":"Point","coordinates":[8.3066804,52.3304987]},"properties":{"id":"bikerack:d4b98647-7b1a-480b-bf97-734f804827f4","kind":"bikerack","longitude":8.3066804,"latitude":52.3304987,"name":"Fahrradabstellplatz","city":"Bad Essen","address":null,"covered":true,"access":null,"website":null,"phone":null,"source":"OpenStreetMap/way/369084344","sourceUpdatedAt":null,"verifiedAt":null}}]}