{"type":"FeatureCollection","features":[{"type":"Feature","geometry":{"type":"Point","coordinates":[8.3132936,51.8326624]},"properties":{"id":"bikerack:0e8b00a7-e679-4634-a7d2-dcfba054e385","kind":"bikerack","longitude":8.3132936,"latitude":51.8326624,"name":"Fahrradabstellplatz","city":"Rheda-Wiedenbruck","address":null,"covered":false,"access":null,"website":null,"phone":null,"source":"OpenStreetMap/node/6884999369","sourceUpdatedAt":null,"verifiedAt":null}},{"type":"Feature","geometry":{"type":"Point","coordinates":[8.3106017,51.8333509]},"properties":{"id":"bikerack:26a7ab06-8b6a-45fa-aec9-21ecdfb96e00","kind":"bikerack","longitude":8.3106017,"latitude":51.8333509,"name":"Fahrradabstellplatz","city":"Rheda-Wiedenbruck","address":null,"covered":false,"access":null,"website":null,"phone":null,"source":"OpenStreetMap/node/3922252122","sourceUpdatedAt":null,"verifiedAt":null}},{"type":"Feature","geometry":{"type":"Point","coordinates":[8.3299424,51.8331311]},"properties":{"id":"bikerack:42c92793-5271-472c-ab15-9ca7cb1f66bb","kind":"bikerack","longitude":8.3299424,"latitude":51.8331311,"name":"Fahrradabstellplatz","city":"Rheda-Wiedenbruck","address":null,"covered":true,"access":null,"website":null,"phone":null,"source":"OpenStreetMap/node/1966612657","sourceUpdatedAt":null,"verifiedAt":null}},{"type":"Feature","geometry":{"type":"Point","coordinates":[8.3109943,51.8296905]},"properties":{"id":"bikerack:6e17adee-4a2c-42ac-af78-7a00d9de72eb","kind":"bikerack","longitude":8.3109943,"latitude":51.8296905,"name":"Fahrradabstellplatz","city":"Rheda-Wiedenbruck","address":null,"covered":false,"access":null,"website":null,"phone":null,"source":"OpenStreetMap/way/1350354352","sourceUpdatedAt":null,"verifiedAt":null}},{"type":"Feature","geometry":{"type":"Point","coordinates":[8.3145397,51.835014]},"properties":{"id":"bikerack:6e900418-0ab5-4c9c-b5c3-ae5f201f0dd6","kind":"bikerack","longitude":8.3145397,"latitude":51.835014,"name":"Fahrradabstellplatz","city":"Rheda-Wiedenbruck","address":null,"covered":false,"access":null,"website":null,"phone":null,"source":"OpenStreetMap/way/1349010758","sourceUpdatedAt":null,"verifiedAt":null}},{"type":"Feature","geometry":{"type":"Point","coordinates":[8.3128271,51.8329389]},"properties":{"id":"bikerack:7b09745a-6914-47fe-bf98-af83cab9d520","kind":"bikerack","longitude":8.3128271,"latitude":51.8329389,"name":"Fahrradabstellplatz","city":"Rheda-Wiedenbruck","address":null,"covered":true,"access":null,"website":null,"phone":null,"source":"OpenStreetMap/way/676286036","sourceUpdatedAt":null,"verifiedAt":null}},{"type":"Feature","geometry":{"type":"Point","coordinates":[8.31318,51.8230155]},"properties":{"id":"bikerack:9399bbf2-201b-4efc-9381-140779c17271","kind":"bikerack","longitude":8.31318,"latitude":51.8230155,"name":"Fahrradabstellplatz","city":"Rheda-Wiedenbruck","address":null,"covered":false,"access":null,"website":null,"phone":null,"source":"OpenStreetMap/way/1454109945","sourceUpdatedAt":null,"verifiedAt":null}},{"type":"Feature","geometry":{"type":"Point","coordinates":[8.3190798,51.8332007]},"properties":{"id":"bikerack:94b82f70-f7bc-4274-b514-047ac8b8f5bc","kind":"bikerack","longitude":8.3190798,"latitude":51.8332007,"name":"Fahrradabstellplatz","city":"Rheda-Wiedenbruck","address":null,"covered":false,"access":null,"website":null,"phone":null,"source":"OpenStreetMap/way/757739913","sourceUpdatedAt":null,"verifiedAt":null}},{"type":"Feature","geometry":{"type":"Point","coordinates":[8.3109437,51.8297521]},"properties":{"id":"bikerack:a632555c-0b66-4f8f-b991-56ff832cb689","kind":"bikerack","longitude":8.3109437,"latitude":51.8297521,"name":"Fahrradabstellplatz","city":"Rheda-Wiedenbruck","address":null,"covered":false,"access":null,"website":null,"phone":null,"source":"OpenStreetMap/way/1350354351","sourceUpdatedAt":null,"verifiedAt":null}},{"type":"Feature","geometry":{"type":"Point","coordinates":[8.3144833,51.828709]},"properties":{"id":"bikerack:a6cca8fe-5823-4ed7-87f0-0a6d5d197b5a","kind":"bikerack","longitude":8.3144833,"latitude":51.828709,"name":"Fahrradabstellplatz","city":"Rheda-Wiedenbruck","address":null,"covered":true,"access":null,"website":null,"phone":null,"source":"OpenStreetMap/way/136985037","sourceUpdatedAt":null,"verifiedAt":null}},{"type":"Feature","geometry":{"type":"Point","coordinates":[8.3129854,51.8225381]},"properties":{"id":"bikerack:af40bb15-272c-4e41-b578-dcc522838cb4","kind":"bikerack","longitude":8.3129854,"latitude":51.8225381,"name":"Fahrradabstellplatz","city":"Rheda-Wiedenbruck","address":null,"covered":false,"access":null,"website":null,"phone":null,"source":"OpenStreetMap/way/1454107171","sourceUpdatedAt":null,"verifiedAt":null}},{"type":"Feature","geometry":{"type":"Point","coordinates":[8.3061257,51.8353426]},"properties":{"id":"bikerack:b8db34fe-fc70-422a-b1b7-fd772a69b78d","kind":"bikerack","longitude":8.3061257,"latitude":51.8353426,"name":"Fahrradabstellplatz","city":"Rheda-Wiedenbruck","address":null,"covered":false,"access":null,"website":null,"phone":null,"source":"OpenStreetMap/way/1349213480","sourceUpdatedAt":null,"verifiedAt":null}},{"type":"Feature","geometry":{"type":"Point","coordinates":[8.3300728,51.8322538]},"properties":{"id":"bikerack:bf4f88c2-0d38-4f11-a5d0-4e38497488ae","kind":"bikerack","longitude":8.3300728,"latitude":51.8322538,"name":"Fahrradabstellplatz","city":"Rheda-Wiedenbruck","address":null,"covered":false,"access":null,"website":null,"phone":null,"source":"OpenStreetMap/node/6483115605","sourceUpdatedAt":null,"verifiedAt":null}},{"type":"Feature","geometry":{"type":"Point","coordinates":[8.3205452,51.8291073]},"properties":{"id":"bikerack:d1a6f990-3dde-4957-b2d1-e93326e3485c","kind":"bikerack","longitude":8.3205452,"latitude":51.8291073,"name":"Fahrradabstellplatz","city":"Rheda-Wiedenbruck","address":null,"covered":false,"access":null,"website":null,"phone":null,"source":"OpenStreetMap/way/33577681","sourceUpdatedAt":null,"verifiedAt":null}},{"type":"Feature","geometry":{"type":"Point","coordinates":[8.3299843,51.8323512]},"properties":{"id":"bikerack:e093313f-d2af-4698-ab3e-faf6793c5003","kind":"bikerack","longitude":8.3299843,"latitude":51.8323512,"name":"Fahrradabstellplatz","city":"Rheda-Wiedenbruck","address":null,"covered":false,"access":null,"website":null,"phone":null,"source":"OpenStreetMap/node/6483115604","sourceUpdatedAt":null,"verifiedAt":null}},{"type":"Feature","geometry":{"type":"Point","coordinates":[8.3097632,51.8334924]},"properties":{"id":"bikerack:fe03d1d8-1aaa-4df3-b72c-c02a0ed64227","kind":"bikerack","longitude":8.3097632,"latitude":51.8334924,"name":"Fahrradabstellplatz","city":"Rheda-Wiedenbruck","address":null,"covered":false,"access":null,"website":null,"phone":null,"source":"OpenStreetMap/node/3922252127","sourceUpdatedAt":null,"verifiedAt":null}},{"type":"Feature","geometry":{"type":"Point","coordinates":[8.3085455,51.833627]},"properties":{"id":"service:e6f26d28-6757-45b8-b714-48a11a230597","kind":"service","longitude":8.3085455,"latitude":51.833627,"name":"Bikers Point","city":"Rheda-Wiedenbrück","address":null,"covered":null,"access":null,"website":null,"phone":null,"source":"OpenStreetMap/way/165505539","sourceUpdatedAt":null,"verifiedAt":null}}]}