{"type":"FeatureCollection","features":[{"type":"Feature","geometry":{"type":"Point","coordinates":[8.3326346,49.9776457]},"properties":{"id":"bikerack:00cf1765-c002-47f2-972a-9fcb1ad76cbc","kind":"bikerack","longitude":8.3326346,"latitude":49.9776457,"name":"Fahrradabstellplatz","city":"Ginsheim-Gustavsburg","address":null,"covered":false,"access":null,"website":null,"phone":null,"source":"OpenStreetMap/node/8042343585","sourceUpdatedAt":null,"verifiedAt":null}},{"type":"Feature","geometry":{"type":"Point","coordinates":[8.3243808,49.9583339]},"properties":{"id":"bikerack:01baf383-d730-48f0-a272-2362cf6804d7","kind":"bikerack","longitude":8.3243808,"latitude":49.9583339,"name":"Fahrradabstellplatz","city":"Bodenheim","address":null,"covered":false,"access":null,"website":null,"phone":null,"source":"OpenStreetMap/node/9040105960","sourceUpdatedAt":null,"verifiedAt":null}},{"type":"Feature","geometry":{"type":"Point","coordinates":[8.3334517,49.9766624]},"properties":{"id":"bikerack:02826568-0045-44e7-89bd-c2618b129055","kind":"bikerack","longitude":8.3334517,"latitude":49.9766624,"name":"Fahrradabstellplatz","city":"Ginsheim-Gustavsburg","address":null,"covered":false,"access":null,"website":null,"phone":null,"source":"OpenStreetMap/node/13049096574","sourceUpdatedAt":null,"verifiedAt":null}},{"type":"Feature","geometry":{"type":"Point","coordinates":[8.3457539,49.9624547]},"properties":{"id":"bikerack:08f6afba-c2f0-4156-ae18-4cf80a0e3634","kind":"bikerack","longitude":8.3457539,"latitude":49.9624547,"name":"Fahrradabstellplatz","city":"Ginsheim-Gustavsburg","address":null,"covered":false,"access":null,"website":null,"phone":null,"source":"OpenStreetMap/node/12971264217","sourceUpdatedAt":null,"verifiedAt":null}},{"type":"Feature","geometry":{"type":"Point","coordinates":[8.3378305,49.9749566]},"properties":{"id":"bikerack:1aed3abb-215b-42b3-be0c-3264717d9db0","kind":"bikerack","longitude":8.3378305,"latitude":49.9749566,"name":"Fahrradabstellplatz","city":"Ginsheim-Gustavsburg","address":null,"covered":false,"access":null,"website":null,"phone":null,"source":"OpenStreetMap/node/8672659417","sourceUpdatedAt":null,"verifiedAt":null}},{"type":"Feature","geometry":{"type":"Point","coordinates":[8.3105986,49.9769576]},"properties":{"id":"bikerack:29abf354-b156-4214-aeb2-d17656bb01b2","kind":"bikerack","longitude":8.3105986,"latitude":49.9769576,"name":"Fahrradabstellplatz","city":"Mainz","address":null,"covered":false,"access":null,"website":null,"phone":null,"source":"OpenStreetMap/node/8541298019","sourceUpdatedAt":null,"verifiedAt":null}},{"type":"Feature","geometry":{"type":"Point","coordinates":[8.3357906,49.9760656]},"properties":{"id":"bikerack:49d6357b-caf1-49f8-91e4-ec1a6fc5090f","kind":"bikerack","longitude":8.3357906,"latitude":49.9760656,"name":"Fahrradabstellplatz","city":"Ginsheim-Gustavsburg","address":null,"covered":false,"access":null,"website":null,"phone":null,"source":"OpenStreetMap/node/13049096573","sourceUpdatedAt":null,"verifiedAt":null}},{"type":"Feature","geometry":{"type":"Point","coordinates":[8.314458,49.9640036]},"properties":{"id":"bikerack:5494f019-ace1-475e-aa5e-8fe0f303659d","kind":"bikerack","longitude":8.314458,"latitude":49.9640036,"name":"Fahrradabstellplatz","city":"Bodenheim","address":null,"covered":false,"access":null,"website":null,"phone":null,"source":"OpenStreetMap/node/13580334876","sourceUpdatedAt":null,"verifiedAt":null}},{"type":"Feature","geometry":{"type":"Point","coordinates":[8.3106859,49.9525778]},"properties":{"id":"bikerack:5900a21b-ce31-4ef1-bf95-3831efc0260c","kind":"bikerack","longitude":8.3106859,"latitude":49.9525778,"name":"Fahrradabstellplatz","city":"Bodenheim","address":null,"covered":false,"access":null,"website":null,"phone":null,"source":"OpenStreetMap/node/10211608846","sourceUpdatedAt":null,"verifiedAt":null}},{"type":"Feature","geometry":{"type":"Point","coordinates":[8.3195221,49.9729265]},"properties":{"id":"bikerack:5a9e4304-ebeb-4186-a544-446ef189b7c2","kind":"bikerack","longitude":8.3195221,"latitude":49.9729265,"name":"Fahrradabstellplatz","city":"Ginsheim-Gustavsburg","address":null,"covered":false,"access":null,"website":null,"phone":null,"source":"OpenStreetMap/node/8568659819","sourceUpdatedAt":null,"verifiedAt":null}},{"type":"Feature","geometry":{"type":"Point","coordinates":[8.3440246,49.9670807]},"properties":{"id":"bikerack:774e2707-2a88-4cb3-b306-b62d48421ad9","kind":"bikerack","longitude":8.3440246,"latitude":49.9670807,"name":"Fahrradabstellplatz","city":"Ginsheim-Gustavsburg","address":null,"covered":false,"access":null,"website":null,"phone":null,"source":"OpenStreetMap/node/3136430271","sourceUpdatedAt":null,"verifiedAt":null}},{"type":"Feature","geometry":{"type":"Point","coordinates":[8.3139405,49.9626777]},"properties":{"id":"bikerack:78bba5ca-6346-43d3-a64b-1e487b65c78b","kind":"bikerack","longitude":8.3139405,"latitude":49.9626777,"name":"Fahrradabstellplatz","city":"Bodenheim","address":null,"covered":false,"access":null,"website":null,"phone":null,"source":"OpenStreetMap/way/1314029430","sourceUpdatedAt":null,"verifiedAt":null}},{"type":"Feature","geometry":{"type":"Point","coordinates":[8.3125415,49.9607605]},"properties":{"id":"bikerack:8f701515-2548-4f6a-b3e6-53bc4223671c","kind":"bikerack","longitude":8.3125415,"latitude":49.9607605,"name":"Fahrradabstellplatz","city":"Bodenheim","address":null,"covered":false,"access":null,"website":null,"phone":null,"source":"OpenStreetMap/node/9007859910","sourceUpdatedAt":null,"verifiedAt":null}},{"type":"Feature","geometry":{"type":"Point","coordinates":[8.313497,49.9612237]},"properties":{"id":"bikerack:9cbc9da0-d333-41a1-a098-8f5a60dfb258","kind":"bikerack","longitude":8.313497,"latitude":49.9612237,"name":"Fahrradabstellplatz","city":"Bodenheim","address":null,"covered":false,"access":null,"website":null,"phone":null,"source":"OpenStreetMap/node/8458957417","sourceUpdatedAt":null,"verifiedAt":null}},{"type":"Feature","geometry":{"type":"Point","coordinates":[8.3105616,49.9792355]},"properties":{"id":"bikerack:9de2a7fe-2c92-4983-87c7-05ff23fbece9","kind":"bikerack","longitude":8.3105616,"latitude":49.9792355,"name":"Fahrradabstellplatz","city":"Mainz","address":null,"covered":false,"access":null,"website":null,"phone":null,"source":"OpenStreetMap/node/6720583107","sourceUpdatedAt":null,"verifiedAt":null}},{"type":"Feature","geometry":{"type":"Point","coordinates":[8.32931,49.9708148]},"properties":{"id":"bikerack:aad36e80-9431-4c7b-886b-e9b8be5c01bb","kind":"bikerack","longitude":8.32931,"latitude":49.9708148,"name":"Fahrradabstellplatz","city":"Ginsheim-Gustavsburg","address":null,"covered":false,"access":null,"website":null,"phone":null,"source":"OpenStreetMap/node/4158857391","sourceUpdatedAt":null,"verifiedAt":null}},{"type":"Feature","geometry":{"type":"Point","coordinates":[8.3120329,49.9623608]},"properties":{"id":"bikerack:b94ec481-9707-41b8-92db-08a0717b0fb1","kind":"bikerack","longitude":8.3120329,"latitude":49.9623608,"name":"Fahrradabstellplatz","city":"Bodenheim","address":null,"covered":false,"access":null,"website":null,"phone":null,"source":"OpenStreetMap/node/8568762417","sourceUpdatedAt":null,"verifiedAt":null}},{"type":"Feature","geometry":{"type":"Point","coordinates":[8.3429196,49.9633851]},"properties":{"id":"bikerack:c1466e7e-c5ad-4621-b7fd-f4411ac0e2c6","kind":"bikerack","longitude":8.3429196,"latitude":49.9633851,"name":"Fahrradabstellplatz","city":"Ginsheim-Gustavsburg","address":null,"covered":false,"access":null,"website":null,"phone":null,"source":"OpenStreetMap/node/7363741187","sourceUpdatedAt":null,"verifiedAt":null}},{"type":"Feature","geometry":{"type":"Point","coordinates":[8.3236501,49.9687167]},"properties":{"id":"bikerack:cb64da89-c5a9-4758-89c9-1affe27eb126","kind":"bikerack","longitude":8.3236501,"latitude":49.9687167,"name":"Fahrradabstellplatz","city":"Ginsheim-Gustavsburg","address":null,"covered":false,"access":null,"website":null,"phone":null,"source":"OpenStreetMap/node/9725281884","sourceUpdatedAt":null,"verifiedAt":null}},{"type":"Feature","geometry":{"type":"Point","coordinates":[8.322615,49.9527807]},"properties":{"id":"bikerack:d1802848-e869-4787-9c9e-51032d926dda","kind":"bikerack","longitude":8.322615,"latitude":49.9527807,"name":"Fahrradabstellplatz","city":"Bodenheim","address":null,"covered":false,"access":null,"website":null,"phone":null,"source":"OpenStreetMap/node/10969445779","sourceUpdatedAt":null,"verifiedAt":null}},{"type":"Feature","geometry":{"type":"Point","coordinates":[8.3454394,49.9716539]},"properties":{"id":"bikerack:dfed2caf-30b3-4a20-bc7f-72f808898e8f","kind":"bikerack","longitude":8.3454394,"latitude":49.9716539,"name":"Fahrradabstellplatz","city":"Ginsheim-Gustavsburg","address":null,"covered":false,"access":null,"website":null,"phone":null,"source":"OpenStreetMap/node/8536870591","sourceUpdatedAt":null,"verifiedAt":null}},{"type":"Feature","geometry":{"type":"Point","coordinates":[8.3121842,49.9624626]},"properties":{"id":"bikerack:e14cbf54-2c79-453e-b7bc-3c50d2ff9aec","kind":"bikerack","longitude":8.3121842,"latitude":49.9624626,"name":"Fahrradabstellplatz","city":"Bodenheim","address":null,"covered":false,"access":null,"website":null,"phone":null,"source":"OpenStreetMap/node/8568762517","sourceUpdatedAt":null,"verifiedAt":null}},{"type":"Feature","geometry":{"type":"Point","coordinates":[8.324274,49.9584203]},"properties":{"id":"bikerack:e9510fb3-4f85-42ed-9e06-48972c306a8e","kind":"bikerack","longitude":8.324274,"latitude":49.9584203,"name":"Fahrradabstellplatz","city":"Bodenheim","address":null,"covered":false,"access":null,"website":null,"phone":null,"source":"OpenStreetMap/node/9039759817","sourceUpdatedAt":null,"verifiedAt":null}},{"type":"Feature","geometry":{"type":"Point","coordinates":[8.3323589,49.9771299]},"properties":{"id":"bikerack:f582fa44-5c7a-41ff-a17e-a3564e0cb71e","kind":"bikerack","longitude":8.3323589,"latitude":49.9771299,"name":"Fahrradabstellplatz","city":"Ginsheim-Gustavsburg","address":null,"covered":true,"access":null,"website":null,"phone":null,"source":"OpenStreetMap/node/8042344085","sourceUpdatedAt":null,"verifiedAt":null}},{"type":"Feature","geometry":{"type":"Point","coordinates":[8.3435741,49.9633383]},"properties":{"id":"repair:aabe539c-c91b-433d-bab8-bc616a087370","kind":"repair","longitude":8.3435741,"latitude":49.9633383,"name":"Fahrradreparaturstation","city":"Ginsheim-Gustavsburg","address":null,"covered":false,"access":null,"website":null,"phone":null,"source":"OpenStreetMap/node/11304573469","sourceUpdatedAt":null,"verifiedAt":null}}]}