{"type":"FeatureCollection","features":[{"type":"Feature","geometry":{"type":"Point","coordinates":[8.3378127,47.5725918]},"properties":{"id":"bikerack:65d2a16b-5f8a-4f2a-8226-fd4efcc7a668","kind":"bikerack","longitude":8.3378127,"latitude":47.5725918,"name":"Freibad Reckingen","city":"Bad Zurzach","address":null,"covered":false,"access":null,"website":null,"phone":null,"source":"OpenStreetMap/way/322895450","sourceUpdatedAt":null,"verifiedAt":null}},{"type":"Feature","geometry":{"type":"Point","coordinates":[8.3309408,47.5729049]},"properties":{"id":"water:01daeabc-002e-4181-9dc8-f803e1df95df","kind":"water","longitude":8.3309408,"latitude":47.5729049,"name":"Dorfbrunnen","city":"Bad Zurzach","address":null,"covered":null,"access":null,"website":null,"phone":null,"source":"OpenStreetMap/node/1800385378","sourceUpdatedAt":null,"verifiedAt":null}},{"type":"Feature","geometry":{"type":"Point","coordinates":[8.3264388,47.5636265]},"properties":{"id":"water:1a14b9ea-2e16-4457-bab6-8f3d35a92b36","kind":"water","longitude":8.3264388,"latitude":47.5636265,"name":"Drinking Fountain","city":"Tegerfelden","address":null,"covered":null,"access":null,"website":null,"phone":null,"source":"OpenStreetMap/node/3625541962","sourceUpdatedAt":null,"verifiedAt":null}},{"type":"Feature","geometry":{"type":"Point","coordinates":[8.3305679,47.5719694]},"properties":{"id":"water:842f1ac4-371d-4ca3-a2e5-70eff4ed3624","kind":"water","longitude":8.3305679,"latitude":47.5719694,"name":"Trinkwasser","city":"Bad Zurzach","address":null,"covered":null,"access":null,"website":null,"phone":null,"source":"OpenStreetMap/node/1800385975","sourceUpdatedAt":null,"verifiedAt":null}},{"type":"Feature","geometry":{"type":"Point","coordinates":[8.3230316,47.5651556]},"properties":{"id":"water:a6af1e1a-ed33-4e51-84a8-e73fa20f71b7","kind":"water","longitude":8.3230316,"latitude":47.5651556,"name":"Drinking Fountain","city":"Tegerfelden","address":null,"covered":null,"access":null,"website":null,"phone":null,"source":"OpenStreetMap/node/3625541984","sourceUpdatedAt":null,"verifiedAt":null}},{"type":"Feature","geometry":{"type":"Point","coordinates":[8.323666,47.570034]},"properties":{"id":"water:e0f3f9d5-eaba-4289-9fae-d19b5a836239","kind":"water","longitude":8.323666,"latitude":47.570034,"name":"Drinking Fountain","city":"Bad Zurzach","address":null,"covered":null,"access":null,"website":null,"phone":null,"source":"OpenStreetMap/node/9904821088","sourceUpdatedAt":null,"verifiedAt":null}}]}