{"type":"FeatureCollection","features":[{"type":"Feature","geometry":{"type":"Point","coordinates":[8.3112468,47.2008843]},"properties":{"id":"water:381b97a8-53e0-42d2-bab9-c9f2259e54a6","kind":"water","longitude":8.3112468,"latitude":47.2008843,"name":"Drinking Fountain","city":"Hohenrain","address":null,"covered":null,"access":null,"website":null,"phone":null,"source":"OpenStreetMap/node/2267165510","sourceUpdatedAt":null,"verifiedAt":null}},{"type":"Feature","geometry":{"type":"Point","coordinates":[8.3344803,47.2045646]},"properties":{"id":"water:7c2e1fd6-9c8e-4b57-89e3-33c09240204b","kind":"water","longitude":8.3344803,"latitude":47.2045646,"name":"Drinking Fountain","city":"Hohenrain","address":null,"covered":null,"access":null,"website":null,"phone":null,"source":"OpenStreetMap/node/1740711455","sourceUpdatedAt":null,"verifiedAt":null}},{"type":"Feature","geometry":{"type":"Point","coordinates":[8.3263034,47.2094494]},"properties":{"id":"water:e31c1726-3117-4f4b-8b60-f1612bc17620","kind":"water","longitude":8.3263034,"latitude":47.2094494,"name":"Drinking Fountain","city":"Hohenrain","address":null,"covered":null,"access":null,"website":null,"phone":null,"source":"OpenStreetMap/node/8734363808","sourceUpdatedAt":null,"verifiedAt":null}}]}