{"type":"FeatureCollection","features":[{"type":"Feature","geometry":{"type":"Point","coordinates":[8.3469787,46.7754151]},"properties":{"id":"water:6039194d-8bad-4eec-b4c1-2a057eb7f74e","kind":"water","longitude":8.3469787,"latitude":46.7754151,"name":"Drinking Fountain","city":"Engelberg","address":null,"covered":null,"access":null,"website":null,"phone":null,"source":"OpenStreetMap/node/11034290239","sourceUpdatedAt":null,"verifiedAt":null}},{"type":"Feature","geometry":{"type":"Point","coordinates":[8.3259465,46.7813435]},"properties":{"id":"water:85bcd419-fbb1-439b-99b4-58c97cb9e36f","kind":"water","longitude":8.3259465,"latitude":46.7813435,"name":"Drinking Fountain","city":"Engelberg","address":null,"covered":null,"access":null,"website":null,"phone":null,"source":"OpenStreetMap/node/6473815983","sourceUpdatedAt":null,"verifiedAt":null}},{"type":"Feature","geometry":{"type":"Point","coordinates":[8.3268583,46.7813482]},"properties":{"id":"water:9a8c49fb-bf92-454c-a437-147c6b282163","kind":"water","longitude":8.3268583,"latitude":46.7813482,"name":"Drinking Fountain","city":"Engelberg","address":null,"covered":null,"access":null,"website":null,"phone":null,"source":"OpenStreetMap/node/6473815982","sourceUpdatedAt":null,"verifiedAt":null}}]}