{"type":"FeatureCollection","features":[{"type":"Feature","geometry":{"type":"Point","coordinates":[10.3380248,54.0806184]},"properties":{"id":"water:26477024-e77a-4c15-a9f0-245f3209bbf3","kind":"water","longitude":10.3380248,"latitude":54.0806184,"name":"Trinkwasser","city":"Stocksee","address":null,"covered":null,"access":null,"website":null,"phone":null,"source":"OpenStreetMap/node/9027126366","sourceUpdatedAt":null,"verifiedAt":null}},{"type":"Feature","geometry":{"type":"Point","coordinates":[10.3395209,54.0809755]},"properties":{"id":"water:71f8fd11-7c28-4fcb-b131-b5ead614eac9","kind":"water","longitude":10.3395209,"latitude":54.0809755,"name":"Trinkwasser","city":"Stocksee","address":null,"covered":null,"access":null,"website":null,"phone":null,"source":"OpenStreetMap/node/9044183668","sourceUpdatedAt":null,"verifiedAt":null}},{"type":"Feature","geometry":{"type":"Point","coordinates":[10.3381221,54.0802454]},"properties":{"id":"water:aadbaeb7-0533-44d3-9b03-0406fb7f8af6","kind":"water","longitude":10.3381221,"latitude":54.0802454,"name":"Trinkwasser","city":"Stocksee","address":null,"covered":null,"access":null,"website":null,"phone":null,"source":"OpenStreetMap/node/9025587266","sourceUpdatedAt":null,"verifiedAt":null}},{"type":"Feature","geometry":{"type":"Point","coordinates":[10.3394248,54.0804421]},"properties":{"id":"water:ba984076-349e-4281-bfd5-01f54d0eec5c","kind":"water","longitude":10.3394248,"latitude":54.0804421,"name":"Trinkwasser","city":"Stocksee","address":null,"covered":null,"access":null,"website":null,"phone":null,"source":"OpenStreetMap/node/9044183669","sourceUpdatedAt":null,"verifiedAt":null}},{"type":"Feature","geometry":{"type":"Point","coordinates":[10.3385921,54.0797859]},"properties":{"id":"water:bab29536-ffcc-4c79-9a99-d9e9df0bc01d","kind":"water","longitude":10.3385921,"latitude":54.0797859,"name":"Trinkwasser","city":"Stocksee","address":null,"covered":null,"access":null,"website":null,"phone":null,"source":"OpenStreetMap/node/9029832428","sourceUpdatedAt":null,"verifiedAt":null}}]}