{"type":"FeatureCollection","features":[{"type":"Feature","geometry":{"type":"Point","coordinates":[10.3708228,52.2585154]},"properties":{"id":"bikerack:6625049e-0d81-4baf-93a8-02f504012e97","kind":"bikerack","longitude":10.3708228,"latitude":52.2585154,"name":"Fahrradabstellplatz","city":"Vechelde","address":null,"covered":true,"access":null,"website":null,"phone":null,"source":"OpenStreetMap/way/988322339","sourceUpdatedAt":null,"verifiedAt":null}},{"type":"Feature","geometry":{"type":"Point","coordinates":[10.359371,52.25736]},"properties":{"id":"bikerack:7a30c535-33ab-4393-a054-b213bba46acd","kind":"bikerack","longitude":10.359371,"latitude":52.25736,"name":"Fahrradabstellplatz","city":"Vechelde","address":null,"covered":false,"access":null,"website":null,"phone":null,"source":"OpenStreetMap/node/7506300630","sourceUpdatedAt":null,"verifiedAt":null}},{"type":"Feature","geometry":{"type":"Point","coordinates":[10.3587962,52.2581874]},"properties":{"id":"bikerack:99af5c95-9dc1-4e81-bdaf-47f63c12e556","kind":"bikerack","longitude":10.3587962,"latitude":52.2581874,"name":"Fahrradabstellplatz","city":"Vechelde","address":null,"covered":true,"access":null,"website":null,"phone":null,"source":"OpenStreetMap/way/802464303","sourceUpdatedAt":null,"verifiedAt":null}},{"type":"Feature","geometry":{"type":"Point","coordinates":[10.3663327,52.2596579]},"properties":{"id":"bikerack:9a2d608a-6973-461a-adb0-ce9d30bf8339","kind":"bikerack","longitude":10.3663327,"latitude":52.2596579,"name":"Fahrradabstellplatz","city":"Vechelde","address":null,"covered":true,"access":null,"website":null,"phone":null,"source":"OpenStreetMap/way/434331506","sourceUpdatedAt":null,"verifiedAt":null}},{"type":"Feature","geometry":{"type":"Point","coordinates":[10.3593626,52.2573531]},"properties":{"id":"bikerack:b1f0821d-660d-48d6-a5bc-fa8332ed1f08","kind":"bikerack","longitude":10.3593626,"latitude":52.2573531,"name":"Fahrradabstellplatz","city":"Vechelde","address":null,"covered":true,"access":null,"website":null,"phone":null,"source":"OpenStreetMap/way/802463679","sourceUpdatedAt":null,"verifiedAt":null}},{"type":"Feature","geometry":{"type":"Point","coordinates":[10.3587949,52.2581936]},"properties":{"id":"bikerack:c34ee072-a566-4ad7-8aac-fac5f766901c","kind":"bikerack","longitude":10.3587949,"latitude":52.2581936,"name":"Fahrradabstellplatz","city":"Vechelde","address":null,"covered":true,"access":null,"website":null,"phone":null,"source":"OpenStreetMap/node/12662694204","sourceUpdatedAt":null,"verifiedAt":null}}]}