{"type":"FeatureCollection","features":[{"type":"Feature","geometry":{"type":"Point","coordinates":[10.3358468,51.3086637]},"properties":{"id":"bikerack:4522cd94-ac99-47f8-b2a2-c4b775a432f8","kind":"bikerack","longitude":10.3358468,"latitude":51.3086637,"name":"Fahrradabstellplatz","city":"Silberhausen","address":null,"covered":false,"access":null,"website":null,"phone":null,"source":"OpenStreetMap/node/13147543748","sourceUpdatedAt":null,"verifiedAt":null}},{"type":"Feature","geometry":{"type":"Point","coordinates":[10.3524342,51.2944595]},"properties":{"id":"bikerack:b8a9b0cc-cba2-4d62-9c2e-27f39e09718a","kind":"bikerack","longitude":10.3524342,"latitude":51.2944595,"name":"Fahrradabstellplatz","city":"Helmsdorf","address":null,"covered":false,"access":null,"website":null,"phone":null,"source":"OpenStreetMap/node/6369683256","sourceUpdatedAt":null,"verifiedAt":null}},{"type":"Feature","geometry":{"type":"Point","coordinates":[10.3483715,51.2990614]},"properties":{"id":"bikerack:d89d4360-74ac-4914-9404-6db18af773a8","kind":"bikerack","longitude":10.3483715,"latitude":51.2990614,"name":"Fahrradabstellplatz","city":"Helmsdorf","address":null,"covered":false,"access":null,"website":null,"phone":null,"source":"OpenStreetMap/node/6536431324","sourceUpdatedAt":null,"verifiedAt":null}}]}