{"type":"FeatureCollection","features":[{"type":"Feature","geometry":{"type":"Point","coordinates":[10.3432242,45.9222759]},"properties":{"id":"water:416c4fd2-31d8-4ae0-8f21-e0bd98b5f804","kind":"water","longitude":10.3432242,"latitude":45.9222759,"name":"Fontanella","city":"Prestine","address":null,"covered":null,"access":null,"website":null,"phone":null,"source":"OpenStreetMap/node/11120012236","sourceUpdatedAt":null,"verifiedAt":null}},{"type":"Feature","geometry":{"type":"Point","coordinates":[10.3455063,45.9224462]},"properties":{"id":"water:6c39589c-3442-4592-8fb1-4c8de42e2ff4","kind":"water","longitude":10.3455063,"latitude":45.9224462,"name":"Fontanella","city":"Prestine","address":null,"covered":null,"access":null,"website":null,"phone":null,"source":"OpenStreetMap/node/11119952861","sourceUpdatedAt":null,"verifiedAt":null}}]}