{"type":"FeatureCollection","features":[{"type":"Feature","geometry":{"type":"Point","coordinates":[22.951604,49.8987702]},"properties":{"id":"bikerack:470cd100-e842-4c14-9861-63bebdcfcd41","kind":"bikerack","longitude":22.951604,"latitude":49.8987702,"name":"Biciklitároló","city":"Stubno","address":null,"covered":false,"access":null,"website":null,"phone":null,"source":"OpenStreetMap/node/11559987797","sourceUpdatedAt":null,"verifiedAt":null}},{"type":"Feature","geometry":{"type":"Point","coordinates":[22.9528749,49.8984207]},"properties":{"id":"bikerack:7eb5bbc6-6c2e-4811-ab34-3b875db0879e","kind":"bikerack","longitude":22.9528749,"latitude":49.8984207,"name":"Biciklitároló","city":"Stubno","address":null,"covered":false,"access":null,"website":null,"phone":null,"source":"OpenStreetMap/node/5917984837","sourceUpdatedAt":null,"verifiedAt":null}}]}