{"type":"FeatureCollection","features":[{"type":"Feature","geometry":{"type":"Point","coordinates":[8.2901243,54.8477391]},"properties":{"id":"bikerack:4ab4f9b8-ca66-4d8f-a45c-68088f205730","kind":"bikerack","longitude":8.2901243,"latitude":54.8477391,"name":"Fahrradabstellplatz","city":"Westerland","address":null,"covered":false,"access":null,"website":null,"phone":null,"source":"OpenStreetMap/node/493673118","sourceUpdatedAt":null,"verifiedAt":null}},{"type":"Feature","geometry":{"type":"Point","coordinates":[8.2916817,54.8474393]},"properties":{"id":"bikerack:4ed89a32-b914-4b4e-9980-a489c5d5d87d","kind":"bikerack","longitude":8.2916817,"latitude":54.8474393,"name":"Fahrradabstellplatz","city":"Westerland","address":null,"covered":false,"access":null,"website":null,"phone":null,"source":"OpenStreetMap/node/5183360700","sourceUpdatedAt":null,"verifiedAt":null}},{"type":"Feature","geometry":{"type":"Point","coordinates":[8.2946519,54.8464351]},"properties":{"id":"bikerack:6e149373-5fce-46b9-9ba1-758a59a24393","kind":"bikerack","longitude":8.2946519,"latitude":54.8464351,"name":"Fahrradabstellplatz","city":"Westerland","address":null,"covered":false,"access":null,"website":null,"phone":null,"source":"OpenStreetMap/node/7129591686","sourceUpdatedAt":null,"verifiedAt":null}},{"type":"Feature","geometry":{"type":"Point","coordinates":[8.2909025,54.8475026]},"properties":{"id":"bikerack:e370b16e-96f2-4093-b654-d42a7463a66d","kind":"bikerack","longitude":8.2909025,"latitude":54.8475026,"name":"Fahrradabstellplatz","city":"Westerland","address":null,"covered":false,"access":null,"website":null,"phone":null,"source":"OpenStreetMap/node/493673117","sourceUpdatedAt":null,"verifiedAt":null}}]}