{"type":"FeatureCollection","features":[{"type":"Feature","geometry":{"type":"Point","coordinates":[8.2817941,49.8122231]},"properties":{"id":"bikerack:189d3d9e-4220-4628-8cea-0340fc809632","kind":"bikerack","longitude":8.2817941,"latitude":49.8122231,"name":"Fahrradabstellplatz","city":"Uelversheim","address":null,"covered":false,"access":null,"website":null,"phone":null,"source":"OpenStreetMap/way/1385512486","sourceUpdatedAt":null,"verifiedAt":null}},{"type":"Feature","geometry":{"type":"Point","coordinates":[8.2814273,49.8118504]},"properties":{"id":"bikerack:d058ef83-9ed6-46ea-8ff0-5c55ab1c4fff","kind":"bikerack","longitude":8.2814273,"latitude":49.8118504,"name":"Fahrradabstellplatz","city":"Uelversheim","address":null,"covered":true,"access":null,"website":null,"phone":null,"source":"OpenStreetMap/node/12092083536","sourceUpdatedAt":null,"verifiedAt":null}},{"type":"Feature","geometry":{"type":"Point","coordinates":[8.2814741,49.8118193]},"properties":{"id":"repair:75f37b3e-81ed-4b04-9ef1-357709332a21","kind":"repair","longitude":8.2814741,"latitude":49.8118193,"name":"Fahrradreparaturstation","city":"Uelversheim","address":null,"covered":false,"access":null,"website":null,"phone":null,"source":"OpenStreetMap/node/12091888269","sourceUpdatedAt":null,"verifiedAt":null}}]}