{"type":"FeatureCollection","features":[{"type":"Feature","geometry":{"type":"Point","coordinates":[8.2716701,48.675603]},"properties":{"id":"water:2bdc4e19-cd26-4d7c-bf78-5499173a5177","kind":"water","longitude":8.2716701,"latitude":48.675603,"name":"Trinkwasser","city":"Biberach","address":null,"covered":null,"access":null,"website":null,"phone":null,"source":"OpenStreetMap/node/705226114","sourceUpdatedAt":null,"verifiedAt":null}},{"type":"Feature","geometry":{"type":"Point","coordinates":[8.2751185,48.6884341]},"properties":{"id":"water:9e8f2f3d-991f-4928-a9b3-0873e7f71439","kind":"water","longitude":8.2751185,"latitude":48.6884341,"name":"Trinkwasser","city":"Forbach","address":null,"covered":null,"access":null,"website":null,"phone":null,"source":"OpenStreetMap/node/4879063561","sourceUpdatedAt":null,"verifiedAt":null}},{"type":"Feature","geometry":{"type":"Point","coordinates":[8.2825199,48.689514]},"properties":{"id":"water:ecc87e79-303d-444e-984d-d591f8d64d60","kind":"water","longitude":8.2825199,"latitude":48.689514,"name":"Trinkwasser","city":"Forbach","address":null,"covered":null,"access":null,"website":null,"phone":null,"source":"OpenStreetMap/node/7242414755","sourceUpdatedAt":null,"verifiedAt":null}}]}