{"type":"FeatureCollection","features":[{"type":"Feature","geometry":{"type":"Point","coordinates":[8.2787404,45.9555202]},"properties":{"id":"water:583c3256-0714-4816-838d-44ce9bf25f45","kind":"water","longitude":8.2787404,"latitude":45.9555202,"name":"Fontanella","city":"Vogogna","address":null,"covered":null,"access":null,"website":null,"phone":null,"source":"OpenStreetMap/node/12182863600","sourceUpdatedAt":null,"verifiedAt":null}},{"type":"Feature","geometry":{"type":"Point","coordinates":[8.2863209,45.9705717]},"properties":{"id":"water:9d89ec4f-8980-4a27-adf4-6a39976a5bfb","kind":"water","longitude":8.2863209,"latitude":45.9705717,"name":"Fontanella","city":"Vogogna","address":null,"covered":null,"access":null,"website":null,"phone":null,"source":"OpenStreetMap/node/13020241461","sourceUpdatedAt":null,"verifiedAt":null}}]}