{"type":"FeatureCollection","features":[{"type":"Feature","geometry":{"type":"Point","coordinates":[8.2928445,45.4006459]},"properties":{"id":"water:0a7c04b2-fc88-425f-a112-3b4d1d2044d3","kind":"water","longitude":8.2928445,"latitude":45.4006459,"name":"Fontanella","city":"Casanova Elvo","address":null,"covered":null,"access":null,"website":null,"phone":null,"source":"OpenStreetMap/node/13111857272","sourceUpdatedAt":null,"verifiedAt":null}},{"type":"Feature","geometry":{"type":"Point","coordinates":[8.293397,45.3998493]},"properties":{"id":"water:0ffe0a5d-4e2b-4411-9850-0108256c7a02","kind":"water","longitude":8.293397,"latitude":45.3998493,"name":"Fontanella","city":"Casanova Elvo","address":null,"covered":null,"access":null,"website":null,"phone":null,"source":"OpenStreetMap/node/3853391681","sourceUpdatedAt":null,"verifiedAt":null}},{"type":"Feature","geometry":{"type":"Point","coordinates":[8.2901587,45.429279]},"properties":{"id":"water:1b619045-70ae-4642-aacc-fd2ff8d2674e","kind":"water","longitude":8.2901587,"latitude":45.429279,"name":"Fontanella","city":"Formigliana","address":null,"covered":null,"access":null,"website":null,"phone":null,"source":"OpenStreetMap/node/5895931188","sourceUpdatedAt":null,"verifiedAt":null}},{"type":"Feature","geometry":{"type":"Point","coordinates":[8.2936009,45.4285016]},"properties":{"id":"water:36bf942f-6dd0-4c60-ada6-3f408e249460","kind":"water","longitude":8.2936009,"latitude":45.4285016,"name":"Fontanella","city":"Formigliana","address":null,"covered":null,"access":null,"website":null,"phone":null,"source":"OpenStreetMap/node/9792144087","sourceUpdatedAt":null,"verifiedAt":null}},{"type":"Feature","geometry":{"type":"Point","coordinates":[8.2902575,45.4005565]},"properties":{"id":"water:6489e7a4-3b0c-4684-9937-cd11a726b412","kind":"water","longitude":8.2902575,"latitude":45.4005565,"name":"Fontanella","city":"Casanova Elvo","address":null,"covered":null,"access":null,"website":null,"phone":null,"source":"OpenStreetMap/node/10875325418","sourceUpdatedAt":null,"verifiedAt":null}},{"type":"Feature","geometry":{"type":"Point","coordinates":[8.2899843,45.4287916]},"properties":{"id":"water:670015f1-757d-4d04-9aa0-f3724b993fd8","kind":"water","longitude":8.2899843,"latitude":45.4287916,"name":"Fontanella","city":"Formigliana","address":null,"covered":null,"access":null,"website":null,"phone":null,"source":"OpenStreetMap/node/13121336831","sourceUpdatedAt":null,"verifiedAt":null}},{"type":"Feature","geometry":{"type":"Point","coordinates":[8.2936936,45.4292391]},"properties":{"id":"water:6db5dfac-7c44-4727-89d2-4ae99550a7a6","kind":"water","longitude":8.2936936,"latitude":45.4292391,"name":"Fontanella","city":"Formigliana","address":null,"covered":null,"access":null,"website":null,"phone":null,"source":"OpenStreetMap/node/13100047693","sourceUpdatedAt":null,"verifiedAt":null}},{"type":"Feature","geometry":{"type":"Point","coordinates":[8.2922305,45.4281629]},"properties":{"id":"water:6fcaeb46-a2bd-4b80-a2bf-9deab439601a","kind":"water","longitude":8.2922305,"latitude":45.4281629,"name":"Fontanella","city":"Formigliana","address":null,"covered":null,"access":null,"website":null,"phone":null,"source":"OpenStreetMap/node/2235331079","sourceUpdatedAt":null,"verifiedAt":null}},{"type":"Feature","geometry":{"type":"Point","coordinates":[8.2919607,45.4068293]},"properties":{"id":"water:82a10798-0787-4eab-a2f5-9c570c16920f","kind":"water","longitude":8.2919607,"latitude":45.4068293,"name":"Fontanella","city":"Casanova Elvo","address":null,"covered":null,"access":null,"website":null,"phone":null,"source":"OpenStreetMap/node/10282342192","sourceUpdatedAt":null,"verifiedAt":null}},{"type":"Feature","geometry":{"type":"Point","coordinates":[8.2913344,45.4291707]},"properties":{"id":"water:96271144-2bb5-4e03-97ae-25efc7e0021b","kind":"water","longitude":8.2913344,"latitude":45.4291707,"name":"Fontanella","city":"Formigliana","address":null,"covered":null,"access":null,"website":null,"phone":null,"source":"OpenStreetMap/node/5895931185","sourceUpdatedAt":null,"verifiedAt":null}},{"type":"Feature","geometry":{"type":"Point","coordinates":[8.2941332,45.4007339]},"properties":{"id":"water:f829360d-d2f3-4acb-8dba-ecbe65e21e5c","kind":"water","longitude":8.2941332,"latitude":45.4007339,"name":"Fontanella","city":"Casanova Elvo","address":null,"covered":null,"access":null,"website":null,"phone":null,"source":"OpenStreetMap/node/13111857258","sourceUpdatedAt":null,"verifiedAt":null}}]}