{"type":"FeatureCollection","features":[{"type":"Feature","geometry":{"type":"Point","coordinates":[8.2637144,45.3253917]},"properties":{"id":"water:08a754d5-d54e-44bc-9c24-a018680cd399","kind":"water","longitude":8.2637144,"latitude":45.3253917,"name":"Fontanella","city":"Salasco","address":null,"covered":null,"access":null,"website":null,"phone":null,"source":"OpenStreetMap/node/2382308171","sourceUpdatedAt":null,"verifiedAt":null}},{"type":"Feature","geometry":{"type":"Point","coordinates":[8.264586,45.3253335]},"properties":{"id":"water:a96ab710-cc30-4fec-938a-a80d1d037393","kind":"water","longitude":8.264586,"latitude":45.3253335,"name":"Fontanella","city":"Salasco","address":null,"covered":null,"access":null,"website":null,"phone":null,"source":"OpenStreetMap/node/5846323693","sourceUpdatedAt":null,"verifiedAt":null}}]}