{"type":"FeatureCollection","features":[{"type":"Feature","geometry":{"type":"Point","coordinates":[9.9465369,54.3097193]},"properties":{"id":"bikerack:352784c1-7278-4bf5-a10a-789d38e4791d","kind":"bikerack","longitude":9.9465369,"latitude":54.3097193,"name":"Fahrradabstellplatz","city":"Felde","address":null,"covered":true,"access":null,"website":null,"phone":null,"source":"OpenStreetMap/way/296620872","sourceUpdatedAt":null,"verifiedAt":null}},{"type":"Feature","geometry":{"type":"Point","coordinates":[9.9636024,54.3144705]},"properties":{"id":"bikerack:b8b1b08f-25bc-4100-ba38-8cfe1d6a6223","kind":"bikerack","longitude":9.9636024,"latitude":54.3144705,"name":"Fahrradabstellplatz","city":"Achterwehr","address":null,"covered":true,"access":null,"website":null,"phone":null,"source":"OpenStreetMap/node/4530230910","sourceUpdatedAt":null,"verifiedAt":null}},{"type":"Feature","geometry":{"type":"Point","coordinates":[9.946427,54.3097865]},"properties":{"id":"bikerack:d5dd2b95-1b35-485e-b638-3c28f59bc182","kind":"bikerack","longitude":9.946427,"latitude":54.3097865,"name":"Fahrradabstellplatz","city":"Felde","address":null,"covered":true,"access":null,"website":null,"phone":null,"source":"OpenStreetMap/way/925996256","sourceUpdatedAt":null,"verifiedAt":null}},{"type":"Feature","geometry":{"type":"Point","coordinates":[9.946547,54.3098086]},"properties":{"id":"repair:c2fd0a74-b4a6-4092-b8b2-6a4ca92e6531","kind":"repair","longitude":9.946547,"latitude":54.3098086,"name":"Fahrrad-Reparaturstation","city":"Felde","address":null,"covered":false,"access":null,"website":null,"phone":null,"source":"OpenStreetMap/node/12464867704","sourceUpdatedAt":null,"verifiedAt":null}}]}