{"type":"FeatureCollection","features":[{"type":"Feature","geometry":{"type":"Point","coordinates":[9.961688,54.071662]},"properties":{"id":"bikerack:0b7ca2b0-cc4b-4bc3-9eac-e9c23f75cd3a","kind":"bikerack","longitude":9.961688,"latitude":54.071662,"name":"Fahrradabstellplatz","city":"Neumunster","address":null,"covered":false,"access":null,"website":null,"phone":null,"source":"OpenStreetMap/node/10878795294","sourceUpdatedAt":null,"verifiedAt":null}},{"type":"Feature","geometry":{"type":"Point","coordinates":[9.9639842,54.0805702]},"properties":{"id":"bikerack:117f502b-569a-4250-a11e-9b92ac1fc738","kind":"bikerack","longitude":9.9639842,"latitude":54.0805702,"name":"Fahrradabstellplatz","city":"Neumunster","address":null,"covered":false,"access":null,"website":null,"phone":null,"source":"OpenStreetMap/way/1342374407","sourceUpdatedAt":null,"verifiedAt":null}},{"type":"Feature","geometry":{"type":"Point","coordinates":[9.9603312,54.0814074]},"properties":{"id":"bikerack:1333bdd9-ebd3-472b-87e7-1ab300a95779","kind":"bikerack","longitude":9.9603312,"latitude":54.0814074,"name":"Fahrradabstellplatz","city":"Neumunster","address":null,"covered":false,"access":null,"website":null,"phone":null,"source":"OpenStreetMap/node/11313882905","sourceUpdatedAt":null,"verifiedAt":null}},{"type":"Feature","geometry":{"type":"Point","coordinates":[9.9404251,54.0708283]},"properties":{"id":"bikerack:22277ad0-689f-44d2-a8c3-74a791fc5f0f","kind":"bikerack","longitude":9.9404251,"latitude":54.0708283,"name":"Fahrradabstellplatz","city":"Padenstedt","address":null,"covered":false,"access":null,"website":null,"phone":null,"source":"OpenStreetMap/node/11847859685","sourceUpdatedAt":null,"verifiedAt":null}},{"type":"Feature","geometry":{"type":"Point","coordinates":[9.9394038,54.0706013]},"properties":{"id":"bikerack:5e6005b8-7716-4e1f-b93c-1dc1a41c465a","kind":"bikerack","longitude":9.9394038,"latitude":54.0706013,"name":"Fahrradabstellplatz","city":"Padenstedt","address":null,"covered":false,"access":null,"website":null,"phone":null,"source":"OpenStreetMap/way/1092360838","sourceUpdatedAt":null,"verifiedAt":null}},{"type":"Feature","geometry":{"type":"Point","coordinates":[9.9617309,54.0716683]},"properties":{"id":"bikerack:66bfaf28-3e0c-4675-9d6c-361e9a2d4f14","kind":"bikerack","longitude":9.9617309,"latitude":54.0716683,"name":"Fahrradabstellplatz","city":"Neumunster","address":null,"covered":false,"access":null,"website":null,"phone":null,"source":"OpenStreetMap/node/10878795296","sourceUpdatedAt":null,"verifiedAt":null}},{"type":"Feature","geometry":{"type":"Point","coordinates":[9.9614144,54.0716258]},"properties":{"id":"bikerack:84e305b2-8e5a-47e6-9aac-226b9facbc50","kind":"bikerack","longitude":9.9614144,"latitude":54.0716258,"name":"Fahrradabstellplatz","city":"Neumunster","address":null,"covered":false,"access":null,"website":null,"phone":null,"source":"OpenStreetMap/node/10878795295","sourceUpdatedAt":null,"verifiedAt":null}},{"type":"Feature","geometry":{"type":"Point","coordinates":[9.9604314,54.0810096]},"properties":{"id":"bikerack:8d5c5067-f80e-4ce2-94e2-4fd5d4949a08","kind":"bikerack","longitude":9.9604314,"latitude":54.0810096,"name":"Fahrradabstellplatz","city":"Neumunster","address":null,"covered":false,"access":null,"website":null,"phone":null,"source":"OpenStreetMap/way/627281645","sourceUpdatedAt":null,"verifiedAt":null}},{"type":"Feature","geometry":{"type":"Point","coordinates":[9.9410109,54.0709466]},"properties":{"id":"bikerack:8e50f7a4-1bea-4eaa-b6c2-da97b1a6ade2","kind":"bikerack","longitude":9.9410109,"latitude":54.0709466,"name":"Fahrradabstellplatz","city":"Padenstedt","address":null,"covered":false,"access":null,"website":null,"phone":null,"source":"OpenStreetMap/way/1092360818","sourceUpdatedAt":null,"verifiedAt":null}},{"type":"Feature","geometry":{"type":"Point","coordinates":[9.9606126,54.0813288]},"properties":{"id":"bikerack:a2808daa-b83b-4a00-87c0-783dce3da1c8","kind":"bikerack","longitude":9.9606126,"latitude":54.0813288,"name":"Fahrradabstellplatz","city":"Neumunster","address":null,"covered":false,"access":null,"website":null,"phone":null,"source":"OpenStreetMap/way/1220978409","sourceUpdatedAt":null,"verifiedAt":null}},{"type":"Feature","geometry":{"type":"Point","coordinates":[9.9416555,54.0712997]},"properties":{"id":"bikerack:d021cc47-cc1a-4fa1-948a-5f1883da0d50","kind":"bikerack","longitude":9.9416555,"latitude":54.0712997,"name":"Fahrradabstellplatz","city":"Padenstedt","address":null,"covered":false,"access":null,"website":null,"phone":null,"source":"OpenStreetMap/node/11847858636","sourceUpdatedAt":null,"verifiedAt":null}}]}