{"type":"FeatureCollection","features":[{"type":"Feature","geometry":{"type":"Point","coordinates":[9.9519205,53.5183755]},"properties":{"id":"bikerack:8d5b3482-906f-47ff-a5be-023ab093cefe","kind":"bikerack","longitude":9.9519205,"latitude":53.5183755,"name":"Fahrradabstellplatz","city":"Altona","address":null,"covered":false,"access":null,"website":null,"phone":null,"source":"OpenStreetMap/node/1651076703","sourceUpdatedAt":null,"verifiedAt":null}},{"type":"Feature","geometry":{"type":"Point","coordinates":[9.9693396,53.5275803]},"properties":{"id":"bikerack:ac8255c1-6cae-4356-804c-b61799e0eff8","kind":"bikerack","longitude":9.9693396,"latitude":53.5275803,"name":"Fahrradabstellplatz","city":"Kleiner Grasbrook","address":null,"covered":false,"access":null,"website":null,"phone":null,"source":"OpenStreetMap/way/914817037","sourceUpdatedAt":null,"verifiedAt":null}},{"type":"Feature","geometry":{"type":"Point","coordinates":[9.9732381,53.5393183]},"properties":{"id":"bikerack:bb03203c-e986-4569-a603-587748421b50","kind":"bikerack","longitude":9.9732381,"latitude":53.5393183,"name":"Fahrradabstellplatz","city":"Neustadt","address":null,"covered":false,"access":null,"website":null,"phone":null,"source":"OpenStreetMap/way/849765625","sourceUpdatedAt":null,"verifiedAt":null}},{"type":"Feature","geometry":{"type":"Point","coordinates":[9.9641101,53.5398613]},"properties":{"id":"bikerack:e4fe8626-2791-4a30-9b72-b59d3e197d71","kind":"bikerack","longitude":9.9641101,"latitude":53.5398613,"name":"Fahrradabstellplatz","city":"St. Pauli","address":null,"covered":false,"access":null,"website":null,"phone":null,"source":"OpenStreetMap/way/707053866","sourceUpdatedAt":null,"verifiedAt":null}}]}