{"type":"FeatureCollection","features":[{"type":"Feature","geometry":{"type":"Point","coordinates":[9.9576586,50.5728416]},"properties":{"id":"bikerack:0837a31e-88ea-43d4-a3ca-1dc685b6ba1c","kind":"bikerack","longitude":9.9576586,"latitude":50.5728416,"name":"Fahrradabstellplatz","city":"Hilders","address":null,"covered":false,"access":null,"website":null,"phone":null,"source":"OpenStreetMap/node/771401962","sourceUpdatedAt":null,"verifiedAt":null}},{"type":"Feature","geometry":{"type":"Point","coordinates":[9.9561962,50.5725196]},"properties":{"id":"bikerack:eb1aa1ec-5d22-4c52-ac47-039f1b25ad97","kind":"bikerack","longitude":9.9561962,"latitude":50.5725196,"name":"Fahrradabstellplatz","city":"Hilders","address":null,"covered":false,"access":null,"website":null,"phone":null,"source":"OpenStreetMap/node/12082803723","sourceUpdatedAt":null,"verifiedAt":null}},{"type":"Feature","geometry":{"type":"Point","coordinates":[9.95627,50.5733219]},"properties":{"id":"water:b7f46b20-f0a0-4f49-bc15-fdfaae0ef640","kind":"water","longitude":9.95627,"latitude":50.5733219,"name":"Trinkwasser","city":"Hilders","address":null,"covered":null,"access":null,"website":null,"phone":null,"source":"OpenStreetMap/node/12082803726","sourceUpdatedAt":null,"verifiedAt":null}}]}