{"type":"FeatureCollection","features":[{"type":"Feature","geometry":{"type":"Point","coordinates":[9.946801,50.498171]},"properties":{"id":"bikerack:854eb73c-31a4-41d4-a34e-22eb0e8ba006","kind":"bikerack","longitude":9.946801,"latitude":50.498171,"name":"Fahrradabstellplatz","city":"Gersfeld","address":null,"covered":false,"access":null,"website":null,"phone":null,"source":"OpenStreetMap/node/12309586280","sourceUpdatedAt":null,"verifiedAt":null}},{"type":"Feature","geometry":{"type":"Point","coordinates":[9.9470918,50.4989634]},"properties":{"id":"service:9ba098fa-b05e-462c-a498-4bcd1b5ab110","kind":"service","longitude":9.9470918,"latitude":50.4989634,"name":"BIKE950 E-Bike-Shop Wasserkuppe","city":"Gersfeld","address":null,"covered":null,"access":null,"website":null,"phone":null,"source":"OpenStreetMap/node/7680079905","sourceUpdatedAt":null,"verifiedAt":null}}]}