{"type":"FeatureCollection","features":[{"type":"Feature","geometry":{"type":"Point","coordinates":[9.9748959,49.3467609]},"properties":{"id":"bikerack:50cbd3aa-aaa4-4dc4-b066-6228d4fafdbb","kind":"bikerack","longitude":9.9748959,"latitude":49.3467609,"name":"Fahrradabstellplatz","city":"Schrozberg","address":null,"covered":true,"access":null,"website":null,"phone":null,"source":"OpenStreetMap/node/12946728683","sourceUpdatedAt":null,"verifiedAt":null}},{"type":"Feature","geometry":{"type":"Point","coordinates":[9.9749439,49.346741]},"properties":{"id":"repair:b07e1f3f-4eab-4b1a-bdad-94d16c795981","kind":"repair","longitude":9.9749439,"latitude":49.346741,"name":"RadService-Punkt Bahnhof Schrozberg","city":"Schrozberg","address":null,"covered":false,"access":null,"website":null,"phone":null,"source":"OpenStreetMap/node/12603991051","sourceUpdatedAt":null,"verifiedAt":null}}]}