{"type":"FeatureCollection","features":[{"type":"Feature","geometry":{"type":"Point","coordinates":[9.9353208,48.7959832]},"properties":{"id":"bikerack:27641186-cd71-4f7f-86e5-9ddab34b815c","kind":"bikerack","longitude":9.9353208,"latitude":48.7959832,"name":"Fahrradabstellplatz","city":"Heubach","address":null,"covered":true,"access":null,"website":null,"phone":null,"source":"OpenStreetMap/node/9907437994","sourceUpdatedAt":null,"verifiedAt":null}},{"type":"Feature","geometry":{"type":"Point","coordinates":[9.9349602,48.7959282]},"properties":{"id":"bikerack:7e727097-2dca-450b-8052-f2360e2785f4","kind":"bikerack","longitude":9.9349602,"latitude":48.7959282,"name":"Fahrradabstellplatz","city":"Heubach","address":null,"covered":true,"access":null,"website":null,"phone":null,"source":"OpenStreetMap/node/9907437995","sourceUpdatedAt":null,"verifiedAt":null}},{"type":"Feature","geometry":{"type":"Point","coordinates":[9.9449646,48.7862244]},"properties":{"id":"repair:f5fef6f5-5dc0-4d4a-b745-cd0b6734c7d7","kind":"repair","longitude":9.9449646,"latitude":48.7862244,"name":"Fahrradreparaturstation","city":"Heubach","address":null,"covered":false,"access":null,"website":null,"phone":null,"source":"OpenStreetMap/node/10973780854","sourceUpdatedAt":null,"verifiedAt":null}},{"type":"Feature","geometry":{"type":"Point","coordinates":[9.9383046,48.7982891]},"properties":{"id":"service:e2b9b695-5d14-41e9-83c1-6d6ae46777e0","kind":"service","longitude":9.9383046,"latitude":48.7982891,"name":"Bikehouse Heubach","city":"Heubach","address":null,"covered":null,"access":null,"website":null,"phone":null,"source":"OpenStreetMap/node/10718756181","sourceUpdatedAt":null,"verifiedAt":null}},{"type":"Feature","geometry":{"type":"Point","coordinates":[9.944943,48.7862096]},"properties":{"id":"water:40bf7b74-4203-4095-8c2d-68fd74d636bb","kind":"water","longitude":9.944943,"latitude":48.7862096,"name":"Trinkwasser","city":"Heubach","address":null,"covered":null,"access":null,"website":null,"phone":null,"source":"OpenStreetMap/node/10973780855","sourceUpdatedAt":null,"verifiedAt":null}},{"type":"Feature","geometry":{"type":"Point","coordinates":[9.9342099,48.7889006]},"properties":{"id":"water:6b13d40d-c167-4e34-ad1f-7d998a5b0cd8","kind":"water","longitude":9.9342099,"latitude":48.7889006,"name":"Trinkwasser","city":"Heubach","address":null,"covered":null,"access":null,"website":null,"phone":null,"source":"OpenStreetMap/node/11843589858","sourceUpdatedAt":null,"verifiedAt":null}}]}