{"type":"FeatureCollection","features":[{"type":"Feature","geometry":{"type":"Point","coordinates":[11.4247541,47.1968788]},"properties":{"id":"water:246c57b9-e70a-4310-9369-1657d2377287","kind":"water","longitude":11.4247541,"latitude":47.1968788,"name":"Ivókút","city":"Patsch","address":null,"covered":null,"access":null,"website":null,"phone":null,"source":"OpenStreetMap/node/1599028822","sourceUpdatedAt":null,"verifiedAt":null}},{"type":"Feature","geometry":{"type":"Point","coordinates":[11.3920934,47.1930261]},"properties":{"id":"water:2665cae1-d153-4ba1-9252-e2e4e8aa624d","kind":"water","longitude":11.3920934,"latitude":47.1930261,"name":"Oberhofer Brünnl","city":"Patsch","address":null,"covered":null,"access":null,"website":null,"phone":null,"source":"OpenStreetMap/node/10881841196","sourceUpdatedAt":null,"verifiedAt":null}},{"type":"Feature","geometry":{"type":"Point","coordinates":[11.4150866,47.2047417]},"properties":{"id":"water:29543037-bdf1-4ef3-9112-11c434703af6","kind":"water","longitude":11.4150866,"latitude":47.2047417,"name":"Ivókút","city":"Patsch","address":null,"covered":null,"access":null,"website":null,"phone":null,"source":"OpenStreetMap/node/10935376264","sourceUpdatedAt":null,"verifiedAt":null}},{"type":"Feature","geometry":{"type":"Point","coordinates":[11.3824385,47.1975137]},"properties":{"id":"water:7b67e9b7-4b00-4f30-8d03-23ab1ba40ff5","kind":"water","longitude":11.3824385,"latitude":47.1975137,"name":"Ivókút","city":"Mieders","address":null,"covered":null,"access":null,"website":null,"phone":null,"source":"OpenStreetMap/node/849871246","sourceUpdatedAt":null,"verifiedAt":null}},{"type":"Feature","geometry":{"type":"Point","coordinates":[11.4102174,47.1964617]},"properties":{"id":"water:83a06950-0e5a-48ad-9151-b48084a7faaa","kind":"water","longitude":11.4102174,"latitude":47.1964617,"name":"Ivókút","city":"Patsch","address":null,"covered":null,"access":null,"website":null,"phone":null,"source":"OpenStreetMap/node/11935491209","sourceUpdatedAt":null,"verifiedAt":null}},{"type":"Feature","geometry":{"type":"Point","coordinates":[11.4133662,47.2056144]},"properties":{"id":"water:9d11f616-df44-46d5-ac70-6ae282a503b1","kind":"water","longitude":11.4133662,"latitude":47.2056144,"name":"Ivókút","city":"Patsch","address":null,"covered":null,"access":null,"website":null,"phone":null,"source":"OpenStreetMap/node/907033101","sourceUpdatedAt":null,"verifiedAt":null}},{"type":"Feature","geometry":{"type":"Point","coordinates":[11.4145329,47.2040934]},"properties":{"id":"water:a2e6fc09-28f4-4de9-bc71-e00825ee4ee8","kind":"water","longitude":11.4145329,"latitude":47.2040934,"name":"Ivókút","city":"Patsch","address":null,"covered":null,"access":null,"website":null,"phone":null,"source":"OpenStreetMap/node/4421076975","sourceUpdatedAt":null,"verifiedAt":null}},{"type":"Feature","geometry":{"type":"Point","coordinates":[11.4151343,47.20419]},"properties":{"id":"water:f4d20269-32ea-4e79-996b-98d79e4f3789","kind":"water","longitude":11.4151343,"latitude":47.20419,"name":"Dorfbrunnen","city":"Patsch","address":null,"covered":null,"access":null,"website":null,"phone":null,"source":"OpenStreetMap/node/2373703655","sourceUpdatedAt":null,"verifiedAt":null}}]}