{"type":"FeatureCollection","features":[{"type":"Feature","geometry":{"type":"Point","coordinates":[11.4242714,45.7068082]},"properties":{"id":"bikerack:b04ae9bb-b573-4c7c-9fa9-2409e079bd2c","kind":"bikerack","longitude":11.4242714,"latitude":45.7068082,"name":"Parcheggio bici","city":"Marano Vicentino","address":null,"covered":false,"access":null,"website":null,"phone":null,"source":"OpenStreetMap/way/1475631303","sourceUpdatedAt":null,"verifiedAt":null}},{"type":"Feature","geometry":{"type":"Point","coordinates":[11.4244423,45.7067071]},"properties":{"id":"bikerack:c9ed15a2-c131-45a7-8bc0-97ebc12e3c17","kind":"bikerack","longitude":11.4244423,"latitude":45.7067071,"name":"Parcheggio bici","city":"Marano Vicentino","address":null,"covered":false,"access":null,"website":null,"phone":null,"source":"OpenStreetMap/way/1232430724","sourceUpdatedAt":null,"verifiedAt":null}},{"type":"Feature","geometry":{"type":"Point","coordinates":[11.3862612,45.7159523]},"properties":{"id":"service:d4da6588-f115-45fb-8792-0d6f4aee0fd8","kind":"service","longitude":11.3862612,"latitude":45.7159523,"name":"Zanella Moto","city":"Santorso","address":null,"covered":null,"access":null,"website":null,"phone":null,"source":"OpenStreetMap/node/1098509182","sourceUpdatedAt":null,"verifiedAt":null}},{"type":"Feature","geometry":{"type":"Point","coordinates":[11.3904319,45.7365167]},"properties":{"id":"water:068f05c0-d3c2-4189-971b-9e2c71667510","kind":"water","longitude":11.3904319,"latitude":45.7365167,"name":"Casetta dell'acqua","city":"Santorso","address":null,"covered":null,"access":null,"website":null,"phone":null,"source":"OpenStreetMap/node/3906126973","sourceUpdatedAt":null,"verifiedAt":null}},{"type":"Feature","geometry":{"type":"Point","coordinates":[11.4057296,45.7180512]},"properties":{"id":"water:405a7091-2f92-492f-826d-db2700377cf1","kind":"water","longitude":11.4057296,"latitude":45.7180512,"name":"Fontanella","city":"Giavenale","address":null,"covered":null,"access":null,"website":null,"phone":null,"source":"OpenStreetMap/node/12217011254","sourceUpdatedAt":null,"verifiedAt":null}}]}