{"type":"FeatureCollection","features":[{"type":"Feature","geometry":{"type":"Point","coordinates":[20.4892497,46.8706564]},"properties":{"id":"bikerack:014c1f2e-49b3-4c63-9e25-81cb1417a245","kind":"bikerack","longitude":20.4892497,"latitude":46.8706564,"name":"Biciklitároló","city":"Bekesszentandras","address":null,"covered":false,"access":null,"website":null,"phone":null,"source":"OpenStreetMap/node/12067566195","sourceUpdatedAt":"2026-04-04T22:50:04.678779+00:00","verifiedAt":null}},{"type":"Feature","geometry":{"type":"Point","coordinates":[20.5625304,46.8573418]},"properties":{"id":"bikerack:0cb3a03b-2552-4332-8f7c-dce261d2c0e0","kind":"bikerack","longitude":20.5625304,"latitude":46.8573418,"name":"Biciklitároló","city":"Szarvas","address":null,"covered":false,"access":null,"website":null,"phone":null,"source":"OpenStreetMap/node/8553134971","sourceUpdatedAt":"2026-04-04T22:50:04.678779+00:00","verifiedAt":null}},{"type":"Feature","geometry":{"type":"Point","coordinates":[20.5556055,46.8603708]},"properties":{"id":"bikerack:0cb73202-edac-4521-bea1-27d2233eff2b","kind":"bikerack","longitude":20.5556055,"latitude":46.8603708,"name":"Biciklitároló","city":"Szarvas","address":null,"covered":false,"access":null,"website":null,"phone":null,"source":"OpenStreetMap/node/9959116994","sourceUpdatedAt":"2026-04-04T22:50:04.678779+00:00","verifiedAt":null}},{"type":"Feature","geometry":{"type":"Point","coordinates":[20.5726854,46.8534919]},"properties":{"id":"bikerack:150539bd-4817-4a79-86e4-b44cd6147f3c","kind":"bikerack","longitude":20.5726854,"latitude":46.8534919,"name":"Biciklitároló","city":"Szarvas","address":null,"covered":false,"access":null,"website":null,"phone":null,"source":"OpenStreetMap/node/11119224277","sourceUpdatedAt":"2026-04-04T22:50:04.678779+00:00","verifiedAt":null}},{"type":"Feature","geometry":{"type":"Point","coordinates":[20.5467989,46.8642881]},"properties":{"id":"bikerack:389b3353-a416-4d02-ab10-15697c132719","kind":"bikerack","longitude":20.5467989,"latitude":46.8642881,"name":"Biciklitároló","city":"Szarvas","address":null,"covered":false,"access":null,"website":null,"phone":null,"source":"OpenStreetMap/node/10068585581","sourceUpdatedAt":"2026-04-04T22:50:04.678779+00:00","verifiedAt":null}},{"type":"Feature","geometry":{"type":"Point","coordinates":[20.4852984,46.8643836]},"properties":{"id":"bikerack:40c53660-278e-462b-8214-3e5a5c469aad","kind":"bikerack","longitude":20.4852984,"latitude":46.8643836,"name":"Biciklitároló","city":"Bekesszentandras","address":null,"covered":false,"access":null,"website":null,"phone":null,"source":"OpenStreetMap/node/10700371283","sourceUpdatedAt":"2026-04-04T22:50:04.678779+00:00","verifiedAt":null}},{"type":"Feature","geometry":{"type":"Point","coordinates":[20.5563378,46.8601422]},"properties":{"id":"bikerack:463d7d47-7045-426a-a020-7861579d3a17","kind":"bikerack","longitude":20.5563378,"latitude":46.8601422,"name":"Biciklitároló","city":"Szarvas","address":null,"covered":false,"access":null,"website":null,"phone":null,"source":"OpenStreetMap/node/9959083919","sourceUpdatedAt":"2026-04-04T22:50:04.678779+00:00","verifiedAt":null}},{"type":"Feature","geometry":{"type":"Point","coordinates":[20.485902,46.8710398]},"properties":{"id":"bikerack:47027f48-4acd-4af4-a538-f037030e5356","kind":"bikerack","longitude":20.485902,"latitude":46.8710398,"name":"Biciklitároló","city":"Bekesszentandras","address":null,"covered":false,"access":null,"website":null,"phone":null,"source":"OpenStreetMap/node/6937243494","sourceUpdatedAt":"2026-04-04T22:50:04.678779+00:00","verifiedAt":null}},{"type":"Feature","geometry":{"type":"Point","coordinates":[20.5465266,46.8640775]},"properties":{"id":"bikerack:49f10e68-0d2a-47b9-97de-501442e2a9d8","kind":"bikerack","longitude":20.5465266,"latitude":46.8640775,"name":"Biciklitároló","city":"Szarvas","address":null,"covered":false,"access":null,"website":null,"phone":null,"source":"OpenStreetMap/node/10068612449","sourceUpdatedAt":"2026-04-04T22:50:04.678779+00:00","verifiedAt":null}},{"type":"Feature","geometry":{"type":"Point","coordinates":[20.4854027,46.8726702]},"properties":{"id":"bikerack:70aada33-7022-4b2f-bf7a-7482c300a05e","kind":"bikerack","longitude":20.4854027,"latitude":46.8726702,"name":"Biciklitároló","city":"Bekesszentandras","address":null,"covered":false,"access":null,"website":null,"phone":null,"source":"OpenStreetMap/node/11133557687","sourceUpdatedAt":"2026-04-04T22:50:04.678779+00:00","verifiedAt":null}},{"type":"Feature","geometry":{"type":"Point","coordinates":[20.5624857,46.8572212]},"properties":{"id":"bikerack:70d1bff9-27bc-40b6-b400-d01a7442654b","kind":"bikerack","longitude":20.5624857,"latitude":46.8572212,"name":"Biciklitároló","city":"Szarvas","address":null,"covered":false,"access":null,"website":null,"phone":null,"source":"OpenStreetMap/node/8553134968","sourceUpdatedAt":"2026-04-04T22:50:04.678779+00:00","verifiedAt":null}},{"type":"Feature","geometry":{"type":"Point","coordinates":[20.5578103,46.8598398]},"properties":{"id":"bikerack:751cefad-6bed-424c-aa82-e6edc962056e","kind":"bikerack","longitude":20.5578103,"latitude":46.8598398,"name":"Biciklitároló","city":"Szarvas","address":null,"covered":false,"access":null,"website":null,"phone":null,"source":"OpenStreetMap/node/11003496932","sourceUpdatedAt":"2026-04-04T22:50:04.678779+00:00","verifiedAt":null}},{"type":"Feature","geometry":{"type":"Point","coordinates":[20.4838312,46.8716492]},"properties":{"id":"bikerack:775e8df3-a2ce-444e-aff3-a43d251ace62","kind":"bikerack","longitude":20.4838312,"latitude":46.8716492,"name":"Biciklitároló","city":"Bekesszentandras","address":null,"covered":false,"access":null,"website":null,"phone":null,"source":"OpenStreetMap/node/9827272328","sourceUpdatedAt":"2026-04-04T22:50:04.678779+00:00","verifiedAt":null}},{"type":"Feature","geometry":{"type":"Point","coordinates":[20.5472819,46.8649375]},"properties":{"id":"bikerack:7ec554a3-ce7a-40c4-96e0-0136d9a7a6c9","kind":"bikerack","longitude":20.5472819,"latitude":46.8649375,"name":"Biciklitároló","city":"Szarvas","address":null,"covered":false,"access":null,"website":null,"phone":null,"source":"OpenStreetMap/node/10068565577","sourceUpdatedAt":"2026-04-04T22:50:04.678779+00:00","verifiedAt":null}},{"type":"Feature","geometry":{"type":"Point","coordinates":[20.5465557,46.8641795]},"properties":{"id":"bikerack:8adfaf43-5a5f-4aad-8c69-38614f6ce381","kind":"bikerack","longitude":20.5465557,"latitude":46.8641795,"name":"Biciklitároló","city":"Szarvas","address":null,"covered":false,"access":null,"website":null,"phone":null,"source":"OpenStreetMap/node/10068586691","sourceUpdatedAt":"2026-04-04T22:50:04.678779+00:00","verifiedAt":null}},{"type":"Feature","geometry":{"type":"Point","coordinates":[20.5280089,46.8737427]},"properties":{"id":"bikerack:8d035417-9ee3-406b-aae1-8eb760a66ecc","kind":"bikerack","longitude":20.5280089,"latitude":46.8737427,"name":"Biciklitároló","city":"Szarvas","address":null,"covered":false,"access":null,"website":null,"phone":null,"source":"OpenStreetMap/node/12067566173","sourceUpdatedAt":"2026-04-04T22:50:04.678779+00:00","verifiedAt":null}},{"type":"Feature","geometry":{"type":"Point","coordinates":[20.566238,46.8563884]},"properties":{"id":"bikerack:a562d3f6-8a42-4e77-9e68-945b8bdcc620","kind":"bikerack","longitude":20.566238,"latitude":46.8563884,"name":"Biciklitároló","city":"Szarvas","address":null,"covered":false,"access":null,"website":null,"phone":null,"source":"OpenStreetMap/node/11136025324","sourceUpdatedAt":"2026-04-04T22:50:04.678779+00:00","verifiedAt":null}},{"type":"Feature","geometry":{"type":"Point","coordinates":[20.4881184,46.8657822]},"properties":{"id":"bikerack:a57b31f2-518b-4018-8f93-bc7738309ed0","kind":"bikerack","longitude":20.4881184,"latitude":46.8657822,"name":"Biciklitároló","city":"Bekesszentandras","address":null,"covered":false,"access":null,"website":null,"phone":null,"source":"OpenStreetMap/node/9960794428","sourceUpdatedAt":"2026-04-04T22:50:04.678779+00:00","verifiedAt":null}},{"type":"Feature","geometry":{"type":"Point","coordinates":[20.541572,46.8616415]},"properties":{"id":"bikerack:b1578a36-1691-4151-8f44-7b9f9e0b6cc7","kind":"bikerack","longitude":20.541572,"latitude":46.8616415,"name":"Biciklitároló","city":"Szarvas","address":null,"covered":false,"access":null,"website":null,"phone":null,"source":"OpenStreetMap/node/6926861382","sourceUpdatedAt":"2026-04-04T22:50:04.678779+00:00","verifiedAt":null}},{"type":"Feature","geometry":{"type":"Point","coordinates":[20.6180046,47.0133295]},"properties":{"id":"bikerack:ba3bfdb0-7ddc-4abc-bed0-24017178732c","kind":"bikerack","longitude":20.6180046,"latitude":47.0133295,"name":"Biciklitároló","city":"Mezotur","address":null,"covered":true,"access":null,"website":null,"phone":null,"source":"OpenStreetMap/node/2373278168","sourceUpdatedAt":"2026-04-04T22:50:04.678779+00:00","verifiedAt":null}},{"type":"Feature","geometry":{"type":"Point","coordinates":[20.5277464,46.87301]},"properties":{"id":"bikerack:baf3098d-b0be-49aa-9f76-3410a73ccf5f","kind":"bikerack","longitude":20.5277464,"latitude":46.87301,"name":"Biciklitároló","city":"Szarvas","address":null,"covered":true,"access":null,"website":null,"phone":null,"source":"OpenStreetMap/node/9150793806","sourceUpdatedAt":"2026-04-04T22:50:04.678779+00:00","verifiedAt":null}},{"type":"Feature","geometry":{"type":"Point","coordinates":[20.5497893,46.8632192]},"properties":{"id":"bikerack:c0418a87-fe40-4870-8348-bb687542d4ee","kind":"bikerack","longitude":20.5497893,"latitude":46.8632192,"name":"Biciklitároló","city":"Szarvas","address":null,"covered":false,"access":null,"website":null,"phone":null,"source":"OpenStreetMap/node/7753560234","sourceUpdatedAt":"2026-04-04T22:50:04.678779+00:00","verifiedAt":null}},{"type":"Feature","geometry":{"type":"Point","coordinates":[20.5722115,46.8536542]},"properties":{"id":"bikerack:c1e10558-52a2-4c8f-adff-d663d03e98d7","kind":"bikerack","longitude":20.5722115,"latitude":46.8536542,"name":"Biciklitároló","city":"Szarvas","address":null,"covered":false,"access":null,"website":null,"phone":null,"source":"OpenStreetMap/node/11119224273","sourceUpdatedAt":"2026-04-04T22:50:04.678779+00:00","verifiedAt":null}},{"type":"Feature","geometry":{"type":"Point","coordinates":[20.6210133,47.0071301]},"properties":{"id":"bikerack:cff6294c-e831-4226-93d4-1e275fbad19a","kind":"bikerack","longitude":20.6210133,"latitude":47.0071301,"name":"Biciklitároló","city":"Mezotur","address":null,"covered":false,"access":null,"website":null,"phone":null,"source":"OpenStreetMap/node/9395511349","sourceUpdatedAt":"2026-04-04T22:50:04.678779+00:00","verifiedAt":null}},{"type":"Feature","geometry":{"type":"Point","coordinates":[20.5496565,46.8633542]},"properties":{"id":"bikerack:e38d9a70-c789-473e-ad8f-6e143755c927","kind":"bikerack","longitude":20.5496565,"latitude":46.8633542,"name":"Biciklitároló","city":"Szarvas","address":null,"covered":false,"access":null,"website":null,"phone":null,"source":"OpenStreetMap/node/7753560232","sourceUpdatedAt":"2026-04-04T22:50:04.678779+00:00","verifiedAt":null}},{"type":"Feature","geometry":{"type":"Point","coordinates":[20.5477033,46.865168]},"properties":{"id":"bikerack:e3a08d00-f5ea-4b64-b585-d088b3a88670","kind":"bikerack","longitude":20.5477033,"latitude":46.865168,"name":"Biciklitároló","city":"Szarvas","address":null,"covered":false,"access":null,"website":null,"phone":null,"source":"OpenStreetMap/node/10068604132","sourceUpdatedAt":"2026-04-04T22:50:04.678779+00:00","verifiedAt":null}},{"type":"Feature","geometry":{"type":"Point","coordinates":[20.5495575,46.8632944]},"properties":{"id":"bikerack:f0fd27c9-4a69-4d7f-8ee5-5a321deae8cc","kind":"bikerack","longitude":20.5495575,"latitude":46.8632944,"name":"Biciklitároló","city":"Szarvas","address":null,"covered":false,"access":null,"website":null,"phone":null,"source":"OpenStreetMap/node/7753560224","sourceUpdatedAt":"2026-04-04T22:50:04.678779+00:00","verifiedAt":null}},{"type":"Feature","geometry":{"type":"Point","coordinates":[20.4895321,46.8654988]},"properties":{"id":"bikerack:fa300b22-c6ef-4ab4-b9be-c564d2111333","kind":"bikerack","longitude":20.4895321,"latitude":46.8654988,"name":"Biciklitároló","city":"Bekesszentandras","address":null,"covered":false,"access":null,"website":null,"phone":null,"source":"OpenStreetMap/node/9960794427","sourceUpdatedAt":"2026-04-04T22:50:04.678779+00:00","verifiedAt":null}},{"type":"Feature","geometry":{"type":"Point","coordinates":[20.5527661,46.8626808]},"properties":{"id":"service:0d59df8f-8e92-4a1a-ac6a-08831603337a","kind":"service","longitude":20.5527661,"latitude":46.8626808,"name":"Csapesz Kerékpárbolt és -szerviz","city":"Szarvas","address":null,"covered":null,"access":null,"website":null,"phone":null,"source":"OpenStreetMap/node/5751907355","sourceUpdatedAt":"2026-04-04T22:54:09.569944+00:00","verifiedAt":null}},{"type":"Feature","geometry":{"type":"Point","coordinates":[20.6268186,46.9986697]},"properties":{"id":"service:6c23dd39-c4c0-44da-ad38-284161411fd9","kind":"service","longitude":20.6268186,"latitude":46.9986697,"name":"Kor-Zol Műszaki Szaküzlet","city":"Mezőtúr","address":null,"covered":null,"access":null,"website":null,"phone":null,"source":"OpenStreetMap/node/13397795508","sourceUpdatedAt":"2026-04-04T22:54:07.053255+00:00","verifiedAt":null}},{"type":"Feature","geometry":{"type":"Point","coordinates":[20.5534721,46.8634192]},"properties":{"id":"service:cccb551d-c719-45cd-b320-86efe4d17d36","kind":"service","longitude":20.5534721,"latitude":46.8634192,"name":"Balázs kerékpárbolt","city":"Szarvas","address":null,"covered":null,"access":null,"website":null,"phone":null,"source":"OpenStreetMap/node/5751907354","sourceUpdatedAt":"2026-04-04T22:54:04.602239+00:00","verifiedAt":null}},{"type":"Feature","geometry":{"type":"Point","coordinates":[20.66935,46.9444]},"properties":{"id":"water:08ceef1b-8dc4-4e89-a9b4-57dd5b01d920","kind":"water","longitude":20.66935,"latitude":46.9444,"name":"Ivókút","city":null,"address":null,"covered":null,"access":null,"website":null,"phone":null,"source":"OpenStreetMap","sourceUpdatedAt":"2026-04-04T22:50:22.71606+00:00","verifiedAt":null}},{"type":"Feature","geometry":{"type":"Point","coordinates":[20.610433,46.86965]},"properties":{"id":"water:093dc74d-bcaf-481f-9da3-114f0a6880f2","kind":"water","longitude":20.610433,"latitude":46.86965,"name":"Ivókút","city":null,"address":null,"covered":null,"access":null,"website":null,"phone":null,"source":"OpenStreetMap","sourceUpdatedAt":"2026-04-04T22:50:22.71606+00:00","verifiedAt":null}},{"type":"Feature","geometry":{"type":"Point","coordinates":[20.5396643,46.877321]},"properties":{"id":"water:0bf5ec1a-c1f3-4925-84cc-e8ffc8ecbc7a","kind":"water","longitude":20.5396643,"latitude":46.877321,"name":"Ivókút","city":null,"address":null,"covered":null,"access":null,"website":null,"phone":null,"source":"OpenStreetMap","sourceUpdatedAt":"2026-04-04T22:50:22.71606+00:00","verifiedAt":null}},{"type":"Feature","geometry":{"type":"Point","coordinates":[20.6214069,47.0124264]},"properties":{"id":"water:1248fbe9-5347-449e-b5a5-179177cbce04","kind":"water","longitude":20.6214069,"latitude":47.0124264,"name":"Ivókút","city":null,"address":null,"covered":null,"access":null,"website":null,"phone":null,"source":"OpenStreetMap","sourceUpdatedAt":"2026-04-04T22:50:22.71606+00:00","verifiedAt":null}},{"type":"Feature","geometry":{"type":"Point","coordinates":[20.5634578,46.8586164]},"properties":{"id":"water:13798b1f-44a4-4e39-8f0f-9b28123b64e0","kind":"water","longitude":20.5634578,"latitude":46.8586164,"name":"Ivókút","city":null,"address":null,"covered":null,"access":null,"website":null,"phone":null,"source":"OpenStreetMap","sourceUpdatedAt":"2026-04-04T22:50:22.71606+00:00","verifiedAt":null}},{"type":"Feature","geometry":{"type":"Point","coordinates":[20.736767,46.832917]},"properties":{"id":"water:1750db9e-2a3d-4c9e-abcd-d02d595fda83","kind":"water","longitude":20.736767,"latitude":46.832917,"name":"Ivókút","city":null,"address":null,"covered":null,"access":null,"website":null,"phone":null,"source":"OpenStreetMap","sourceUpdatedAt":"2026-04-04T22:50:22.71606+00:00","verifiedAt":null}},{"type":"Feature","geometry":{"type":"Point","coordinates":[20.6164852,47.0120669]},"properties":{"id":"water:1bb2577f-ba15-45c5-a01a-1a788a00698e","kind":"water","longitude":20.6164852,"latitude":47.0120669,"name":"Ivókút","city":null,"address":null,"covered":null,"access":null,"website":null,"phone":null,"source":"OpenStreetMap","sourceUpdatedAt":"2026-04-04T22:50:22.71606+00:00","verifiedAt":null}},{"type":"Feature","geometry":{"type":"Point","coordinates":[20.5351307,46.8695955]},"properties":{"id":"water:22069498-6be7-4e87-aa16-8f4e77350196","kind":"water","longitude":20.5351307,"latitude":46.8695955,"name":"Ivókút","city":null,"address":null,"covered":null,"access":null,"website":null,"phone":null,"source":"OpenStreetMap","sourceUpdatedAt":"2026-04-04T22:50:22.71606+00:00","verifiedAt":null}},{"type":"Feature","geometry":{"type":"Point","coordinates":[20.6071097,46.8755788]},"properties":{"id":"water:23da8019-a35a-4571-8931-998b8223e279","kind":"water","longitude":20.6071097,"latitude":46.8755788,"name":"Ivókút","city":null,"address":null,"covered":null,"access":null,"website":null,"phone":null,"source":"OpenStreetMap","sourceUpdatedAt":"2026-04-04T22:50:22.71606+00:00","verifiedAt":null}},{"type":"Feature","geometry":{"type":"Point","coordinates":[20.550777,46.8555353]},"properties":{"id":"water:24b43db8-8003-4f1d-835d-6f0d4cac5c2b","kind":"water","longitude":20.550777,"latitude":46.8555353,"name":"Ivókút","city":null,"address":null,"covered":null,"access":null,"website":null,"phone":null,"source":"OpenStreetMap","sourceUpdatedAt":"2026-04-04T22:50:22.71606+00:00","verifiedAt":null}},{"type":"Feature","geometry":{"type":"Point","coordinates":[20.5524812,46.8625937]},"properties":{"id":"water:27bb92ed-1661-445e-994e-a02c1acfb237","kind":"water","longitude":20.5524812,"latitude":46.8625937,"name":"Ivókút","city":null,"address":null,"covered":null,"access":null,"website":null,"phone":null,"source":"OpenStreetMap","sourceUpdatedAt":"2026-04-04T22:50:22.71606+00:00","verifiedAt":null}},{"type":"Feature","geometry":{"type":"Point","coordinates":[20.624984,47.003374]},"properties":{"id":"water:28eabc44-fca0-42d6-b912-837320d5fdd6","kind":"water","longitude":20.624984,"latitude":47.003374,"name":"Ivókút","city":null,"address":null,"covered":null,"access":null,"website":null,"phone":null,"source":"OpenStreetMap","sourceUpdatedAt":"2026-04-04T22:50:22.71606+00:00","verifiedAt":null}},{"type":"Feature","geometry":{"type":"Point","coordinates":[20.6168164,46.8772716]},"properties":{"id":"water:2a081658-823f-4dec-87ca-84fc63dbd564","kind":"water","longitude":20.6168164,"latitude":46.8772716,"name":"Ivókút","city":null,"address":null,"covered":null,"access":null,"website":null,"phone":null,"source":"OpenStreetMap","sourceUpdatedAt":"2026-04-04T22:50:22.71606+00:00","verifiedAt":null}},{"type":"Feature","geometry":{"type":"Point","coordinates":[20.575938,46.8771157]},"properties":{"id":"water:2a90eb6a-a09a-466d-85c0-c8deb70e2613","kind":"water","longitude":20.575938,"latitude":46.8771157,"name":"Ivókút","city":"Szarvas","address":null,"covered":null,"access":null,"website":null,"phone":null,"source":"OpenStreetMap/node/13634257729","sourceUpdatedAt":"2026-04-04T22:50:22.71606+00:00","verifiedAt":null}},{"type":"Feature","geometry":{"type":"Point","coordinates":[20.5447259,46.876027]},"properties":{"id":"water:2b895c9e-31c7-48a7-86ea-89bd569c473d","kind":"water","longitude":20.5447259,"latitude":46.876027,"name":"Ivókút","city":null,"address":null,"covered":null,"access":null,"website":null,"phone":null,"source":"OpenStreetMap","sourceUpdatedAt":"2026-04-04T22:50:22.71606+00:00","verifiedAt":null}},{"type":"Feature","geometry":{"type":"Point","coordinates":[20.613417,46.850217]},"properties":{"id":"water:2baee000-d1f6-44a1-b0ff-7b56d81772f8","kind":"water","longitude":20.613417,"latitude":46.850217,"name":"Ivókút","city":null,"address":null,"covered":null,"access":null,"website":null,"phone":null,"source":"OpenStreetMap","sourceUpdatedAt":"2026-04-04T22:50:22.71606+00:00","verifiedAt":null}},{"type":"Feature","geometry":{"type":"Point","coordinates":[20.7361,46.831]},"properties":{"id":"water:2f7153d4-4d3f-49f5-b461-5466858a8bfb","kind":"water","longitude":20.7361,"latitude":46.831,"name":"Ivókút","city":null,"address":null,"covered":null,"access":null,"website":null,"phone":null,"source":"OpenStreetMap","sourceUpdatedAt":"2026-04-04T22:50:22.71606+00:00","verifiedAt":null}},{"type":"Feature","geometry":{"type":"Point","coordinates":[20.6481019,46.8273405]},"properties":{"id":"water:33e7294e-ca26-41b7-99ad-749b0a7cb7bb","kind":"water","longitude":20.6481019,"latitude":46.8273405,"name":"Czárán-kút","city":null,"address":null,"covered":null,"access":null,"website":null,"phone":null,"source":"OpenStreetMap","sourceUpdatedAt":"2026-04-04T22:54:11.654986+00:00","verifiedAt":null}},{"type":"Feature","geometry":{"type":"Point","coordinates":[20.4840136,46.8628963]},"properties":{"id":"water:343cfe35-9380-4985-a229-bdbab13c30fc","kind":"water","longitude":20.4840136,"latitude":46.8628963,"name":"Ivókút","city":null,"address":null,"covered":null,"access":null,"website":null,"phone":null,"source":"OpenStreetMap","sourceUpdatedAt":"2026-04-04T22:50:22.71606+00:00","verifiedAt":null}},{"type":"Feature","geometry":{"type":"Point","coordinates":[20.617167,46.872]},"properties":{"id":"water:3c816c91-47fc-4e8a-8245-c060f2354741","kind":"water","longitude":20.617167,"latitude":46.872,"name":"Ivókút","city":null,"address":null,"covered":null,"access":null,"website":null,"phone":null,"source":"OpenStreetMap","sourceUpdatedAt":"2026-04-04T22:50:22.71606+00:00","verifiedAt":null}},{"type":"Feature","geometry":{"type":"Point","coordinates":[20.5311611,46.8712297]},"properties":{"id":"water:3ddd50f4-fbfe-4b36-bc08-d9a7a7e7c8c2","kind":"water","longitude":20.5311611,"latitude":46.8712297,"name":"Ivókút","city":null,"address":null,"covered":null,"access":null,"website":null,"phone":null,"source":"OpenStreetMap","sourceUpdatedAt":"2026-04-04T22:50:22.71606+00:00","verifiedAt":null}},{"type":"Feature","geometry":{"type":"Point","coordinates":[20.5333533,46.8728988]},"properties":{"id":"water:3ed3e807-a4fa-4cc0-a534-de983afbf6f2","kind":"water","longitude":20.5333533,"latitude":46.8728988,"name":"Ivókút","city":null,"address":null,"covered":null,"access":null,"website":null,"phone":null,"source":"OpenStreetMap","sourceUpdatedAt":"2026-04-04T22:50:22.71606+00:00","verifiedAt":null}},{"type":"Feature","geometry":{"type":"Point","coordinates":[20.6544426,46.817681]},"properties":{"id":"water:44912a20-cb03-4c35-b1ca-cf473e73e8ae","kind":"water","longitude":20.6544426,"latitude":46.817681,"name":"Ivókút","city":null,"address":null,"covered":null,"access":null,"website":null,"phone":null,"source":"OpenStreetMap","sourceUpdatedAt":"2026-04-04T22:50:22.71606+00:00","verifiedAt":null}},{"type":"Feature","geometry":{"type":"Point","coordinates":[20.6121622,46.8772631]},"properties":{"id":"water:46d43374-b2c1-431d-9bca-7ece28f2534b","kind":"water","longitude":20.6121622,"latitude":46.8772631,"name":"Ivókút","city":null,"address":null,"covered":null,"access":null,"website":null,"phone":null,"source":"OpenStreetMap","sourceUpdatedAt":"2026-04-04T22:50:22.71606+00:00","verifiedAt":null}},{"type":"Feature","geometry":{"type":"Point","coordinates":[20.5407308,46.8596372]},"properties":{"id":"water:492008f7-1c40-4c4f-895d-e1d12e0bdaaf","kind":"water","longitude":20.5407308,"latitude":46.8596372,"name":"Ivókút","city":null,"address":null,"covered":null,"access":null,"website":null,"phone":null,"source":"OpenStreetMap","sourceUpdatedAt":"2026-04-04T22:50:22.71606+00:00","verifiedAt":null}},{"type":"Feature","geometry":{"type":"Point","coordinates":[20.6069338,46.8686647]},"properties":{"id":"water:4a356af5-03d6-40b9-9573-ebfa96f26dcc","kind":"water","longitude":20.6069338,"latitude":46.8686647,"name":"Ivókút","city":null,"address":null,"covered":null,"access":null,"website":null,"phone":null,"source":"OpenStreetMap","sourceUpdatedAt":"2026-04-04T22:50:22.71606+00:00","verifiedAt":null}},{"type":"Feature","geometry":{"type":"Point","coordinates":[20.620867,46.8714]},"properties":{"id":"water:4b51963d-7abf-440b-930e-22728d9000c4","kind":"water","longitude":20.620867,"latitude":46.8714,"name":"Ivókút","city":null,"address":null,"covered":null,"access":null,"website":null,"phone":null,"source":"OpenStreetMap","sourceUpdatedAt":"2026-04-04T22:50:22.71606+00:00","verifiedAt":null}},{"type":"Feature","geometry":{"type":"Point","coordinates":[20.557733,46.862633]},"properties":{"id":"water:51008a6f-319a-4087-83d4-eb6abaa2ad41","kind":"water","longitude":20.557733,"latitude":46.862633,"name":"Ivókút","city":null,"address":null,"covered":null,"access":null,"website":null,"phone":null,"source":"OpenStreetMap","sourceUpdatedAt":"2026-04-04T22:50:22.71606+00:00","verifiedAt":null}},{"type":"Feature","geometry":{"type":"Point","coordinates":[20.5353273,46.8628142]},"properties":{"id":"water:543eb834-8b42-4faa-87f2-e62e4da5c502","kind":"water","longitude":20.5353273,"latitude":46.8628142,"name":"Ivókút","city":null,"address":null,"covered":null,"access":null,"website":null,"phone":null,"source":"OpenStreetMap","sourceUpdatedAt":"2026-04-04T22:50:22.71606+00:00","verifiedAt":null}},{"type":"Feature","geometry":{"type":"Point","coordinates":[20.5354341,46.8544644]},"properties":{"id":"water:595dd98d-3c7a-433c-837e-1308bd121ad8","kind":"water","longitude":20.5354341,"latitude":46.8544644,"name":"Ivókút","city":null,"address":null,"covered":null,"access":null,"website":null,"phone":null,"source":"OpenStreetMap","sourceUpdatedAt":"2026-04-04T22:50:22.71606+00:00","verifiedAt":null}},{"type":"Feature","geometry":{"type":"Point","coordinates":[20.5492325,46.8600818]},"properties":{"id":"water:5abef45b-237d-4f9e-866d-5d5979bf71e5","kind":"water","longitude":20.5492325,"latitude":46.8600818,"name":"közkifolyó","city":null,"address":null,"covered":null,"access":null,"website":null,"phone":null,"source":"OpenStreetMap","sourceUpdatedAt":"2026-04-04T22:54:12.306991+00:00","verifiedAt":null}},{"type":"Feature","geometry":{"type":"Point","coordinates":[20.470672,46.8804079]},"properties":{"id":"water:5cd300de-f8b8-4db5-b637-52c8ea4dd35e","kind":"water","longitude":20.470672,"latitude":46.8804079,"name":"Ivókút","city":null,"address":null,"covered":null,"access":null,"website":null,"phone":null,"source":"OpenStreetMap","sourceUpdatedAt":"2026-04-04T22:50:22.71606+00:00","verifiedAt":null}},{"type":"Feature","geometry":{"type":"Point","coordinates":[20.648998,46.8285726]},"properties":{"id":"water:5f06ae75-51ca-4e0b-82b3-ce6b46db2e34","kind":"water","longitude":20.648998,"latitude":46.8285726,"name":"Ivókút","city":null,"address":null,"covered":null,"access":null,"website":null,"phone":null,"source":"OpenStreetMap","sourceUpdatedAt":"2026-04-04T22:50:22.71606+00:00","verifiedAt":null}},{"type":"Feature","geometry":{"type":"Point","coordinates":[20.5272579,46.8577553]},"properties":{"id":"water:5fd30e4c-b872-497d-b008-5407ca7944a4","kind":"water","longitude":20.5272579,"latitude":46.8577553,"name":"Ivókút","city":null,"address":null,"covered":null,"access":null,"website":null,"phone":null,"source":"OpenStreetMap","sourceUpdatedAt":"2026-04-04T22:50:22.71606+00:00","verifiedAt":null}},{"type":"Feature","geometry":{"type":"Point","coordinates":[20.5294608,46.8528531]},"properties":{"id":"water:6391d347-0a50-4e1c-a98a-85aa8b50dbfd","kind":"water","longitude":20.5294608,"latitude":46.8528531,"name":"Ivókút","city":null,"address":null,"covered":null,"access":null,"website":null,"phone":null,"source":"OpenStreetMap","sourceUpdatedAt":"2026-04-04T22:50:22.71606+00:00","verifiedAt":null}},{"type":"Feature","geometry":{"type":"Point","coordinates":[20.4844436,46.8716678]},"properties":{"id":"water:660f1ab6-61b6-402a-8c24-6a33e5d63ab7","kind":"water","longitude":20.4844436,"latitude":46.8716678,"name":"Ivókút","city":null,"address":null,"covered":null,"access":null,"website":null,"phone":null,"source":"OpenStreetMap","sourceUpdatedAt":"2026-04-04T22:50:22.71606+00:00","verifiedAt":null}},{"type":"Feature","geometry":{"type":"Point","coordinates":[20.622817,46.851917]},"properties":{"id":"water:68c0b8be-a8ad-4c7c-bed7-7f4fc5f2a27b","kind":"water","longitude":20.622817,"latitude":46.851917,"name":"Ivókút","city":null,"address":null,"covered":null,"access":null,"website":null,"phone":null,"source":"OpenStreetMap","sourceUpdatedAt":"2026-04-04T22:50:22.71606+00:00","verifiedAt":null}},{"type":"Feature","geometry":{"type":"Point","coordinates":[20.566417,46.876267]},"properties":{"id":"water:6a2e99c0-c402-4ee8-a2d1-24a1b5a5129c","kind":"water","longitude":20.566417,"latitude":46.876267,"name":"Ivókút","city":null,"address":null,"covered":null,"access":null,"website":null,"phone":null,"source":"OpenStreetMap","sourceUpdatedAt":"2026-04-04T22:50:22.71606+00:00","verifiedAt":null}},{"type":"Feature","geometry":{"type":"Point","coordinates":[20.5476304,46.8958909]},"properties":{"id":"water:6c946c81-44e9-4256-81cb-69a7a90efda9","kind":"water","longitude":20.5476304,"latitude":46.8958909,"name":"Ivókút","city":null,"address":null,"covered":null,"access":null,"website":null,"phone":null,"source":"OpenStreetMap","sourceUpdatedAt":"2026-04-04T22:50:22.71606+00:00","verifiedAt":null}},{"type":"Feature","geometry":{"type":"Point","coordinates":[20.6161,46.8573]},"properties":{"id":"water:6e17d67f-9514-457e-93c4-31a7b81e718c","kind":"water","longitude":20.6161,"latitude":46.8573,"name":"Ivókút","city":null,"address":null,"covered":null,"access":null,"website":null,"phone":null,"source":"OpenStreetMap","sourceUpdatedAt":"2026-04-04T22:50:22.71606+00:00","verifiedAt":null}},{"type":"Feature","geometry":{"type":"Point","coordinates":[20.487083,46.877917]},"properties":{"id":"water:6ec3a2b9-e645-4bea-9b40-089722170af8","kind":"water","longitude":20.487083,"latitude":46.877917,"name":"Ivókút","city":null,"address":null,"covered":null,"access":null,"website":null,"phone":null,"source":"OpenStreetMap","sourceUpdatedAt":"2026-04-04T22:50:22.71606+00:00","verifiedAt":null}},{"type":"Feature","geometry":{"type":"Point","coordinates":[20.5665041,46.8681489]},"properties":{"id":"water:6fb176a7-5176-4fd5-8758-0474bc981ade","kind":"water","longitude":20.5665041,"latitude":46.8681489,"name":"közkifolyó","city":null,"address":null,"covered":null,"access":null,"website":null,"phone":null,"source":"OpenStreetMap","sourceUpdatedAt":"2026-04-04T22:54:12.306991+00:00","verifiedAt":null}},{"type":"Feature","geometry":{"type":"Point","coordinates":[20.489811,46.8656666]},"properties":{"id":"water:6ff66a57-6205-47f9-aad0-603874198f44","kind":"water","longitude":20.489811,"latitude":46.8656666,"name":"Ivókút","city":null,"address":null,"covered":null,"access":null,"website":null,"phone":null,"source":"OpenStreetMap","sourceUpdatedAt":"2026-04-04T22:50:22.71606+00:00","verifiedAt":null}},{"type":"Feature","geometry":{"type":"Point","coordinates":[20.5460032,46.8776867]},"properties":{"id":"water:7035c869-e917-41a5-ad2a-4d6270b1ad7e","kind":"water","longitude":20.5460032,"latitude":46.8776867,"name":"Ivókút","city":null,"address":null,"covered":null,"access":null,"website":null,"phone":null,"source":"OpenStreetMap","sourceUpdatedAt":"2026-04-04T22:50:22.71606+00:00","verifiedAt":null}},{"type":"Feature","geometry":{"type":"Point","coordinates":[20.5282304,46.8737375]},"properties":{"id":"water:727ef9c6-a7bd-40d1-ab7b-60c024ee65df","kind":"water","longitude":20.5282304,"latitude":46.8737375,"name":"Ivókút","city":null,"address":null,"covered":null,"access":null,"website":null,"phone":null,"source":"OpenStreetMap","sourceUpdatedAt":"2026-04-04T22:50:22.71606+00:00","verifiedAt":null}},{"type":"Feature","geometry":{"type":"Point","coordinates":[20.4727373,46.8274295]},"properties":{"id":"water:73651014-e867-4222-90a9-a2010dd6bd9f","kind":"water","longitude":20.4727373,"latitude":46.8274295,"name":"Ivókút","city":null,"address":null,"covered":null,"access":null,"website":null,"phone":null,"source":"OpenStreetMap","sourceUpdatedAt":"2026-04-04T22:50:22.71606+00:00","verifiedAt":null}},{"type":"Feature","geometry":{"type":"Point","coordinates":[20.601867,46.869667]},"properties":{"id":"water:7a81b24e-0aa1-442c-8572-257e76db817b","kind":"water","longitude":20.601867,"latitude":46.869667,"name":"Ivókút","city":null,"address":null,"covered":null,"access":null,"website":null,"phone":null,"source":"OpenStreetMap","sourceUpdatedAt":"2026-04-04T22:50:22.71606+00:00","verifiedAt":null}},{"type":"Feature","geometry":{"type":"Point","coordinates":[20.5666161,46.8606415]},"properties":{"id":"water:7c1feb22-0937-4c7c-b693-06a353a98404","kind":"water","longitude":20.5666161,"latitude":46.8606415,"name":"Ivókút","city":null,"address":null,"covered":null,"access":null,"website":null,"phone":null,"source":"OpenStreetMap","sourceUpdatedAt":"2026-04-04T22:50:22.71606+00:00","verifiedAt":null}},{"type":"Feature","geometry":{"type":"Point","coordinates":[20.5463504,46.8880677]},"properties":{"id":"water:7eb58da1-c84a-4550-9ee8-8752218694d9","kind":"water","longitude":20.5463504,"latitude":46.8880677,"name":"Ivókút","city":null,"address":null,"covered":null,"access":null,"website":null,"phone":null,"source":"OpenStreetMap","sourceUpdatedAt":"2026-04-04T22:50:22.71606+00:00","verifiedAt":null}},{"type":"Feature","geometry":{"type":"Point","coordinates":[20.507675,46.827495]},"properties":{"id":"water:7f7cced7-cc2c-4e9d-b7b9-c0d77c326a57","kind":"water","longitude":20.507675,"latitude":46.827495,"name":"Ivókút","city":null,"address":null,"covered":null,"access":null,"website":null,"phone":null,"source":"OpenStreetMap","sourceUpdatedAt":"2026-04-04T22:50:22.71606+00:00","verifiedAt":null}},{"type":"Feature","geometry":{"type":"Point","coordinates":[20.5724126,46.8546336]},"properties":{"id":"water:809b5e97-18bf-48e7-95bd-b9d577559682","kind":"water","longitude":20.5724126,"latitude":46.8546336,"name":"Ivókút","city":null,"address":null,"covered":null,"access":null,"website":null,"phone":null,"source":"OpenStreetMap","sourceUpdatedAt":"2026-04-04T22:50:22.71606+00:00","verifiedAt":null}},{"type":"Feature","geometry":{"type":"Point","coordinates":[20.5576019,46.854386]},"properties":{"id":"water:809e6b8a-bd5b-4705-8a4a-a915a5c17ba2","kind":"water","longitude":20.5576019,"latitude":46.854386,"name":"Ivókút","city":null,"address":null,"covered":null,"access":null,"website":null,"phone":null,"source":"OpenStreetMap","sourceUpdatedAt":"2026-04-04T22:50:22.71606+00:00","verifiedAt":null}},{"type":"Feature","geometry":{"type":"Point","coordinates":[20.4817384,46.8710167]},"properties":{"id":"water:8172c622-0b6b-4064-ab8e-b5f32950e0ac","kind":"water","longitude":20.4817384,"latitude":46.8710167,"name":"Ivókút","city":null,"address":null,"covered":null,"access":null,"website":null,"phone":null,"source":"OpenStreetMap","sourceUpdatedAt":"2026-04-04T22:50:22.71606+00:00","verifiedAt":null}},{"type":"Feature","geometry":{"type":"Point","coordinates":[20.620867,46.849317]},"properties":{"id":"water:8541f3fc-7abc-403d-9642-ac93984dc0b0","kind":"water","longitude":20.620867,"latitude":46.849317,"name":"Ivókút","city":null,"address":null,"covered":null,"access":null,"website":null,"phone":null,"source":"OpenStreetMap","sourceUpdatedAt":"2026-04-04T22:50:22.71606+00:00","verifiedAt":null}},{"type":"Feature","geometry":{"type":"Point","coordinates":[20.5280836,46.872884]},"properties":{"id":"water:8a36ff82-31ce-4454-b6b4-33478d218ef3","kind":"water","longitude":20.5280836,"latitude":46.872884,"name":"Ivókút","city":null,"address":null,"covered":null,"access":null,"website":null,"phone":null,"source":"OpenStreetMap","sourceUpdatedAt":"2026-04-04T22:50:22.71606+00:00","verifiedAt":null}},{"type":"Feature","geometry":{"type":"Point","coordinates":[20.6374074,47.0015141]},"properties":{"id":"water:8a84d2f8-3467-495d-a750-8c32aaeb1693","kind":"water","longitude":20.6374074,"latitude":47.0015141,"name":"Ivókút","city":null,"address":null,"covered":null,"access":null,"website":null,"phone":null,"source":"OpenStreetMap","sourceUpdatedAt":"2026-04-04T22:50:22.71606+00:00","verifiedAt":null}},{"type":"Feature","geometry":{"type":"Point","coordinates":[20.5975902,46.8649087]},"properties":{"id":"water:8d96c6d4-5e14-4084-b57c-839d9f617cda","kind":"water","longitude":20.5975902,"latitude":46.8649087,"name":"Ivókút","city":null,"address":null,"covered":null,"access":null,"website":null,"phone":null,"source":"OpenStreetMap","sourceUpdatedAt":"2026-04-04T22:50:22.71606+00:00","verifiedAt":null}},{"type":"Feature","geometry":{"type":"Point","coordinates":[20.620813,47.0022417]},"properties":{"id":"water:8f2c4db3-fb84-4342-98db-7bd850d3e418","kind":"water","longitude":20.620813,"latitude":47.0022417,"name":"Ivókút","city":null,"address":null,"covered":null,"access":null,"website":null,"phone":null,"source":"OpenStreetMap","sourceUpdatedAt":"2026-04-04T22:50:22.71606+00:00","verifiedAt":null}},{"type":"Feature","geometry":{"type":"Point","coordinates":[20.5667984,46.8567982]},"properties":{"id":"water:9043aa49-bd7d-4cae-993a-3840f2b2c6e6","kind":"water","longitude":20.5667984,"latitude":46.8567982,"name":"Ivókút","city":null,"address":null,"covered":null,"access":null,"website":null,"phone":null,"source":"OpenStreetMap","sourceUpdatedAt":"2026-04-04T22:50:22.71606+00:00","verifiedAt":null}},{"type":"Feature","geometry":{"type":"Point","coordinates":[20.3952,46.893267]},"properties":{"id":"water:93468eb9-37e4-4be4-a532-9d6c13a227ea","kind":"water","longitude":20.3952,"latitude":46.893267,"name":"Ivókút","city":null,"address":null,"covered":null,"access":null,"website":null,"phone":null,"source":"OpenStreetMap","sourceUpdatedAt":"2026-04-04T22:50:22.71606+00:00","verifiedAt":null}},{"type":"Feature","geometry":{"type":"Point","coordinates":[20.527822,46.873528]},"properties":{"id":"water:9c6143e8-ffd7-43a8-be73-20f1c84d9bfe","kind":"water","longitude":20.527822,"latitude":46.873528,"name":"Ivókút","city":null,"address":null,"covered":null,"access":null,"website":null,"phone":null,"source":"OpenStreetMap","sourceUpdatedAt":"2026-04-04T22:50:22.71606+00:00","verifiedAt":null}},{"type":"Feature","geometry":{"type":"Point","coordinates":[20.399967,46.897383]},"properties":{"id":"water:9e759950-457c-41b5-954a-da2092a3fdf6","kind":"water","longitude":20.399967,"latitude":46.897383,"name":"Ivókút","city":null,"address":null,"covered":null,"access":null,"website":null,"phone":null,"source":"OpenStreetMap","sourceUpdatedAt":"2026-04-04T22:50:22.71606+00:00","verifiedAt":null}},{"type":"Feature","geometry":{"type":"Point","coordinates":[20.6611058,46.8231117]},"properties":{"id":"water:9e8c8d62-2ebd-4d41-a356-85eaa793ba5e","kind":"water","longitude":20.6611058,"latitude":46.8231117,"name":"Ivókút","city":null,"address":null,"covered":null,"access":null,"website":null,"phone":null,"source":"OpenStreetMap","sourceUpdatedAt":"2026-04-04T22:50:22.71606+00:00","verifiedAt":null}},{"type":"Feature","geometry":{"type":"Point","coordinates":[20.5435917,46.8592362]},"properties":{"id":"water:9e90ba10-cc5b-46a2-9a1b-2425c015b64d","kind":"water","longitude":20.5435917,"latitude":46.8592362,"name":"Ivókút","city":null,"address":null,"covered":null,"access":null,"website":null,"phone":null,"source":"OpenStreetMap","sourceUpdatedAt":"2026-04-04T22:50:22.71606+00:00","verifiedAt":null}},{"type":"Feature","geometry":{"type":"Point","coordinates":[20.4305881,46.9512774]},"properties":{"id":"water:9fe40adb-bff0-43e4-b916-e23483fd15d0","kind":"water","longitude":20.4305881,"latitude":46.9512774,"name":"Ivókút","city":null,"address":null,"covered":null,"access":null,"website":null,"phone":null,"source":"OpenStreetMap","sourceUpdatedAt":"2026-04-04T22:50:22.71606+00:00","verifiedAt":null}},{"type":"Feature","geometry":{"type":"Point","coordinates":[20.622962,46.841145]},"properties":{"id":"water:a341d7c1-6c39-43e1-901c-e38e39699b71","kind":"water","longitude":20.622962,"latitude":46.841145,"name":"Ivókút","city":null,"address":null,"covered":null,"access":null,"website":null,"phone":null,"source":"OpenStreetMap","sourceUpdatedAt":"2026-04-04T22:50:22.71606+00:00","verifiedAt":null}},{"type":"Feature","geometry":{"type":"Point","coordinates":[20.6122213,47.0115038]},"properties":{"id":"water:a35f2881-9477-4157-bfa7-0828f4fa81c9","kind":"water","longitude":20.6122213,"latitude":47.0115038,"name":"Ártézi kút","city":null,"address":null,"covered":null,"access":null,"website":null,"phone":null,"source":"OpenStreetMap","sourceUpdatedAt":"2026-04-04T22:50:23.132679+00:00","verifiedAt":null}},{"type":"Feature","geometry":{"type":"Point","coordinates":[20.4747034,46.8260869]},"properties":{"id":"water:a3c34ee0-943c-4565-a5bc-246d11ecaea1","kind":"water","longitude":20.4747034,"latitude":46.8260869,"name":"Ivókút","city":null,"address":null,"covered":null,"access":null,"website":null,"phone":null,"source":"OpenStreetMap","sourceUpdatedAt":"2026-04-04T22:50:22.71606+00:00","verifiedAt":null}},{"type":"Feature","geometry":{"type":"Point","coordinates":[20.51457,46.826545]},"properties":{"id":"water:a46dd735-50e6-48d0-8bf8-79ff62875b3d","kind":"water","longitude":20.51457,"latitude":46.826545,"name":"Ivókút","city":null,"address":null,"covered":null,"access":null,"website":null,"phone":null,"source":"OpenStreetMap","sourceUpdatedAt":"2026-04-04T22:50:22.71606+00:00","verifiedAt":null}},{"type":"Feature","geometry":{"type":"Point","coordinates":[20.506536,46.829848]},"properties":{"id":"water:b2eb828c-60fd-4a74-9a19-675f337efdf5","kind":"water","longitude":20.506536,"latitude":46.829848,"name":"Ivókút","city":null,"address":null,"covered":null,"access":null,"website":null,"phone":null,"source":"OpenStreetMap","sourceUpdatedAt":"2026-04-04T22:50:22.71606+00:00","verifiedAt":null}},{"type":"Feature","geometry":{"type":"Point","coordinates":[20.5443843,46.8612097]},"properties":{"id":"water:b8c2ae1f-3a3c-4b36-a9ba-489fec0542a1","kind":"water","longitude":20.5443843,"latitude":46.8612097,"name":"Ivókút","city":null,"address":null,"covered":null,"access":null,"website":null,"phone":null,"source":"OpenStreetMap","sourceUpdatedAt":"2026-04-04T22:50:22.71606+00:00","verifiedAt":null}},{"type":"Feature","geometry":{"type":"Point","coordinates":[20.5419993,46.8620141]},"properties":{"id":"water:c08ac7f2-2fb1-4065-8875-447b7d26618c","kind":"water","longitude":20.5419993,"latitude":46.8620141,"name":"közkifolyó","city":null,"address":null,"covered":null,"access":null,"website":null,"phone":null,"source":"OpenStreetMap","sourceUpdatedAt":"2026-04-04T22:54:12.306991+00:00","verifiedAt":null}},{"type":"Feature","geometry":{"type":"Point","coordinates":[20.549942,46.8633123]},"properties":{"id":"water:c36656a0-193e-4ea6-ac71-ea86974dc180","kind":"water","longitude":20.549942,"latitude":46.8633123,"name":"Ivókút","city":null,"address":null,"covered":null,"access":null,"website":null,"phone":null,"source":"OpenStreetMap","sourceUpdatedAt":"2026-04-04T22:50:22.71606+00:00","verifiedAt":null}},{"type":"Feature","geometry":{"type":"Point","coordinates":[20.5303854,46.8742343]},"properties":{"id":"water:c5b27cae-ead4-4668-aa32-9ba9571b577b","kind":"water","longitude":20.5303854,"latitude":46.8742343,"name":"Ivókút","city":null,"address":null,"covered":null,"access":null,"website":null,"phone":null,"source":"OpenStreetMap","sourceUpdatedAt":"2026-04-04T22:50:22.71606+00:00","verifiedAt":null}},{"type":"Feature","geometry":{"type":"Point","coordinates":[20.5274633,46.8545724]},"properties":{"id":"water:c85d9c3e-1644-4bb1-b272-bfacfa527b8d","kind":"water","longitude":20.5274633,"latitude":46.8545724,"name":"Ivókút","city":null,"address":null,"covered":null,"access":null,"website":null,"phone":null,"source":"OpenStreetMap","sourceUpdatedAt":"2026-04-04T22:50:22.71606+00:00","verifiedAt":null}},{"type":"Feature","geometry":{"type":"Point","coordinates":[20.6006185,46.8682743]},"properties":{"id":"water:ca132e01-bc44-4155-866d-46bee3de882c","kind":"water","longitude":20.6006185,"latitude":46.8682743,"name":"Ivókút","city":null,"address":null,"covered":null,"access":null,"website":null,"phone":null,"source":"OpenStreetMap","sourceUpdatedAt":"2026-04-04T22:50:22.71606+00:00","verifiedAt":null}},{"type":"Feature","geometry":{"type":"Point","coordinates":[20.5554248,46.8606945]},"properties":{"id":"water:ce4a574c-0e03-4946-97e1-45a096348029","kind":"water","longitude":20.5554248,"latitude":46.8606945,"name":"Ivókút","city":null,"address":null,"covered":null,"access":null,"website":null,"phone":null,"source":"OpenStreetMap","sourceUpdatedAt":"2026-04-04T22:50:22.71606+00:00","verifiedAt":null}},{"type":"Feature","geometry":{"type":"Point","coordinates":[20.5955,46.862783]},"properties":{"id":"water:d12e8e4a-4412-480b-a8b2-21d03121b9f1","kind":"water","longitude":20.5955,"latitude":46.862783,"name":"Ivókút","city":null,"address":null,"covered":null,"access":null,"website":null,"phone":null,"source":"OpenStreetMap","sourceUpdatedAt":"2026-04-04T22:50:22.71606+00:00","verifiedAt":null}},{"type":"Feature","geometry":{"type":"Point","coordinates":[20.6045388,47.0111578]},"properties":{"id":"water:d22bf927-567c-4f1b-a6be-ce9c30a25833","kind":"water","longitude":20.6045388,"latitude":47.0111578,"name":"Ivókút","city":null,"address":null,"covered":null,"access":null,"website":null,"phone":null,"source":"OpenStreetMap","sourceUpdatedAt":"2026-04-04T22:50:22.71606+00:00","verifiedAt":null}},{"type":"Feature","geometry":{"type":"Point","coordinates":[20.486414,46.8754092]},"properties":{"id":"water:d3ddba14-8bb2-4787-9878-716676836fa6","kind":"water","longitude":20.486414,"latitude":46.8754092,"name":"Ivókút","city":null,"address":null,"covered":null,"access":null,"website":null,"phone":null,"source":"OpenStreetMap","sourceUpdatedAt":"2026-04-04T22:50:22.71606+00:00","verifiedAt":null}},{"type":"Feature","geometry":{"type":"Point","coordinates":[20.5328312,46.8680153]},"properties":{"id":"water:d3e46ce0-b183-417b-aea4-f06283887519","kind":"water","longitude":20.5328312,"latitude":46.8680153,"name":"Ivókút","city":null,"address":null,"covered":null,"access":null,"website":null,"phone":null,"source":"OpenStreetMap","sourceUpdatedAt":"2026-04-04T22:50:22.71606+00:00","verifiedAt":null}},{"type":"Feature","geometry":{"type":"Point","coordinates":[20.486783,46.87285]},"properties":{"id":"water:d6bbc363-f541-47f0-9a4b-2e569f0c041a","kind":"water","longitude":20.486783,"latitude":46.87285,"name":"Ivókút","city":null,"address":null,"covered":null,"access":null,"website":null,"phone":null,"source":"OpenStreetMap","sourceUpdatedAt":"2026-04-04T22:50:22.71606+00:00","verifiedAt":null}},{"type":"Feature","geometry":{"type":"Point","coordinates":[20.4898291,46.8706688]},"properties":{"id":"water:db5e87fc-e097-422b-8bd7-c2c0c7d66556","kind":"water","longitude":20.4898291,"latitude":46.8706688,"name":"Ivókút","city":null,"address":null,"covered":null,"access":null,"website":null,"phone":null,"source":"OpenStreetMap","sourceUpdatedAt":"2026-04-04T22:50:22.71606+00:00","verifiedAt":null}},{"type":"Feature","geometry":{"type":"Point","coordinates":[20.6183,46.8494]},"properties":{"id":"water:db9efb0e-6028-4752-9ff9-84d53c5fce95","kind":"water","longitude":20.6183,"latitude":46.8494,"name":"Ivókút","city":null,"address":null,"covered":null,"access":null,"website":null,"phone":null,"source":"OpenStreetMap","sourceUpdatedAt":"2026-04-04T22:50:22.71606+00:00","verifiedAt":null}},{"type":"Feature","geometry":{"type":"Point","coordinates":[20.4607865,46.9292925]},"properties":{"id":"water:ddf5cacc-aef1-40c8-8dc0-0ee21eadf646","kind":"water","longitude":20.4607865,"latitude":46.9292925,"name":"Ivókút","city":null,"address":null,"covered":null,"access":null,"website":null,"phone":null,"source":"OpenStreetMap","sourceUpdatedAt":"2026-04-04T22:50:22.71606+00:00","verifiedAt":null}},{"type":"Feature","geometry":{"type":"Point","coordinates":[20.5637728,46.8736227]},"properties":{"id":"water:e0d141ad-b005-4368-b8e3-7e470358efe5","kind":"water","longitude":20.5637728,"latitude":46.8736227,"name":"Ivókút","city":null,"address":null,"covered":null,"access":null,"website":null,"phone":null,"source":"OpenStreetMap","sourceUpdatedAt":"2026-04-04T22:50:22.71606+00:00","verifiedAt":null}},{"type":"Feature","geometry":{"type":"Point","coordinates":[20.615002,47.0135072]},"properties":{"id":"water:e1f249de-83dd-4eaf-baba-8ab0ec3a13ac","kind":"water","longitude":20.615002,"latitude":47.0135072,"name":"Ivókút","city":null,"address":null,"covered":null,"access":null,"website":null,"phone":null,"source":"OpenStreetMap","sourceUpdatedAt":"2026-04-04T22:50:22.71606+00:00","verifiedAt":null}},{"type":"Feature","geometry":{"type":"Point","coordinates":[20.6255237,46.9947705]},"properties":{"id":"water:e69afd09-2278-44a0-a3ac-0ba198eada6e","kind":"water","longitude":20.6255237,"latitude":46.9947705,"name":"Ivókút","city":null,"address":null,"covered":null,"access":null,"website":null,"phone":null,"source":"OpenStreetMap","sourceUpdatedAt":"2026-04-04T22:50:22.71606+00:00","verifiedAt":null}},{"type":"Feature","geometry":{"type":"Point","coordinates":[20.6237996,47.0012471]},"properties":{"id":"water:e997f278-cbb6-4967-90fe-73e44097b0fe","kind":"water","longitude":20.6237996,"latitude":47.0012471,"name":"Ivókút","city":null,"address":null,"covered":null,"access":null,"website":null,"phone":null,"source":"OpenStreetMap","sourceUpdatedAt":"2026-04-04T22:50:22.71606+00:00","verifiedAt":null}},{"type":"Feature","geometry":{"type":"Point","coordinates":[20.5668868,46.8625724]},"properties":{"id":"water:f008dabc-3b80-461f-90df-9e367ce8af60","kind":"water","longitude":20.5668868,"latitude":46.8625724,"name":"Ivókút","city":null,"address":null,"covered":null,"access":null,"website":null,"phone":null,"source":"OpenStreetMap","sourceUpdatedAt":"2026-04-04T22:50:22.71606+00:00","verifiedAt":null}},{"type":"Feature","geometry":{"type":"Point","coordinates":[20.614967,46.853067]},"properties":{"id":"water:f1158291-b891-42b9-b94f-e7edd7ab8dd9","kind":"water","longitude":20.614967,"latitude":46.853067,"name":"Ivókút","city":null,"address":null,"covered":null,"access":null,"website":null,"phone":null,"source":"OpenStreetMap","sourceUpdatedAt":"2026-04-04T22:50:22.71606+00:00","verifiedAt":null}},{"type":"Feature","geometry":{"type":"Point","coordinates":[20.623483,46.870767]},"properties":{"id":"water:f6be7679-e28d-4c46-8934-3178a9a20f62","kind":"water","longitude":20.623483,"latitude":46.870767,"name":"Ivókút","city":null,"address":null,"covered":null,"access":null,"website":null,"phone":null,"source":"OpenStreetMap","sourceUpdatedAt":"2026-04-04T22:50:22.71606+00:00","verifiedAt":null}},{"type":"Feature","geometry":{"type":"Point","coordinates":[20.5947666,46.9932093]},"properties":{"id":"water:f790a5b6-a8ad-45c1-9ab4-725b07a7b953","kind":"water","longitude":20.5947666,"latitude":46.9932093,"name":"Ivókút","city":null,"address":null,"covered":null,"access":null,"website":null,"phone":null,"source":"OpenStreetMap","sourceUpdatedAt":"2026-04-04T22:50:22.71606+00:00","verifiedAt":null}},{"type":"Feature","geometry":{"type":"Point","coordinates":[20.613667,46.871133]},"properties":{"id":"water:fd74a14d-abd6-4c13-94e4-b22e3c15ae73","kind":"water","longitude":20.613667,"latitude":46.871133,"name":"Ivókút","city":null,"address":null,"covered":null,"access":null,"website":null,"phone":null,"source":"OpenStreetMap","sourceUpdatedAt":"2026-04-04T22:50:22.71606+00:00","verifiedAt":null}}]}