{"type":"FeatureCollection","features":[{"type":"Feature","geometry":{"type":"Point","coordinates":[22.0843158,50.0564114]},"properties":{"id":"bikerack:59ee957e-263b-4aba-8abc-92657ec573c0","kind":"bikerack","longitude":22.0843158,"latitude":50.0564114,"name":"Green Velo","city":"Krasne","address":null,"covered":false,"access":null,"website":null,"phone":null,"source":"OpenStreetMap/node/12735164056","sourceUpdatedAt":null,"verifiedAt":null}},{"type":"Feature","geometry":{"type":"Point","coordinates":[22.0714856,50.0585607]},"properties":{"id":"bikerack:b92f59ab-ceae-48ec-9532-1c3022199fb6","kind":"bikerack","longitude":22.0714856,"latitude":50.0585607,"name":"Biciklitároló","city":"Krasne","address":null,"covered":false,"access":null,"website":null,"phone":null,"source":"OpenStreetMap/node/13083968439","sourceUpdatedAt":null,"verifiedAt":null}},{"type":"Feature","geometry":{"type":"Point","coordinates":[22.0678402,50.0584638]},"properties":{"id":"bikerack:d1362959-41c2-43a8-bcae-952cc6a81e5f","kind":"bikerack","longitude":22.0678402,"latitude":50.0584638,"name":"Biciklitároló","city":"Krasne","address":null,"covered":false,"access":null,"website":null,"phone":null,"source":"OpenStreetMap/node/13083968452","sourceUpdatedAt":null,"verifiedAt":null}},{"type":"Feature","geometry":{"type":"Point","coordinates":[22.0676828,50.0384266]},"properties":{"id":"bikerack:f40e8909-401f-41d0-9e9f-9345ffd92907","kind":"bikerack","longitude":22.0676828,"latitude":50.0384266,"name":"Biciklitároló","city":"Krasne","address":null,"covered":true,"access":null,"website":null,"phone":null,"source":"OpenStreetMap/node/12735182974","sourceUpdatedAt":null,"verifiedAt":null}},{"type":"Feature","geometry":{"type":"Point","coordinates":[22.0677389,50.0384292]},"properties":{"id":"repair:80eee067-a7de-4ef6-9f2c-9258be807cef","kind":"repair","longitude":22.0677389,"latitude":50.0384292,"name":"Kerékpár szervizállomás","city":"Krasne","address":null,"covered":false,"access":null,"website":null,"phone":null,"source":"OpenStreetMap/node/12735182973","sourceUpdatedAt":null,"verifiedAt":null}}]}