{"type":"FeatureCollection","features":[{"type":"Feature","geometry":{"type":"Point","coordinates":[18.4802463,54.5381885]},"properties":{"id":"bikerack:0558a72f-d3ac-4fff-8cfe-4cb33c1aed01","kind":"bikerack","longitude":18.4802463,"latitude":54.5381885,"name":"Biciklitároló","city":"Pogorze","address":null,"covered":false,"access":null,"website":null,"phone":null,"source":"OpenStreetMap/node/13626835676","sourceUpdatedAt":null,"verifiedAt":null}},{"type":"Feature","geometry":{"type":"Point","coordinates":[18.4702362,54.5425967]},"properties":{"id":"bikerack:067cf09b-da33-48ba-a611-d3480cbea69c","kind":"bikerack","longitude":18.4702362,"latitude":54.5425967,"name":"Biciklitároló","city":"Pogorze","address":null,"covered":false,"access":null,"website":null,"phone":null,"source":"OpenStreetMap/node/12232083887","sourceUpdatedAt":null,"verifiedAt":null}},{"type":"Feature","geometry":{"type":"Point","coordinates":[18.4848691,54.5365971]},"properties":{"id":"bikerack:0bbcfd10-1118-4d4b-8120-adda293ae752","kind":"bikerack","longitude":18.4848691,"latitude":54.5365971,"name":"Biciklitároló","city":"Pogorze","address":null,"covered":false,"access":null,"website":null,"phone":null,"source":"OpenStreetMap/node/13592650085","sourceUpdatedAt":null,"verifiedAt":null}},{"type":"Feature","geometry":{"type":"Point","coordinates":[18.4904145,54.5393032]},"properties":{"id":"bikerack:11e45e68-6ec1-4fb4-9541-927a6f87d9f4","kind":"bikerack","longitude":18.4904145,"latitude":54.5393032,"name":"Biciklitároló","city":"Pogorze","address":null,"covered":false,"access":null,"website":null,"phone":null,"source":"OpenStreetMap/node/13276025384","sourceUpdatedAt":null,"verifiedAt":null}},{"type":"Feature","geometry":{"type":"Point","coordinates":[18.4582219,54.5428584]},"properties":{"id":"bikerack:15faafab-913f-4c6c-b90d-53a1bb7a484d","kind":"bikerack","longitude":18.4582219,"latitude":54.5428584,"name":"Biciklitároló","city":"Pogorze","address":null,"covered":false,"access":null,"website":null,"phone":null,"source":"OpenStreetMap/node/11786913596","sourceUpdatedAt":null,"verifiedAt":null}},{"type":"Feature","geometry":{"type":"Point","coordinates":[18.4838549,54.5378451]},"properties":{"id":"bikerack:271fa3e8-9fca-49ab-ae42-e4486ea39d53","kind":"bikerack","longitude":18.4838549,"latitude":54.5378451,"name":"Biciklitároló","city":"Pogorze","address":null,"covered":false,"access":null,"website":null,"phone":null,"source":"OpenStreetMap/node/12841741069","sourceUpdatedAt":null,"verifiedAt":null}},{"type":"Feature","geometry":{"type":"Point","coordinates":[18.4628263,54.5453138]},"properties":{"id":"bikerack:2c207e8a-6392-42ee-b9f9-a1e37f71e870","kind":"bikerack","longitude":18.4628263,"latitude":54.5453138,"name":"Biciklitároló","city":"Pogorze","address":null,"covered":false,"access":null,"website":null,"phone":null,"source":"OpenStreetMap/node/9787087114","sourceUpdatedAt":null,"verifiedAt":null}},{"type":"Feature","geometry":{"type":"Point","coordinates":[18.4914701,54.5351269]},"properties":{"id":"bikerack:330c010a-fd0a-46d5-87a3-d0e31d1fbcdc","kind":"bikerack","longitude":18.4914701,"latitude":54.5351269,"name":"Biciklitároló","city":"Pogorze","address":null,"covered":false,"access":null,"website":null,"phone":null,"source":"OpenStreetMap/node/12856497736","sourceUpdatedAt":null,"verifiedAt":null}},{"type":"Feature","geometry":{"type":"Point","coordinates":[18.458262,54.5429904]},"properties":{"id":"bikerack:34220965-247f-4bff-8cf2-435742cfc544","kind":"bikerack","longitude":18.458262,"latitude":54.5429904,"name":"Biciklitároló","city":"Pogorze","address":null,"covered":false,"access":null,"website":null,"phone":null,"source":"OpenStreetMap/node/11786913620","sourceUpdatedAt":null,"verifiedAt":null}},{"type":"Feature","geometry":{"type":"Point","coordinates":[18.4613373,54.5429606]},"properties":{"id":"bikerack:3a3ec1ef-68a5-4bc3-bdb4-f1484bd0526f","kind":"bikerack","longitude":18.4613373,"latitude":54.5429606,"name":"Biciklitároló","city":"Pogorze","address":null,"covered":false,"access":null,"website":null,"phone":null,"source":"OpenStreetMap/node/11772112143","sourceUpdatedAt":null,"verifiedAt":null}},{"type":"Feature","geometry":{"type":"Point","coordinates":[18.4849378,54.5376027]},"properties":{"id":"bikerack:3ce296e8-d313-454a-a806-4aaf79ccf03b","kind":"bikerack","longitude":18.4849378,"latitude":54.5376027,"name":"Biciklitároló","city":"Pogorze","address":null,"covered":false,"access":null,"website":null,"phone":null,"source":"OpenStreetMap/node/12841741088","sourceUpdatedAt":null,"verifiedAt":null}},{"type":"Feature","geometry":{"type":"Point","coordinates":[18.4774908,54.5404804]},"properties":{"id":"bikerack:3e7dfaa7-d34f-47c5-9577-94d7bb8067a9","kind":"bikerack","longitude":18.4774908,"latitude":54.5404804,"name":"Biciklitároló","city":"Pogorze","address":null,"covered":true,"access":null,"website":null,"phone":null,"source":"OpenStreetMap/node/6419167310","sourceUpdatedAt":null,"verifiedAt":null}},{"type":"Feature","geometry":{"type":"Point","coordinates":[18.4585321,54.5276702]},"properties":{"id":"bikerack:4246a7bb-2032-47c4-bdcf-b45a0590002a","kind":"bikerack","longitude":18.4585321,"latitude":54.5276702,"name":"Biciklitároló","city":"Pogorze","address":null,"covered":false,"access":null,"website":null,"phone":null,"source":"OpenStreetMap/node/12985824539","sourceUpdatedAt":null,"verifiedAt":null}},{"type":"Feature","geometry":{"type":"Point","coordinates":[18.4829508,54.5376876]},"properties":{"id":"bikerack:43c91b50-d222-4c93-b23a-61cdf7777ba4","kind":"bikerack","longitude":18.4829508,"latitude":54.5376876,"name":"Biciklitároló","city":"Pogorze","address":null,"covered":false,"access":null,"website":null,"phone":null,"source":"OpenStreetMap/node/13592724019","sourceUpdatedAt":null,"verifiedAt":null}},{"type":"Feature","geometry":{"type":"Point","coordinates":[18.4787153,54.5408702]},"properties":{"id":"bikerack:48a5916c-b85f-41a8-9bde-2d3462cbd948","kind":"bikerack","longitude":18.4787153,"latitude":54.5408702,"name":"Biciklitároló","city":"Pogorze","address":null,"covered":true,"access":null,"website":null,"phone":null,"source":"OpenStreetMap/node/2277533665","sourceUpdatedAt":null,"verifiedAt":null}},{"type":"Feature","geometry":{"type":"Point","coordinates":[18.4824492,54.5376627]},"properties":{"id":"bikerack:55712a3a-d81d-4ee4-924c-7e90c7f4b602","kind":"bikerack","longitude":18.4824492,"latitude":54.5376627,"name":"Biciklitároló","city":"Pogorze","address":null,"covered":false,"access":null,"website":null,"phone":null,"source":"OpenStreetMap/node/13592723985","sourceUpdatedAt":null,"verifiedAt":null}},{"type":"Feature","geometry":{"type":"Point","coordinates":[18.4883292,54.5372508]},"properties":{"id":"bikerack:56d95fcc-050f-4a8d-a64f-36a21348cc81","kind":"bikerack","longitude":18.4883292,"latitude":54.5372508,"name":"Biciklitároló","city":"Pogorze","address":null,"covered":false,"access":null,"website":null,"phone":null,"source":"OpenStreetMap/node/13592388183","sourceUpdatedAt":null,"verifiedAt":null}},{"type":"Feature","geometry":{"type":"Point","coordinates":[18.4842585,54.5377666]},"properties":{"id":"bikerack:5c431e04-51ca-4031-845a-33877fbb9b28","kind":"bikerack","longitude":18.4842585,"latitude":54.5377666,"name":"Biciklitároló","city":"Pogorze","address":null,"covered":false,"access":null,"website":null,"phone":null,"source":"OpenStreetMap/node/12841741100","sourceUpdatedAt":null,"verifiedAt":null}},{"type":"Feature","geometry":{"type":"Point","coordinates":[18.4818098,54.5378261]},"properties":{"id":"bikerack:60445e8e-c146-4845-bb41-94df1e27c011","kind":"bikerack","longitude":18.4818098,"latitude":54.5378261,"name":"Biciklitároló","city":"Pogorze","address":null,"covered":false,"access":null,"website":null,"phone":null,"source":"OpenStreetMap/node/13592723984","sourceUpdatedAt":null,"verifiedAt":null}},{"type":"Feature","geometry":{"type":"Point","coordinates":[18.488272,54.5369204]},"properties":{"id":"bikerack:63ae86ef-b61a-42f4-861d-0f22b38bf0dc","kind":"bikerack","longitude":18.488272,"latitude":54.5369204,"name":"Biciklitároló","city":"Pogorze","address":null,"covered":false,"access":null,"website":null,"phone":null,"source":"OpenStreetMap/node/13592388180","sourceUpdatedAt":null,"verifiedAt":null}},{"type":"Feature","geometry":{"type":"Point","coordinates":[18.4677005,54.5436405]},"properties":{"id":"bikerack:63d9f6b4-fb77-43ee-8ca8-ee732c1fba9e","kind":"bikerack","longitude":18.4677005,"latitude":54.5436405,"name":"Biciklitároló","city":"Pogorze","address":null,"covered":false,"access":null,"website":null,"phone":null,"source":"OpenStreetMap/node/13456599328","sourceUpdatedAt":null,"verifiedAt":null}},{"type":"Feature","geometry":{"type":"Point","coordinates":[18.4838326,54.5372962]},"properties":{"id":"bikerack:65393872-08da-4adb-95fe-f14940927a8b","kind":"bikerack","longitude":18.4838326,"latitude":54.5372962,"name":"Biciklitároló","city":"Pogorze","address":null,"covered":false,"access":null,"website":null,"phone":null,"source":"OpenStreetMap/node/13592724014","sourceUpdatedAt":null,"verifiedAt":null}},{"type":"Feature","geometry":{"type":"Point","coordinates":[18.4670957,54.5438297]},"properties":{"id":"bikerack:6a8fdc19-d8ec-4504-a888-bbd426f08f6a","kind":"bikerack","longitude":18.4670957,"latitude":54.5438297,"name":"Biciklitároló","city":"Pogorze","address":null,"covered":false,"access":null,"website":null,"phone":null,"source":"OpenStreetMap/node/13456599626","sourceUpdatedAt":null,"verifiedAt":null}},{"type":"Feature","geometry":{"type":"Point","coordinates":[18.4778983,54.5404429]},"properties":{"id":"bikerack:75df940c-3c21-46a6-acce-a544201a0c92","kind":"bikerack","longitude":18.4778983,"latitude":54.5404429,"name":"Biciklitároló","city":"Pogorze","address":null,"covered":false,"access":null,"website":null,"phone":null,"source":"OpenStreetMap/node/6419167317","sourceUpdatedAt":null,"verifiedAt":null}},{"type":"Feature","geometry":{"type":"Point","coordinates":[18.4751346,54.5376281]},"properties":{"id":"bikerack:779a6a52-9b4f-4212-b8ef-1fa37b351130","kind":"bikerack","longitude":18.4751346,"latitude":54.5376281,"name":"Biciklitároló","city":"Pogorze","address":null,"covered":false,"access":null,"website":null,"phone":null,"source":"OpenStreetMap/node/13627197505","sourceUpdatedAt":null,"verifiedAt":null}},{"type":"Feature","geometry":{"type":"Point","coordinates":[18.4846512,54.5375041]},"properties":{"id":"bikerack:82636348-0372-48a9-9967-07d278842ae8","kind":"bikerack","longitude":18.4846512,"latitude":54.5375041,"name":"Biciklitároló","city":"Pogorze","address":null,"covered":false,"access":null,"website":null,"phone":null,"source":"OpenStreetMap/node/12841741081","sourceUpdatedAt":null,"verifiedAt":null}},{"type":"Feature","geometry":{"type":"Point","coordinates":[18.4677515,54.5442452]},"properties":{"id":"bikerack:83b60f2e-196e-4ba7-b2a3-80dcfd5948df","kind":"bikerack","longitude":18.4677515,"latitude":54.5442452,"name":"Biciklitároló","city":"Pogorze","address":null,"covered":false,"access":null,"website":null,"phone":null,"source":"OpenStreetMap/node/13456599336","sourceUpdatedAt":null,"verifiedAt":null}},{"type":"Feature","geometry":{"type":"Point","coordinates":[18.4800339,54.5382829]},"properties":{"id":"bikerack:8f06f267-ace4-46ca-aa91-9a02246fefad","kind":"bikerack","longitude":18.4800339,"latitude":54.5382829,"name":"Biciklitároló","city":"Pogorze","address":null,"covered":false,"access":null,"website":null,"phone":null,"source":"OpenStreetMap/node/13626835679","sourceUpdatedAt":null,"verifiedAt":null}},{"type":"Feature","geometry":{"type":"Point","coordinates":[18.4908776,54.527144]},"properties":{"id":"bikerack:8fd1fd2d-de7e-40d2-8a46-011c273a6d64","kind":"bikerack","longitude":18.4908776,"latitude":54.527144,"name":"Biciklitároló","city":"Pogorze","address":null,"covered":false,"access":null,"website":null,"phone":null,"source":"OpenStreetMap/node/10096198205","sourceUpdatedAt":null,"verifiedAt":null}},{"type":"Feature","geometry":{"type":"Point","coordinates":[18.4854057,54.5369282]},"properties":{"id":"bikerack:91f002b2-d6c7-4121-8d01-a1105e51281c","kind":"bikerack","longitude":18.4854057,"latitude":54.5369282,"name":"Biciklitároló","city":"Pogorze","address":null,"covered":false,"access":null,"website":null,"phone":null,"source":"OpenStreetMap/node/13592724005","sourceUpdatedAt":null,"verifiedAt":null}},{"type":"Feature","geometry":{"type":"Point","coordinates":[18.4888379,54.5402213]},"properties":{"id":"bikerack:95b7b53d-c60b-438a-94ea-87df132f571f","kind":"bikerack","longitude":18.4888379,"latitude":54.5402213,"name":"Biciklitároló","city":"Pogorze","address":null,"covered":false,"access":null,"website":null,"phone":null,"source":"OpenStreetMap/node/12478559643","sourceUpdatedAt":null,"verifiedAt":null}},{"type":"Feature","geometry":{"type":"Point","coordinates":[18.4928901,54.5335805]},"properties":{"id":"bikerack:a516e296-a8b7-4313-9d40-c37417a064fb","kind":"bikerack","longitude":18.4928901,"latitude":54.5335805,"name":"Biciklitároló","city":"Pogorze","address":null,"covered":false,"access":null,"website":null,"phone":null,"source":"OpenStreetMap/node/13592388175","sourceUpdatedAt":null,"verifiedAt":null}},{"type":"Feature","geometry":{"type":"Point","coordinates":[18.4896032,54.5388421]},"properties":{"id":"bikerack:a54a75dc-7909-4188-823e-3d31d4cde19f","kind":"bikerack","longitude":18.4896032,"latitude":54.5388421,"name":"Biciklitároló","city":"Pogorze","address":null,"covered":false,"access":null,"website":null,"phone":null,"source":"OpenStreetMap/node/12593628490","sourceUpdatedAt":null,"verifiedAt":null}},{"type":"Feature","geometry":{"type":"Point","coordinates":[18.4817528,54.538013]},"properties":{"id":"bikerack:a64317d6-69df-4b0c-b518-5351481a8c63","kind":"bikerack","longitude":18.4817528,"latitude":54.538013,"name":"Biciklitároló","city":"Pogorze","address":null,"covered":false,"access":null,"website":null,"phone":null,"source":"OpenStreetMap/node/13592724018","sourceUpdatedAt":null,"verifiedAt":null}},{"type":"Feature","geometry":{"type":"Point","coordinates":[18.4782871,54.540303]},"properties":{"id":"bikerack:a9502f02-4520-48c0-991c-4d35d3373bac","kind":"bikerack","longitude":18.4782871,"latitude":54.540303,"name":"Biciklitároló","city":"Pogorze","address":null,"covered":false,"access":null,"website":null,"phone":null,"source":"OpenStreetMap/node/13592768139","sourceUpdatedAt":null,"verifiedAt":null}},{"type":"Feature","geometry":{"type":"Point","coordinates":[18.4886155,54.5376809]},"properties":{"id":"bikerack:ab3c1c9c-35dd-4813-97f6-691f5bd99bc5","kind":"bikerack","longitude":18.4886155,"latitude":54.5376809,"name":"Biciklitároló","city":"Pogorze","address":null,"covered":false,"access":null,"website":null,"phone":null,"source":"OpenStreetMap/node/12593628484","sourceUpdatedAt":null,"verifiedAt":null}},{"type":"Feature","geometry":{"type":"Point","coordinates":[18.4662587,54.542348]},"properties":{"id":"bikerack:b2a9892f-0816-40bd-b230-adadd7f82b79","kind":"bikerack","longitude":18.4662587,"latitude":54.542348,"name":"Biciklitároló","city":"Pogorze","address":null,"covered":false,"access":null,"website":null,"phone":null,"source":"OpenStreetMap/node/12921217546","sourceUpdatedAt":null,"verifiedAt":null}},{"type":"Feature","geometry":{"type":"Point","coordinates":[18.4667882,54.5423309]},"properties":{"id":"bikerack:bb2208e1-c6a2-49c3-9bfc-4a34fc0844eb","kind":"bikerack","longitude":18.4667882,"latitude":54.5423309,"name":"Biciklitároló","city":"Pogorze","address":null,"covered":false,"access":null,"website":null,"phone":null,"source":"OpenStreetMap/node/12921217532","sourceUpdatedAt":null,"verifiedAt":null}},{"type":"Feature","geometry":{"type":"Point","coordinates":[18.4627204,54.5250973]},"properties":{"id":"bikerack:bc21fa1f-85a2-4ada-a236-0ec909a5787b","kind":"bikerack","longitude":18.4627204,"latitude":54.5250973,"name":"Biciklitároló","city":"Pogorze","address":null,"covered":false,"access":null,"website":null,"phone":null,"source":"OpenStreetMap/node/12985824315","sourceUpdatedAt":null,"verifiedAt":null}},{"type":"Feature","geometry":{"type":"Point","coordinates":[18.4634841,54.5460882]},"properties":{"id":"bikerack:bc7470dc-35c2-4791-84dd-40f2179c2f56","kind":"bikerack","longitude":18.4634841,"latitude":54.5460882,"name":"Biciklitároló","city":"Pogorze","address":null,"covered":false,"access":null,"website":null,"phone":null,"source":"OpenStreetMap/way/997994817","sourceUpdatedAt":null,"verifiedAt":null}},{"type":"Feature","geometry":{"type":"Point","coordinates":[18.4851881,54.5364773]},"properties":{"id":"bikerack:c012bb61-c227-46e6-86a7-81f79c6a4293","kind":"bikerack","longitude":18.4851881,"latitude":54.5364773,"name":"Biciklitároló","city":"Pogorze","address":null,"covered":false,"access":null,"website":null,"phone":null,"source":"OpenStreetMap/node/13592650086","sourceUpdatedAt":null,"verifiedAt":null}},{"type":"Feature","geometry":{"type":"Point","coordinates":[18.4623953,54.5448979]},"properties":{"id":"bikerack:c0c78556-2b49-467c-a958-1a254aec8a40","kind":"bikerack","longitude":18.4623953,"latitude":54.5448979,"name":"Biciklitároló","city":"Pogorze","address":null,"covered":false,"access":null,"website":null,"phone":null,"source":"OpenStreetMap/node/11786913710","sourceUpdatedAt":null,"verifiedAt":null}},{"type":"Feature","geometry":{"type":"Point","coordinates":[18.4844002,54.5371399]},"properties":{"id":"bikerack:cb3cb35f-99a6-4d19-9932-ae79542c0bf1","kind":"bikerack","longitude":18.4844002,"latitude":54.5371399,"name":"Biciklitároló","city":"Pogorze","address":null,"covered":false,"access":null,"website":null,"phone":null,"source":"OpenStreetMap/node/13592724006","sourceUpdatedAt":null,"verifiedAt":null}},{"type":"Feature","geometry":{"type":"Point","coordinates":[18.4604403,54.5428614]},"properties":{"id":"bikerack:cfc037c1-2fb7-4f60-a74c-b7dbe0b03b9c","kind":"bikerack","longitude":18.4604403,"latitude":54.5428614,"name":"Biciklitároló","city":"Pogorze","address":null,"covered":false,"access":null,"website":null,"phone":null,"source":"OpenStreetMap/node/11786913652","sourceUpdatedAt":null,"verifiedAt":null}},{"type":"Feature","geometry":{"type":"Point","coordinates":[18.4991647,54.5292273]},"properties":{"id":"bikerack:d10cf0df-b04a-4b89-b800-2fcd702047ed","kind":"bikerack","longitude":18.4991647,"latitude":54.5292273,"name":"Biciklitároló","city":"Gdynia","address":null,"covered":false,"access":null,"website":null,"phone":null,"source":"OpenStreetMap/node/9362966739","sourceUpdatedAt":null,"verifiedAt":null}},{"type":"Feature","geometry":{"type":"Point","coordinates":[18.4611045,54.5427673]},"properties":{"id":"bikerack:d2738674-0d88-451f-aa64-0492dc2a8b5f","kind":"bikerack","longitude":18.4611045,"latitude":54.5427673,"name":"Biciklitároló","city":"Pogorze","address":null,"covered":false,"access":null,"website":null,"phone":null,"source":"OpenStreetMap/node/11786913664","sourceUpdatedAt":null,"verifiedAt":null}},{"type":"Feature","geometry":{"type":"Point","coordinates":[18.4944228,54.5347212]},"properties":{"id":"bikerack:e160415b-36a1-44bd-ab29-f54fa706ba62","kind":"bikerack","longitude":18.4944228,"latitude":54.5347212,"name":"Biciklitároló","city":"Pogorze","address":null,"covered":true,"access":null,"website":null,"phone":null,"source":"OpenStreetMap/node/3689276271","sourceUpdatedAt":null,"verifiedAt":null}},{"type":"Feature","geometry":{"type":"Point","coordinates":[18.4808956,54.536651]},"properties":{"id":"bikerack:e68fd8b9-f59f-489b-9ba9-fd478d5a8d46","kind":"bikerack","longitude":18.4808956,"latitude":54.536651,"name":"Biciklitároló","city":"Pogorze","address":null,"covered":false,"access":null,"website":null,"phone":null,"source":"OpenStreetMap/node/7798458239","sourceUpdatedAt":null,"verifiedAt":null}},{"type":"Feature","geometry":{"type":"Point","coordinates":[18.481845,54.5376872]},"properties":{"id":"bikerack:e8a18295-58e7-4046-a0e3-b00c221ddf21","kind":"bikerack","longitude":18.481845,"latitude":54.5376872,"name":"Biciklitároló","city":"Pogorze","address":null,"covered":false,"access":null,"website":null,"phone":null,"source":"OpenStreetMap/node/13592723981","sourceUpdatedAt":null,"verifiedAt":null}},{"type":"Feature","geometry":{"type":"Point","coordinates":[18.4800902,54.538427]},"properties":{"id":"bikerack:e9f955a8-56ed-4d52-b984-16d551c56732","kind":"bikerack","longitude":18.4800902,"latitude":54.538427,"name":"Biciklitároló","city":"Pogorze","address":null,"covered":false,"access":null,"website":null,"phone":null,"source":"OpenStreetMap/node/13592724057","sourceUpdatedAt":null,"verifiedAt":null}},{"type":"Feature","geometry":{"type":"Point","coordinates":[18.4628942,54.5463944]},"properties":{"id":"bikerack:ea878019-33d6-466d-885f-22f33d2faa34","kind":"bikerack","longitude":18.4628942,"latitude":54.5463944,"name":"Biciklitároló","city":"Pogorze","address":null,"covered":false,"access":null,"website":null,"phone":null,"source":"OpenStreetMap/node/12798315343","sourceUpdatedAt":null,"verifiedAt":null}},{"type":"Feature","geometry":{"type":"Point","coordinates":[18.4624718,54.5448008]},"properties":{"id":"bikerack:ed07a65e-dd98-461f-9e6e-8229f28f68c0","kind":"bikerack","longitude":18.4624718,"latitude":54.5448008,"name":"Biciklitároló","city":"Pogorze","address":null,"covered":false,"access":null,"website":null,"phone":null,"source":"OpenStreetMap/node/11670856406","sourceUpdatedAt":null,"verifiedAt":null}},{"type":"Feature","geometry":{"type":"Point","coordinates":[18.4781465,54.5390406]},"properties":{"id":"bikerack:f0c0017d-9736-4c0b-8d14-846f0a38eaad","kind":"bikerack","longitude":18.4781465,"latitude":54.5390406,"name":"Biciklitároló","city":"Pogorze","address":null,"covered":false,"access":null,"website":null,"phone":null,"source":"OpenStreetMap/node/13627198200","sourceUpdatedAt":null,"verifiedAt":null}},{"type":"Feature","geometry":{"type":"Point","coordinates":[18.4843523,54.5377377]},"properties":{"id":"bikerack:f6ce9a0d-63ce-4434-8899-f231a022d016","kind":"bikerack","longitude":18.4843523,"latitude":54.5377377,"name":"Biciklitároló","city":"Pogorze","address":null,"covered":false,"access":null,"website":null,"phone":null,"source":"OpenStreetMap/node/12841741099","sourceUpdatedAt":null,"verifiedAt":null}},{"type":"Feature","geometry":{"type":"Point","coordinates":[18.4967755,54.529687]},"properties":{"id":"bikerack:f88a0d95-05c0-46f2-985a-6810c35d4ad9","kind":"bikerack","longitude":18.4967755,"latitude":54.529687,"name":"Biciklitároló","city":"Gdynia","address":null,"covered":false,"access":null,"website":null,"phone":null,"source":"OpenStreetMap/node/7320561735","sourceUpdatedAt":null,"verifiedAt":null}},{"type":"Feature","geometry":{"type":"Point","coordinates":[18.4618411,54.5449288]},"properties":{"id":"bikerack:f8972ec8-4c35-4160-8307-6bda3628ce2c","kind":"bikerack","longitude":18.4618411,"latitude":54.5449288,"name":"Biciklitároló","city":"Pogorze","address":null,"covered":false,"access":null,"website":null,"phone":null,"source":"OpenStreetMap/node/11415735523","sourceUpdatedAt":null,"verifiedAt":null}},{"type":"Feature","geometry":{"type":"Point","coordinates":[18.4630926,54.5451706]},"properties":{"id":"bikerack:fa4987fd-e943-4557-a7b5-dd2295480e49","kind":"bikerack","longitude":18.4630926,"latitude":54.5451706,"name":"Biciklitároló","city":"Pogorze","address":null,"covered":true,"access":null,"website":null,"phone":null,"source":"OpenStreetMap/node/3615516503","sourceUpdatedAt":null,"verifiedAt":null}},{"type":"Feature","geometry":{"type":"Point","coordinates":[18.482983,54.5369755]},"properties":{"id":"bikerack:fe045016-88b2-4d75-8e51-9eb6d1456cf7","kind":"bikerack","longitude":18.482983,"latitude":54.5369755,"name":"Biciklitároló","city":"Pogorze","address":null,"covered":false,"access":null,"website":null,"phone":null,"source":"OpenStreetMap/node/13592723967","sourceUpdatedAt":null,"verifiedAt":null}},{"type":"Feature","geometry":{"type":"Point","coordinates":[18.4627606,54.5251099]},"properties":{"id":"repair:04a44e48-b32f-495f-ba0d-9d5c02a6c2f7","kind":"repair","longitude":18.4627606,"latitude":54.5251099,"name":"Kerékpár szervizállomás","city":"Pogorze","address":null,"covered":false,"access":null,"website":null,"phone":null,"source":"OpenStreetMap/node/9405037920","sourceUpdatedAt":null,"verifiedAt":null}},{"type":"Feature","geometry":{"type":"Point","coordinates":[18.4884082,54.5325736]},"properties":{"id":"repair:96c1861e-a56a-4107-855f-58bb399a157a","kind":"repair","longitude":18.4884082,"latitude":54.5325736,"name":"Kerékpár szervizállomás","city":"Pogorze","address":null,"covered":false,"access":null,"website":null,"phone":null,"source":"OpenStreetMap/node/8590488398","sourceUpdatedAt":null,"verifiedAt":null}},{"type":"Feature","geometry":{"type":"Point","coordinates":[18.4641598,54.5446552]},"properties":{"id":"repair:d97fcd98-16ed-46d8-9233-e55d43b3868b","kind":"repair","longitude":18.4641598,"latitude":54.5446552,"name":"Kerékpár szervizállomás","city":"Pogorze","address":null,"covered":false,"access":null,"website":null,"phone":null,"source":"OpenStreetMap/node/11415735495","sourceUpdatedAt":null,"verifiedAt":null}},{"type":"Feature","geometry":{"type":"Point","coordinates":[18.4641267,54.5404185]},"properties":{"id":"service:c353a04b-2480-466b-a2d6-903d0c2b5663","kind":"service","longitude":18.4641267,"latitude":54.5404185,"name":"Kołomański Rowery","city":"Pogorze","address":null,"covered":null,"access":null,"website":null,"phone":null,"source":"OpenStreetMap/node/4406816228","sourceUpdatedAt":null,"verifiedAt":null}},{"type":"Feature","geometry":{"type":"Point","coordinates":[18.4855544,54.5341056]},"properties":{"id":"service:faa18c33-a603-471d-8602-30c0707cb8bb","kind":"service","longitude":18.4855544,"latitude":54.5341056,"name":"Adam Bike","city":"Pogorze","address":null,"covered":null,"access":null,"website":null,"phone":null,"source":"OpenStreetMap/node/1907502292","sourceUpdatedAt":null,"verifiedAt":null}},{"type":"Feature","geometry":{"type":"Point","coordinates":[18.4924367,54.5324374]},"properties":{"id":"service:ff26bfcf-3352-425b-9b39-192000671930","kind":"service","longitude":18.4924367,"latitude":54.5324374,"name":"ArtCom","city":"Gdynia","address":null,"covered":null,"access":null,"website":null,"phone":null,"source":"OpenStreetMap/node/1781920360","sourceUpdatedAt":null,"verifiedAt":null}}]}