{"type":"FeatureCollection","features":[{"type":"Feature","geometry":{"type":"Point","coordinates":[18.4645985,49.9346553]},"properties":{"id":"bikerack:423c18b1-67df-4b4d-8115-349883cb0424","kind":"bikerack","longitude":18.4645985,"latitude":49.9346553,"name":"Biciklitároló","city":"Godow","address":null,"covered":false,"access":null,"website":null,"phone":null,"source":"OpenStreetMap/node/7305766068","sourceUpdatedAt":null,"verifiedAt":null}},{"type":"Feature","geometry":{"type":"Point","coordinates":[18.457111,49.9345455]},"properties":{"id":"bikerack:4d80ccac-af9b-4518-b488-ea1108ec241b","kind":"bikerack","longitude":18.457111,"latitude":49.9345455,"name":"Biciklitároló","city":"Laziska","address":null,"covered":false,"access":null,"website":null,"phone":null,"source":"OpenStreetMap/node/2924646335","sourceUpdatedAt":null,"verifiedAt":null}},{"type":"Feature","geometry":{"type":"Point","coordinates":[18.4942912,49.9284098]},"properties":{"id":"bikerack:9eb59d5d-0f87-4663-87bc-9e5bb10e36ae","kind":"bikerack","longitude":18.4942912,"latitude":49.9284098,"name":"Biciklitároló","city":"Godow","address":null,"covered":false,"access":null,"website":null,"phone":null,"source":"OpenStreetMap/node/10822373770","sourceUpdatedAt":null,"verifiedAt":null}},{"type":"Feature","geometry":{"type":"Point","coordinates":[18.4834805,49.9277361]},"properties":{"id":"repair:ba726de4-6260-436b-a4d4-a96b18e06b8e","kind":"repair","longitude":18.4834805,"latitude":49.9277361,"name":"Kerékpár szervizállomás","city":"Godow","address":null,"covered":false,"access":null,"website":null,"phone":null,"source":"OpenStreetMap/node/10089319167","sourceUpdatedAt":null,"verifiedAt":null}}]}