{"type":"FeatureCollection","features":[{"type":"Feature","geometry":{"type":"Point","coordinates":[19.53655,51.7565739]},"properties":{"id":"bikerack:0447042e-357e-415e-b7ce-4c25b8fa555a","kind":"bikerack","longitude":19.53655,"latitude":51.7565739,"name":"Biciklitároló","city":"Lodz","address":null,"covered":true,"access":null,"website":null,"phone":null,"source":"OpenStreetMap/node/12237527266","sourceUpdatedAt":null,"verifiedAt":null}},{"type":"Feature","geometry":{"type":"Point","coordinates":[19.5129756,51.7546726]},"properties":{"id":"bikerack:0c5ba91a-2dfe-4f4c-bc6c-6ea3d13391c8","kind":"bikerack","longitude":19.5129756,"latitude":51.7546726,"name":"Biciklitároló","city":"Lodz","address":null,"covered":false,"access":null,"website":null,"phone":null,"source":"OpenStreetMap/node/9660932848","sourceUpdatedAt":null,"verifiedAt":null}},{"type":"Feature","geometry":{"type":"Point","coordinates":[19.5335561,51.7809156]},"properties":{"id":"bikerack:0e967470-2ff3-4ea6-bf03-8ce05e4ed37b","kind":"bikerack","longitude":19.5335561,"latitude":51.7809156,"name":"Biciklitároló","city":"Lodz","address":null,"covered":false,"access":null,"website":null,"phone":null,"source":"OpenStreetMap/way/1021066864","sourceUpdatedAt":null,"verifiedAt":null}},{"type":"Feature","geometry":{"type":"Point","coordinates":[19.5147453,51.7708057]},"properties":{"id":"bikerack:1280f2ab-d0d3-45b5-8766-5b9ab2ad4e28","kind":"bikerack","longitude":19.5147453,"latitude":51.7708057,"name":"Biciklitároló","city":"Lodz","address":null,"covered":false,"access":null,"website":null,"phone":null,"source":"OpenStreetMap/node/10671686282","sourceUpdatedAt":null,"verifiedAt":null}},{"type":"Feature","geometry":{"type":"Point","coordinates":[19.5218915,51.761045]},"properties":{"id":"bikerack:153b2e47-f299-47ae-8f8b-856841e9fa9e","kind":"bikerack","longitude":19.5218915,"latitude":51.761045,"name":"Biciklitároló","city":"Lodz","address":null,"covered":false,"access":null,"website":null,"phone":null,"source":"OpenStreetMap/node/12105863516","sourceUpdatedAt":null,"verifiedAt":null}},{"type":"Feature","geometry":{"type":"Point","coordinates":[19.5208809,51.7611187]},"properties":{"id":"bikerack:199ecc50-4037-471b-8dc6-70b440ce2b9f","kind":"bikerack","longitude":19.5208809,"latitude":51.7611187,"name":"Biciklitároló","city":"Lodz","address":null,"covered":false,"access":null,"website":null,"phone":null,"source":"OpenStreetMap/node/13017917340","sourceUpdatedAt":null,"verifiedAt":null}},{"type":"Feature","geometry":{"type":"Point","coordinates":[19.5194694,51.7620085]},"properties":{"id":"bikerack:2050c5b9-e111-4573-83f7-636a042ea4f2","kind":"bikerack","longitude":19.5194694,"latitude":51.7620085,"name":"Biciklitároló","city":"Lodz","address":null,"covered":false,"access":null,"website":null,"phone":null,"source":"OpenStreetMap/node/13097819399","sourceUpdatedAt":null,"verifiedAt":null}},{"type":"Feature","geometry":{"type":"Point","coordinates":[19.5353772,51.760346]},"properties":{"id":"bikerack:21ca9e0a-506a-4e6a-bc77-0b196f154ac0","kind":"bikerack","longitude":19.5353772,"latitude":51.760346,"name":"Biciklitároló","city":"Lodz","address":null,"covered":true,"access":null,"website":null,"phone":null,"source":"OpenStreetMap/node/2692491138","sourceUpdatedAt":null,"verifiedAt":null}},{"type":"Feature","geometry":{"type":"Point","coordinates":[19.5202524,51.7618138]},"properties":{"id":"bikerack:25cff7a8-736c-4747-bf85-760efb625933","kind":"bikerack","longitude":19.5202524,"latitude":51.7618138,"name":"Biciklitároló","city":"Lodz","address":null,"covered":false,"access":null,"website":null,"phone":null,"source":"OpenStreetMap/node/13097819400","sourceUpdatedAt":null,"verifiedAt":null}},{"type":"Feature","geometry":{"type":"Point","coordinates":[19.5424497,51.762929]},"properties":{"id":"bikerack:25ef7473-26fa-4f94-9827-823d511c6f76","kind":"bikerack","longitude":19.5424497,"latitude":51.762929,"name":"Biciklitároló","city":"Lodz","address":null,"covered":true,"access":null,"website":null,"phone":null,"source":"OpenStreetMap/node/4543179726","sourceUpdatedAt":null,"verifiedAt":null}},{"type":"Feature","geometry":{"type":"Point","coordinates":[19.5427728,51.7626114]},"properties":{"id":"bikerack:2e1186bf-ef99-4813-94ce-3741e2cd2092","kind":"bikerack","longitude":19.5427728,"latitude":51.7626114,"name":"Biciklitároló","city":"Lodz","address":null,"covered":false,"access":null,"website":null,"phone":null,"source":"OpenStreetMap/node/2692496747","sourceUpdatedAt":null,"verifiedAt":null}},{"type":"Feature","geometry":{"type":"Point","coordinates":[19.5351675,51.7581829]},"properties":{"id":"bikerack:323f81f8-2ebc-46df-b7a0-f33c3aea04c4","kind":"bikerack","longitude":19.5351675,"latitude":51.7581829,"name":"Biciklitároló","city":"Lodz","address":null,"covered":false,"access":null,"website":null,"phone":null,"source":"OpenStreetMap/node/10188752128","sourceUpdatedAt":null,"verifiedAt":null}},{"type":"Feature","geometry":{"type":"Point","coordinates":[19.5263886,51.7602269]},"properties":{"id":"bikerack:3269c3f9-ba25-4994-8ccd-b83107885529","kind":"bikerack","longitude":19.5263886,"latitude":51.7602269,"name":"Biciklitároló","city":"Lodz","address":null,"covered":false,"access":null,"website":null,"phone":null,"source":"OpenStreetMap/node/2692489283","sourceUpdatedAt":null,"verifiedAt":null}},{"type":"Feature","geometry":{"type":"Point","coordinates":[19.5122581,51.773714]},"properties":{"id":"bikerack:33d1271c-787e-4b3c-aa29-610710d5ad4b","kind":"bikerack","longitude":19.5122581,"latitude":51.773714,"name":"Biciklitároló","city":"Lodz","address":null,"covered":false,"access":null,"website":null,"phone":null,"source":"OpenStreetMap/way/1021073443","sourceUpdatedAt":null,"verifiedAt":null}},{"type":"Feature","geometry":{"type":"Point","coordinates":[19.5383371,51.7588131]},"properties":{"id":"bikerack:341c4cdb-5532-47c5-a269-ed0472adb8be","kind":"bikerack","longitude":19.5383371,"latitude":51.7588131,"name":"Biciklitároló","city":"Lodz","address":null,"covered":true,"access":null,"website":null,"phone":null,"source":"OpenStreetMap/node/2692492255","sourceUpdatedAt":null,"verifiedAt":null}},{"type":"Feature","geometry":{"type":"Point","coordinates":[19.5456289,51.7612619]},"properties":{"id":"bikerack:4846c48a-b57e-473a-8992-78b44225aae7","kind":"bikerack","longitude":19.5456289,"latitude":51.7612619,"name":"Biciklitároló","city":"Lodz","address":null,"covered":false,"access":null,"website":null,"phone":null,"source":"OpenStreetMap/node/10225619731","sourceUpdatedAt":null,"verifiedAt":null}},{"type":"Feature","geometry":{"type":"Point","coordinates":[19.5370762,51.7588348]},"properties":{"id":"bikerack:4dc5d31a-0a65-4e3f-a19e-130107862c1b","kind":"bikerack","longitude":19.5370762,"latitude":51.7588348,"name":"Biciklitároló","city":"Lodz","address":null,"covered":false,"access":null,"website":null,"phone":null,"source":"OpenStreetMap/node/10836843944","sourceUpdatedAt":null,"verifiedAt":null}},{"type":"Feature","geometry":{"type":"Point","coordinates":[19.5210893,51.7619845]},"properties":{"id":"bikerack:505f8055-a75b-4fb1-a3e7-c214c68d3c26","kind":"bikerack","longitude":19.5210893,"latitude":51.7619845,"name":"Biciklitároló","city":"Lodz","address":null,"covered":false,"access":null,"website":null,"phone":null,"source":"OpenStreetMap/node/12215648851","sourceUpdatedAt":null,"verifiedAt":null}},{"type":"Feature","geometry":{"type":"Point","coordinates":[19.5127728,51.7648662]},"properties":{"id":"bikerack:52609481-a6de-4da7-87f5-b4c3ccd9949f","kind":"bikerack","longitude":19.5127728,"latitude":51.7648662,"name":"Biciklitároló","city":"Lodz","address":null,"covered":false,"access":null,"website":null,"phone":null,"source":"OpenStreetMap/node/10836850449","sourceUpdatedAt":null,"verifiedAt":null}},{"type":"Feature","geometry":{"type":"Point","coordinates":[19.5362812,51.756933]},"properties":{"id":"bikerack:52990730-6864-491c-a0e1-acb02319fbdc","kind":"bikerack","longitude":19.5362812,"latitude":51.756933,"name":"Biciklitároló","city":"Lodz","address":null,"covered":false,"access":null,"website":null,"phone":null,"source":"OpenStreetMap/node/10836843947","sourceUpdatedAt":null,"verifiedAt":null}},{"type":"Feature","geometry":{"type":"Point","coordinates":[19.5283173,51.7621214]},"properties":{"id":"bikerack:5725ecca-5ea3-41df-92fd-3033fa9e2edf","kind":"bikerack","longitude":19.5283173,"latitude":51.7621214,"name":"Biciklitároló","city":"Lodz","address":null,"covered":false,"access":null,"website":null,"phone":null,"source":"OpenStreetMap/node/5026035421","sourceUpdatedAt":null,"verifiedAt":null}},{"type":"Feature","geometry":{"type":"Point","coordinates":[19.5347604,51.7583265]},"properties":{"id":"bikerack:5898a606-fd6c-42e6-b1f9-4bfa9795507d","kind":"bikerack","longitude":19.5347604,"latitude":51.7583265,"name":"Biciklitároló","city":"Lodz","address":null,"covered":false,"access":null,"website":null,"phone":null,"source":"OpenStreetMap/node/10188483252","sourceUpdatedAt":null,"verifiedAt":null}},{"type":"Feature","geometry":{"type":"Point","coordinates":[19.5226542,51.7750714]},"properties":{"id":"bikerack:5a660db1-9813-472c-b95c-e62254f6ac37","kind":"bikerack","longitude":19.5226542,"latitude":51.7750714,"name":"Biciklitároló","city":"Lodz","address":null,"covered":false,"access":null,"website":null,"phone":null,"source":"OpenStreetMap/way/1021066865","sourceUpdatedAt":null,"verifiedAt":null}},{"type":"Feature","geometry":{"type":"Point","coordinates":[19.5365662,51.7571852]},"properties":{"id":"bikerack:5c6b60c0-f042-4303-8790-354b57192d82","kind":"bikerack","longitude":19.5365662,"latitude":51.7571852,"name":"Biciklitároló","city":"Lodz","address":null,"covered":false,"access":null,"website":null,"phone":null,"source":"OpenStreetMap/node/9277746549","sourceUpdatedAt":null,"verifiedAt":null}},{"type":"Feature","geometry":{"type":"Point","coordinates":[19.5353967,51.7585369]},"properties":{"id":"bikerack:61074cd0-4810-45b3-a072-1a74e1544fe6","kind":"bikerack","longitude":19.5353967,"latitude":51.7585369,"name":"Biciklitároló","city":"Lodz","address":null,"covered":false,"access":null,"website":null,"phone":null,"source":"OpenStreetMap/node/10188752125","sourceUpdatedAt":null,"verifiedAt":null}},{"type":"Feature","geometry":{"type":"Point","coordinates":[19.5122528,51.7643425]},"properties":{"id":"bikerack:67c5dfc5-09f1-4308-97db-cf0c2255b797","kind":"bikerack","longitude":19.5122528,"latitude":51.7643425,"name":"Biciklitároló","city":"Lodz","address":null,"covered":false,"access":null,"website":null,"phone":null,"source":"OpenStreetMap/node/10116533835","sourceUpdatedAt":null,"verifiedAt":null}},{"type":"Feature","geometry":{"type":"Point","coordinates":[19.5457672,51.7607464]},"properties":{"id":"bikerack:686acee7-f75e-4223-8976-fcfd7ac99625","kind":"bikerack","longitude":19.5457672,"latitude":51.7607464,"name":"Biciklitároló","city":"Lodz","address":null,"covered":false,"access":null,"website":null,"phone":null,"source":"OpenStreetMap/node/10225616421","sourceUpdatedAt":null,"verifiedAt":null}},{"type":"Feature","geometry":{"type":"Point","coordinates":[19.5379327,51.7586125]},"properties":{"id":"bikerack:6b938b45-2fc4-4424-b6a3-57157b05e72d","kind":"bikerack","longitude":19.5379327,"latitude":51.7586125,"name":"Biciklitároló","city":"Lodz","address":null,"covered":false,"access":null,"website":null,"phone":null,"source":"OpenStreetMap/node/12237527291","sourceUpdatedAt":null,"verifiedAt":null}},{"type":"Feature","geometry":{"type":"Point","coordinates":[19.5379819,51.7606985]},"properties":{"id":"bikerack:6c8dca93-fe30-4b21-a4a7-cb53a9da7222","kind":"bikerack","longitude":19.5379819,"latitude":51.7606985,"name":"Biciklitároló","city":"Lodz","address":null,"covered":false,"access":null,"website":null,"phone":null,"source":"OpenStreetMap/node/5343494099","sourceUpdatedAt":null,"verifiedAt":null}},{"type":"Feature","geometry":{"type":"Point","coordinates":[19.5433079,51.7625375]},"properties":{"id":"bikerack:6fd6b54b-12fb-4df3-8786-182df800b0ee","kind":"bikerack","longitude":19.5433079,"latitude":51.7625375,"name":"Biciklitároló","city":"Lodz","address":null,"covered":false,"access":null,"website":null,"phone":null,"source":"OpenStreetMap/node/2692496749","sourceUpdatedAt":null,"verifiedAt":null}},{"type":"Feature","geometry":{"type":"Point","coordinates":[19.5348228,51.7602472]},"properties":{"id":"bikerack:7a9f1eb4-8cd8-4ce0-829f-c6616504beb8","kind":"bikerack","longitude":19.5348228,"latitude":51.7602472,"name":"Biciklitároló","city":"Lodz","address":null,"covered":false,"access":null,"website":null,"phone":null,"source":"OpenStreetMap/node/2692491139","sourceUpdatedAt":null,"verifiedAt":null}},{"type":"Feature","geometry":{"type":"Point","coordinates":[19.5289265,51.7564181]},"properties":{"id":"bikerack:7d39a314-3bb5-4a8d-8e7c-1a339a20ea62","kind":"bikerack","longitude":19.5289265,"latitude":51.7564181,"name":"Biciklitároló","city":"Lodz","address":null,"covered":false,"access":null,"website":null,"phone":null,"source":"OpenStreetMap/node/10660951633","sourceUpdatedAt":null,"verifiedAt":null}},{"type":"Feature","geometry":{"type":"Point","coordinates":[19.5198146,51.7554898]},"properties":{"id":"bikerack:865dae66-b3df-4837-8ca2-b83f0a4d903e","kind":"bikerack","longitude":19.5198146,"latitude":51.7554898,"name":"Biciklitároló","city":"Lodz","address":null,"covered":false,"access":null,"website":null,"phone":null,"source":"OpenStreetMap/node/9280028172","sourceUpdatedAt":null,"verifiedAt":null}},{"type":"Feature","geometry":{"type":"Point","coordinates":[19.5347063,51.7581699]},"properties":{"id":"bikerack:8677d2f0-c04a-4b1c-b2cb-26371dc89fd2","kind":"bikerack","longitude":19.5347063,"latitude":51.7581699,"name":"Biciklitároló","city":"Lodz","address":null,"covered":false,"access":null,"website":null,"phone":null,"source":"OpenStreetMap/node/10188752117","sourceUpdatedAt":null,"verifiedAt":null}},{"type":"Feature","geometry":{"type":"Point","coordinates":[19.5379453,51.7586857]},"properties":{"id":"bikerack:874f9feb-820c-4a39-8867-8d991b6351f1","kind":"bikerack","longitude":19.5379453,"latitude":51.7586857,"name":"Biciklitároló","city":"Lodz","address":null,"covered":false,"access":null,"website":null,"phone":null,"source":"OpenStreetMap/node/12237527290","sourceUpdatedAt":null,"verifiedAt":null}},{"type":"Feature","geometry":{"type":"Point","coordinates":[19.5404123,51.7553559]},"properties":{"id":"bikerack:8c240d78-0e9e-4374-b318-07cdf531082e","kind":"bikerack","longitude":19.5404123,"latitude":51.7553559,"name":"Biciklitároló","city":"Lodz","address":null,"covered":true,"access":null,"website":null,"phone":null,"source":"OpenStreetMap/way/1032870187","sourceUpdatedAt":null,"verifiedAt":null}},{"type":"Feature","geometry":{"type":"Point","coordinates":[19.5312367,51.7561795]},"properties":{"id":"bikerack:90c20a23-7335-4195-a40e-a1eb80aec832","kind":"bikerack","longitude":19.5312367,"latitude":51.7561795,"name":"Biciklitároló","city":"Lodz","address":null,"covered":false,"access":null,"website":null,"phone":null,"source":"OpenStreetMap/node/9280067697","sourceUpdatedAt":null,"verifiedAt":null}},{"type":"Feature","geometry":{"type":"Point","coordinates":[19.521331,51.7619815]},"properties":{"id":"bikerack:91fa59ec-5b7e-485e-8231-2bea8267bbcc","kind":"bikerack","longitude":19.521331,"latitude":51.7619815,"name":"Biciklitároló","city":"Lodz","address":null,"covered":false,"access":null,"website":null,"phone":null,"source":"OpenStreetMap/node/11220254035","sourceUpdatedAt":null,"verifiedAt":null}},{"type":"Feature","geometry":{"type":"Point","coordinates":[19.5367061,51.7567358]},"properties":{"id":"bikerack:9842fee4-2d6f-40da-a5fe-533760cfe7ba","kind":"bikerack","longitude":19.5367061,"latitude":51.7567358,"name":"Biciklitároló","city":"Lodz","address":null,"covered":true,"access":null,"website":null,"phone":null,"source":"OpenStreetMap/node/12237527301","sourceUpdatedAt":null,"verifiedAt":null}},{"type":"Feature","geometry":{"type":"Point","coordinates":[19.5173889,51.7646535]},"properties":{"id":"bikerack:9a58ed74-dde8-408c-af86-180178478599","kind":"bikerack","longitude":19.5173889,"latitude":51.7646535,"name":"Biciklitároló","city":"Lodz","address":null,"covered":false,"access":null,"website":null,"phone":null,"source":"OpenStreetMap/node/10836822178","sourceUpdatedAt":null,"verifiedAt":null}},{"type":"Feature","geometry":{"type":"Point","coordinates":[19.5342008,51.7568179]},"properties":{"id":"bikerack:a14667e9-ac73-4880-a896-ac37816ed59a","kind":"bikerack","longitude":19.5342008,"latitude":51.7568179,"name":"Biciklitároló","city":"Lodz","address":null,"covered":true,"access":null,"website":null,"phone":null,"source":"OpenStreetMap/node/10188476109","sourceUpdatedAt":null,"verifiedAt":null}},{"type":"Feature","geometry":{"type":"Point","coordinates":[19.5376794,51.7595352]},"properties":{"id":"bikerack:a40d9b80-270f-44c5-b91c-be2c2bd69aa6","kind":"bikerack","longitude":19.5376794,"latitude":51.7595352,"name":"Biciklitároló","city":"Lodz","address":null,"covered":true,"access":null,"website":null,"phone":null,"source":"OpenStreetMap/node/2692489285","sourceUpdatedAt":null,"verifiedAt":null}},{"type":"Feature","geometry":{"type":"Point","coordinates":[19.5201479,51.7555291]},"properties":{"id":"bikerack:a75c3ac2-37ab-48be-b4e0-dd22a4350248","kind":"bikerack","longitude":19.5201479,"latitude":51.7555291,"name":"Biciklitároló","city":"Lodz","address":null,"covered":false,"access":null,"website":null,"phone":null,"source":"OpenStreetMap/node/9280028173","sourceUpdatedAt":null,"verifiedAt":null}},{"type":"Feature","geometry":{"type":"Point","coordinates":[19.5286369,51.7626002]},"properties":{"id":"bikerack:a91aa112-0d74-447e-9686-227b298f5ce4","kind":"bikerack","longitude":19.5286369,"latitude":51.7626002,"name":"Biciklitároló","city":"Lodz","address":null,"covered":false,"access":null,"website":null,"phone":null,"source":"OpenStreetMap/node/5343494068","sourceUpdatedAt":null,"verifiedAt":null}},{"type":"Feature","geometry":{"type":"Point","coordinates":[19.5226053,51.7758969]},"properties":{"id":"bikerack:abb93dd0-d631-4d2e-bc0c-65bbd5b18324","kind":"bikerack","longitude":19.5226053,"latitude":51.7758969,"name":"Biciklitároló","city":"Lodz","address":null,"covered":true,"access":null,"website":null,"phone":null,"source":"OpenStreetMap/way/1021066867","sourceUpdatedAt":null,"verifiedAt":null}},{"type":"Feature","geometry":{"type":"Point","coordinates":[19.5369883,51.7560462]},"properties":{"id":"bikerack:ac8b0ed1-c819-4a6e-83ae-0ddab14148e2","kind":"bikerack","longitude":19.5369883,"latitude":51.7560462,"name":"Biciklitároló","city":"Lodz","address":null,"covered":false,"access":null,"website":null,"phone":null,"source":"OpenStreetMap/way/1165053895","sourceUpdatedAt":null,"verifiedAt":null}},{"type":"Feature","geometry":{"type":"Point","coordinates":[19.5345671,51.7573078]},"properties":{"id":"bikerack:b07f104a-8cf9-45d5-856f-722e51895a1d","kind":"bikerack","longitude":19.5345671,"latitude":51.7573078,"name":"Biciklitároló","city":"Lodz","address":null,"covered":false,"access":null,"website":null,"phone":null,"source":"OpenStreetMap/node/2692489284","sourceUpdatedAt":null,"verifiedAt":null}},{"type":"Feature","geometry":{"type":"Point","coordinates":[19.5267757,51.76018]},"properties":{"id":"bikerack:b2a0cc46-141e-4b5a-ba25-1da46b500aba","kind":"bikerack","longitude":19.5267757,"latitude":51.76018,"name":"Biciklitároló","city":"Lodz","address":null,"covered":false,"access":null,"website":null,"phone":null,"source":"OpenStreetMap/node/9280067688","sourceUpdatedAt":null,"verifiedAt":null}},{"type":"Feature","geometry":{"type":"Point","coordinates":[19.5158378,51.7633543]},"properties":{"id":"bikerack:b760312a-70a1-4230-95da-fbec2d247bae","kind":"bikerack","longitude":19.5158378,"latitude":51.7633543,"name":"Biciklitároló","city":"Lodz","address":null,"covered":false,"access":null,"website":null,"phone":null,"source":"OpenStreetMap/node/11083037811","sourceUpdatedAt":null,"verifiedAt":null}},{"type":"Feature","geometry":{"type":"Point","coordinates":[19.5137849,51.7625144]},"properties":{"id":"bikerack:b7b3a8da-2f64-475a-bf86-0324c54a2bfe","kind":"bikerack","longitude":19.5137849,"latitude":51.7625144,"name":"Biciklitároló","city":"Lodz","address":null,"covered":false,"access":null,"website":null,"phone":null,"source":"OpenStreetMap/node/11080873900","sourceUpdatedAt":null,"verifiedAt":null}},{"type":"Feature","geometry":{"type":"Point","coordinates":[19.5373107,51.7568814]},"properties":{"id":"bikerack:bb0ffd1a-8c6d-4f58-86ef-e1eccac41a69","kind":"bikerack","longitude":19.5373107,"latitude":51.7568814,"name":"Biciklitároló","city":"Lodz","address":null,"covered":false,"access":null,"website":null,"phone":null,"source":"OpenStreetMap/way/1012712286","sourceUpdatedAt":null,"verifiedAt":null}},{"type":"Feature","geometry":{"type":"Point","coordinates":[19.5365062,51.7563159]},"properties":{"id":"bikerack:bff7617b-8096-4c8a-8592-60561628f49c","kind":"bikerack","longitude":19.5365062,"latitude":51.7563159,"name":"Biciklitároló","city":"Lodz","address":null,"covered":true,"access":null,"website":null,"phone":null,"source":"OpenStreetMap/node/12236094125","sourceUpdatedAt":null,"verifiedAt":null}},{"type":"Feature","geometry":{"type":"Point","coordinates":[19.5286822,51.757895]},"properties":{"id":"bikerack:c1280e77-424a-431f-bb15-4c4aeb10524d","kind":"bikerack","longitude":19.5286822,"latitude":51.757895,"name":"Biciklitároló","city":"Lodz","address":null,"covered":false,"access":null,"website":null,"phone":null,"source":"OpenStreetMap/node/10660951661","sourceUpdatedAt":null,"verifiedAt":null}},{"type":"Feature","geometry":{"type":"Point","coordinates":[19.5438576,51.757485]},"properties":{"id":"bikerack:cad03113-7ef6-4e96-bbaf-0f23df0b86d6","kind":"bikerack","longitude":19.5438576,"latitude":51.757485,"name":"Biciklitároló","city":"Lodz","address":null,"covered":false,"access":null,"website":null,"phone":null,"source":"OpenStreetMap/node/10126226868","sourceUpdatedAt":null,"verifiedAt":null}},{"type":"Feature","geometry":{"type":"Point","coordinates":[19.5458178,51.7563073]},"properties":{"id":"bikerack:cf6eba94-7534-4eda-8d61-6f09dd6f3f34","kind":"bikerack","longitude":19.5458178,"latitude":51.7563073,"name":"Biciklitároló","city":"Lodz","address":null,"covered":false,"access":null,"website":null,"phone":null,"source":"OpenStreetMap/node/9516257649","sourceUpdatedAt":null,"verifiedAt":null}},{"type":"Feature","geometry":{"type":"Point","coordinates":[19.5301812,51.7788218]},"properties":{"id":"bikerack:d7750d97-0660-4051-aa5e-1d4eda17bda7","kind":"bikerack","longitude":19.5301812,"latitude":51.7788218,"name":"Biciklitároló","city":"Lodz","address":null,"covered":false,"access":null,"website":null,"phone":null,"source":"OpenStreetMap/node/11417631955","sourceUpdatedAt":null,"verifiedAt":null}},{"type":"Feature","geometry":{"type":"Point","coordinates":[19.5208795,51.7613821]},"properties":{"id":"bikerack:d7d08a14-1760-41a1-9482-87ffe841c2a1","kind":"bikerack","longitude":19.5208795,"latitude":51.7613821,"name":"Biciklitároló","city":"Lodz","address":null,"covered":false,"access":null,"website":null,"phone":null,"source":"OpenStreetMap/node/13299094765","sourceUpdatedAt":null,"verifiedAt":null}},{"type":"Feature","geometry":{"type":"Point","coordinates":[19.5418548,51.7556341]},"properties":{"id":"bikerack:dadfd805-84c6-4e81-923e-2955ac87e561","kind":"bikerack","longitude":19.5418548,"latitude":51.7556341,"name":"Biciklitároló","city":"Lodz","address":null,"covered":false,"access":null,"website":null,"phone":null,"source":"OpenStreetMap/way/1308779788","sourceUpdatedAt":null,"verifiedAt":null}},{"type":"Feature","geometry":{"type":"Point","coordinates":[19.5490361,51.7561881]},"properties":{"id":"bikerack:dc2928c2-0651-4402-85a1-e3220652221f","kind":"bikerack","longitude":19.5490361,"latitude":51.7561881,"name":"Biciklitároló","city":"Lodz","address":null,"covered":false,"access":null,"website":null,"phone":null,"source":"OpenStreetMap/way/1106600774","sourceUpdatedAt":null,"verifiedAt":null}},{"type":"Feature","geometry":{"type":"Point","coordinates":[19.5391069,51.7583185]},"properties":{"id":"bikerack:dc37c891-cd46-4155-93fe-33f25874b6a9","kind":"bikerack","longitude":19.5391069,"latitude":51.7583185,"name":"Biciklitároló","city":"Lodz","address":null,"covered":false,"access":null,"website":null,"phone":null,"source":"OpenStreetMap/node/10126226856","sourceUpdatedAt":null,"verifiedAt":null}},{"type":"Feature","geometry":{"type":"Point","coordinates":[19.5130395,51.761555]},"properties":{"id":"bikerack:dca81945-ae39-4008-ae71-c64270cc8751","kind":"bikerack","longitude":19.5130395,"latitude":51.761555,"name":"Biciklitároló","city":"Lodz","address":null,"covered":false,"access":null,"website":null,"phone":null,"source":"OpenStreetMap/way/1031603677","sourceUpdatedAt":null,"verifiedAt":null}},{"type":"Feature","geometry":{"type":"Point","coordinates":[19.5353673,51.7587895]},"properties":{"id":"bikerack:df987f6d-4c79-4d6f-a8cf-d525adc6afb3","kind":"bikerack","longitude":19.5353673,"latitude":51.7587895,"name":"Biciklitároló","city":"Lodz","address":null,"covered":false,"access":null,"website":null,"phone":null,"source":"OpenStreetMap/node/10188483229","sourceUpdatedAt":null,"verifiedAt":null}},{"type":"Feature","geometry":{"type":"Point","coordinates":[19.5513395,51.7581273]},"properties":{"id":"bikerack:ef988fbd-ac95-4a2f-8226-8a2c604e1c5d","kind":"bikerack","longitude":19.5513395,"latitude":51.7581273,"name":"Biciklitároló","city":"Lodz","address":null,"covered":true,"access":null,"website":null,"phone":null,"source":"OpenStreetMap/way/438543933","sourceUpdatedAt":null,"verifiedAt":null}},{"type":"Feature","geometry":{"type":"Point","coordinates":[19.5447926,51.7639269]},"properties":{"id":"bikerack:f0c0064f-6d87-40c6-bb10-ceffe8fa2b43","kind":"bikerack","longitude":19.5447926,"latitude":51.7639269,"name":"Biciklitároló","city":"Lodz","address":null,"covered":true,"access":null,"website":null,"phone":null,"source":"OpenStreetMap/way/1256121526","sourceUpdatedAt":null,"verifiedAt":null}},{"type":"Feature","geometry":{"type":"Point","coordinates":[19.5313288,51.7564324]},"properties":{"id":"bikerack:f20ea350-57aa-4742-aa02-5357c222cfe7","kind":"bikerack","longitude":19.5313288,"latitude":51.7564324,"name":"Biciklitároló","city":"Lodz","address":null,"covered":false,"access":null,"website":null,"phone":null,"source":"OpenStreetMap/node/9280067696","sourceUpdatedAt":null,"verifiedAt":null}},{"type":"Feature","geometry":{"type":"Point","coordinates":[19.5196462,51.7620113]},"properties":{"id":"bikerack:f5d0c7f0-bbd7-4004-8d7b-8152e45d5fbe","kind":"bikerack","longitude":19.5196462,"latitude":51.7620113,"name":"Biciklitároló","city":"Lodz","address":null,"covered":false,"access":null,"website":null,"phone":null,"source":"OpenStreetMap/node/13097819398","sourceUpdatedAt":null,"verifiedAt":null}},{"type":"Feature","geometry":{"type":"Point","coordinates":[19.5343214,51.7570707]},"properties":{"id":"bikerack:fce1480b-e4bd-4977-bcc8-b998bf69052e","kind":"bikerack","longitude":19.5343214,"latitude":51.7570707,"name":"Biciklitároló","city":"Lodz","address":null,"covered":false,"access":null,"website":null,"phone":null,"source":"OpenStreetMap/node/10188476110","sourceUpdatedAt":null,"verifiedAt":null}},{"type":"Feature","geometry":{"type":"Point","coordinates":[19.5128644,51.7746815]},"properties":{"id":"bikerack:ff26875a-fa8b-4d36-8948-b26fa60755fe","kind":"bikerack","longitude":19.5128644,"latitude":51.7746815,"name":"Biciklitároló","city":"Lodz","address":null,"covered":false,"access":null,"website":null,"phone":null,"source":"OpenStreetMap/way/1106528956","sourceUpdatedAt":null,"verifiedAt":null}},{"type":"Feature","geometry":{"type":"Point","coordinates":[19.5158816,51.7633455]},"properties":{"id":"service:54401d26-4940-4bdf-9f80-45c00ec1ddaa","kind":"service","longitude":19.5158816,"latitude":51.7633455,"name":"MCSport","city":"Łódź","address":null,"covered":null,"access":null,"website":null,"phone":null,"source":"OpenStreetMap/node/11083037810","sourceUpdatedAt":null,"verifiedAt":null}},{"type":"Feature","geometry":{"type":"Point","coordinates":[19.5155277,51.7741172]},"properties":{"id":"water:22a196b5-34b8-44a5-9e4d-08a12e58bcb1","kind":"water","longitude":19.5155277,"latitude":51.7741172,"name":"Ivókút","city":"Lodz","address":null,"covered":null,"access":null,"website":null,"phone":null,"source":"OpenStreetMap/node/9952800957","sourceUpdatedAt":null,"verifiedAt":null}},{"type":"Feature","geometry":{"type":"Point","coordinates":[19.5279717,51.7783866]},"properties":{"id":"water:266fa87c-563b-4983-b81c-8ae6a7304b15","kind":"water","longitude":19.5279717,"latitude":51.7783866,"name":"Łódź","city":"Lodz","address":null,"covered":null,"access":null,"website":null,"phone":null,"source":"OpenStreetMap/node/5760231324","sourceUpdatedAt":null,"verifiedAt":null}},{"type":"Feature","geometry":{"type":"Point","coordinates":[19.5136359,51.7737047]},"properties":{"id":"water:2d4c8f4b-00ce-4346-9006-6e344d1da8fa","kind":"water","longitude":19.5136359,"latitude":51.7737047,"name":"Ivókút","city":"Lodz","address":null,"covered":null,"access":null,"website":null,"phone":null,"source":"OpenStreetMap/node/9952800955","sourceUpdatedAt":null,"verifiedAt":null}},{"type":"Feature","geometry":{"type":"Point","coordinates":[19.5140302,51.7727456]},"properties":{"id":"water:930a3662-5b5c-47e3-9b36-c52ef40ad099","kind":"water","longitude":19.5140302,"latitude":51.7727456,"name":"Ivókút","city":"Lodz","address":null,"covered":null,"access":null,"website":null,"phone":null,"source":"OpenStreetMap/node/9952800956","sourceUpdatedAt":null,"verifiedAt":null}}]}