{"type":"FeatureCollection","features":[{"type":"Feature","geometry":{"type":"Point","coordinates":[19.5335105,50.3334123]},"properties":{"id":"bikerack:30683072-41eb-4c51-81e4-c76088bba744","kind":"bikerack","longitude":19.5335105,"latitude":50.3334123,"name":"Biciklitároló","city":"Klucze","address":null,"covered":false,"access":null,"website":null,"phone":null,"source":"OpenStreetMap/node/9885513670","sourceUpdatedAt":null,"verifiedAt":null}},{"type":"Feature","geometry":{"type":"Point","coordinates":[19.5428248,50.3427725]},"properties":{"id":"bikerack:921d3eab-d13f-4e9a-9cf0-92579fbfa308","kind":"bikerack","longitude":19.5428248,"latitude":50.3427725,"name":"Biciklitároló","city":"Klucze","address":null,"covered":false,"access":null,"website":null,"phone":null,"source":"OpenStreetMap/node/9885568089","sourceUpdatedAt":null,"verifiedAt":null}},{"type":"Feature","geometry":{"type":"Point","coordinates":[19.5327108,50.335598]},"properties":{"id":"water:876f2380-37a0-4507-a8fe-4180a185e733","kind":"water","longitude":19.5327108,"latitude":50.335598,"name":"Ivókút","city":"Klucze","address":null,"covered":null,"access":null,"website":null,"phone":null,"source":"OpenStreetMap/node/9885445502","sourceUpdatedAt":null,"verifiedAt":null}}]}