{"type":"FeatureCollection","features":[{"type":"Feature","geometry":{"type":"Point","coordinates":[19.5327059,50.1435179]},"properties":{"id":"bikerack:0dcdbe93-587b-4c65-aa70-e781cfc3d84b","kind":"bikerack","longitude":19.5327059,"latitude":50.1435179,"name":"Biciklitároló","city":"Psary","address":null,"covered":false,"access":null,"website":null,"phone":null,"source":"OpenStreetMap/node/6281316227","sourceUpdatedAt":null,"verifiedAt":null}},{"type":"Feature","geometry":{"type":"Point","coordinates":[19.520474,50.1405751]},"properties":{"id":"bikerack:b2076ca6-ef3d-4172-8fac-ed9c19c308f0","kind":"bikerack","longitude":19.520474,"latitude":50.1405751,"name":"Biciklitároló","city":"Psary","address":null,"covered":false,"access":null,"website":null,"phone":null,"source":"OpenStreetMap/node/12945064166","sourceUpdatedAt":null,"verifiedAt":null}}]}