{"type":"FeatureCollection","features":[{"type":"Feature","geometry":{"type":"Point","coordinates":[19.5312399,47.370454]},"properties":{"id":"water:12228850-4f24-49fb-b793-a3966a5f3a32","kind":"water","longitude":19.5312399,"latitude":47.370454,"name":"Ivókút","city":null,"address":null,"covered":null,"access":null,"website":null,"phone":null,"source":"OpenStreetMap","sourceUpdatedAt":null,"verifiedAt":null}},{"type":"Feature","geometry":{"type":"Point","coordinates":[19.5248405,47.3713832]},"properties":{"id":"water:1edf96df-5259-4175-ac8c-d58ad14f025d","kind":"water","longitude":19.5248405,"latitude":47.3713832,"name":"Ivókút","city":null,"address":null,"covered":null,"access":null,"website":null,"phone":null,"source":"OpenStreetMap","sourceUpdatedAt":null,"verifiedAt":null}}]}