{"type":"FeatureCollection","features":[{"type":"Feature","geometry":{"type":"Point","coordinates":[19.5269162,45.2701228]},"properties":{"id":"bikerack:9850808c-6e31-43d1-9046-c54c0c57a9b8","kind":"bikerack","longitude":19.5269162,"latitude":45.2701228,"name":"Biciklitároló","city":"Celarevo","address":null,"covered":false,"access":null,"website":null,"phone":null,"source":"OpenStreetMap/way/1102912377","sourceUpdatedAt":null,"verifiedAt":null}},{"type":"Feature","geometry":{"type":"Point","coordinates":[19.5208201,45.2707254]},"properties":{"id":"bikerack:e623ac12-6a6e-41a6-bb64-73e84030e2c9","kind":"bikerack","longitude":19.5208201,"latitude":45.2707254,"name":"Biciklitároló","city":"Celarevo","address":null,"covered":false,"access":null,"website":null,"phone":null,"source":"OpenStreetMap/way/1102913015","sourceUpdatedAt":null,"verifiedAt":null}}]}