{"type":"FeatureCollection","features":[{"type":"Feature","geometry":{"type":"Point","coordinates":[15.6482248,50.2566901]},"properties":{"id":"bikerack:32cb4b0d-20f9-4a19-ae40-b7caa22f221f","kind":"bikerack","longitude":15.6482248,"latitude":50.2566901,"name":"Bicycle Parking","city":"Nechanice","address":null,"covered":false,"access":null,"website":null,"phone":null,"source":"OpenStreetMap/node/12615812202","sourceUpdatedAt":null,"verifiedAt":null}},{"type":"Feature","geometry":{"type":"Point","coordinates":[15.6448616,50.2576709]},"properties":{"id":"bikerack:630665c9-6e2c-4066-8295-50108d3dea1b","kind":"bikerack","longitude":15.6448616,"latitude":50.2576709,"name":"Bicycle Parking","city":"Nechanice","address":null,"covered":false,"access":null,"website":null,"phone":null,"source":"OpenStreetMap/node/12615812201","sourceUpdatedAt":null,"verifiedAt":null}},{"type":"Feature","geometry":{"type":"Point","coordinates":[15.6448064,50.2576381]},"properties":{"id":"bikerack:b7f99e33-e64c-43dd-80b9-9dff6c1a90ed","kind":"bikerack","longitude":15.6448064,"latitude":50.2576381,"name":"Bicycle Parking","city":"Nechanice","address":null,"covered":false,"access":null,"website":null,"phone":null,"source":"OpenStreetMap/node/12615808600","sourceUpdatedAt":null,"verifiedAt":null}},{"type":"Feature","geometry":{"type":"Point","coordinates":[15.6679079,50.2542889]},"properties":{"id":"bikerack:dda93c07-5671-47e5-a2fc-a008e68d0244","kind":"bikerack","longitude":15.6679079,"latitude":50.2542889,"name":"Bicycle Parking","city":"Nechanice","address":null,"covered":false,"access":null,"website":null,"phone":null,"source":"OpenStreetMap/node/12615536076","sourceUpdatedAt":null,"verifiedAt":null}}]}