{"type":"FeatureCollection","features":[{"type":"Feature","geometry":{"type":"Point","coordinates":[15.6651125,47.5966586]},"properties":{"id":"bikerack:09dfca8f-120f-41e9-8020-e9e7e7379536","kind":"bikerack","longitude":15.6651125,"latitude":47.5966586,"name":"Biciklitároló","city":"Muerzzuschlag","address":null,"covered":false,"access":null,"website":null,"phone":null,"source":"OpenStreetMap/node/10697302391","sourceUpdatedAt":null,"verifiedAt":null}},{"type":"Feature","geometry":{"type":"Point","coordinates":[15.6656891,47.5979693]},"properties":{"id":"bikerack:59cbf207-ab5f-4e65-9852-8e79d17f05bd","kind":"bikerack","longitude":15.6656891,"latitude":47.5979693,"name":"Biciklitároló","city":"Muerzzuschlag","address":null,"covered":false,"access":null,"website":null,"phone":null,"source":"OpenStreetMap/node/9919152368","sourceUpdatedAt":null,"verifiedAt":null}}]}