{"type":"FeatureCollection","features":[{"type":"Feature","geometry":{"type":"Point","coordinates":[15.6471069,47.0830567]},"properties":{"id":"water:127784a1-32c3-4d11-886b-2760e785d91f","kind":"water","longitude":15.6471069,"latitude":47.0830567,"name":"Ivókút","city":"Ungerdorf","address":null,"covered":null,"access":null,"website":null,"phone":null,"source":"OpenStreetMap/node/6759742882","sourceUpdatedAt":null,"verifiedAt":null}},{"type":"Feature","geometry":{"type":"Point","coordinates":[15.6719339,47.0792769]},"properties":{"id":"water:67e3000c-92c4-4104-b0f8-c7a684304bf6","kind":"water","longitude":15.6719339,"latitude":47.0792769,"name":"Ivókút","city":"Ungerdorf","address":null,"covered":null,"access":null,"website":null,"phone":null,"source":"OpenStreetMap/node/11866816855","sourceUpdatedAt":null,"verifiedAt":null}},{"type":"Feature","geometry":{"type":"Point","coordinates":[15.6535918,47.0998612]},"properties":{"id":"water:d668714c-e431-4487-b96d-50d3ed1e49bf","kind":"water","longitude":15.6535918,"latitude":47.0998612,"name":"Ivókút","city":"Ungerdorf","address":null,"covered":null,"access":null,"website":null,"phone":null,"source":"OpenStreetMap/node/7192919759","sourceUpdatedAt":null,"verifiedAt":null}}]}