{"type":"FeatureCollection","features":[{"type":"Feature","geometry":{"type":"Point","coordinates":[15.6665307,46.9299731]},"properties":{"id":"bikerack:5e60392c-1ad5-4ab6-9461-0652d3858500","kind":"bikerack","longitude":15.6665307,"latitude":46.9299731,"name":"Biciklitároló","city":"Kirchbach in Steiermark","address":null,"covered":false,"access":null,"website":null,"phone":null,"source":"OpenStreetMap/node/11003265032","sourceUpdatedAt":null,"verifiedAt":null}},{"type":"Feature","geometry":{"type":"Point","coordinates":[15.666524,46.9297946]},"properties":{"id":"bikerack:600468d3-c3d0-4a5b-a21f-9168d13a9d5d","kind":"bikerack","longitude":15.666524,"latitude":46.9297946,"name":"Biciklitároló","city":"Kirchbach in Steiermark","address":null,"covered":false,"access":null,"website":null,"phone":null,"source":"OpenStreetMap/node/11003265031","sourceUpdatedAt":null,"verifiedAt":null}},{"type":"Feature","geometry":{"type":"Point","coordinates":[15.6513266,46.9465663]},"properties":{"id":"service:7d13a8d3-46b3-414a-aa9e-24cb39376bfb","kind":"service","longitude":15.6513266,"latitude":46.9465663,"name":"Bikecenter Schager e.U.","city":"Zerlach","address":null,"covered":null,"access":null,"website":null,"phone":null,"source":"OpenStreetMap/node/5532567944","sourceUpdatedAt":null,"verifiedAt":null}},{"type":"Feature","geometry":{"type":"Point","coordinates":[15.6616217,46.932312]},"properties":{"id":"service:96ee2d36-131e-4e15-ad75-76052330f6e6","kind":"service","longitude":15.6616217,"latitude":46.932312,"name":"Peter Grasmugg","city":"Kirchbach in Steiermark","address":null,"covered":null,"access":null,"website":null,"phone":null,"source":"OpenStreetMap/node/1884382002","sourceUpdatedAt":null,"verifiedAt":null}},{"type":"Feature","geometry":{"type":"Point","coordinates":[15.6554948,46.9250888]},"properties":{"id":"water:0de15bb4-8eee-4312-8f66-56a95c5808ee","kind":"water","longitude":15.6554948,"latitude":46.9250888,"name":"Ivókút","city":"Kirchbach in Steiermark","address":null,"covered":null,"access":null,"website":null,"phone":null,"source":"OpenStreetMap/node/11003378247","sourceUpdatedAt":null,"verifiedAt":null}}]}