{"type":"FeatureCollection","features":[{"type":"Feature","geometry":{"type":"Point","coordinates":[15.4840252,47.52697]},"properties":{"id":"bikerack:1ce01594-1852-44df-9c01-223736abead8","kind":"bikerack","longitude":15.4840252,"latitude":47.52697,"name":"Biciklitároló","city":"Mitterdorf im Muerztal","address":null,"covered":false,"access":null,"website":null,"phone":null,"source":"OpenStreetMap/node/10719649804","sourceUpdatedAt":null,"verifiedAt":null}},{"type":"Feature","geometry":{"type":"Point","coordinates":[15.5117127,47.5356054]},"properties":{"id":"service:c80635e9-9f11-4833-8b79-4384c82a2d51","kind":"service","longitude":15.5117127,"latitude":47.5356054,"name":"Fahrradtechnik Thonhofer","city":"Sankt Barbara im Mürztal","address":null,"covered":null,"access":null,"website":null,"phone":null,"source":"OpenStreetMap/node/9816753038","sourceUpdatedAt":null,"verifiedAt":null}},{"type":"Feature","geometry":{"type":"Point","coordinates":[15.5120667,47.5352281]},"properties":{"id":"water:881bce37-0a71-475b-8d8a-4af5f5a17a20","kind":"water","longitude":15.5120667,"latitude":47.5352281,"name":"Ivókút","city":"Mitterdorf im Muerztal","address":null,"covered":null,"access":null,"website":null,"phone":null,"source":"OpenStreetMap/node/11881545547","sourceUpdatedAt":null,"verifiedAt":null}},{"type":"Feature","geometry":{"type":"Point","coordinates":[15.4814167,47.5300738]},"properties":{"id":"water:ec1ff5a8-235a-4e03-a992-46e7fa4feaca","kind":"water","longitude":15.4814167,"latitude":47.5300738,"name":"Ivókút","city":"Mitterdorf im Muerztal","address":null,"covered":null,"access":null,"website":null,"phone":null,"source":"OpenStreetMap/node/11065012695","sourceUpdatedAt":null,"verifiedAt":null}}]}