{"type":"FeatureCollection","features":[{"type":"Feature","geometry":{"type":"Point","coordinates":[18.0683629,46.6980556]},"properties":{"id":"bikerack:dae7b7bc-6856-411f-ae77-7b086d1fc710","kind":"bikerack","longitude":18.0683629,"latitude":46.6980556,"name":"Biciklitároló","city":"Tab","address":null,"covered":false,"access":null,"website":null,"phone":null,"source":"OpenStreetMap/node/11160416533","sourceUpdatedAt":null,"verifiedAt":null}},{"type":"Feature","geometry":{"type":"Point","coordinates":[18.09688,46.69785]},"properties":{"id":"water:1b04bf45-756d-49f5-8014-a85d40b3e703","kind":"water","longitude":18.09688,"latitude":46.69785,"name":"Ivókút","city":null,"address":null,"covered":null,"access":null,"website":null,"phone":null,"source":"OpenStreetMap","sourceUpdatedAt":null,"verifiedAt":null}},{"type":"Feature","geometry":{"type":"Point","coordinates":[18.09649,46.69865]},"properties":{"id":"water:a42de614-c02a-48f9-9a59-26ae0fe23636","kind":"water","longitude":18.09649,"latitude":46.69865,"name":"Ivókút","city":null,"address":null,"covered":null,"access":null,"website":null,"phone":null,"source":"OpenStreetMap","sourceUpdatedAt":null,"verifiedAt":null}}]}