{"type":"FeatureCollection","features":[{"type":"Feature","geometry":{"type":"Point","coordinates":[18.1396145,52.9040582]},"properties":{"id":"bikerack:51f066f2-036e-41e6-9904-cc09ef25b64d","kind":"bikerack","longitude":18.1396145,"latitude":52.9040582,"name":"Biciklitároló","city":"Zlotniki Kujawskie","address":null,"covered":false,"access":null,"website":null,"phone":null,"source":"OpenStreetMap/node/10233564071","sourceUpdatedAt":null,"verifiedAt":null}},{"type":"Feature","geometry":{"type":"Point","coordinates":[18.1450134,52.9042362]},"properties":{"id":"service:bb9e955d-9c93-4438-b9a3-b7072a603d70","kind":"service","longitude":18.1450134,"latitude":52.9042362,"name":"Dobra szprycha","city":"Zlotniki Kujawskie","address":null,"covered":null,"access":null,"website":null,"phone":null,"source":"OpenStreetMap/way/1274087531","sourceUpdatedAt":null,"verifiedAt":null}}]}