{"type":"FeatureCollection","features":[{"type":"Feature","geometry":{"type":"Point","coordinates":[18.14437,46.300868]},"properties":{"id":"water:02c727f1-66c9-4fca-b9aa-d923ed07ec0b","kind":"water","longitude":18.14437,"latitude":46.300868,"name":"Ivókút","city":null,"address":null,"covered":null,"access":null,"website":null,"phone":null,"source":"OpenStreetMap","sourceUpdatedAt":null,"verifiedAt":null}},{"type":"Feature","geometry":{"type":"Point","coordinates":[18.132096,46.309647]},"properties":{"id":"water:2fb145e6-bc12-45f4-a116-81b33fddf80d","kind":"water","longitude":18.132096,"latitude":46.309647,"name":"Ivókút","city":null,"address":null,"covered":null,"access":null,"website":null,"phone":null,"source":"OpenStreetMap","sourceUpdatedAt":null,"verifiedAt":null}},{"type":"Feature","geometry":{"type":"Point","coordinates":[18.1352768,46.3064208]},"properties":{"id":"water:38cb71d3-a0ff-46e1-a1da-17a0403bbfd2","kind":"water","longitude":18.1352768,"latitude":46.3064208,"name":"Ivókút","city":null,"address":null,"covered":null,"access":null,"website":null,"phone":null,"source":"OpenStreetMap","sourceUpdatedAt":null,"verifiedAt":null}},{"type":"Feature","geometry":{"type":"Point","coordinates":[18.1181362,46.2931196]},"properties":{"id":"water:5110aefa-d798-4c7c-bef3-682c7339210c","kind":"water","longitude":18.1181362,"latitude":46.2931196,"name":"Ivókút","city":null,"address":null,"covered":null,"access":null,"website":null,"phone":null,"source":"OpenStreetMap","sourceUpdatedAt":null,"verifiedAt":null}},{"type":"Feature","geometry":{"type":"Point","coordinates":[18.134282,46.305079]},"properties":{"id":"water:b81bc055-c233-4810-8e44-a903e2c4eac9","kind":"water","longitude":18.134282,"latitude":46.305079,"name":"Ivókút","city":null,"address":null,"covered":null,"access":null,"website":null,"phone":null,"source":"OpenStreetMap","sourceUpdatedAt":null,"verifiedAt":null}},{"type":"Feature","geometry":{"type":"Point","coordinates":[18.134477,46.303297]},"properties":{"id":"water:ba5cf111-4b6e-4baa-9f10-17a0dcc19d4e","kind":"water","longitude":18.134477,"latitude":46.303297,"name":"Ivókút","city":null,"address":null,"covered":null,"access":null,"website":null,"phone":null,"source":"OpenStreetMap","sourceUpdatedAt":null,"verifiedAt":null}},{"type":"Feature","geometry":{"type":"Point","coordinates":[18.1355922,46.3074904]},"properties":{"id":"water:dd11e976-1807-436c-a294-e4a3576f518b","kind":"water","longitude":18.1355922,"latitude":46.3074904,"name":"Ivókút","city":null,"address":null,"covered":null,"access":null,"website":null,"phone":null,"source":"OpenStreetMap","sourceUpdatedAt":null,"verifiedAt":null}}]}