{"type":"FeatureCollection","features":[{"type":"Feature","geometry":{"type":"Point","coordinates":[20.5920179,49.5756714]},"properties":{"id":"bikerack:ef2669b4-7f20-40b5-995b-c9a269e774c8","kind":"bikerack","longitude":20.5920179,"latitude":49.5756714,"name":"Biciklitároló","city":"Podegrodzie","address":null,"covered":false,"access":null,"website":null,"phone":null,"source":"OpenStreetMap/node/1360756061","sourceUpdatedAt":null,"verifiedAt":null}},{"type":"Feature","geometry":{"type":"Point","coordinates":[20.5932072,49.5562393]},"properties":{"id":"repair:d1e0ea67-c7a2-461e-9de0-582f3817b300","kind":"repair","longitude":20.5932072,"latitude":49.5562393,"name":"Kerékpár szervizállomás","city":"Podegrodzie","address":null,"covered":false,"access":null,"website":null,"phone":null,"source":"OpenStreetMap/node/7646469678","sourceUpdatedAt":null,"verifiedAt":null}}]}