{"type":"FeatureCollection","features":[{"type":"Feature","geometry":{"type":"Point","coordinates":[20.6074236,48.4459401]},"properties":{"id":"water:0a050719-1c30-4bd9-afe0-4c40d446a841","kind":"water","longitude":20.6074236,"latitude":48.4459401,"name":"Ivókút","city":null,"address":null,"covered":null,"access":null,"website":null,"phone":null,"source":"OpenStreetMap","sourceUpdatedAt":null,"verifiedAt":null}},{"type":"Feature","geometry":{"type":"Point","coordinates":[20.6049281,48.4454366]},"properties":{"id":"water:0cfb1b84-71a9-4f47-89e0-d23abefd9ce2","kind":"water","longitude":20.6049281,"latitude":48.4454366,"name":"Ivókút","city":null,"address":null,"covered":null,"access":null,"website":null,"phone":null,"source":"OpenStreetMap","sourceUpdatedAt":null,"verifiedAt":null}},{"type":"Feature","geometry":{"type":"Point","coordinates":[20.5882051,48.4424759]},"properties":{"id":"water:0e42b825-dfc1-4621-a991-ebc2b780d470","kind":"water","longitude":20.5882051,"latitude":48.4424759,"name":"Ivókút","city":null,"address":null,"covered":null,"access":null,"website":null,"phone":null,"source":"OpenStreetMap","sourceUpdatedAt":null,"verifiedAt":null}},{"type":"Feature","geometry":{"type":"Point","coordinates":[20.605752,48.4453768]},"properties":{"id":"water:17d2fe55-ada5-4568-a653-2b8a330f30b4","kind":"water","longitude":20.605752,"latitude":48.4453768,"name":"Ivókút","city":null,"address":null,"covered":null,"access":null,"website":null,"phone":null,"source":"OpenStreetMap","sourceUpdatedAt":null,"verifiedAt":null}},{"type":"Feature","geometry":{"type":"Point","coordinates":[20.6041828,48.4468417]},"properties":{"id":"water:1c6bfd80-a084-4298-b959-e41459bb252b","kind":"water","longitude":20.6041828,"latitude":48.4468417,"name":"Ivókút","city":null,"address":null,"covered":null,"access":null,"website":null,"phone":null,"source":"OpenStreetMap","sourceUpdatedAt":null,"verifiedAt":null}},{"type":"Feature","geometry":{"type":"Point","coordinates":[20.6059536,48.4469081]},"properties":{"id":"water:2e6ded7f-612d-4694-abea-5c7779b25568","kind":"water","longitude":20.6059536,"latitude":48.4469081,"name":"Ivókút","city":null,"address":null,"covered":null,"access":null,"website":null,"phone":null,"source":"OpenStreetMap","sourceUpdatedAt":null,"verifiedAt":null}},{"type":"Feature","geometry":{"type":"Point","coordinates":[20.5868277,48.4433024]},"properties":{"id":"water:788cc807-2b26-44ea-96e8-331eb44b6c50","kind":"water","longitude":20.5868277,"latitude":48.4433024,"name":"Ivókút","city":null,"address":null,"covered":null,"access":null,"website":null,"phone":null,"source":"OpenStreetMap","sourceUpdatedAt":null,"verifiedAt":null}},{"type":"Feature","geometry":{"type":"Point","coordinates":[20.6042392,48.4460091]},"properties":{"id":"water:86752936-4977-4084-9ac3-d12a55376f27","kind":"water","longitude":20.6042392,"latitude":48.4460091,"name":"Ivókút","city":null,"address":null,"covered":null,"access":null,"website":null,"phone":null,"source":"OpenStreetMap","sourceUpdatedAt":null,"verifiedAt":null}},{"type":"Feature","geometry":{"type":"Point","coordinates":[20.585445,48.443746]},"properties":{"id":"water:9f90940e-e16a-4084-a76d-34bb7e50d2c0","kind":"water","longitude":20.585445,"latitude":48.443746,"name":"Ivókút","city":null,"address":null,"covered":null,"access":null,"website":null,"phone":null,"source":"OpenStreetMap","sourceUpdatedAt":null,"verifiedAt":null}},{"type":"Feature","geometry":{"type":"Point","coordinates":[20.5839276,48.4439677]},"properties":{"id":"water:a850c755-6847-431a-af7a-ac5ae7d301e7","kind":"water","longitude":20.5839276,"latitude":48.4439677,"name":"Ivókút","city":null,"address":null,"covered":null,"access":null,"website":null,"phone":null,"source":"OpenStreetMap","sourceUpdatedAt":null,"verifiedAt":null}},{"type":"Feature","geometry":{"type":"Point","coordinates":[20.6031006,48.4469502]},"properties":{"id":"water:cc0150b6-6f86-41fc-9de1-37d3af9d6f4a","kind":"water","longitude":20.6031006,"latitude":48.4469502,"name":"Ivókút","city":null,"address":null,"covered":null,"access":null,"website":null,"phone":null,"source":"OpenStreetMap","sourceUpdatedAt":null,"verifiedAt":null}},{"type":"Feature","geometry":{"type":"Point","coordinates":[20.5872768,48.4437347]},"properties":{"id":"water:dac067e1-26bb-4cea-8267-3d2744dc7e12","kind":"water","longitude":20.5872768,"latitude":48.4437347,"name":"Ivókút","city":null,"address":null,"covered":null,"access":null,"website":null,"phone":null,"source":"OpenStreetMap","sourceUpdatedAt":null,"verifiedAt":null}},{"type":"Feature","geometry":{"type":"Point","coordinates":[20.5823237,48.4446948]},"properties":{"id":"water:f02ad2a6-2c64-476e-be6b-241163a08330","kind":"water","longitude":20.5823237,"latitude":48.4446948,"name":"Ivókút","city":null,"address":null,"covered":null,"access":null,"website":null,"phone":null,"source":"OpenStreetMap","sourceUpdatedAt":null,"verifiedAt":null}},{"type":"Feature","geometry":{"type":"Point","coordinates":[20.6071396,48.4450087]},"properties":{"id":"water:f656013d-d77a-4fd8-9333-46db14f9f939","kind":"water","longitude":20.6071396,"latitude":48.4450087,"name":"Ivókút","city":null,"address":null,"covered":null,"access":null,"website":null,"phone":null,"source":"OpenStreetMap","sourceUpdatedAt":null,"verifiedAt":null}}]}