{"type":"FeatureCollection","features":[{"type":"Feature","geometry":{"type":"Point","coordinates":[20.6928523,47.9579402]},"properties":{"id":"bikerack:a068c60b-8465-4775-9448-03f12def2dc9","kind":"bikerack","longitude":20.6928523,"latitude":47.9579402,"name":"Biciklitároló","city":"Saly","address":null,"covered":false,"access":null,"website":null,"phone":null,"source":"OpenStreetMap/node/11878633258","sourceUpdatedAt":null,"verifiedAt":null}},{"type":"Feature","geometry":{"type":"Point","coordinates":[20.6937027,47.9571477]},"properties":{"id":"water:2447ef48-f900-4c14-ad3f-68c2d023a83e","kind":"water","longitude":20.6937027,"latitude":47.9571477,"name":"Ivókút","city":null,"address":null,"covered":null,"access":null,"website":null,"phone":null,"source":"OpenStreetMap","sourceUpdatedAt":null,"verifiedAt":null}},{"type":"Feature","geometry":{"type":"Point","coordinates":[20.6925874,47.9582614]},"properties":{"id":"water:7e6f33ec-5f60-4e2d-9655-e17677398f60","kind":"water","longitude":20.6925874,"latitude":47.9582614,"name":"Ivókút","city":null,"address":null,"covered":null,"access":null,"website":null,"phone":null,"source":"OpenStreetMap","sourceUpdatedAt":null,"verifiedAt":null}},{"type":"Feature","geometry":{"type":"Point","coordinates":[20.657634,47.95205]},"properties":{"id":"water:8584bd54-58e2-4905-8688-461734286cb3","kind":"water","longitude":20.657634,"latitude":47.95205,"name":"Ivókút","city":null,"address":null,"covered":null,"access":null,"website":null,"phone":null,"source":"OpenStreetMap","sourceUpdatedAt":null,"verifiedAt":null}},{"type":"Feature","geometry":{"type":"Point","coordinates":[20.6959412,47.9584141]},"properties":{"id":"water:d2639119-eee3-46ba-9061-bfbf69c3b189","kind":"water","longitude":20.6959412,"latitude":47.9584141,"name":"Ivókút","city":null,"address":null,"covered":null,"access":null,"website":null,"phone":null,"source":"OpenStreetMap","sourceUpdatedAt":null,"verifiedAt":null}},{"type":"Feature","geometry":{"type":"Point","coordinates":[20.6616676,47.9519129]},"properties":{"id":"water:dae00b51-8d1c-4149-bd50-7a4b028f9e25","kind":"water","longitude":20.6616676,"latitude":47.9519129,"name":"Ivókút","city":null,"address":null,"covered":null,"access":null,"website":null,"phone":null,"source":"OpenStreetMap","sourceUpdatedAt":null,"verifiedAt":null}}]}