{"type":"FeatureCollection","features":[{"type":"Feature","geometry":{"type":"Point","coordinates":[20.6812403,47.8924646]},"properties":{"id":"bikerack:e42e6fa5-d416-4e08-92b3-d497ed632e6b","kind":"bikerack","longitude":20.6812403,"latitude":47.8924646,"name":"Biciklitároló","city":"Saly","address":null,"covered":false,"access":null,"website":null,"phone":null,"source":"OpenStreetMap/node/10677700795","sourceUpdatedAt":null,"verifiedAt":null}},{"type":"Feature","geometry":{"type":"Point","coordinates":[20.6793279,47.8914657]},"properties":{"id":"water:2db1f44e-c5c5-498b-ac47-a5b605830a1e","kind":"water","longitude":20.6793279,"latitude":47.8914657,"name":"Ivókút","city":null,"address":null,"covered":null,"access":null,"website":null,"phone":null,"source":"OpenStreetMap","sourceUpdatedAt":null,"verifiedAt":null}},{"type":"Feature","geometry":{"type":"Point","coordinates":[20.6806335,47.8867986]},"properties":{"id":"water:66caf797-f458-49d5-afc5-d9121a1ca3bd","kind":"water","longitude":20.6806335,"latitude":47.8867986,"name":"Ivókút","city":null,"address":null,"covered":null,"access":null,"website":null,"phone":null,"source":"OpenStreetMap","sourceUpdatedAt":null,"verifiedAt":null}},{"type":"Feature","geometry":{"type":"Point","coordinates":[20.6836086,47.8880217]},"properties":{"id":"water:d93bf8cd-aa0c-44c0-bf3f-6e512f18807b","kind":"water","longitude":20.6836086,"latitude":47.8880217,"name":"Ivókút","city":null,"address":null,"covered":null,"access":null,"website":null,"phone":null,"source":"OpenStreetMap","sourceUpdatedAt":null,"verifiedAt":null}}]}