{"type":"FeatureCollection","features":[{"type":"Feature","geometry":{"type":"Point","coordinates":[13.4950864,52.6237881]},"properties":{"id":"bikerack:039c2f27-6f6c-4087-8151-4ac475bd6237","kind":"bikerack","longitude":13.4950864,"latitude":52.6237881,"name":"Fahrradabstellplatz","city":"Buch","address":null,"covered":false,"access":null,"website":null,"phone":null,"source":"OpenStreetMap/node/11962426273","sourceUpdatedAt":null,"verifiedAt":null}},{"type":"Feature","geometry":{"type":"Point","coordinates":[13.4945445,52.6356652]},"properties":{"id":"bikerack:0671344f-e5cc-47b0-9b17-5d49faf6f039","kind":"bikerack","longitude":13.4945445,"latitude":52.6356652,"name":"Fahrradabstellplatz","city":"Buch","address":null,"covered":false,"access":null,"website":null,"phone":null,"source":"OpenStreetMap/node/10748272755","sourceUpdatedAt":null,"verifiedAt":null}},{"type":"Feature","geometry":{"type":"Point","coordinates":[13.4954192,52.6404249]},"properties":{"id":"bikerack:0ad04045-5a71-4beb-bdb7-0199dc003c94","kind":"bikerack","longitude":13.4954192,"latitude":52.6404249,"name":"Fahrradabstellplatz","city":"Buch","address":null,"covered":false,"access":null,"website":null,"phone":null,"source":"OpenStreetMap/node/11048217602","sourceUpdatedAt":null,"verifiedAt":null}},{"type":"Feature","geometry":{"type":"Point","coordinates":[13.4953727,52.6236715]},"properties":{"id":"bikerack:0cc8d7d2-a115-4d02-bf1a-44eaaa936748","kind":"bikerack","longitude":13.4953727,"latitude":52.6236715,"name":"Fahrradabstellplatz","city":"Buch","address":null,"covered":false,"access":null,"website":null,"phone":null,"source":"OpenStreetMap/node/11962426272","sourceUpdatedAt":null,"verifiedAt":null}},{"type":"Feature","geometry":{"type":"Point","coordinates":[13.4943521,52.6395177]},"properties":{"id":"bikerack:0db12e39-addf-43e7-b84b-d2305bbbb8c5","kind":"bikerack","longitude":13.4943521,"latitude":52.6395177,"name":"Fahrradabstellplatz","city":"Buch","address":null,"covered":false,"access":null,"website":null,"phone":null,"source":"OpenStreetMap/node/11982449477","sourceUpdatedAt":null,"verifiedAt":null}},{"type":"Feature","geometry":{"type":"Point","coordinates":[13.495844,52.6234764]},"properties":{"id":"bikerack:0e85b861-04c5-44a7-897b-a814468e7ae9","kind":"bikerack","longitude":13.495844,"latitude":52.6234764,"name":"Fahrradabstellplatz","city":"Buch","address":null,"covered":false,"access":null,"website":null,"phone":null,"source":"OpenStreetMap/node/11962426270","sourceUpdatedAt":null,"verifiedAt":null}},{"type":"Feature","geometry":{"type":"Point","coordinates":[13.49775,52.6255844]},"properties":{"id":"bikerack:0ec4cc3c-ff49-432c-ab61-a48904bac262","kind":"bikerack","longitude":13.49775,"latitude":52.6255844,"name":"Fahrradabstellplatz","city":"Buch","address":null,"covered":false,"access":null,"website":null,"phone":null,"source":"OpenStreetMap/node/11962426292","sourceUpdatedAt":null,"verifiedAt":null}},{"type":"Feature","geometry":{"type":"Point","coordinates":[13.4947348,52.6399978]},"properties":{"id":"bikerack:0f7b49b6-5884-47f8-be4f-1b777658e269","kind":"bikerack","longitude":13.4947348,"latitude":52.6399978,"name":"Fahrradabstellplatz","city":"Buch","address":null,"covered":false,"access":null,"website":null,"phone":null,"source":"OpenStreetMap/node/11048217600","sourceUpdatedAt":null,"verifiedAt":null}},{"type":"Feature","geometry":{"type":"Point","coordinates":[13.4949733,52.6238375]},"properties":{"id":"bikerack:12b8f002-22a4-42f9-97f8-7a38a5626ea1","kind":"bikerack","longitude":13.4949733,"latitude":52.6238375,"name":"Fahrradabstellplatz","city":"Buch","address":null,"covered":false,"access":null,"website":null,"phone":null,"source":"OpenStreetMap/node/11962426275","sourceUpdatedAt":null,"verifiedAt":null}},{"type":"Feature","geometry":{"type":"Point","coordinates":[13.494939,52.6244184]},"properties":{"id":"bikerack:14dae7a8-bdc3-4316-8895-08eb7558a020","kind":"bikerack","longitude":13.494939,"latitude":52.6244184,"name":"Fahrradabstellplatz","city":"Buch","address":null,"covered":false,"access":null,"website":null,"phone":null,"source":"OpenStreetMap/node/11056818248","sourceUpdatedAt":null,"verifiedAt":null}},{"type":"Feature","geometry":{"type":"Point","coordinates":[13.4964951,52.6333786]},"properties":{"id":"bikerack:19fc053e-ae74-4ca0-a51e-2ccfb72a78a7","kind":"bikerack","longitude":13.4964951,"latitude":52.6333786,"name":"Fahrradabstellplatz","city":"Buch","address":null,"covered":false,"access":null,"website":null,"phone":null,"source":"OpenStreetMap/node/11982526175","sourceUpdatedAt":null,"verifiedAt":null}},{"type":"Feature","geometry":{"type":"Point","coordinates":[13.4952706,52.6237126]},"properties":{"id":"bikerack:1a3d415a-229e-43dc-a429-a56506a2e12f","kind":"bikerack","longitude":13.4952706,"latitude":52.6237126,"name":"Fahrradabstellplatz","city":"Buch","address":null,"covered":false,"access":null,"website":null,"phone":null,"source":"OpenStreetMap/node/11962426274","sourceUpdatedAt":null,"verifiedAt":null}},{"type":"Feature","geometry":{"type":"Point","coordinates":[13.4961929,52.6249448]},"properties":{"id":"bikerack:1a55934f-84f2-46ab-9a0c-e5c9b06c73de","kind":"bikerack","longitude":13.4961929,"latitude":52.6249448,"name":"Fahrradabstellplatz","city":"Buch","address":null,"covered":false,"access":null,"website":null,"phone":null,"source":"OpenStreetMap/node/11962426302","sourceUpdatedAt":null,"verifiedAt":null}},{"type":"Feature","geometry":{"type":"Point","coordinates":[13.495458,52.623639]},"properties":{"id":"bikerack:1ad2c58c-ae39-4eee-94b9-57f88b7cf4ed","kind":"bikerack","longitude":13.495458,"latitude":52.623639,"name":"Fahrradabstellplatz","city":"Buch","address":null,"covered":false,"access":null,"website":null,"phone":null,"source":"OpenStreetMap/node/11962426271","sourceUpdatedAt":null,"verifiedAt":null}},{"type":"Feature","geometry":{"type":"Point","coordinates":[13.4948679,52.6308948]},"properties":{"id":"bikerack:1c003748-5cbb-49ea-bc30-d639cdb921c1","kind":"bikerack","longitude":13.4948679,"latitude":52.6308948,"name":"Fahrradabstellplatz","city":"Buch","address":null,"covered":false,"access":null,"website":null,"phone":null,"source":"OpenStreetMap/node/11050856097","sourceUpdatedAt":null,"verifiedAt":null}},{"type":"Feature","geometry":{"type":"Point","coordinates":[13.4956364,52.6287888]},"properties":{"id":"bikerack:1d9b5f87-539f-4b45-8e5b-05ec8c9fef60","kind":"bikerack","longitude":13.4956364,"latitude":52.6287888,"name":"Fahrradabstellplatz","city":"Buch","address":null,"covered":false,"access":null,"website":null,"phone":null,"source":"OpenStreetMap/node/11962076997","sourceUpdatedAt":null,"verifiedAt":null}},{"type":"Feature","geometry":{"type":"Point","coordinates":[13.4961432,52.6326136]},"properties":{"id":"bikerack:1e6cb9b9-5b56-4ee1-967a-0b535bf9d6db","kind":"bikerack","longitude":13.4961432,"latitude":52.6326136,"name":"Fahrradabstellplatz","city":"Buch","address":null,"covered":false,"access":null,"website":null,"phone":null,"source":"OpenStreetMap/way/1185602149","sourceUpdatedAt":null,"verifiedAt":null}},{"type":"Feature","geometry":{"type":"Point","coordinates":[13.4947373,52.6320481]},"properties":{"id":"bikerack:1ec29a54-dbed-421f-ac67-c3ab0b1ebfe3","kind":"bikerack","longitude":13.4947373,"latitude":52.6320481,"name":"Fahrradabstellplatz","city":"Buch","address":null,"covered":false,"access":null,"website":null,"phone":null,"source":"OpenStreetMap/node/11962686606","sourceUpdatedAt":null,"verifiedAt":null}},{"type":"Feature","geometry":{"type":"Point","coordinates":[13.4999797,52.6250213]},"properties":{"id":"bikerack:2459da40-848c-4a47-b2fc-11b0ef38d297","kind":"bikerack","longitude":13.4999797,"latitude":52.6250213,"name":"Fahrradabstellplatz","city":"Buch","address":null,"covered":false,"access":null,"website":null,"phone":null,"source":"OpenStreetMap/way/1297219575","sourceUpdatedAt":null,"verifiedAt":null}},{"type":"Feature","geometry":{"type":"Point","coordinates":[13.4980794,52.6335616]},"properties":{"id":"bikerack:2484e8bf-4934-4dba-ba3a-1cadf1f2fcea","kind":"bikerack","longitude":13.4980794,"latitude":52.6335616,"name":"Fahrradabstellplatz","city":"Buch","address":null,"covered":false,"access":null,"website":null,"phone":null,"source":"OpenStreetMap/node/11962686572","sourceUpdatedAt":null,"verifiedAt":null}},{"type":"Feature","geometry":{"type":"Point","coordinates":[13.4919328,52.6380227]},"properties":{"id":"bikerack:256f1d30-872f-4549-aaf6-d9707165e7dc","kind":"bikerack","longitude":13.4919328,"latitude":52.6380227,"name":"Fahrradabstellplatz","city":"Buch","address":null,"covered":false,"access":null,"website":null,"phone":null,"source":"OpenStreetMap/node/11048217585","sourceUpdatedAt":null,"verifiedAt":null}},{"type":"Feature","geometry":{"type":"Point","coordinates":[13.518243,52.6287668]},"properties":{"id":"bikerack:26a5113e-65d0-45a8-b598-2faf14901dbb","kind":"bikerack","longitude":13.518243,"latitude":52.6287668,"name":"Fahrradabstellplatz","city":"Buch","address":null,"covered":false,"access":null,"website":null,"phone":null,"source":"OpenStreetMap/node/10747656901","sourceUpdatedAt":null,"verifiedAt":null}},{"type":"Feature","geometry":{"type":"Point","coordinates":[13.5043774,52.6238068]},"properties":{"id":"bikerack:286871fc-79d7-4e58-a1fb-d8aa32652a67","kind":"bikerack","longitude":13.5043774,"latitude":52.6238068,"name":"Fahrradabstellplatz","city":"Buch","address":null,"covered":true,"access":null,"website":null,"phone":null,"source":"OpenStreetMap/way/1191223200","sourceUpdatedAt":null,"verifiedAt":null}},{"type":"Feature","geometry":{"type":"Point","coordinates":[13.4980647,52.6254619]},"properties":{"id":"bikerack:3153ef8f-aa00-4069-b97e-85ebf684530b","kind":"bikerack","longitude":13.4980647,"latitude":52.6254619,"name":"Fahrradabstellplatz","city":"Buch","address":null,"covered":false,"access":null,"website":null,"phone":null,"source":"OpenStreetMap/node/11962426290","sourceUpdatedAt":null,"verifiedAt":null}},{"type":"Feature","geometry":{"type":"Point","coordinates":[13.4960623,52.6409143]},"properties":{"id":"bikerack:31a3502f-2c6b-46cb-95ea-a2dae8c026d9","kind":"bikerack","longitude":13.4960623,"latitude":52.6409143,"name":"Fahrradabstellplatz","city":"Buch","address":null,"covered":false,"access":null,"website":null,"phone":null,"source":"OpenStreetMap/node/11048244207","sourceUpdatedAt":null,"verifiedAt":null}},{"type":"Feature","geometry":{"type":"Point","coordinates":[13.4970656,52.6408631]},"properties":{"id":"bikerack:31fcafc3-221c-4c2c-9665-95994bc74724","kind":"bikerack","longitude":13.4970656,"latitude":52.6408631,"name":"Fahrradabstellplatz","city":"Buch","address":null,"covered":false,"access":null,"website":null,"phone":null,"source":"OpenStreetMap/node/11982449482","sourceUpdatedAt":null,"verifiedAt":null}},{"type":"Feature","geometry":{"type":"Point","coordinates":[13.4968561,52.6412998]},"properties":{"id":"bikerack:34860cd4-62d8-459a-8c59-d65f7f1236d4","kind":"bikerack","longitude":13.4968561,"latitude":52.6412998,"name":"Fahrradabstellplatz","city":"Buch","address":null,"covered":false,"access":null,"website":null,"phone":null,"source":"OpenStreetMap/node/10748280924","sourceUpdatedAt":null,"verifiedAt":null}},{"type":"Feature","geometry":{"type":"Point","coordinates":[13.495702,52.6235325]},"properties":{"id":"bikerack:35563732-334c-482c-94ab-ce816e5f5a0e","kind":"bikerack","longitude":13.495702,"latitude":52.6235325,"name":"Fahrradabstellplatz","city":"Buch","address":null,"covered":false,"access":null,"website":null,"phone":null,"source":"OpenStreetMap/node/11962426269","sourceUpdatedAt":null,"verifiedAt":null}},{"type":"Feature","geometry":{"type":"Point","coordinates":[13.4955122,52.6310515]},"properties":{"id":"bikerack:358a957b-7940-4d45-badf-4326b2277f89","kind":"bikerack","longitude":13.4955122,"latitude":52.6310515,"name":"Fahrradabstellplatz","city":"Buch","address":null,"covered":false,"access":null,"website":null,"phone":null,"source":"OpenStreetMap/node/11962686594","sourceUpdatedAt":null,"verifiedAt":null}},{"type":"Feature","geometry":{"type":"Point","coordinates":[13.5074232,52.626875]},"properties":{"id":"bikerack:36a701f8-4141-4d08-9686-2ac3d976c549","kind":"bikerack","longitude":13.5074232,"latitude":52.626875,"name":"Fahrradabstellplatz","city":"Buch","address":null,"covered":false,"access":null,"website":null,"phone":null,"source":"OpenStreetMap/node/10747670875","sourceUpdatedAt":null,"verifiedAt":null}},{"type":"Feature","geometry":{"type":"Point","coordinates":[13.5012943,52.6351074]},"properties":{"id":"bikerack:3ac284e2-06b0-44c5-8d46-cd0a4fce125d","kind":"bikerack","longitude":13.5012943,"latitude":52.6351074,"name":"Fahrradabstellplatz","city":"Buch","address":null,"covered":false,"access":null,"website":null,"phone":null,"source":"OpenStreetMap/node/12741901386","sourceUpdatedAt":null,"verifiedAt":null}},{"type":"Feature","geometry":{"type":"Point","coordinates":[13.4958407,52.6252181]},"properties":{"id":"bikerack:3c57cc9f-5c75-42e2-bfed-097c0b7c258f","kind":"bikerack","longitude":13.4958407,"latitude":52.6252181,"name":"Fahrradabstellplatz","city":"Buch","address":null,"covered":false,"access":null,"website":null,"phone":null,"source":"OpenStreetMap/node/11056818258","sourceUpdatedAt":null,"verifiedAt":null}},{"type":"Feature","geometry":{"type":"Point","coordinates":[13.496913,52.6239156]},"properties":{"id":"bikerack:3de1d70a-e559-4873-90ed-5db65f296f9f","kind":"bikerack","longitude":13.496913,"latitude":52.6239156,"name":"Fahrradabstellplatz","city":"Buch","address":null,"covered":true,"access":null,"website":null,"phone":null,"source":"OpenStreetMap/node/11962426286","sourceUpdatedAt":null,"verifiedAt":null}},{"type":"Feature","geometry":{"type":"Point","coordinates":[13.4962376,52.6305157]},"properties":{"id":"bikerack:3f95b153-1ce7-460e-908f-31102e56fe88","kind":"bikerack","longitude":13.4962376,"latitude":52.6305157,"name":"Fahrradabstellplatz","city":"Buch","address":null,"covered":false,"access":null,"website":null,"phone":null,"source":"OpenStreetMap/node/11051053285","sourceUpdatedAt":null,"verifiedAt":null}},{"type":"Feature","geometry":{"type":"Point","coordinates":[13.4976712,52.6339217]},"properties":{"id":"bikerack:3fab8af7-76d2-4d82-9d86-6adb36a762a4","kind":"bikerack","longitude":13.4976712,"latitude":52.6339217,"name":"Fahrradabstellplatz","city":"Buch","address":null,"covered":false,"access":null,"website":null,"phone":null,"source":"OpenStreetMap/way/1190610573","sourceUpdatedAt":null,"verifiedAt":null}},{"type":"Feature","geometry":{"type":"Point","coordinates":[13.4965905,52.6330083]},"properties":{"id":"bikerack:3fccc478-51e2-48ef-b35d-7440a662ff11","kind":"bikerack","longitude":13.4965905,"latitude":52.6330083,"name":"Fahrradabstellplatz","city":"Buch","address":null,"covered":false,"access":null,"website":null,"phone":null,"source":"OpenStreetMap/node/11982526177","sourceUpdatedAt":null,"verifiedAt":null}},{"type":"Feature","geometry":{"type":"Point","coordinates":[13.4945491,52.6321047]},"properties":{"id":"bikerack:3fcec7d7-8d9b-4949-959b-b546a5a7e934","kind":"bikerack","longitude":13.4945491,"latitude":52.6321047,"name":"Fahrradabstellplatz","city":"Buch","address":null,"covered":false,"access":null,"website":null,"phone":null,"source":"OpenStreetMap/node/11962686607","sourceUpdatedAt":null,"verifiedAt":null}},{"type":"Feature","geometry":{"type":"Point","coordinates":[13.4960587,52.6345287]},"properties":{"id":"bikerack:400ddc59-61ef-427f-bf2c-f5c67c15f143","kind":"bikerack","longitude":13.4960587,"latitude":52.6345287,"name":"Fahrradabstellplatz","city":"Buch","address":null,"covered":false,"access":null,"website":null,"phone":null,"source":"OpenStreetMap/node/12690674801","sourceUpdatedAt":null,"verifiedAt":null}},{"type":"Feature","geometry":{"type":"Point","coordinates":[13.4968071,52.6314582]},"properties":{"id":"bikerack:40c5ea60-43dc-4daa-84cd-6e676e350819","kind":"bikerack","longitude":13.4968071,"latitude":52.6314582,"name":"Fahrradabstellplatz","city":"Buch","address":null,"covered":false,"access":null,"website":null,"phone":null,"source":"OpenStreetMap/node/11962686588","sourceUpdatedAt":null,"verifiedAt":null}},{"type":"Feature","geometry":{"type":"Point","coordinates":[13.494858,52.6313593]},"properties":{"id":"bikerack:414e89fa-cd4a-4f8e-a502-cb8315a5ace1","kind":"bikerack","longitude":13.494858,"latitude":52.6313593,"name":"Fahrradabstellplatz","city":"Buch","address":null,"covered":false,"access":null,"website":null,"phone":null,"source":"OpenStreetMap/node/11962686595","sourceUpdatedAt":null,"verifiedAt":null}},{"type":"Feature","geometry":{"type":"Point","coordinates":[13.4957216,52.6279744]},"properties":{"id":"bikerack:424517e2-f18b-4e5c-83b0-1b37dfa8a5fa","kind":"bikerack","longitude":13.4957216,"latitude":52.6279744,"name":"Fahrradabstellplatz","city":"Buch","address":null,"covered":false,"access":null,"website":null,"phone":null,"source":"OpenStreetMap/node/11962077001","sourceUpdatedAt":null,"verifiedAt":null}},{"type":"Feature","geometry":{"type":"Point","coordinates":[13.4954695,52.632868]},"properties":{"id":"bikerack:461eec80-f302-48bf-84b9-881c58323d78","kind":"bikerack","longitude":13.4954695,"latitude":52.632868,"name":"Fahrradabstellplatz","city":"Buch","address":null,"covered":false,"access":null,"website":null,"phone":null,"source":"OpenStreetMap/way/1185602150","sourceUpdatedAt":null,"verifiedAt":null}},{"type":"Feature","geometry":{"type":"Point","coordinates":[13.4972605,52.6407611]},"properties":{"id":"bikerack:47ac30fe-9cbb-4905-bf43-4d81ba1c6f28","kind":"bikerack","longitude":13.4972605,"latitude":52.6407611,"name":"Fahrradabstellplatz","city":"Buch","address":null,"covered":false,"access":null,"website":null,"phone":null,"source":"OpenStreetMap/node/11982449481","sourceUpdatedAt":null,"verifiedAt":null}},{"type":"Feature","geometry":{"type":"Point","coordinates":[13.4951149,52.6290006]},"properties":{"id":"bikerack:4bc6a6b8-3471-4533-bb75-494ad4dfb6fb","kind":"bikerack","longitude":13.4951149,"latitude":52.6290006,"name":"Fahrradabstellplatz","city":"Buch","address":null,"covered":false,"access":null,"website":null,"phone":null,"source":"OpenStreetMap/node/11962076995","sourceUpdatedAt":null,"verifiedAt":null}},{"type":"Feature","geometry":{"type":"Point","coordinates":[13.505781,52.6279292]},"properties":{"id":"bikerack:4bf9871a-bcf9-46cc-8e00-c0bc7d4807ef","kind":"bikerack","longitude":13.505781,"latitude":52.6279292,"name":"Fahrradabstellplatz","city":"Buch","address":null,"covered":false,"access":null,"website":null,"phone":null,"source":"OpenStreetMap/node/11423038217","sourceUpdatedAt":null,"verifiedAt":null}},{"type":"Feature","geometry":{"type":"Point","coordinates":[13.4960628,52.6243535]},"properties":{"id":"bikerack:4cfcfca5-e266-41a6-a271-ba392fc7917e","kind":"bikerack","longitude":13.4960628,"latitude":52.6243535,"name":"Fahrradabstellplatz","city":"Buch","address":null,"covered":false,"access":null,"website":null,"phone":null,"source":"OpenStreetMap/node/11962426279","sourceUpdatedAt":null,"verifiedAt":null}},{"type":"Feature","geometry":{"type":"Point","coordinates":[13.496533,52.6252356]},"properties":{"id":"bikerack:4e1c646e-97cf-4a1b-80fe-ea5a5cad53a1","kind":"bikerack","longitude":13.496533,"latitude":52.6252356,"name":"Fahrradabstellplatz","city":"Buch","address":null,"covered":false,"access":null,"website":null,"phone":null,"source":"OpenStreetMap/node/11962426299","sourceUpdatedAt":null,"verifiedAt":null}},{"type":"Feature","geometry":{"type":"Point","coordinates":[13.4962773,52.6250196]},"properties":{"id":"bikerack:504a96b9-9432-499d-af17-f6f630d55b06","kind":"bikerack","longitude":13.4962773,"latitude":52.6250196,"name":"Fahrradabstellplatz","city":"Buch","address":null,"covered":false,"access":null,"website":null,"phone":null,"source":"OpenStreetMap/node/11962426298","sourceUpdatedAt":null,"verifiedAt":null}},{"type":"Feature","geometry":{"type":"Point","coordinates":[13.4937889,52.6414893]},"properties":{"id":"bikerack:515f333c-a07e-419d-a96d-9f271c80ab21","kind":"bikerack","longitude":13.4937889,"latitude":52.6414893,"name":"Fahrradabstellplatz","city":"Buch","address":null,"covered":false,"access":null,"website":null,"phone":null,"source":"OpenStreetMap/node/11050833903","sourceUpdatedAt":null,"verifiedAt":null}},{"type":"Feature","geometry":{"type":"Point","coordinates":[13.4964089,52.6242083]},"properties":{"id":"bikerack:52ed1295-8c49-4438-af5e-5968a4b61e7b","kind":"bikerack","longitude":13.4964089,"latitude":52.6242083,"name":"Fahrradabstellplatz","city":"Buch","address":null,"covered":false,"access":null,"website":null,"phone":null,"source":"OpenStreetMap/node/11962426281","sourceUpdatedAt":null,"verifiedAt":null}},{"type":"Feature","geometry":{"type":"Point","coordinates":[13.4968149,52.6306214]},"properties":{"id":"bikerack:5314414f-0567-4023-859a-a97dd98f08f2","kind":"bikerack","longitude":13.4968149,"latitude":52.6306214,"name":"Fahrradabstellplatz","city":"Buch","address":null,"covered":false,"access":null,"website":null,"phone":null,"source":"OpenStreetMap/node/11962686578","sourceUpdatedAt":null,"verifiedAt":null}},{"type":"Feature","geometry":{"type":"Point","coordinates":[13.4953195,52.6247551]},"properties":{"id":"bikerack:5397e912-a414-430c-98c3-6b2b1679dfed","kind":"bikerack","longitude":13.4953195,"latitude":52.6247551,"name":"Fahrradabstellplatz","city":"Buch","address":null,"covered":false,"access":null,"website":null,"phone":null,"source":"OpenStreetMap/node/11056818252","sourceUpdatedAt":null,"verifiedAt":null}},{"type":"Feature","geometry":{"type":"Point","coordinates":[13.4966585,52.6253524]},"properties":{"id":"bikerack:53d544f8-9c6f-4f1e-98c3-69901866dbea","kind":"bikerack","longitude":13.4966585,"latitude":52.6253524,"name":"Fahrradabstellplatz","city":"Buch","address":null,"covered":false,"access":null,"website":null,"phone":null,"source":"OpenStreetMap/node/11962426297","sourceUpdatedAt":null,"verifiedAt":null}},{"type":"Feature","geometry":{"type":"Point","coordinates":[13.4971031,52.6310035]},"properties":{"id":"bikerack:5488c52a-ab91-4d0e-8544-c628d1f12dfc","kind":"bikerack","longitude":13.4971031,"latitude":52.6310035,"name":"Fahrradabstellplatz","city":"Buch","address":null,"covered":false,"access":null,"website":null,"phone":null,"source":"OpenStreetMap/node/11962686580","sourceUpdatedAt":null,"verifiedAt":null}},{"type":"Feature","geometry":{"type":"Point","coordinates":[13.4968681,52.6255325]},"properties":{"id":"bikerack:5b584e87-e9b2-464e-8ddb-01c85b986ec6","kind":"bikerack","longitude":13.4968681,"latitude":52.6255325,"name":"Fahrradabstellplatz","city":"Buch","address":null,"covered":false,"access":null,"website":null,"phone":null,"source":"OpenStreetMap/node/11962426295","sourceUpdatedAt":null,"verifiedAt":null}},{"type":"Feature","geometry":{"type":"Point","coordinates":[13.4952201,52.6395853]},"properties":{"id":"bikerack:5b86fcbe-e23c-433b-9150-72f16f05a188","kind":"bikerack","longitude":13.4952201,"latitude":52.6395853,"name":"Fahrradabstellplatz","city":"Buch","address":null,"covered":false,"access":null,"website":null,"phone":null,"source":"OpenStreetMap/node/11982449475","sourceUpdatedAt":null,"verifiedAt":null}},{"type":"Feature","geometry":{"type":"Point","coordinates":[13.4957435,52.6251279]},"properties":{"id":"bikerack:5d065875-6014-4aeb-81f3-143ff3c71184","kind":"bikerack","longitude":13.4957435,"latitude":52.6251279,"name":"Fahrradabstellplatz","city":"Buch","address":null,"covered":false,"access":null,"website":null,"phone":null,"source":"OpenStreetMap/node/11056818257","sourceUpdatedAt":null,"verifiedAt":null}},{"type":"Feature","geometry":{"type":"Point","coordinates":[13.4918226,52.6365557]},"properties":{"id":"bikerack:6103e36d-482f-4b60-8799-1e97ce107b91","kind":"bikerack","longitude":13.4918226,"latitude":52.6365557,"name":"Fahrradabstellplatz","city":"Buch","address":null,"covered":false,"access":null,"website":null,"phone":null,"source":"OpenStreetMap/way/1190153626","sourceUpdatedAt":null,"verifiedAt":null}},{"type":"Feature","geometry":{"type":"Point","coordinates":[13.4921284,52.6278198]},"properties":{"id":"bikerack:61787bcc-a272-42de-8864-6188872d6e80","kind":"bikerack","longitude":13.4921284,"latitude":52.6278198,"name":"Fahrradabstellplatz","city":"Buch","address":null,"covered":false,"access":null,"website":null,"phone":null,"source":"OpenStreetMap/node/10749828081","sourceUpdatedAt":null,"verifiedAt":null}},{"type":"Feature","geometry":{"type":"Point","coordinates":[13.496265,52.6332034]},"properties":{"id":"bikerack:634c6bdd-b1b3-4536-a10c-7b975998fe6f","kind":"bikerack","longitude":13.496265,"latitude":52.6332034,"name":"Fahrradabstellplatz","city":"Buch","address":null,"covered":false,"access":null,"website":null,"phone":null,"source":"OpenStreetMap/node/11982526176","sourceUpdatedAt":null,"verifiedAt":null}},{"type":"Feature","geometry":{"type":"Point","coordinates":[13.495678,52.6250908]},"properties":{"id":"bikerack:66f41b13-d0d2-429e-a6bd-a3e4dd678a2e","kind":"bikerack","longitude":13.495678,"latitude":52.6250908,"name":"Fahrradabstellplatz","city":"Buch","address":null,"covered":false,"access":null,"website":null,"phone":null,"source":"OpenStreetMap/node/11056818256","sourceUpdatedAt":null,"verifiedAt":null}},{"type":"Feature","geometry":{"type":"Point","coordinates":[13.5098718,52.6318884]},"properties":{"id":"bikerack:67426947-f5c0-4c3b-9788-dfa0cd5b0b9a","kind":"bikerack","longitude":13.5098718,"latitude":52.6318884,"name":"Fahrradabstellplatz","city":"Buch","address":null,"covered":false,"access":null,"website":null,"phone":null,"source":"OpenStreetMap/way/957887447","sourceUpdatedAt":null,"verifiedAt":null}},{"type":"Feature","geometry":{"type":"Point","coordinates":[13.4979057,52.6255207]},"properties":{"id":"bikerack:6827e9c3-7366-4c24-a1d5-0169ab34f485","kind":"bikerack","longitude":13.4979057,"latitude":52.6255207,"name":"Fahrradabstellplatz","city":"Buch","address":null,"covered":false,"access":null,"website":null,"phone":null,"source":"OpenStreetMap/node/11962426291","sourceUpdatedAt":null,"verifiedAt":null}},{"type":"Feature","geometry":{"type":"Point","coordinates":[13.4945661,52.6310062]},"properties":{"id":"bikerack:69046513-794e-43df-9db5-165bfefa3f4b","kind":"bikerack","longitude":13.4945661,"latitude":52.6310062,"name":"Fahrradabstellplatz","city":"Buch","address":null,"covered":false,"access":null,"website":null,"phone":null,"source":"OpenStreetMap/node/11050856098","sourceUpdatedAt":null,"verifiedAt":null}},{"type":"Feature","geometry":{"type":"Point","coordinates":[13.4998866,52.6305639]},"properties":{"id":"bikerack:6bc6ee9c-2eb8-45de-b627-9a83d7f09209","kind":"bikerack","longitude":13.4998866,"latitude":52.6305639,"name":"Fahrradabstellplatz","city":"Buch","address":null,"covered":false,"access":null,"website":null,"phone":null,"source":"OpenStreetMap/node/11962702024","sourceUpdatedAt":null,"verifiedAt":null}},{"type":"Feature","geometry":{"type":"Point","coordinates":[13.4949279,52.6319944]},"properties":{"id":"bikerack:6bfdd12d-5847-4e39-a9e6-c65f0e4f5811","kind":"bikerack","longitude":13.4949279,"latitude":52.6319944,"name":"Fahrradabstellplatz","city":"Buch","address":null,"covered":false,"access":null,"website":null,"phone":null,"source":"OpenStreetMap/node/11962686605","sourceUpdatedAt":null,"verifiedAt":null}},{"type":"Feature","geometry":{"type":"Point","coordinates":[13.4965755,52.6315216]},"properties":{"id":"bikerack:6c80f4c4-0c1e-4559-acf9-799114e26c50","kind":"bikerack","longitude":13.4965755,"latitude":52.6315216,"name":"Fahrradabstellplatz","city":"Buch","address":null,"covered":false,"access":null,"website":null,"phone":null,"source":"OpenStreetMap/node/11051073946","sourceUpdatedAt":null,"verifiedAt":null}},{"type":"Feature","geometry":{"type":"Point","coordinates":[13.495775,52.6244702]},"properties":{"id":"bikerack:6e60bf12-1b4f-4e33-ad5c-acffe45b90a9","kind":"bikerack","longitude":13.495775,"latitude":52.6244702,"name":"Fahrradabstellplatz","city":"Buch","address":null,"covered":false,"access":null,"website":null,"phone":null,"source":"OpenStreetMap/node/11962426278","sourceUpdatedAt":null,"verifiedAt":null}},{"type":"Feature","geometry":{"type":"Point","coordinates":[13.4954404,52.6248643]},"properties":{"id":"bikerack:6e8429fe-69cb-4bf8-94f4-a55af30874dc","kind":"bikerack","longitude":13.4954404,"latitude":52.6248643,"name":"Fahrradabstellplatz","city":"Buch","address":null,"covered":false,"access":null,"website":null,"phone":null,"source":"OpenStreetMap/node/11056818253","sourceUpdatedAt":null,"verifiedAt":null}},{"type":"Feature","geometry":{"type":"Point","coordinates":[13.5080618,52.6265932]},"properties":{"id":"bikerack:6f27560b-234f-436b-a679-98ae178bf02c","kind":"bikerack","longitude":13.5080618,"latitude":52.6265932,"name":"Fahrradabstellplatz","city":"Buch","address":null,"covered":false,"access":null,"website":null,"phone":null,"source":"OpenStreetMap/node/11422543332","sourceUpdatedAt":null,"verifiedAt":null}},{"type":"Feature","geometry":{"type":"Point","coordinates":[13.4932538,52.636164]},"properties":{"id":"bikerack:6f2d208e-42eb-4709-b71a-9696c068ef71","kind":"bikerack","longitude":13.4932538,"latitude":52.636164,"name":"Fahrradabstellplatz","city":"Buch","address":null,"covered":false,"access":null,"website":null,"phone":null,"source":"OpenStreetMap/node/9523225026","sourceUpdatedAt":null,"verifiedAt":null}},{"type":"Feature","geometry":{"type":"Point","coordinates":[13.5275834,52.62926]},"properties":{"id":"bikerack:6f39756a-d678-4420-bb68-1e9bab1c898f","kind":"bikerack","longitude":13.5275834,"latitude":52.62926,"name":"Fahrradabstellplatz","city":"Buch","address":null,"covered":false,"access":null,"website":null,"phone":null,"source":"OpenStreetMap/node/11168767706","sourceUpdatedAt":null,"verifiedAt":null}},{"type":"Feature","geometry":{"type":"Point","coordinates":[13.4965369,52.6404861]},"properties":{"id":"bikerack:714079f3-0969-4f11-9ec6-a244a82fef0a","kind":"bikerack","longitude":13.4965369,"latitude":52.6404861,"name":"Fahrradabstellplatz","city":"Buch","address":null,"covered":false,"access":null,"website":null,"phone":null,"source":"OpenStreetMap/node/11982449469","sourceUpdatedAt":null,"verifiedAt":null}},{"type":"Feature","geometry":{"type":"Point","coordinates":[13.4935798,52.6390339]},"properties":{"id":"bikerack:72f5163c-519e-4763-82d5-45514a9a0251","kind":"bikerack","longitude":13.4935798,"latitude":52.6390339,"name":"Fahrradabstellplatz","city":"Buch","address":null,"covered":false,"access":null,"website":null,"phone":null,"source":"OpenStreetMap/node/11982449479","sourceUpdatedAt":null,"verifiedAt":null}},{"type":"Feature","geometry":{"type":"Point","coordinates":[13.4995005,52.6350092]},"properties":{"id":"bikerack:733604e9-65a1-403d-9151-d1d8b1d25285","kind":"bikerack","longitude":13.4995005,"latitude":52.6350092,"name":"Fahrradabstellplatz","city":"Buch","address":null,"covered":false,"access":null,"website":null,"phone":null,"source":"OpenStreetMap/node/10747964006","sourceUpdatedAt":null,"verifiedAt":null}},{"type":"Feature","geometry":{"type":"Point","coordinates":[13.4968713,52.6409714]},"properties":{"id":"bikerack:737fee0a-1e55-43cd-991a-4ab106eca9b5","kind":"bikerack","longitude":13.4968713,"latitude":52.6409714,"name":"Fahrradabstellplatz","city":"Buch","address":null,"covered":false,"access":null,"website":null,"phone":null,"source":"OpenStreetMap/node/11982449483","sourceUpdatedAt":null,"verifiedAt":null}},{"type":"Feature","geometry":{"type":"Point","coordinates":[13.4959266,52.6286656]},"properties":{"id":"bikerack:759e6812-d2e4-48a0-9b28-56de88c3d0a2","kind":"bikerack","longitude":13.4959266,"latitude":52.6286656,"name":"Fahrradabstellplatz","city":"Buch","address":null,"covered":false,"access":null,"website":null,"phone":null,"source":"OpenStreetMap/node/11962076998","sourceUpdatedAt":null,"verifiedAt":null}},{"type":"Feature","geometry":{"type":"Point","coordinates":[13.4946179,52.6241334]},"properties":{"id":"bikerack:7a2c305b-b887-4c1a-ada3-6285f0ecf8c2","kind":"bikerack","longitude":13.4946179,"latitude":52.6241334,"name":"Fahrradabstellplatz","city":"Buch","address":null,"covered":false,"access":null,"website":null,"phone":null,"source":"OpenStreetMap/node/11056818245","sourceUpdatedAt":null,"verifiedAt":null}},{"type":"Feature","geometry":{"type":"Point","coordinates":[13.498213,52.6253975]},"properties":{"id":"bikerack:7aa401b7-f3da-4575-8fdf-010e0602b3c5","kind":"bikerack","longitude":13.498213,"latitude":52.6253975,"name":"Fahrradabstellplatz","city":"Buch","address":null,"covered":false,"access":null,"website":null,"phone":null,"source":"OpenStreetMap/node/11962426289","sourceUpdatedAt":null,"verifiedAt":null}},{"type":"Feature","geometry":{"type":"Point","coordinates":[13.4957974,52.6399928]},"properties":{"id":"bikerack:7b1f4dd0-a1e6-4201-92d7-d0228ec30f87","kind":"bikerack","longitude":13.4957974,"latitude":52.6399928,"name":"Fahrradabstellplatz","city":"Buch","address":null,"covered":false,"access":null,"website":null,"phone":null,"source":"OpenStreetMap/node/11982449472","sourceUpdatedAt":null,"verifiedAt":null}},{"type":"Feature","geometry":{"type":"Point","coordinates":[13.4959963,52.6234144]},"properties":{"id":"bikerack:7c064d7a-80f1-4619-97d7-50a2f49a10cc","kind":"bikerack","longitude":13.4959963,"latitude":52.6234144,"name":"Fahrradabstellplatz","city":"Buch","address":null,"covered":false,"access":null,"website":null,"phone":null,"source":"OpenStreetMap/node/11962418868","sourceUpdatedAt":null,"verifiedAt":null}},{"type":"Feature","geometry":{"type":"Point","coordinates":[13.5032193,52.6242594]},"properties":{"id":"bikerack:7c37cc24-e456-4c55-8715-4e4c296e4ed5","kind":"bikerack","longitude":13.5032193,"latitude":52.6242594,"name":"Fahrradabstellplatz","city":"Buch","address":null,"covered":false,"access":null,"website":null,"phone":null,"source":"OpenStreetMap/way/1191223205","sourceUpdatedAt":null,"verifiedAt":null}},{"type":"Feature","geometry":{"type":"Point","coordinates":[13.4915919,52.63627]},"properties":{"id":"bikerack:7e021b04-1831-44cb-9916-999ab275c1e5","kind":"bikerack","longitude":13.4915919,"latitude":52.63627,"name":"Fahrradabstellplatz","city":"Buch","address":null,"covered":false,"access":null,"website":null,"phone":null,"source":"OpenStreetMap/node/11048163819","sourceUpdatedAt":null,"verifiedAt":null}},{"type":"Feature","geometry":{"type":"Point","coordinates":[13.528515,52.6288371]},"properties":{"id":"bikerack:7eb90cc0-cb55-45cb-8051-470afdbf9726","kind":"bikerack","longitude":13.528515,"latitude":52.6288371,"name":"Fahrradabstellplatz","city":"Buch","address":null,"covered":false,"access":null,"website":null,"phone":null,"source":"OpenStreetMap/node/11168762469","sourceUpdatedAt":null,"verifiedAt":null}},{"type":"Feature","geometry":{"type":"Point","coordinates":[13.4993896,52.6340109]},"properties":{"id":"bikerack:81325dc1-67c1-4165-a7d8-d3cceab6af7c","kind":"bikerack","longitude":13.4993896,"latitude":52.6340109,"name":"Fahrradabstellplatz","city":"Buch","address":null,"covered":false,"access":null,"website":null,"phone":null,"source":"OpenStreetMap/node/10747963977","sourceUpdatedAt":null,"verifiedAt":null}},{"type":"Feature","geometry":{"type":"Point","coordinates":[13.4963911,52.6251192]},"properties":{"id":"bikerack:83579dbe-6117-4e3a-83f9-b8be4489a2ad","kind":"bikerack","longitude":13.4963911,"latitude":52.6251192,"name":"Fahrradabstellplatz","city":"Buch","address":null,"covered":false,"access":null,"website":null,"phone":null,"source":"OpenStreetMap/node/11962426300","sourceUpdatedAt":null,"verifiedAt":null}},{"type":"Feature","geometry":{"type":"Point","coordinates":[13.4932866,52.641802]},"properties":{"id":"bikerack:83c0b028-b339-47d4-a7e0-78a68f59db8c","kind":"bikerack","longitude":13.4932866,"latitude":52.641802,"name":"Fahrradabstellplatz","city":"Buch","address":null,"covered":false,"access":null,"website":null,"phone":null,"source":"OpenStreetMap/node/11050834705","sourceUpdatedAt":null,"verifiedAt":null}},{"type":"Feature","geometry":{"type":"Point","coordinates":[13.5285956,52.6288184]},"properties":{"id":"bikerack:84bfbcf3-6f6a-4536-8d88-85b2ab19e1be","kind":"bikerack","longitude":13.5285956,"latitude":52.6288184,"name":"Fahrradabstellplatz","city":"Buch","address":null,"covered":false,"access":null,"website":null,"phone":null,"source":"OpenStreetMap/node/11168762468","sourceUpdatedAt":null,"verifiedAt":null}},{"type":"Feature","geometry":{"type":"Point","coordinates":[13.502461,52.624716]},"properties":{"id":"bikerack:84fecbb9-cbde-4afb-bd11-4889cc2f7de1","kind":"bikerack","longitude":13.502461,"latitude":52.624716,"name":"Fahrradabstellplatz","city":"Buch","address":null,"covered":true,"access":null,"website":null,"phone":null,"source":"OpenStreetMap/node/5773667881","sourceUpdatedAt":null,"verifiedAt":null}},{"type":"Feature","geometry":{"type":"Point","coordinates":[13.4919939,52.6277036]},"properties":{"id":"bikerack:852ba0c6-7f10-451b-a53e-988c43cc805d","kind":"bikerack","longitude":13.4919939,"latitude":52.6277036,"name":"Fahrradabstellplatz","city":"Buch","address":null,"covered":false,"access":null,"website":null,"phone":null,"source":"OpenStreetMap/node/10749828079","sourceUpdatedAt":null,"verifiedAt":null}},{"type":"Feature","geometry":{"type":"Point","coordinates":[13.4962558,52.6242727]},"properties":{"id":"bikerack:8563700c-9da5-4814-a8d9-e026d409f547","kind":"bikerack","longitude":13.4962558,"latitude":52.6242727,"name":"Fahrradabstellplatz","city":"Buch","address":null,"covered":false,"access":null,"website":null,"phone":null,"source":"OpenStreetMap/node/11962426280","sourceUpdatedAt":null,"verifiedAt":null}},{"type":"Feature","geometry":{"type":"Point","coordinates":[13.4918689,52.6275937]},"properties":{"id":"bikerack:856b2f14-dc13-46fc-bac7-89e7b7314169","kind":"bikerack","longitude":13.4918689,"latitude":52.6275937,"name":"Fahrradabstellplatz","city":"Buch","address":null,"covered":false,"access":null,"website":null,"phone":null,"source":"OpenStreetMap/node/10749828087","sourceUpdatedAt":null,"verifiedAt":null}},{"type":"Feature","geometry":{"type":"Point","coordinates":[13.4938486,52.6388944]},"properties":{"id":"bikerack:88dc8d1b-ab90-4246-a0ec-6f12b2f1c35a","kind":"bikerack","longitude":13.4938486,"latitude":52.6388944,"name":"Fahrradabstellplatz","city":"Buch","address":null,"covered":false,"access":null,"website":null,"phone":null,"source":"OpenStreetMap/node/11982449480","sourceUpdatedAt":null,"verifiedAt":null}},{"type":"Feature","geometry":{"type":"Point","coordinates":[13.4946408,52.623974]},"properties":{"id":"bikerack:8cf10f7c-7066-4579-93a5-cb62dbe170b9","kind":"bikerack","longitude":13.4946408,"latitude":52.623974,"name":"Fahrradabstellplatz","city":"Buch","address":null,"covered":false,"access":null,"website":null,"phone":null,"source":"OpenStreetMap/node/11962426277","sourceUpdatedAt":null,"verifiedAt":null}},{"type":"Feature","geometry":{"type":"Point","coordinates":[13.4948496,52.6291499]},"properties":{"id":"bikerack:8ec94816-08e3-4c41-a052-ca494b8f45e7","kind":"bikerack","longitude":13.4948496,"latitude":52.6291499,"name":"Fahrradabstellplatz","city":"Buch","address":null,"covered":false,"access":null,"website":null,"phone":null,"source":"OpenStreetMap/node/11962076992","sourceUpdatedAt":null,"verifiedAt":null}},{"type":"Feature","geometry":{"type":"Point","coordinates":[13.4919396,52.6366626]},"properties":{"id":"bikerack:8f713a66-e036-4744-8214-8036ce5b6557","kind":"bikerack","longitude":13.4919396,"latitude":52.6366626,"name":"Fahrradabstellplatz","city":"Buch","address":null,"covered":false,"access":null,"website":null,"phone":null,"source":"OpenStreetMap/way/1190153627","sourceUpdatedAt":null,"verifiedAt":null}},{"type":"Feature","geometry":{"type":"Point","coordinates":[13.4979207,52.6336467]},"properties":{"id":"bikerack:90d81a3c-9303-40d8-a5a0-d2245ae636a9","kind":"bikerack","longitude":13.4979207,"latitude":52.6336467,"name":"Fahrradabstellplatz","city":"Buch","address":null,"covered":false,"access":null,"website":null,"phone":null,"source":"OpenStreetMap/node/11962686571","sourceUpdatedAt":null,"verifiedAt":null}},{"type":"Feature","geometry":{"type":"Point","coordinates":[13.4916187,52.6363519]},"properties":{"id":"bikerack:927f4b54-8431-46a7-b70c-90f621823399","kind":"bikerack","longitude":13.4916187,"latitude":52.6363519,"name":"Fahrradabstellplatz","city":"Buch","address":null,"covered":false,"access":null,"website":null,"phone":null,"source":"OpenStreetMap/node/11048163822","sourceUpdatedAt":null,"verifiedAt":null}},{"type":"Feature","geometry":{"type":"Point","coordinates":[13.4916855,52.6365342]},"properties":{"id":"bikerack:92a7fdec-9700-4bd2-8498-2807b9548d4e","kind":"bikerack","longitude":13.4916855,"latitude":52.6365342,"name":"Fahrradabstellplatz","city":"Buch","address":null,"covered":true,"access":null,"website":null,"phone":null,"source":"OpenStreetMap/way/1190153629","sourceUpdatedAt":null,"verifiedAt":null}},{"type":"Feature","geometry":{"type":"Point","coordinates":[13.4956093,52.6400852]},"properties":{"id":"bikerack:937da14f-27aa-4520-be84-cc333996d60a","kind":"bikerack","longitude":13.4956093,"latitude":52.6400852,"name":"Fahrradabstellplatz","city":"Buch","address":null,"covered":false,"access":null,"website":null,"phone":null,"source":"OpenStreetMap/node/11982449473","sourceUpdatedAt":null,"verifiedAt":null}},{"type":"Feature","geometry":{"type":"Point","coordinates":[13.4947436,52.6291504]},"properties":{"id":"bikerack:94f9356e-72b5-42ce-8ba1-f36a1fbeb391","kind":"bikerack","longitude":13.4947436,"latitude":52.6291504,"name":"Fahrradabstellplatz","city":"Buch","address":null,"covered":false,"access":null,"website":null,"phone":null,"source":"OpenStreetMap/node/11962076991","sourceUpdatedAt":null,"verifiedAt":null}},{"type":"Feature","geometry":{"type":"Point","coordinates":[13.4962773,52.6235718]},"properties":{"id":"bikerack:957a0f71-9a7a-4774-afa0-e92eab64a8ee","kind":"bikerack","longitude":13.4962773,"latitude":52.6235718,"name":"Fahrradabstellplatz","city":"Buch","address":null,"covered":false,"access":null,"website":null,"phone":null,"source":"OpenStreetMap/node/11962418866","sourceUpdatedAt":null,"verifiedAt":null}},{"type":"Feature","geometry":{"type":"Point","coordinates":[13.4945089,52.6292326]},"properties":{"id":"bikerack:98bc7f9c-b929-4c72-8246-08cd87fad91d","kind":"bikerack","longitude":13.4945089,"latitude":52.6292326,"name":"Fahrradabstellplatz","city":"Buch","address":null,"covered":false,"access":null,"website":null,"phone":null,"source":"OpenStreetMap/node/11962076993","sourceUpdatedAt":null,"verifiedAt":null}},{"type":"Feature","geometry":{"type":"Point","coordinates":[13.5118239,52.6312778]},"properties":{"id":"bikerack:9922db7c-c7c6-4b38-b9a1-a4d91752198a","kind":"bikerack","longitude":13.5118239,"latitude":52.6312778,"name":"Fahrradabstellplatz","city":"Buch","address":null,"covered":true,"access":null,"website":null,"phone":null,"source":"OpenStreetMap/way/97114793","sourceUpdatedAt":null,"verifiedAt":null}},{"type":"Feature","geometry":{"type":"Point","coordinates":[13.4967674,52.6314747]},"properties":{"id":"bikerack:9ac36d6e-e891-40ae-ac47-4a5ec437cd0f","kind":"bikerack","longitude":13.4967674,"latitude":52.6314747,"name":"Fahrradabstellplatz","city":"Buch","address":null,"covered":false,"access":null,"website":null,"phone":null,"source":"OpenStreetMap/node/11051073945","sourceUpdatedAt":null,"verifiedAt":null}},{"type":"Feature","geometry":{"type":"Point","coordinates":[13.4984008,52.6334004]},"properties":{"id":"bikerack:9adce8fc-7edf-427f-9a40-366371f82cf9","kind":"bikerack","longitude":13.4984008,"latitude":52.6334004,"name":"Fahrradabstellplatz","city":"Buch","address":null,"covered":false,"access":null,"website":null,"phone":null,"source":"OpenStreetMap/node/11962686574","sourceUpdatedAt":null,"verifiedAt":null}},{"type":"Feature","geometry":{"type":"Point","coordinates":[13.493057,52.6358633]},"properties":{"id":"bikerack:9ca96c2b-b18f-4338-a552-db729229901f","kind":"bikerack","longitude":13.493057,"latitude":52.6358633,"name":"Fahrradabstellplatz","city":"Buch","address":null,"covered":false,"access":null,"website":null,"phone":null,"source":"OpenStreetMap/node/11054923171","sourceUpdatedAt":null,"verifiedAt":null}},{"type":"Feature","geometry":{"type":"Point","coordinates":[13.4913947,52.6364857]},"properties":{"id":"bikerack:9d7772bb-b53f-4c2b-9022-b31480a287a4","kind":"bikerack","longitude":13.4913947,"latitude":52.6364857,"name":"Fahrradabstellplatz","city":"Buch","address":null,"covered":false,"access":null,"website":null,"phone":null,"source":"OpenStreetMap/node/11048163834","sourceUpdatedAt":null,"verifiedAt":null}},{"type":"Feature","geometry":{"type":"Point","coordinates":[13.4956626,52.6405966]},"properties":{"id":"bikerack:9dc95091-b71b-4b26-a468-a2107edd1366","kind":"bikerack","longitude":13.4956626,"latitude":52.6405966,"name":"Fahrradabstellplatz","city":"Buch","address":null,"covered":false,"access":null,"website":null,"phone":null,"source":"OpenStreetMap/node/11048217603","sourceUpdatedAt":null,"verifiedAt":null}},{"type":"Feature","geometry":{"type":"Point","coordinates":[13.4930765,52.6166818]},"properties":{"id":"bikerack:9e8ffc0d-ad54-4afd-a212-c1838a608fe2","kind":"bikerack","longitude":13.4930765,"latitude":52.6166818,"name":"Fahrradabstellplatz","city":"Karow","address":null,"covered":false,"access":null,"website":null,"phone":null,"source":"OpenStreetMap/way/1292637860","sourceUpdatedAt":null,"verifiedAt":null}},{"type":"Feature","geometry":{"type":"Point","coordinates":[13.4916171,52.636398]},"properties":{"id":"bikerack:9fdfd1ba-6355-4c8b-95fa-eaf85e964852","kind":"bikerack","longitude":13.4916171,"latitude":52.636398,"name":"Fahrradabstellplatz","city":"Buch","address":null,"covered":true,"access":null,"website":null,"phone":null,"source":"OpenStreetMap/way/1189844437","sourceUpdatedAt":null,"verifiedAt":null}},{"type":"Feature","geometry":{"type":"Point","coordinates":[13.4949176,52.6401189]},"properties":{"id":"bikerack:a04ffb29-13fe-4d4a-af62-a7435d75c8f8","kind":"bikerack","longitude":13.4949176,"latitude":52.6401189,"name":"Fahrradabstellplatz","city":"Buch","address":null,"covered":false,"access":null,"website":null,"phone":null,"source":"OpenStreetMap/node/11048217601","sourceUpdatedAt":null,"verifiedAt":null}},{"type":"Feature","geometry":{"type":"Point","coordinates":[13.5013379,52.6349952]},"properties":{"id":"bikerack:a0fab9cf-c765-4432-9981-061a3715b9d5","kind":"bikerack","longitude":13.5013379,"latitude":52.6349952,"name":"Fahrradabstellplatz","city":"Buch","address":null,"covered":false,"access":null,"website":null,"phone":null,"source":"OpenStreetMap/node/12741901387","sourceUpdatedAt":null,"verifiedAt":null}},{"type":"Feature","geometry":{"type":"Point","coordinates":[13.4952201,52.6246639]},"properties":{"id":"bikerack:a2775fac-578f-41a1-b722-b82044bca5a2","kind":"bikerack","longitude":13.4952201,"latitude":52.6246639,"name":"Fahrradabstellplatz","city":"Buch","address":null,"covered":false,"access":null,"website":null,"phone":null,"source":"OpenStreetMap/node/11056818251","sourceUpdatedAt":null,"verifiedAt":null}},{"type":"Feature","geometry":{"type":"Point","coordinates":[13.4959226,52.6281529]},"properties":{"id":"bikerack:a4d2b00d-eb63-4fd3-8154-866db25736f9","kind":"bikerack","longitude":13.4959226,"latitude":52.6281529,"name":"Fahrradabstellplatz","city":"Buch","address":null,"covered":false,"access":null,"website":null,"phone":null,"source":"OpenStreetMap/node/11962077000","sourceUpdatedAt":null,"verifiedAt":null}},{"type":"Feature","geometry":{"type":"Point","coordinates":[13.4960374,52.6247969]},"properties":{"id":"bikerack:a6374482-dc8a-4bab-90ce-b2cbe7f96557","kind":"bikerack","longitude":13.4960374,"latitude":52.6247969,"name":"Fahrradabstellplatz","city":"Buch","address":null,"covered":false,"access":null,"website":null,"phone":null,"source":"OpenStreetMap/node/11962426301","sourceUpdatedAt":null,"verifiedAt":null}},{"type":"Feature","geometry":{"type":"Point","coordinates":[13.4961094,52.6283319]},"properties":{"id":"bikerack:a7ce701d-321c-4cb5-9190-80c1441fb8f5","kind":"bikerack","longitude":13.4961094,"latitude":52.6283319,"name":"Fahrradabstellplatz","city":"Buch","address":null,"covered":false,"access":null,"website":null,"phone":null,"source":"OpenStreetMap/node/11962076999","sourceUpdatedAt":null,"verifiedAt":null}},{"type":"Feature","geometry":{"type":"Point","coordinates":[13.4915581,52.6364315]},"properties":{"id":"bikerack:ac099f0c-58f6-4553-9226-87acb05ed62b","kind":"bikerack","longitude":13.4915581,"latitude":52.6364315,"name":"Fahrradabstellplatz","city":"Buch","address":null,"covered":false,"access":null,"website":null,"phone":null,"source":"OpenStreetMap/node/11048163827","sourceUpdatedAt":null,"verifiedAt":null}},{"type":"Feature","geometry":{"type":"Point","coordinates":[13.529408,52.6289313]},"properties":{"id":"bikerack:ad1ce0cf-50db-431b-8507-e69b1b354f35","kind":"bikerack","longitude":13.529408,"latitude":52.6289313,"name":"Fahrradabstellplatz","city":"Buch","address":null,"covered":false,"access":null,"website":null,"phone":null,"source":"OpenStreetMap/node/11168767705","sourceUpdatedAt":null,"verifiedAt":null}},{"type":"Feature","geometry":{"type":"Point","coordinates":[13.4940838,52.6392158]},"properties":{"id":"bikerack:af876423-cf02-4ae0-8ef8-75dd2c44ac78","kind":"bikerack","longitude":13.4940838,"latitude":52.6392158,"name":"Fahrradabstellplatz","city":"Buch","address":null,"covered":false,"access":null,"website":null,"phone":null,"source":"OpenStreetMap/node/11982449478","sourceUpdatedAt":null,"verifiedAt":null}},{"type":"Feature","geometry":{"type":"Point","coordinates":[13.5292516,52.6291618]},"properties":{"id":"bikerack:af9d0781-4316-420c-86d2-c441be4aa32f","kind":"bikerack","longitude":13.5292516,"latitude":52.6291618,"name":"Fahrradabstellplatz","city":"Buch","address":null,"covered":true,"access":null,"website":null,"phone":null,"source":"OpenStreetMap/node/11168767682","sourceUpdatedAt":null,"verifiedAt":null}},{"type":"Feature","geometry":{"type":"Point","coordinates":[13.4982533,52.6334808]},"properties":{"id":"bikerack:afb0971f-7ddb-4cdd-835b-99aedbff57e4","kind":"bikerack","longitude":13.4982533,"latitude":52.6334808,"name":"Fahrradabstellplatz","city":"Buch","address":null,"covered":false,"access":null,"website":null,"phone":null,"source":"OpenStreetMap/node/11962686573","sourceUpdatedAt":null,"verifiedAt":null}},{"type":"Feature","geometry":{"type":"Point","coordinates":[13.4951199,52.6245797]},"properties":{"id":"bikerack:b03126e6-088c-49a6-9827-543378610fc1","kind":"bikerack","longitude":13.4951199,"latitude":52.6245797,"name":"Fahrradabstellplatz","city":"Buch","address":null,"covered":false,"access":null,"website":null,"phone":null,"source":"OpenStreetMap/node/11056818250","sourceUpdatedAt":null,"verifiedAt":null}},{"type":"Feature","geometry":{"type":"Point","coordinates":[13.4920777,52.6367586]},"properties":{"id":"bikerack:b0afb84b-f7c3-4b32-a157-72559b9b383d","kind":"bikerack","longitude":13.4920777,"latitude":52.6367586,"name":"Fahrradabstellplatz","city":"Buch","address":null,"covered":false,"access":null,"website":null,"phone":null,"source":"OpenStreetMap/way/220285529","sourceUpdatedAt":null,"verifiedAt":null}},{"type":"Feature","geometry":{"type":"Point","coordinates":[13.4972325,52.634192]},"properties":{"id":"bikerack:b337b0ae-d892-430b-a2a4-587573259144","kind":"bikerack","longitude":13.4972325,"latitude":52.634192,"name":"Fahrradabstellplatz","city":"Buch","address":null,"covered":false,"access":null,"website":null,"phone":null,"source":"OpenStreetMap/node/13076188702","sourceUpdatedAt":null,"verifiedAt":null}},{"type":"Feature","geometry":{"type":"Point","coordinates":[13.4918793,52.6362835]},"properties":{"id":"bikerack:b42c0620-72f8-4d2a-b910-ceecad03ff59","kind":"bikerack","longitude":13.4918793,"latitude":52.6362835,"name":"Fahrradabstellplatz","city":"Buch","address":null,"covered":true,"access":null,"website":null,"phone":null,"source":"OpenStreetMap/way/1189844438","sourceUpdatedAt":null,"verifiedAt":null}},{"type":"Feature","geometry":{"type":"Point","coordinates":[13.4965425,52.6304335]},"properties":{"id":"bikerack:b71a84fb-3e08-4068-8db4-23595a4cc978","kind":"bikerack","longitude":13.4965425,"latitude":52.6304335,"name":"Fahrradabstellplatz","city":"Buch","address":null,"covered":false,"access":null,"website":null,"phone":null,"source":"OpenStreetMap/node/11051053286","sourceUpdatedAt":null,"verifiedAt":null}},{"type":"Feature","geometry":{"type":"Point","coordinates":[13.4941476,52.629384]},"properties":{"id":"bikerack:b75367bd-4855-45a5-9512-38b8333d62f5","kind":"bikerack","longitude":13.4941476,"latitude":52.629384,"name":"Fahrradabstellplatz","city":"Buch","address":null,"covered":false,"access":null,"website":null,"phone":null,"source":"OpenStreetMap/node/11962076994","sourceUpdatedAt":null,"verifiedAt":null}},{"type":"Feature","geometry":{"type":"Point","coordinates":[13.4956294,52.6312069]},"properties":{"id":"bikerack:b8ddc045-0538-43d7-b39a-169469dfde3a","kind":"bikerack","longitude":13.4956294,"latitude":52.6312069,"name":"Fahrradabstellplatz","city":"Buch","address":null,"covered":false,"access":null,"website":null,"phone":null,"source":"OpenStreetMap/node/11962686593","sourceUpdatedAt":null,"verifiedAt":null}},{"type":"Feature","geometry":{"type":"Point","coordinates":[13.4950539,52.6396797]},"properties":{"id":"bikerack:b8e642d4-88a0-47db-aef7-26670e0c91be","kind":"bikerack","longitude":13.4950539,"latitude":52.6396797,"name":"Fahrradabstellplatz","city":"Buch","address":null,"covered":false,"access":null,"website":null,"phone":null,"source":"OpenStreetMap/node/11982449474","sourceUpdatedAt":null,"verifiedAt":null}},{"type":"Feature","geometry":{"type":"Point","coordinates":[13.4922834,52.638275]},"properties":{"id":"bikerack:ba104baf-f9e6-447a-bc73-2979b1fd5ff4","kind":"bikerack","longitude":13.4922834,"latitude":52.638275,"name":"Fahrradabstellplatz","city":"Buch","address":null,"covered":false,"access":null,"website":null,"phone":null,"source":"OpenStreetMap/node/11048217587","sourceUpdatedAt":null,"verifiedAt":null}},{"type":"Feature","geometry":{"type":"Point","coordinates":[13.495351,52.6289045]},"properties":{"id":"bikerack:bf7ccae0-cd23-41db-860f-207e4e88d8ce","kind":"bikerack","longitude":13.495351,"latitude":52.6289045,"name":"Fahrradabstellplatz","city":"Buch","address":null,"covered":false,"access":null,"website":null,"phone":null,"source":"OpenStreetMap/node/11962076996","sourceUpdatedAt":null,"verifiedAt":null}},{"type":"Feature","geometry":{"type":"Point","coordinates":[13.4959284,52.6306002]},"properties":{"id":"bikerack:c1ef976e-bd7b-4ea1-8057-654081a737c7","kind":"bikerack","longitude":13.4959284,"latitude":52.6306002,"name":"Fahrradabstellplatz","city":"Buch","address":null,"covered":false,"access":null,"website":null,"phone":null,"source":"OpenStreetMap/node/11051053284","sourceUpdatedAt":null,"verifiedAt":null}},{"type":"Feature","geometry":{"type":"Point","coordinates":[13.4966174,52.6315089]},"properties":{"id":"bikerack:c2b9d838-4272-45f3-9320-6e6e19d442f9","kind":"bikerack","longitude":13.4966174,"latitude":52.6315089,"name":"Fahrradabstellplatz","city":"Buch","address":null,"covered":false,"access":null,"website":null,"phone":null,"source":"OpenStreetMap/node/11962686589","sourceUpdatedAt":null,"verifiedAt":null}},{"type":"Feature","geometry":{"type":"Point","coordinates":[13.4963523,52.6236425]},"properties":{"id":"bikerack:c478c458-897f-4167-af27-2f23e2663907","kind":"bikerack","longitude":13.4963523,"latitude":52.6236425,"name":"Fahrradabstellplatz","city":"Buch","address":null,"covered":false,"access":null,"website":null,"phone":null,"source":"OpenStreetMap/node/11962418867","sourceUpdatedAt":null,"verifiedAt":null}},{"type":"Feature","geometry":{"type":"Point","coordinates":[13.4959449,52.6253167]},"properties":{"id":"bikerack:c5215cb2-91e2-424f-af8a-45390827750e","kind":"bikerack","longitude":13.4959449,"latitude":52.6253167,"name":"Fahrradabstellplatz","city":"Buch","address":null,"covered":false,"access":null,"website":null,"phone":null,"source":"OpenStreetMap/node/11056818259","sourceUpdatedAt":null,"verifiedAt":null}},{"type":"Feature","geometry":{"type":"Point","coordinates":[13.5034919,52.6306582]},"properties":{"id":"bikerack:c5b9687e-8348-4914-a61f-4a704c947a0a","kind":"bikerack","longitude":13.5034919,"latitude":52.6306582,"name":"Fahrradabstellplatz","city":"Buch","address":null,"covered":false,"access":null,"website":null,"phone":null,"source":"OpenStreetMap/node/10747680602","sourceUpdatedAt":null,"verifiedAt":null}},{"type":"Feature","geometry":{"type":"Point","coordinates":[13.4970293,52.6256678]},"properties":{"id":"bikerack:c79b4511-f2c7-4063-9efc-ac02a00cb2bf","kind":"bikerack","longitude":13.4970293,"latitude":52.6256678,"name":"Fahrradabstellplatz","city":"Buch","address":null,"covered":false,"access":null,"website":null,"phone":null,"source":"OpenStreetMap/node/11962426294","sourceUpdatedAt":null,"verifiedAt":null}},{"type":"Feature","geometry":{"type":"Point","coordinates":[13.5034026,52.630711]},"properties":{"id":"bikerack:c87bcf1a-6d43-4e35-8df1-254a4acb9756","kind":"bikerack","longitude":13.5034026,"latitude":52.630711,"name":"Fahrradabstellplatz","city":"Buch","address":null,"covered":false,"access":null,"website":null,"phone":null,"source":"OpenStreetMap/node/10747680601","sourceUpdatedAt":null,"verifiedAt":null}},{"type":"Feature","geometry":{"type":"Point","coordinates":[13.496558,52.6238187]},"properties":{"id":"bikerack:c993f3a1-1e9c-417d-9a03-1d900263c32e","kind":"bikerack","longitude":13.496558,"latitude":52.6238187,"name":"Fahrradabstellplatz","city":"Buch","address":null,"covered":false,"access":null,"website":null,"phone":null,"source":"OpenStreetMap/node/11962418865","sourceUpdatedAt":null,"verifiedAt":null}},{"type":"Feature","geometry":{"type":"Point","coordinates":[13.496629,52.6238834]},"properties":{"id":"bikerack:ca20ecd1-dbc7-48cb-9466-ec9b68f3a3be","kind":"bikerack","longitude":13.496629,"latitude":52.6238834,"name":"Fahrradabstellplatz","city":"Buch","address":null,"covered":false,"access":null,"website":null,"phone":null,"source":"OpenStreetMap/node/11962418864","sourceUpdatedAt":null,"verifiedAt":null}},{"type":"Feature","geometry":{"type":"Point","coordinates":[13.4978962,52.6248141]},"properties":{"id":"bikerack:cb0be61c-4817-404c-9a01-8d9fa601b3df","kind":"bikerack","longitude":13.4978962,"latitude":52.6248141,"name":"Fahrradabstellplatz","city":"Buch","address":null,"covered":true,"access":null,"website":null,"phone":null,"source":"OpenStreetMap/node/11962426288","sourceUpdatedAt":null,"verifiedAt":null}},{"type":"Feature","geometry":{"type":"Point","coordinates":[13.4947154,52.6242189]},"properties":{"id":"bikerack:cb10eb0a-47b6-4a5f-afa9-16e8ff936a77","kind":"bikerack","longitude":13.4947154,"latitude":52.6242189,"name":"Fahrradabstellplatz","city":"Buch","address":null,"covered":false,"access":null,"website":null,"phone":null,"source":"OpenStreetMap/node/11056818246","sourceUpdatedAt":null,"verifiedAt":null}},{"type":"Feature","geometry":{"type":"Point","coordinates":[13.4951707,52.6308108]},"properties":{"id":"bikerack:cbdda18c-d2e1-41d9-8d4f-a2b65e55200c","kind":"bikerack","longitude":13.4951707,"latitude":52.6308108,"name":"Fahrradabstellplatz","city":"Buch","address":null,"covered":false,"access":null,"website":null,"phone":null,"source":"OpenStreetMap/node/11050856096","sourceUpdatedAt":null,"verifiedAt":null}},{"type":"Feature","geometry":{"type":"Point","coordinates":[13.4955207,52.6249341]},"properties":{"id":"bikerack:cc27ce9d-6a66-40c5-b38a-7c080aee2e6c","kind":"bikerack","longitude":13.4955207,"latitude":52.6249341,"name":"Fahrradabstellplatz","city":"Buch","address":null,"covered":false,"access":null,"website":null,"phone":null,"source":"OpenStreetMap/node/11056818254","sourceUpdatedAt":null,"verifiedAt":null}},{"type":"Feature","geometry":{"type":"Point","coordinates":[13.499165,52.6338479]},"properties":{"id":"bikerack:ccad5173-a15a-41ad-87b9-f63bb94a396b","kind":"bikerack","longitude":13.499165,"latitude":52.6338479,"name":"Fahrradabstellplatz","city":"Buch","address":null,"covered":false,"access":null,"website":null,"phone":null,"source":"OpenStreetMap/node/10747963976","sourceUpdatedAt":null,"verifiedAt":null}},{"type":"Feature","geometry":{"type":"Point","coordinates":[13.4953846,52.6394959]},"properties":{"id":"bikerack:ce9092c9-fd47-4233-980e-c368c9d752cc","kind":"bikerack","longitude":13.4953846,"latitude":52.6394959,"name":"Fahrradabstellplatz","city":"Buch","address":null,"covered":false,"access":null,"website":null,"phone":null,"source":"OpenStreetMap/node/11982449476","sourceUpdatedAt":null,"verifiedAt":null}},{"type":"Feature","geometry":{"type":"Point","coordinates":[13.4959734,52.6398865]},"properties":{"id":"bikerack:d02ef6ba-657f-46be-a335-50147cb09254","kind":"bikerack","longitude":13.4959734,"latitude":52.6398865,"name":"Fahrradabstellplatz","city":"Buch","address":null,"covered":false,"access":null,"website":null,"phone":null,"source":"OpenStreetMap/node/11982449471","sourceUpdatedAt":null,"verifiedAt":null}},{"type":"Feature","geometry":{"type":"Point","coordinates":[13.4967158,52.6403904]},"properties":{"id":"bikerack:d03afaa2-15e1-4ceb-a586-ae45d1607216","kind":"bikerack","longitude":13.4967158,"latitude":52.6403904,"name":"Fahrradabstellplatz","city":"Buch","address":null,"covered":false,"access":null,"website":null,"phone":null,"source":"OpenStreetMap/node/11982449470","sourceUpdatedAt":null,"verifiedAt":null}},{"type":"Feature","geometry":{"type":"Point","coordinates":[13.4973974,52.6243679]},"properties":{"id":"bikerack:d06071b0-c5ac-4374-ad05-b4bb8fb630c5","kind":"bikerack","longitude":13.4973974,"latitude":52.6243679,"name":"Fahrradabstellplatz","city":"Buch","address":null,"covered":true,"access":null,"website":null,"phone":null,"source":"OpenStreetMap/node/11962426287","sourceUpdatedAt":null,"verifiedAt":null}},{"type":"Feature","geometry":{"type":"Point","coordinates":[13.4963568,52.6405825]},"properties":{"id":"bikerack:d0be12b9-2d40-4763-acbb-151963cfc4d9","kind":"bikerack","longitude":13.4963568,"latitude":52.6405825,"name":"Fahrradabstellplatz","city":"Buch","address":null,"covered":false,"access":null,"website":null,"phone":null,"source":"OpenStreetMap/node/11982431368","sourceUpdatedAt":null,"verifiedAt":null}},{"type":"Feature","geometry":{"type":"Point","coordinates":[13.4919006,52.6367393]},"properties":{"id":"bikerack:d1dfbfbd-6efb-496c-86b5-02a1296ba161","kind":"bikerack","longitude":13.4919006,"latitude":52.6367393,"name":"Fahrradabstellplatz","city":"Buch","address":null,"covered":false,"access":null,"website":null,"phone":null,"source":"OpenStreetMap/way/1190153628","sourceUpdatedAt":null,"verifiedAt":null}},{"type":"Feature","geometry":{"type":"Point","coordinates":[13.4950933,52.6317232]},"properties":{"id":"bikerack:d30d8507-e0d6-498e-938d-8df64e411f73","kind":"bikerack","longitude":13.4950933,"latitude":52.6317232,"name":"Fahrradabstellplatz","city":"Buch","address":null,"covered":false,"access":null,"website":null,"phone":null,"source":"OpenStreetMap/node/11962686599","sourceUpdatedAt":null,"verifiedAt":null}},{"type":"Feature","geometry":{"type":"Point","coordinates":[13.4945468,52.6240684]},"properties":{"id":"bikerack:d556c47a-ebc1-4d0b-97a2-7f9840757914","kind":"bikerack","longitude":13.4945468,"latitude":52.6240684,"name":"Fahrradabstellplatz","city":"Buch","address":null,"covered":false,"access":null,"website":null,"phone":null,"source":"OpenStreetMap/node/11056818244","sourceUpdatedAt":null,"verifiedAt":null}},{"type":"Feature","geometry":{"type":"Point","coordinates":[13.495761,52.6313816]},"properties":{"id":"bikerack:d68bf34e-c09e-4ba5-aa99-fd24f5d16600","kind":"bikerack","longitude":13.495761,"latitude":52.6313816,"name":"Fahrradabstellplatz","city":"Buch","address":null,"covered":false,"access":null,"website":null,"phone":null,"source":"OpenStreetMap/node/11962686592","sourceUpdatedAt":null,"verifiedAt":null}},{"type":"Feature","geometry":{"type":"Point","coordinates":[13.4975719,52.6256611]},"properties":{"id":"bikerack:d6b35156-f800-4c06-93ba-5d2edc4bee04","kind":"bikerack","longitude":13.4975719,"latitude":52.6256611,"name":"Fahrradabstellplatz","city":"Buch","address":null,"covered":false,"access":null,"website":null,"phone":null,"source":"OpenStreetMap/node/11962426293","sourceUpdatedAt":null,"verifiedAt":null}},{"type":"Feature","geometry":{"type":"Point","coordinates":[13.5060378,52.628151]},"properties":{"id":"bikerack:daed689e-8e5d-4e57-be45-b07875fe5fd9","kind":"bikerack","longitude":13.5060378,"latitude":52.628151,"name":"Fahrradabstellplatz","city":"Buch","address":null,"covered":false,"access":null,"website":null,"phone":null,"source":"OpenStreetMap/node/11423038219","sourceUpdatedAt":null,"verifiedAt":null}},{"type":"Feature","geometry":{"type":"Point","coordinates":[13.4967676,52.6254427]},"properties":{"id":"bikerack:db8d9ffa-acd7-48bd-afd3-353d85bc3550","kind":"bikerack","longitude":13.4967676,"latitude":52.6254427,"name":"Fahrradabstellplatz","city":"Buch","address":null,"covered":false,"access":null,"website":null,"phone":null,"source":"OpenStreetMap/node/11962426296","sourceUpdatedAt":null,"verifiedAt":null}},{"type":"Feature","geometry":{"type":"Point","coordinates":[13.4950008,52.6316105]},"properties":{"id":"bikerack:de5cfa35-b19a-4887-9da0-139d1119847b","kind":"bikerack","longitude":13.4950008,"latitude":52.6316105,"name":"Fahrradabstellplatz","city":"Buch","address":null,"covered":false,"access":null,"website":null,"phone":null,"source":"OpenStreetMap/node/11962686600","sourceUpdatedAt":null,"verifiedAt":null}},{"type":"Feature","geometry":{"type":"Point","coordinates":[13.493585,52.6416181]},"properties":{"id":"bikerack:e6f8aad1-4a00-4939-a4b4-6da527f21443","kind":"bikerack","longitude":13.493585,"latitude":52.6416181,"name":"Fahrradabstellplatz","city":"Buch","address":null,"covered":false,"access":null,"website":null,"phone":null,"source":"OpenStreetMap/node/11050833904","sourceUpdatedAt":null,"verifiedAt":null}},{"type":"Feature","geometry":{"type":"Point","coordinates":[13.4950198,52.6244905]},"properties":{"id":"bikerack:e7441e73-7ba1-4cc1-b60d-fe77d66b66ac","kind":"bikerack","longitude":13.4950198,"latitude":52.6244905,"name":"Fahrradabstellplatz","city":"Buch","address":null,"covered":false,"access":null,"website":null,"phone":null,"source":"OpenStreetMap/node/11056818249","sourceUpdatedAt":null,"verifiedAt":null}},{"type":"Feature","geometry":{"type":"Point","coordinates":[13.4948159,52.6243088]},"properties":{"id":"bikerack:e90fb7b6-8a9f-4ad9-be5b-6898f2dcdf0b","kind":"bikerack","longitude":13.4948159,"latitude":52.6243088,"name":"Fahrradabstellplatz","city":"Buch","address":null,"covered":false,"access":null,"website":null,"phone":null,"source":"OpenStreetMap/node/11056818247","sourceUpdatedAt":null,"verifiedAt":null}},{"type":"Feature","geometry":{"type":"Point","coordinates":[13.5079085,52.6295311]},"properties":{"id":"bikerack:e9d360f9-bcf9-4301-9b4e-e501fc371c16","kind":"bikerack","longitude":13.5079085,"latitude":52.6295311,"name":"Fahrradabstellplatz","city":"Buch","address":null,"covered":true,"access":null,"website":null,"phone":null,"source":"OpenStreetMap/way/957569087","sourceUpdatedAt":null,"verifiedAt":null}},{"type":"Feature","geometry":{"type":"Point","coordinates":[13.4962419,52.6410288]},"properties":{"id":"bikerack:eaed5783-f399-4afa-8f1e-0acc006d233c","kind":"bikerack","longitude":13.4962419,"latitude":52.6410288,"name":"Fahrradabstellplatz","city":"Buch","address":null,"covered":false,"access":null,"website":null,"phone":null,"source":"OpenStreetMap/node/11048244208","sourceUpdatedAt":null,"verifiedAt":null}},{"type":"Feature","geometry":{"type":"Point","coordinates":[13.4969492,52.6307953]},"properties":{"id":"bikerack:ecae9c17-e80e-420b-b7a1-c75f74dafbdf","kind":"bikerack","longitude":13.4969492,"latitude":52.6307953,"name":"Fahrradabstellplatz","city":"Buch","address":null,"covered":false,"access":null,"website":null,"phone":null,"source":"OpenStreetMap/node/11962686579","sourceUpdatedAt":null,"verifiedAt":null}},{"type":"Feature","geometry":{"type":"Point","coordinates":[13.4938717,52.6410647]},"properties":{"id":"bikerack:ef52ffbc-4b88-4cb4-9623-c90ced863bf0","kind":"bikerack","longitude":13.4938717,"latitude":52.6410647,"name":"Fahrradabstellplatz","city":"Buch","address":null,"covered":false,"access":null,"website":null,"phone":null,"source":"OpenStreetMap/way/1292544970","sourceUpdatedAt":null,"verifiedAt":null}},{"type":"Feature","geometry":{"type":"Point","coordinates":[13.4964039,52.6343284]},"properties":{"id":"bikerack:f0cc8787-aae1-48de-86b7-4b69ce3ff293","kind":"bikerack","longitude":13.4964039,"latitude":52.6343284,"name":"Fahrradabstellplatz","city":"Buch","address":null,"covered":false,"access":null,"website":null,"phone":null,"source":"OpenStreetMap/node/12690674301","sourceUpdatedAt":null,"verifiedAt":null}},{"type":"Feature","geometry":{"type":"Point","coordinates":[13.5041593,52.625546]},"properties":{"id":"bikerack:f1822401-c382-4fb4-914d-7e37f91c791c","kind":"bikerack","longitude":13.5041593,"latitude":52.625546,"name":"Fahrradabstellplatz","city":"Buch","address":null,"covered":false,"access":null,"website":null,"phone":null,"source":"OpenStreetMap/way/1191223180","sourceUpdatedAt":null,"verifiedAt":null}},{"type":"Feature","geometry":{"type":"Point","coordinates":[13.4956416,52.6250434]},"properties":{"id":"bikerack:f4bd8ef6-ee77-4bd1-a6e5-c99ff17b7bf0","kind":"bikerack","longitude":13.4956416,"latitude":52.6250434,"name":"Fahrradabstellplatz","city":"Buch","address":null,"covered":false,"access":null,"website":null,"phone":null,"source":"OpenStreetMap/node/11056818255","sourceUpdatedAt":null,"verifiedAt":null}},{"type":"Feature","geometry":{"type":"Point","coordinates":[13.492284,52.6279545]},"properties":{"id":"bikerack:f514214d-07a0-4f07-b3b4-378a7f6a5804","kind":"bikerack","longitude":13.492284,"latitude":52.6279545,"name":"Fahrradabstellplatz","city":"Buch","address":null,"covered":false,"access":null,"website":null,"phone":null,"source":"OpenStreetMap/node/10749828080","sourceUpdatedAt":null,"verifiedAt":null}},{"type":"Feature","geometry":{"type":"Point","coordinates":[13.4947915,52.6239115]},"properties":{"id":"bikerack:f7298990-9b53-4294-aa0f-c5e05f2e8bd8","kind":"bikerack","longitude":13.4947915,"latitude":52.6239115,"name":"Fahrradabstellplatz","city":"Buch","address":null,"covered":false,"access":null,"website":null,"phone":null,"source":"OpenStreetMap/node/11962426276","sourceUpdatedAt":null,"verifiedAt":null}},{"type":"Feature","geometry":{"type":"Point","coordinates":[13.5026644,52.6365065]},"properties":{"id":"service:8e49138d-5ea2-457f-90b6-8b8590ebaa19","kind":"service","longitude":13.5026644,"latitude":52.6365065,"name":"FISCHER Store Berlin","city":"Buch","address":null,"covered":null,"access":null,"website":null,"phone":null,"source":"OpenStreetMap/node/11011996998","sourceUpdatedAt":null,"verifiedAt":null}},{"type":"Feature","geometry":{"type":"Point","coordinates":[13.502642,52.6278716]},"properties":{"id":"service:a80dde6d-a8c2-4e49-b58a-961a89dde5cf","kind":"service","longitude":13.502642,"latitude":52.6278716,"name":"Fahrradhof Buch","city":"Berlin","address":null,"covered":null,"access":null,"website":null,"phone":null,"source":"OpenStreetMap/way/631192984","sourceUpdatedAt":null,"verifiedAt":null}}]}