{"type":"FeatureCollection","features":[{"type":"Feature","geometry":{"type":"Point","coordinates":[13.531572,51.0498456]},"properties":{"id":"bikerack:1ebad0d4-f24c-4383-90ce-5779ab901416","kind":"bikerack","longitude":13.531572,"latitude":51.0498456,"name":"Fahrradabstellplatz","city":"Wilsdruff","address":null,"covered":false,"access":null,"website":null,"phone":null,"source":"OpenStreetMap/way/1153491033","sourceUpdatedAt":null,"verifiedAt":null}},{"type":"Feature","geometry":{"type":"Point","coordinates":[13.5318469,51.0498677]},"properties":{"id":"bikerack:22a47b60-fc00-4aa3-b74b-3bc6cbc27189","kind":"bikerack","longitude":13.5318469,"latitude":51.0498677,"name":"Fahrradabstellplatz","city":"Wilsdruff","address":null,"covered":false,"access":null,"website":null,"phone":null,"source":"OpenStreetMap/way/1153491031","sourceUpdatedAt":null,"verifiedAt":null}},{"type":"Feature","geometry":{"type":"Point","coordinates":[13.5314357,51.0498347]},"properties":{"id":"bikerack:2fe55674-af75-49f6-b52a-e5bd19a2575b","kind":"bikerack","longitude":13.5314357,"latitude":51.0498347,"name":"Fahrradabstellplatz","city":"Wilsdruff","address":null,"covered":false,"access":null,"website":null,"phone":null,"source":"OpenStreetMap/way/1153491034","sourceUpdatedAt":null,"verifiedAt":null}},{"type":"Feature","geometry":{"type":"Point","coordinates":[13.5325188,51.0493469]},"properties":{"id":"bikerack:3410d443-4f63-4429-94fe-3b0f1e6d320d","kind":"bikerack","longitude":13.5325188,"latitude":51.0493469,"name":"Fahrradabstellplatz","city":"Wilsdruff","address":null,"covered":false,"access":null,"website":null,"phone":null,"source":"OpenStreetMap/way/1153478262","sourceUpdatedAt":null,"verifiedAt":null}},{"type":"Feature","geometry":{"type":"Point","coordinates":[13.5324957,51.0497118]},"properties":{"id":"bikerack:5368cdd2-4f56-4345-8cc7-3cda8b404a6d","kind":"bikerack","longitude":13.5324957,"latitude":51.0497118,"name":"Fahrradabstellplatz","city":"Wilsdruff","address":null,"covered":false,"access":null,"website":null,"phone":null,"source":"OpenStreetMap/way/1153032851","sourceUpdatedAt":null,"verifiedAt":null}},{"type":"Feature","geometry":{"type":"Point","coordinates":[13.5321205,51.0498898]},"properties":{"id":"bikerack:95ed85fb-02f6-4b2c-867e-950c91c3654e","kind":"bikerack","longitude":13.5321205,"latitude":51.0498898,"name":"Fahrradabstellplatz","city":"Wilsdruff","address":null,"covered":false,"access":null,"website":null,"phone":null,"source":"OpenStreetMap/way/1153491029","sourceUpdatedAt":null,"verifiedAt":null}},{"type":"Feature","geometry":{"type":"Point","coordinates":[13.5314249,51.0497369]},"properties":{"id":"bikerack:99e9c37b-c864-4e8c-a178-000921db3994","kind":"bikerack","longitude":13.5314249,"latitude":51.0497369,"name":"Fahrradabstellplatz","city":"Wilsdruff","address":null,"covered":false,"access":null,"website":null,"phone":null,"source":"OpenStreetMap/way/1153733883","sourceUpdatedAt":null,"verifiedAt":null}},{"type":"Feature","geometry":{"type":"Point","coordinates":[13.5312989,51.0498234]},"properties":{"id":"bikerack:a0ea9027-ecd7-4f72-b0c2-73f9be2132a9","kind":"bikerack","longitude":13.5312989,"latitude":51.0498234,"name":"Fahrradabstellplatz","city":"Wilsdruff","address":null,"covered":false,"access":null,"website":null,"phone":null,"source":"OpenStreetMap/way/1153491035","sourceUpdatedAt":null,"verifiedAt":null}},{"type":"Feature","geometry":{"type":"Point","coordinates":[13.5322577,51.0499009]},"properties":{"id":"bikerack:b2fa7607-36d1-4e9c-a46b-4cb426877859","kind":"bikerack","longitude":13.5322577,"latitude":51.0499009,"name":"Fahrradabstellplatz","city":"Wilsdruff","address":null,"covered":false,"access":null,"website":null,"phone":null,"source":"OpenStreetMap/way/1153478258","sourceUpdatedAt":null,"verifiedAt":null}},{"type":"Feature","geometry":{"type":"Point","coordinates":[13.5330597,51.0498283]},"properties":{"id":"bikerack:e554f0b7-defb-4331-8c25-3a406b917230","kind":"bikerack","longitude":13.5330597,"latitude":51.0498283,"name":"Fahrradabstellplatz","city":"Wilsdruff","address":null,"covered":false,"access":null,"website":null,"phone":null,"source":"OpenStreetMap/way/961745680","sourceUpdatedAt":null,"verifiedAt":null}},{"type":"Feature","geometry":{"type":"Point","coordinates":[13.5317091,51.0498566]},"properties":{"id":"bikerack:e8f09e9a-75ff-4576-b38d-63a2c966f740","kind":"bikerack","longitude":13.5317091,"latitude":51.0498566,"name":"Fahrradabstellplatz","city":"Wilsdruff","address":null,"covered":false,"access":null,"website":null,"phone":null,"source":"OpenStreetMap/way/1153491032","sourceUpdatedAt":null,"verifiedAt":null}},{"type":"Feature","geometry":{"type":"Point","coordinates":[13.5319837,51.0498788]},"properties":{"id":"bikerack:f1c95738-4182-4f27-8d3c-9affca1e7988","kind":"bikerack","longitude":13.5319837,"latitude":51.0498788,"name":"Fahrradabstellplatz","city":"Wilsdruff","address":null,"covered":false,"access":null,"website":null,"phone":null,"source":"OpenStreetMap/way/1153491030","sourceUpdatedAt":null,"verifiedAt":null}},{"type":"Feature","geometry":{"type":"Point","coordinates":[13.5175192,51.0505203]},"properties":{"id":"service:44c19bbc-ef7a-4e7b-b064-4874368b4f88","kind":"service","longitude":13.5175192,"latitude":51.0505203,"name":"e-Motion","city":"Wilsdruff","address":null,"covered":null,"access":null,"website":null,"phone":null,"source":"OpenStreetMap/way/146644631","sourceUpdatedAt":null,"verifiedAt":null}}]}