{"type":"FeatureCollection","features":[{"type":"Feature","geometry":{"type":"Point","coordinates":[13.4993737,46.2915422]},"properties":{"id":"bikerack:7780c052-9af2-441e-bd99-ac76d0fb325c","kind":"bikerack","longitude":13.4993737,"latitude":46.2915422,"name":"Biciklitároló","city":"Bovec","address":null,"covered":false,"access":null,"website":null,"phone":null,"source":"OpenStreetMap/node/11246897214","sourceUpdatedAt":null,"verifiedAt":null}},{"type":"Feature","geometry":{"type":"Point","coordinates":[13.4993394,46.2915687]},"properties":{"id":"water:155e8760-efeb-4b61-9680-d142ff8bc009","kind":"water","longitude":13.4993394,"latitude":46.2915687,"name":"Ivókút","city":"Bovec","address":null,"covered":null,"access":null,"website":null,"phone":null,"source":"OpenStreetMap/node/11246914396","sourceUpdatedAt":null,"verifiedAt":null}},{"type":"Feature","geometry":{"type":"Point","coordinates":[13.4986674,46.290717]},"properties":{"id":"water:174194c9-619e-4cce-91a9-7990e94ad346","kind":"water","longitude":13.4986674,"latitude":46.290717,"name":"Ivókút","city":"Bovec","address":null,"covered":null,"access":null,"website":null,"phone":null,"source":"OpenStreetMap/node/4339354721","sourceUpdatedAt":null,"verifiedAt":null}},{"type":"Feature","geometry":{"type":"Point","coordinates":[13.4985086,46.2909307]},"properties":{"id":"water:2366b5a8-6f16-43e2-a965-ace38cffe6b6","kind":"water","longitude":13.4985086,"latitude":46.2909307,"name":"Ivókút","city":"Bovec","address":null,"covered":null,"access":null,"website":null,"phone":null,"source":"OpenStreetMap/node/4373635434","sourceUpdatedAt":null,"verifiedAt":null}},{"type":"Feature","geometry":{"type":"Point","coordinates":[13.5095884,46.291708]},"properties":{"id":"water:ed79cc3a-ad69-4104-b981-6260a939d80d","kind":"water","longitude":13.5095884,"latitude":46.291708,"name":"Ivókút","city":"Bovec","address":null,"covered":null,"access":null,"website":null,"phone":null,"source":"OpenStreetMap/node/5754263684","sourceUpdatedAt":null,"verifiedAt":null}}]}