{"type":"FeatureCollection","features":[{"type":"Feature","geometry":{"type":"Point","coordinates":[12.1057891,46.7559129]},"properties":{"id":"bikerack:1b996f17-0055-4ea9-b172-21cfe50e5f97","kind":"bikerack","longitude":12.1057891,"latitude":46.7559129,"name":"Parcheggio bici","city":"Monguelfo","address":null,"covered":false,"access":null,"website":null,"phone":null,"source":"OpenStreetMap/node/13077826026","sourceUpdatedAt":null,"verifiedAt":null}},{"type":"Feature","geometry":{"type":"Point","coordinates":[12.1075538,46.7528438]},"properties":{"id":"bikerack:63268f47-76b5-49ce-816f-a801e60659b6","kind":"bikerack","longitude":12.1075538,"latitude":46.7528438,"name":"Parcheggio bici","city":"Monguelfo","address":null,"covered":true,"access":null,"website":null,"phone":null,"source":"OpenStreetMap/way/711724214","sourceUpdatedAt":null,"verifiedAt":null}},{"type":"Feature","geometry":{"type":"Point","coordinates":[12.1071385,46.7530255]},"properties":{"id":"bikerack:8b6e7895-cb3f-4432-ac5e-4ce4a5650fee","kind":"bikerack","longitude":12.1071385,"latitude":46.7530255,"name":"Parcheggio bici","city":"Monguelfo","address":null,"covered":true,"access":null,"website":null,"phone":null,"source":"OpenStreetMap/way/711724205","sourceUpdatedAt":null,"verifiedAt":null}},{"type":"Feature","geometry":{"type":"Point","coordinates":[12.1020599,46.75851]},"properties":{"id":"service:3dd2bc20-3394-4f63-aa61-e83088bf8add","kind":"service","longitude":12.1020599,"latitude":46.75851,"name":"Wintec Bikes & Service Di Winkler Paul","city":"Monguelfo","address":null,"covered":null,"access":null,"website":null,"phone":null,"source":"OpenStreetMap/node/13043530325","sourceUpdatedAt":null,"verifiedAt":null}},{"type":"Feature","geometry":{"type":"Point","coordinates":[12.1076874,46.7528085]},"properties":{"id":"water:0b9457cd-2985-47c3-aff6-b90fb7fd3488","kind":"water","longitude":12.1076874,"latitude":46.7528085,"name":"Fontanella","city":"Monguelfo","address":null,"covered":null,"access":null,"website":null,"phone":null,"source":"OpenStreetMap/node/9891758893","sourceUpdatedAt":null,"verifiedAt":null}},{"type":"Feature","geometry":{"type":"Point","coordinates":[12.1054989,46.7555877]},"properties":{"id":"water:389a39f8-444f-494c-a141-e507772b5818","kind":"water","longitude":12.1054989,"latitude":46.7555877,"name":"Fontanella","city":"Monguelfo","address":null,"covered":null,"access":null,"website":null,"phone":null,"source":"OpenStreetMap/node/1843790083","sourceUpdatedAt":null,"verifiedAt":null}},{"type":"Feature","geometry":{"type":"Point","coordinates":[12.1053116,46.7579497]},"properties":{"id":"water:3a143b16-dce1-45d4-a848-59ca69a9db69","kind":"water","longitude":12.1053116,"latitude":46.7579497,"name":"Fontanella","city":"Monguelfo","address":null,"covered":null,"access":null,"website":null,"phone":null,"source":"OpenStreetMap/node/9006242959","sourceUpdatedAt":null,"verifiedAt":null}},{"type":"Feature","geometry":{"type":"Point","coordinates":[12.1039943,46.7569998]},"properties":{"id":"water:542af8de-94f8-4706-9d51-42c0733eb56f","kind":"water","longitude":12.1039943,"latitude":46.7569998,"name":"Fontanella","city":"Monguelfo","address":null,"covered":null,"access":null,"website":null,"phone":null,"source":"OpenStreetMap/node/7850209428","sourceUpdatedAt":null,"verifiedAt":null}},{"type":"Feature","geometry":{"type":"Point","coordinates":[12.105435,46.7560017]},"properties":{"id":"water:8c8facf6-8e0f-49d8-8af0-a68164c45ce2","kind":"water","longitude":12.105435,"latitude":46.7560017,"name":"Fontanella","city":"Monguelfo","address":null,"covered":null,"access":null,"website":null,"phone":null,"source":"OpenStreetMap/node/5167581904","sourceUpdatedAt":null,"verifiedAt":null}},{"type":"Feature","geometry":{"type":"Point","coordinates":[12.107464,46.7538794]},"properties":{"id":"water:c70b422e-d47b-474c-8f33-5977dfd1093e","kind":"water","longitude":12.107464,"latitude":46.7538794,"name":"Fontanella","city":"Monguelfo","address":null,"covered":null,"access":null,"website":null,"phone":null,"source":"OpenStreetMap/node/13077826028","sourceUpdatedAt":null,"verifiedAt":null}},{"type":"Feature","geometry":{"type":"Point","coordinates":[12.1041028,46.7574635]},"properties":{"id":"water:fa48087b-c571-4b5c-bcc0-39798d05d133","kind":"water","longitude":12.1041028,"latitude":46.7574635,"name":"Fontanella","city":"Monguelfo","address":null,"covered":null,"access":null,"website":null,"phone":null,"source":"OpenStreetMap/node/10916470437","sourceUpdatedAt":null,"verifiedAt":null}}]}