{"type":"FeatureCollection","features":[{"type":"Feature","geometry":{"type":"Point","coordinates":[12.3483609,49.6195978]},"properties":{"id":"bikerack:eaedcd51-2bbe-49d3-beb6-48fdfad2e561","kind":"bikerack","longitude":12.3483609,"latitude":49.6195978,"name":"Fahrradabstellplatz","city":"Vohenstrauss","address":null,"covered":true,"access":null,"website":null,"phone":null,"source":"OpenStreetMap/node/6449598757","sourceUpdatedAt":null,"verifiedAt":null}},{"type":"Feature","geometry":{"type":"Point","coordinates":[12.3316554,49.6321052]},"properties":{"id":"service:71a335bf-44e6-4484-bb87-310e696d927d","kind":"service","longitude":12.3316554,"latitude":49.6321052,"name":"Radsport Eckl","city":"Vohenstrauß","address":null,"covered":null,"access":null,"website":null,"phone":null,"source":"OpenStreetMap/way/333114863","sourceUpdatedAt":null,"verifiedAt":null}}]}