{"type":"FeatureCollection","features":[{"type":"Feature","geometry":{"type":"Point","coordinates":[12.3171604,48.6069599]},"properties":{"id":"bikerack:4a688119-3e5b-45b4-8511-3fa884cf8d21","kind":"bikerack","longitude":12.3171604,"latitude":48.6069599,"name":"Fahrradabstellplatz","city":"Niederaichbach","address":null,"covered":true,"access":null,"website":null,"phone":null,"source":"OpenStreetMap/way/1071304225","sourceUpdatedAt":null,"verifiedAt":null}},{"type":"Feature","geometry":{"type":"Point","coordinates":[12.3171226,48.6068914]},"properties":{"id":"bikerack:60b0fa6c-b758-460b-b1b0-b4ffd87fd9cd","kind":"bikerack","longitude":12.3171226,"latitude":48.6068914,"name":"Fahrradabstellplatz","city":"Niederaichbach","address":null,"covered":true,"access":null,"website":null,"phone":null,"source":"OpenStreetMap/way/1071304224","sourceUpdatedAt":null,"verifiedAt":null}},{"type":"Feature","geometry":{"type":"Point","coordinates":[12.3290846,48.6210053]},"properties":{"id":"bikerack:6370de6a-7168-430e-9014-20b1802be56c","kind":"bikerack","longitude":12.3290846,"latitude":48.6210053,"name":"Fahrradabstellplatz","city":"Worth an der Isar","address":null,"covered":false,"access":null,"website":null,"phone":null,"source":"OpenStreetMap/node/4783346890","sourceUpdatedAt":null,"verifiedAt":null}},{"type":"Feature","geometry":{"type":"Point","coordinates":[12.3328132,48.6240028]},"properties":{"id":"bikerack:8929e8d8-bdaf-44a4-8efa-f150f90b304a","kind":"bikerack","longitude":12.3328132,"latitude":48.6240028,"name":"Fahrradabstellplatz","city":"Worth an der Isar","address":null,"covered":true,"access":null,"website":null,"phone":null,"source":"OpenStreetMap/way/453953468","sourceUpdatedAt":null,"verifiedAt":null}},{"type":"Feature","geometry":{"type":"Point","coordinates":[12.31853,48.6264582]},"properties":{"id":"bikerack:8fe07d36-1aa7-4175-9fe6-55d8628ba1fe","kind":"bikerack","longitude":12.31853,"latitude":48.6264582,"name":"Fahrradabstellplatz","city":"Worth an der Isar","address":null,"covered":false,"access":null,"website":null,"phone":null,"source":"OpenStreetMap/way/1293532593","sourceUpdatedAt":null,"verifiedAt":null}},{"type":"Feature","geometry":{"type":"Point","coordinates":[12.317251,48.6072199]},"properties":{"id":"bikerack:93f40bf2-b6b8-4993-8d85-e1b28311e6fa","kind":"bikerack","longitude":12.317251,"latitude":48.6072199,"name":"Fahrradabstellplatz","city":"Niederaichbach","address":null,"covered":false,"access":null,"website":null,"phone":null,"source":"OpenStreetMap/node/9831259368","sourceUpdatedAt":null,"verifiedAt":null}},{"type":"Feature","geometry":{"type":"Point","coordinates":[12.3170401,48.6069121]},"properties":{"id":"bikerack:a226bbf6-8eb4-4d70-970d-5c20e2a220eb","kind":"bikerack","longitude":12.3170401,"latitude":48.6069121,"name":"Fahrradabstellplatz","city":"Niederaichbach","address":null,"covered":true,"access":null,"website":null,"phone":null,"source":"OpenStreetMap/way/1071304223","sourceUpdatedAt":null,"verifiedAt":null}},{"type":"Feature","geometry":{"type":"Point","coordinates":[12.3170771,48.6069799]},"properties":{"id":"bikerack:d4006df2-58ed-4aac-8746-a9c03075d5bc","kind":"bikerack","longitude":12.3170771,"latitude":48.6069799,"name":"Fahrradabstellplatz","city":"Niederaichbach","address":null,"covered":true,"access":null,"website":null,"phone":null,"source":"OpenStreetMap/way/1071304226","sourceUpdatedAt":null,"verifiedAt":null}},{"type":"Feature","geometry":{"type":"Point","coordinates":[12.3191392,48.6263805]},"properties":{"id":"bikerack:e051f2b7-369b-49fa-ab2a-e0884a200937","kind":"bikerack","longitude":12.3191392,"latitude":48.6263805,"name":"Fahrradabstellplatz","city":"Worth an der Isar","address":null,"covered":false,"access":null,"website":null,"phone":null,"source":"OpenStreetMap/node/11991073328","sourceUpdatedAt":null,"verifiedAt":null}}]}