{"type":"FeatureCollection","features":[{"type":"Feature","geometry":{"type":"Point","coordinates":[12.3482693,45.8429534]},"properties":{"id":"bikerack:3bd2770b-7512-45d8-b5be-32a85d550913","kind":"bikerack","longitude":12.3482693,"latitude":45.8429534,"name":"Parcheggio bici","city":"Mareno di Piave","address":null,"covered":false,"access":null,"website":null,"phone":null,"source":"OpenStreetMap/node/11114625653","sourceUpdatedAt":null,"verifiedAt":null}},{"type":"Feature","geometry":{"type":"Point","coordinates":[12.3411886,45.8441568]},"properties":{"id":"bikerack:4d905504-002f-440e-8bcf-1b9653728e27","kind":"bikerack","longitude":12.3411886,"latitude":45.8441568,"name":"Parcheggio bici","city":"Mareno di Piave","address":null,"covered":false,"access":null,"website":null,"phone":null,"source":"OpenStreetMap/node/10926041525","sourceUpdatedAt":null,"verifiedAt":null}},{"type":"Feature","geometry":{"type":"Point","coordinates":[12.3091101,45.8505718]},"properties":{"id":"service:3caf555c-04fe-432f-8f37-671b0746d3b7","kind":"service","longitude":12.3091101,"latitude":45.8505718,"name":"Ciclo Piave","city":"Santa Lucia di Piave","address":null,"covered":null,"access":null,"website":null,"phone":null,"source":"OpenStreetMap/node/13458939633","sourceUpdatedAt":null,"verifiedAt":null}}]}