{"type":"FeatureCollection","features":[{"type":"Feature","geometry":{"type":"Point","coordinates":[12.3481115,45.8131821]},"properties":{"id":"water:b5007f44-c6d5-4b4e-9586-2edc6ab2a91b","kind":"water","longitude":12.3481115,"latitude":45.8131821,"name":"Fontanella","city":"San Michele di Piave","address":null,"covered":null,"access":null,"website":null,"phone":null,"source":"OpenStreetMap/node/6681803379","sourceUpdatedAt":null,"verifiedAt":null}},{"type":"Feature","geometry":{"type":"Point","coordinates":[12.3147222,45.8185556]},"properties":{"id":"water:e9c6dbef-5838-406b-a565-2b07dccafe1c","kind":"water","longitude":12.3147222,"latitude":45.8185556,"name":"Fontanella","city":"Mareno di Piave","address":null,"covered":null,"access":null,"website":null,"phone":null,"source":"OpenStreetMap/node/12703100917","sourceUpdatedAt":null,"verifiedAt":null}}]}