{"type":"FeatureCollection","features":[{"type":"Feature","geometry":{"type":"Point","coordinates":[12.3407763,45.0761487]},"properties":{"id":"bikerack:143429d2-7d89-4f75-873a-87875444f3f5","kind":"bikerack","longitude":12.3407763,"latitude":45.0761487,"name":"Parcheggio bici","city":"Rosolina","address":null,"covered":false,"access":null,"website":null,"phone":null,"source":"OpenStreetMap/node/6125798207","sourceUpdatedAt":null,"verifiedAt":null}},{"type":"Feature","geometry":{"type":"Point","coordinates":[12.3480695,45.0823345]},"properties":{"id":"bikerack:1bb8d5fb-3b81-41ea-bae3-8cad4730ca66","kind":"bikerack","longitude":12.3480695,"latitude":45.0823345,"name":"Parcheggio bici","city":"Sant'Anna","address":null,"covered":false,"access":null,"website":null,"phone":null,"source":"OpenStreetMap/node/6125798212","sourceUpdatedAt":null,"verifiedAt":null}},{"type":"Feature","geometry":{"type":"Point","coordinates":[12.3394563,45.0812034]},"properties":{"id":"bikerack:33ebc627-5b2d-4b27-b1be-1a407c24af56","kind":"bikerack","longitude":12.3394563,"latitude":45.0812034,"name":"Parcheggio bici","city":"Sant'Anna","address":null,"covered":false,"access":null,"website":null,"phone":null,"source":"OpenStreetMap/node/8996174875","sourceUpdatedAt":null,"verifiedAt":null}},{"type":"Feature","geometry":{"type":"Point","coordinates":[12.346601,45.0832246]},"properties":{"id":"bikerack:693ab646-62f3-4596-bc1e-8781ae963eeb","kind":"bikerack","longitude":12.346601,"latitude":45.0832246,"name":"Parcheggio bici","city":"Sant'Anna","address":null,"covered":false,"access":null,"website":null,"phone":null,"source":"OpenStreetMap/node/6125798210","sourceUpdatedAt":null,"verifiedAt":null}},{"type":"Feature","geometry":{"type":"Point","coordinates":[12.3461236,45.0828136]},"properties":{"id":"bikerack:789449f7-2a0f-41e8-a477-f7b093d022d9","kind":"bikerack","longitude":12.3461236,"latitude":45.0828136,"name":"Parcheggio bici","city":"Sant'Anna","address":null,"covered":false,"access":null,"website":null,"phone":null,"source":"OpenStreetMap/node/6125798211","sourceUpdatedAt":null,"verifiedAt":null}},{"type":"Feature","geometry":{"type":"Point","coordinates":[12.3420004,45.076645]},"properties":{"id":"bikerack:7ebc95bc-163d-4c26-b765-e2784397316d","kind":"bikerack","longitude":12.3420004,"latitude":45.076645,"name":"Parcheggio bici","city":"Rosolina","address":null,"covered":false,"access":null,"website":null,"phone":null,"source":"OpenStreetMap/node/6125798205","sourceUpdatedAt":null,"verifiedAt":null}},{"type":"Feature","geometry":{"type":"Point","coordinates":[12.3387308,45.0815528]},"properties":{"id":"bikerack:a488486d-8907-4011-aa75-eac24a4752d0","kind":"bikerack","longitude":12.3387308,"latitude":45.0815528,"name":"Parcheggio bici","city":"Sant'Anna","address":null,"covered":false,"access":null,"website":null,"phone":null,"source":"OpenStreetMap/node/6125798208","sourceUpdatedAt":null,"verifiedAt":null}},{"type":"Feature","geometry":{"type":"Point","coordinates":[12.335665,45.074185]},"properties":{"id":"bikerack:c6e02b4c-4404-47ea-bdc6-0e220e0699d3","kind":"bikerack","longitude":12.335665,"latitude":45.074185,"name":"Parcheggio bici","city":"Rosolina","address":null,"covered":false,"access":null,"website":null,"phone":null,"source":"OpenStreetMap/node/6125798204","sourceUpdatedAt":null,"verifiedAt":null}},{"type":"Feature","geometry":{"type":"Point","coordinates":[12.3411251,45.0746618]},"properties":{"id":"bikerack:cf0beda6-b0c6-4d32-980b-5125c4f0aa44","kind":"bikerack","longitude":12.3411251,"latitude":45.0746618,"name":"Parcheggio bici","city":"Rosolina","address":null,"covered":false,"access":null,"website":null,"phone":null,"source":"OpenStreetMap/way/975046493","sourceUpdatedAt":null,"verifiedAt":null}},{"type":"Feature","geometry":{"type":"Point","coordinates":[12.3469601,45.0631625]},"properties":{"id":"bikerack:d0054874-6443-494f-b814-9b1a8bbd8916","kind":"bikerack","longitude":12.3469601,"latitude":45.0631625,"name":"Parcheggio bici","city":"Ca' Tiepolo","address":null,"covered":false,"access":null,"website":null,"phone":null,"source":"OpenStreetMap/node/9972367384","sourceUpdatedAt":null,"verifiedAt":null}},{"type":"Feature","geometry":{"type":"Point","coordinates":[12.3394861,45.0812341]},"properties":{"id":"bikerack:d86dd54b-7571-4965-ae5f-3f2bdd21e386","kind":"bikerack","longitude":12.3394861,"latitude":45.0812341,"name":"Parcheggio bici","city":"Sant'Anna","address":null,"covered":false,"access":null,"website":null,"phone":null,"source":"OpenStreetMap/node/8996174879","sourceUpdatedAt":null,"verifiedAt":null}},{"type":"Feature","geometry":{"type":"Point","coordinates":[12.3395032,45.0812639]},"properties":{"id":"bikerack:e4685c16-e05c-45f8-86f2-c2ff8e04bbaf","kind":"bikerack","longitude":12.3395032,"latitude":45.0812639,"name":"Parcheggio bici","city":"Sant'Anna","address":null,"covered":false,"access":null,"website":null,"phone":null,"source":"OpenStreetMap/node/8996174876","sourceUpdatedAt":null,"verifiedAt":null}},{"type":"Feature","geometry":{"type":"Point","coordinates":[12.3370698,45.087442]},"properties":{"id":"bikerack:f85edfcc-40b1-4b59-a07a-14121f72ae62","kind":"bikerack","longitude":12.3370698,"latitude":45.087442,"name":"Parcheggio bici","city":"Sant'Anna","address":null,"covered":false,"access":null,"website":null,"phone":null,"source":"OpenStreetMap/node/6125798209","sourceUpdatedAt":null,"verifiedAt":null}},{"type":"Feature","geometry":{"type":"Point","coordinates":[12.3469432,45.0636657]},"properties":{"id":"repair:869611a7-55dd-4d67-9d0e-56640f49f853","kind":"repair","longitude":12.3469432,"latitude":45.0636657,"name":"Stazione di riparazione bici","city":"Ca' Tiepolo","address":null,"covered":false,"access":null,"website":null,"phone":null,"source":"OpenStreetMap/node/12866891502","sourceUpdatedAt":null,"verifiedAt":null}},{"type":"Feature","geometry":{"type":"Point","coordinates":[12.3403146,45.0760905]},"properties":{"id":"repair:e615479b-c557-4955-b33f-566ceb412c77","kind":"repair","longitude":12.3403146,"latitude":45.0760905,"name":"Stazione di riparazione bici","city":"Rosolina","address":null,"covered":false,"access":null,"website":null,"phone":null,"source":"OpenStreetMap/node/6125798562","sourceUpdatedAt":null,"verifiedAt":null}}]}