{"type":"FeatureCollection","features":[{"type":"Feature","geometry":{"type":"Point","coordinates":[9.2132579,49.6684201]},"properties":{"id":"bikerack:82675076-ac34-481f-ae1d-843283392abd","kind":"bikerack","longitude":9.2132579,"latitude":49.6684201,"name":"Fahrradabstellplatz","city":"Weilbach","address":null,"covered":false,"access":null,"website":null,"phone":null,"source":"OpenStreetMap/node/9616195706","sourceUpdatedAt":null,"verifiedAt":null}},{"type":"Feature","geometry":{"type":"Point","coordinates":[9.1860094,49.690538]},"properties":{"id":"bikerack:e82877c1-e295-438c-a709-0dbba262defc","kind":"bikerack","longitude":9.1860094,"latitude":49.690538,"name":"Fahrradabstellplatz","city":"Rudenau","address":null,"covered":false,"access":null,"website":null,"phone":null,"source":"OpenStreetMap/node/8750560411","sourceUpdatedAt":null,"verifiedAt":null}}]}