{"type":"FeatureCollection","features":[{"type":"Feature","geometry":{"type":"Point","coordinates":[9.228042,47.723591]},"properties":{"id":"bikerack:063c18c8-536e-4cba-b1ca-1e1c424148d1","kind":"bikerack","longitude":9.228042,"latitude":47.723591,"name":"Fahrradabstellplatz","city":"Uhldingen-Muhlhofen","address":null,"covered":false,"access":null,"website":null,"phone":null,"source":"OpenStreetMap/way/1124931285","sourceUpdatedAt":null,"verifiedAt":null}},{"type":"Feature","geometry":{"type":"Point","coordinates":[9.2271664,47.7232849]},"properties":{"id":"bikerack:6457b232-76d8-47fe-ab81-b0ee428e9176","kind":"bikerack","longitude":9.2271664,"latitude":47.7232849,"name":"Fahrradabstellplatz","city":"Uhldingen-Muhlhofen","address":null,"covered":false,"access":null,"website":null,"phone":null,"source":"OpenStreetMap/node/12919833345","sourceUpdatedAt":null,"verifiedAt":null}},{"type":"Feature","geometry":{"type":"Point","coordinates":[9.2010683,47.7056591]},"properties":{"id":"bikerack:6b6b521b-9c68-4372-b019-595329884656","kind":"bikerack","longitude":9.2010683,"latitude":47.7056591,"name":"Fahrradabstellplatz","city":"Konstanz","address":null,"covered":false,"access":null,"website":null,"phone":null,"source":"OpenStreetMap/node/12071255627","sourceUpdatedAt":null,"verifiedAt":null}},{"type":"Feature","geometry":{"type":"Point","coordinates":[9.1849123,47.7011684]},"properties":{"id":"bikerack:720a18e0-ce97-4ee6-ac84-503a438f1866","kind":"bikerack","longitude":9.1849123,"latitude":47.7011684,"name":"Fahrradabstellplatz","city":"Konstanz","address":null,"covered":false,"access":null,"website":null,"phone":null,"source":"OpenStreetMap/node/1287571220","sourceUpdatedAt":null,"verifiedAt":null}},{"type":"Feature","geometry":{"type":"Point","coordinates":[9.192048,47.6952466]},"properties":{"id":"bikerack:784bc99f-9f7c-4755-94c7-453aac9d0cc5","kind":"bikerack","longitude":9.192048,"latitude":47.6952466,"name":"Fahrradabstellplatz","city":"Konstanz","address":null,"covered":false,"access":null,"website":null,"phone":null,"source":"OpenStreetMap/node/5966988456","sourceUpdatedAt":null,"verifiedAt":null}},{"type":"Feature","geometry":{"type":"Point","coordinates":[9.1918926,47.6952648]},"properties":{"id":"bikerack:a6030779-d81d-4bd7-8b83-8bcdc928da3d","kind":"bikerack","longitude":9.1918926,"latitude":47.6952648,"name":"Fahrradabstellplatz","city":"Konstanz","address":null,"covered":false,"access":null,"website":null,"phone":null,"source":"OpenStreetMap/node/5966988435","sourceUpdatedAt":null,"verifiedAt":null}},{"type":"Feature","geometry":{"type":"Point","coordinates":[9.1848269,47.7011184]},"properties":{"id":"repair:ddb038dd-91f6-493e-a6ea-8a0b36ceed80","kind":"repair","longitude":9.1848269,"latitude":47.7011184,"name":"RadService-Punkt Mainau","city":"Konstanz","address":null,"covered":false,"access":null,"website":null,"phone":null,"source":"OpenStreetMap/node/10676254576","sourceUpdatedAt":null,"verifiedAt":null}}]}