{"type":"FeatureCollection","features":[{"type":"Feature","geometry":{"type":"Point","coordinates":[9.2093485,47.4738455]},"properties":{"id":"water:0c3c6a64-d8ee-4448-90c0-c9bbf3c995da","kind":"water","longitude":9.2093485,"latitude":47.4738455,"name":"Drinking Fountain","city":"Niederburen","address":null,"covered":null,"access":null,"website":null,"phone":null,"source":"OpenStreetMap/node/5748425818","sourceUpdatedAt":null,"verifiedAt":null}},{"type":"Feature","geometry":{"type":"Point","coordinates":[9.2057641,47.4650027]},"properties":{"id":"water:225dc032-c929-496c-8f76-365ae872fcaa","kind":"water","longitude":9.2057641,"latitude":47.4650027,"name":"Drinking Fountain","city":"Niederburen","address":null,"covered":null,"access":null,"website":null,"phone":null,"source":"OpenStreetMap/node/13592764553","sourceUpdatedAt":null,"verifiedAt":null}}]}