{"type":"FeatureCollection","features":[{"type":"Feature","geometry":{"type":"Point","coordinates":[9.1848427,47.4170239]},"properties":{"id":"bikerack:03023115-29ae-4625-a853-1c253e7e8e50","kind":"bikerack","longitude":9.1848427,"latitude":47.4170239,"name":"Bicycle Parking","city":"Flawil","address":null,"covered":true,"access":null,"website":null,"phone":null,"source":"OpenStreetMap/node/10948502080","sourceUpdatedAt":null,"verifiedAt":null}},{"type":"Feature","geometry":{"type":"Point","coordinates":[9.1892641,47.4155102]},"properties":{"id":"bikerack:2b906b15-fd04-4a6e-9443-dcab60d6953e","kind":"bikerack","longitude":9.1892641,"latitude":47.4155102,"name":"Bicycle Parking","city":"Flawil","address":null,"covered":true,"access":null,"website":null,"phone":null,"source":"OpenStreetMap/way/1082530070","sourceUpdatedAt":null,"verifiedAt":null}},{"type":"Feature","geometry":{"type":"Point","coordinates":[9.1906527,47.4145621]},"properties":{"id":"bikerack:67a9a942-96f3-44a4-a71e-1776b898b233","kind":"bikerack","longitude":9.1906527,"latitude":47.4145621,"name":"Bicycle Parking","city":"Flawil","address":null,"covered":true,"access":null,"website":null,"phone":null,"source":"OpenStreetMap/way/196654610","sourceUpdatedAt":null,"verifiedAt":null}},{"type":"Feature","geometry":{"type":"Point","coordinates":[9.1904513,47.4147527]},"properties":{"id":"bikerack:758c5409-fa9e-4a36-930a-78a622f2b2a3","kind":"bikerack","longitude":9.1904513,"latitude":47.4147527,"name":"Bicycle Parking","city":"Flawil","address":null,"covered":true,"access":null,"website":null,"phone":null,"source":"OpenStreetMap/way/1079211445","sourceUpdatedAt":null,"verifiedAt":null}},{"type":"Feature","geometry":{"type":"Point","coordinates":[9.1896793,47.4151839]},"properties":{"id":"bikerack:82b6f8ad-9848-40c9-b461-cb72ef49614a","kind":"bikerack","longitude":9.1896793,"latitude":47.4151839,"name":"Bicycle Parking","city":"Flawil","address":null,"covered":false,"access":null,"website":null,"phone":null,"source":"OpenStreetMap/node/12052892607","sourceUpdatedAt":null,"verifiedAt":null}},{"type":"Feature","geometry":{"type":"Point","coordinates":[9.1888437,47.4157059]},"properties":{"id":"bikerack:925e8501-b1fc-476b-be6b-aefe4a9f61ed","kind":"bikerack","longitude":9.1888437,"latitude":47.4157059,"name":"Bicycle Parking","city":"Flawil","address":null,"covered":true,"access":null,"website":null,"phone":null,"source":"OpenStreetMap/way/1082530063","sourceUpdatedAt":null,"verifiedAt":null}},{"type":"Feature","geometry":{"type":"Point","coordinates":[9.1850983,47.4179176]},"properties":{"id":"bikerack:98104907-693f-4b61-afca-794bbfb0ae76","kind":"bikerack","longitude":9.1850983,"latitude":47.4179176,"name":"Bicycle Parking","city":"Flawil","address":null,"covered":true,"access":null,"website":null,"phone":null,"source":"OpenStreetMap/node/10948502079","sourceUpdatedAt":null,"verifiedAt":null}},{"type":"Feature","geometry":{"type":"Point","coordinates":[9.1904625,47.414666]},"properties":{"id":"bikerack:b65100bd-482d-4382-ae4d-4ef57bf7ddad","kind":"bikerack","longitude":9.1904625,"latitude":47.414666,"name":"Bicycle Parking","city":"Flawil","address":null,"covered":true,"access":null,"website":null,"phone":null,"source":"OpenStreetMap/way/196654612","sourceUpdatedAt":null,"verifiedAt":null}},{"type":"Feature","geometry":{"type":"Point","coordinates":[9.1908621,47.4144795]},"properties":{"id":"bikerack:e9a06682-f532-4af0-bba8-79cc9e25b7fc","kind":"bikerack","longitude":9.1908621,"latitude":47.4144795,"name":"Bicycle Parking","city":"Flawil","address":null,"covered":true,"access":null,"website":null,"phone":null,"source":"OpenStreetMap/way/1079211443","sourceUpdatedAt":null,"verifiedAt":null}},{"type":"Feature","geometry":{"type":"Point","coordinates":[9.1906577,47.4146161]},"properties":{"id":"bikerack:eced06fc-53af-4dea-8a80-b338b2cee303","kind":"bikerack","longitude":9.1906577,"latitude":47.4146161,"name":"Bicycle Parking","city":"Flawil","address":null,"covered":true,"access":null,"website":null,"phone":null,"source":"OpenStreetMap/way/1079211444","sourceUpdatedAt":null,"verifiedAt":null}},{"type":"Feature","geometry":{"type":"Point","coordinates":[9.1887307,47.4156216]},"properties":{"id":"repair:de4062c8-80fc-4998-893b-4fe5e2e49438","kind":"repair","longitude":9.1887307,"latitude":47.4156216,"name":"Bicycle Repair Station","city":"Flawil","address":null,"covered":false,"access":null,"website":null,"phone":null,"source":"OpenStreetMap/node/9921009072","sourceUpdatedAt":null,"verifiedAt":null}},{"type":"Feature","geometry":{"type":"Point","coordinates":[9.1859339,47.416]},"properties":{"id":"service:4bd23c32-3a9b-40b2-900f-a210561f4ced","kind":"service","longitude":9.1859339,"latitude":47.416,"name":"Bikecenter Flawil","city":"Flawil","address":null,"covered":null,"access":null,"website":null,"phone":null,"source":"OpenStreetMap/node/9491453769","sourceUpdatedAt":null,"verifiedAt":null}},{"type":"Feature","geometry":{"type":"Point","coordinates":[9.209722,47.4054049]},"properties":{"id":"water:0b797821-45c0-4858-aebb-316937c9a9e2","kind":"water","longitude":9.209722,"latitude":47.4054049,"name":"Drinking Fountain","city":"Flawil","address":null,"covered":null,"access":null,"website":null,"phone":null,"source":"OpenStreetMap/node/2576004345","sourceUpdatedAt":null,"verifiedAt":null}},{"type":"Feature","geometry":{"type":"Point","coordinates":[9.2098513,47.405973]},"properties":{"id":"water:17c994b3-596d-4050-af14-23d5969ebf6e","kind":"water","longitude":9.2098513,"latitude":47.405973,"name":"Drinking Fountain","city":"Flawil","address":null,"covered":null,"access":null,"website":null,"phone":null,"source":"OpenStreetMap/node/13076584932","sourceUpdatedAt":null,"verifiedAt":null}},{"type":"Feature","geometry":{"type":"Point","coordinates":[9.2027683,47.4099351]},"properties":{"id":"water:95a8b408-338a-4d88-9d4d-399df188a2e7","kind":"water","longitude":9.2027683,"latitude":47.4099351,"name":"Drinking Fountain","city":"Flawil","address":null,"covered":null,"access":null,"website":null,"phone":null,"source":"OpenStreetMap/node/10090625919","sourceUpdatedAt":null,"verifiedAt":null}},{"type":"Feature","geometry":{"type":"Point","coordinates":[9.2072454,47.4065386]},"properties":{"id":"water:96049def-3670-48d5-988d-12d86ba9f25b","kind":"water","longitude":9.2072454,"latitude":47.4065386,"name":"Drinking Fountain","city":"Flawil","address":null,"covered":null,"access":null,"website":null,"phone":null,"source":"OpenStreetMap/node/13076584787","sourceUpdatedAt":null,"verifiedAt":null}},{"type":"Feature","geometry":{"type":"Point","coordinates":[9.2093662,47.4058773]},"properties":{"id":"water:b0ef1860-b18f-4dcf-9732-165d6949f603","kind":"water","longitude":9.2093662,"latitude":47.4058773,"name":"Drinking Fountain","city":"Flawil","address":null,"covered":null,"access":null,"website":null,"phone":null,"source":"OpenStreetMap/node/13076584815","sourceUpdatedAt":null,"verifiedAt":null}},{"type":"Feature","geometry":{"type":"Point","coordinates":[9.186354,47.4253771]},"properties":{"id":"water:c9c06dac-13a2-4a43-9fa5-8256bf0027ed","kind":"water","longitude":9.186354,"latitude":47.4253771,"name":"Drinking Fountain","city":"Flawil","address":null,"covered":null,"access":null,"website":null,"phone":null,"source":"OpenStreetMap/node/12760009042","sourceUpdatedAt":null,"verifiedAt":null}}]}