{"type":"FeatureCollection","features":[{"type":"Feature","geometry":{"type":"Point","coordinates":[9.1925434,45.9460254]},"properties":{"id":"bikerack:684ab396-4f5b-4911-971c-20109700973c","kind":"bikerack","longitude":9.1925434,"latitude":45.9460254,"name":"Parcheggio bici","city":"Lezzeno","address":null,"covered":false,"access":null,"website":null,"phone":null,"source":"OpenStreetMap/node/2560800660","sourceUpdatedAt":null,"verifiedAt":null}},{"type":"Feature","geometry":{"type":"Point","coordinates":[9.2239549,45.932995]},"properties":{"id":"water:0612e3d8-bde3-4911-a7dd-51f4cced427d","kind":"water","longitude":9.2239549,"latitude":45.932995,"name":"Fontanella","city":"Magreglio","address":null,"covered":null,"access":null,"website":null,"phone":null,"source":"OpenStreetMap/node/2334467423","sourceUpdatedAt":null,"verifiedAt":null}},{"type":"Feature","geometry":{"type":"Point","coordinates":[9.2088386,45.9494114]},"properties":{"id":"water:0aa988d7-6d52-4f7f-8dd2-3cf1c30c8c7a","kind":"water","longitude":9.2088386,"latitude":45.9494114,"name":"Fontanella","city":"Lezzeno","address":null,"covered":null,"access":null,"website":null,"phone":null,"source":"OpenStreetMap/node/7903302307","sourceUpdatedAt":null,"verifiedAt":null}},{"type":"Feature","geometry":{"type":"Point","coordinates":[9.204342,45.9490685]},"properties":{"id":"water:15318e3b-70b4-4a21-8f6d-07f7452ab4da","kind":"water","longitude":9.204342,"latitude":45.9490685,"name":"Fontanella","city":"Lezzeno","address":null,"covered":null,"access":null,"website":null,"phone":null,"source":"OpenStreetMap/node/9809734126","sourceUpdatedAt":null,"verifiedAt":null}},{"type":"Feature","geometry":{"type":"Point","coordinates":[9.1936175,45.9464853]},"properties":{"id":"water:3411323f-2533-4d7f-b40c-4ac6baf3dfaf","kind":"water","longitude":9.1936175,"latitude":45.9464853,"name":"Fontanella","city":"Lezzeno","address":null,"covered":null,"access":null,"website":null,"phone":null,"source":"OpenStreetMap/node/2560800735","sourceUpdatedAt":null,"verifiedAt":null}},{"type":"Feature","geometry":{"type":"Point","coordinates":[9.1988392,45.9462893]},"properties":{"id":"water:362d177a-b9ec-4f0a-97bf-55c07a1af0b8","kind":"water","longitude":9.1988392,"latitude":45.9462893,"name":"Fontanella","city":"Lezzeno","address":null,"covered":null,"access":null,"website":null,"phone":null,"source":"OpenStreetMap/node/7903311491","sourceUpdatedAt":null,"verifiedAt":null}},{"type":"Feature","geometry":{"type":"Point","coordinates":[9.2049841,45.9469878]},"properties":{"id":"water:3f658e67-939a-4c02-8186-da65c5c288dc","kind":"water","longitude":9.2049841,"latitude":45.9469878,"name":"Fontanella","city":"Lezzeno","address":null,"covered":null,"access":null,"website":null,"phone":null,"source":"OpenStreetMap/node/7903311496","sourceUpdatedAt":null,"verifiedAt":null}},{"type":"Feature","geometry":{"type":"Point","coordinates":[9.1949499,45.9463388]},"properties":{"id":"water:7218741e-d48b-40bb-84b5-212e556685ba","kind":"water","longitude":9.1949499,"latitude":45.9463388,"name":"Fontanella","city":"Lezzeno","address":null,"covered":null,"access":null,"website":null,"phone":null,"source":"OpenStreetMap/node/2560800698","sourceUpdatedAt":null,"verifiedAt":null}},{"type":"Feature","geometry":{"type":"Point","coordinates":[9.2069209,45.9456028]},"properties":{"id":"water:7d290531-2bbb-440e-b909-0b4733494b94","kind":"water","longitude":9.2069209,"latitude":45.9456028,"name":"Fontanella","city":"Lezzeno","address":null,"covered":null,"access":null,"website":null,"phone":null,"source":"OpenStreetMap/node/2562333484","sourceUpdatedAt":null,"verifiedAt":null}},{"type":"Feature","geometry":{"type":"Point","coordinates":[9.1968803,45.9416614]},"properties":{"id":"water:d37c44f1-5bcf-4af4-8b1b-b235cda6f3f1","kind":"water","longitude":9.1968803,"latitude":45.9416614,"name":"Fontanella","city":"Lezzeno","address":null,"covered":null,"access":null,"website":null,"phone":null,"source":"OpenStreetMap/node/9671000575","sourceUpdatedAt":null,"verifiedAt":null}}]}