{"type":"FeatureCollection","features":[{"type":"Feature","geometry":{"type":"Point","coordinates":[20.8873378,47.6322138]},"properties":{"id":"bikerack:16f8fe60-9a96-4bc4-b554-8899757a6cae","kind":"bikerack","longitude":20.8873378,"latitude":47.6322138,"name":"Biciklitároló","city":"Egyek","address":null,"covered":false,"access":null,"website":null,"phone":null,"source":"OpenStreetMap/node/11205496753","sourceUpdatedAt":"2026-04-04T22:50:04.678779+00:00","verifiedAt":null}},{"type":"Feature","geometry":{"type":"Point","coordinates":[20.7556268,47.6277099]},"properties":{"id":"bikerack:24655d32-ce95-4994-bbf0-edd92141ad84","kind":"bikerack","longitude":20.7556268,"latitude":47.6277099,"name":"Biciklitároló","city":"Tiszafured","address":null,"covered":false,"access":null,"website":null,"phone":null,"source":"OpenStreetMap/node/3342637099","sourceUpdatedAt":"2026-04-04T22:50:04.678779+00:00","verifiedAt":null}},{"type":"Feature","geometry":{"type":"Point","coordinates":[20.8881125,47.6318121]},"properties":{"id":"bikerack:752985d5-0a35-4841-b472-f08ff95bf88f","kind":"bikerack","longitude":20.8881125,"latitude":47.6318121,"name":"Biciklitároló","city":"Egyek","address":null,"covered":false,"access":null,"website":null,"phone":null,"source":"OpenStreetMap/node/11205496761","sourceUpdatedAt":"2026-04-04T22:50:04.678779+00:00","verifiedAt":null}},{"type":"Feature","geometry":{"type":"Point","coordinates":[20.8646004,47.6834434]},"properties":{"id":"bikerack:9475fecf-6640-40fa-8a12-983c5259a5cb","kind":"bikerack","longitude":20.8646004,"latitude":47.6834434,"name":"Biciklitároló","city":"Egyek","address":null,"covered":false,"access":null,"website":null,"phone":null,"source":"OpenStreetMap/node/11264027282","sourceUpdatedAt":"2026-04-04T22:50:04.678779+00:00","verifiedAt":null}},{"type":"Feature","geometry":{"type":"Point","coordinates":[20.8645412,47.6833165]},"properties":{"id":"bikerack:9fb01065-3066-401e-b09d-6759615bc0d5","kind":"bikerack","longitude":20.8645412,"latitude":47.6833165,"name":"Biciklitároló","city":"Egyek","address":null,"covered":false,"access":null,"website":null,"phone":null,"source":"OpenStreetMap/node/11264027374","sourceUpdatedAt":"2026-04-04T22:50:04.678779+00:00","verifiedAt":null}},{"type":"Feature","geometry":{"type":"Point","coordinates":[20.8878323,47.6318935]},"properties":{"id":"bikerack:a6121694-599f-49bd-9de8-49317ae7c9d9","kind":"bikerack","longitude":20.8878323,"latitude":47.6318935,"name":"Biciklitároló","city":"Egyek","address":null,"covered":false,"access":null,"website":null,"phone":null,"source":"OpenStreetMap/node/11205496755","sourceUpdatedAt":"2026-04-04T22:50:04.678779+00:00","verifiedAt":null}},{"type":"Feature","geometry":{"type":"Point","coordinates":[20.7521124,47.6223075]},"properties":{"id":"bikerack:c46203f2-8a48-40bc-89ab-2f2798fab85d","kind":"bikerack","longitude":20.7521124,"latitude":47.6223075,"name":"Biciklitároló","city":"Tiszafured","address":null,"covered":false,"access":null,"website":null,"phone":null,"source":"OpenStreetMap/node/11203167532","sourceUpdatedAt":"2026-04-04T22:50:04.678779+00:00","verifiedAt":null}},{"type":"Feature","geometry":{"type":"Point","coordinates":[20.8873393,47.6320464]},"properties":{"id":"bikerack:d7323f4f-5a4d-4823-9140-f9ad3c945b53","kind":"bikerack","longitude":20.8873393,"latitude":47.6320464,"name":"Biciklitároló","city":"Egyek","address":null,"covered":false,"access":null,"website":null,"phone":null,"source":"OpenStreetMap/node/11205496746","sourceUpdatedAt":"2026-04-04T22:50:04.678779+00:00","verifiedAt":null}},{"type":"Feature","geometry":{"type":"Point","coordinates":[20.8874784,47.6321066]},"properties":{"id":"bikerack:e2278108-4854-4942-8581-50408e037ccf","kind":"bikerack","longitude":20.8874784,"latitude":47.6321066,"name":"Biciklitároló","city":"Egyek","address":null,"covered":false,"access":null,"website":null,"phone":null,"source":"OpenStreetMap/node/11205496747","sourceUpdatedAt":"2026-04-04T22:50:04.678779+00:00","verifiedAt":null}},{"type":"Feature","geometry":{"type":"Point","coordinates":[20.7478362,47.6264935]},"properties":{"id":"bikerack:ed1d8180-4888-4a1a-b771-f2acab445c0d","kind":"bikerack","longitude":20.7478362,"latitude":47.6264935,"name":"Biciklitároló","city":"Tiszafured","address":null,"covered":false,"access":null,"website":null,"phone":null,"source":"OpenStreetMap/node/11774245015","sourceUpdatedAt":"2026-04-04T22:50:04.678779+00:00","verifiedAt":null}},{"type":"Feature","geometry":{"type":"Point","coordinates":[20.7590104,47.6158848]},"properties":{"id":"service:8c6a2352-8113-4f0f-b676-c403d92678ff","kind":"service","longitude":20.7590104,"latitude":47.6158848,"name":"Bicikli szervíz","city":"Tiszafured","address":null,"covered":null,"access":null,"website":null,"phone":null,"source":"OpenStreetMap/node/2360430454","sourceUpdatedAt":"2026-04-04T22:50:13.956046+00:00","verifiedAt":null}},{"type":"Feature","geometry":{"type":"Point","coordinates":[20.7571967,47.6198812]},"properties":{"id":"service:9f7fd049-3518-4ade-bf58-1bbadc95be3f","kind":"service","longitude":20.7571967,"latitude":47.6198812,"name":"Tisza Bringa","city":"Tiszafured","address":null,"covered":null,"access":null,"website":null,"phone":null,"source":"OpenStreetMap/node/4806563492","sourceUpdatedAt":"2026-04-04T22:54:07.417576+00:00","verifiedAt":null}},{"type":"Feature","geometry":{"type":"Point","coordinates":[20.8834787,47.6170562]},"properties":{"id":"water:007e25ba-228e-4f16-b552-bcc09674da1c","kind":"water","longitude":20.8834787,"latitude":47.6170562,"name":"Ivókút","city":null,"address":null,"covered":null,"access":null,"website":null,"phone":null,"source":"OpenStreetMap","sourceUpdatedAt":"2026-04-04T22:50:22.71606+00:00","verifiedAt":null}},{"type":"Feature","geometry":{"type":"Point","coordinates":[20.7534108,47.6372479]},"properties":{"id":"water:039b8aff-9cde-45f3-9582-652adb5b917c","kind":"water","longitude":20.7534108,"latitude":47.6372479,"name":"Ivókút","city":null,"address":null,"covered":null,"access":null,"website":null,"phone":null,"source":"OpenStreetMap","sourceUpdatedAt":"2026-04-04T22:50:22.71606+00:00","verifiedAt":null}},{"type":"Feature","geometry":{"type":"Point","coordinates":[20.945312,47.729472]},"properties":{"id":"water:09b86bfb-5cec-49e9-9012-6dd3ac3462bc","kind":"water","longitude":20.945312,"latitude":47.729472,"name":"Ivókút","city":null,"address":null,"covered":null,"access":null,"website":null,"phone":null,"source":"OpenStreetMap","sourceUpdatedAt":"2026-04-04T22:50:22.71606+00:00","verifiedAt":null}},{"type":"Feature","geometry":{"type":"Point","coordinates":[20.7526962,47.6289235]},"properties":{"id":"water:0a38ecfe-e08b-4557-8709-f1014a37cf22","kind":"water","longitude":20.7526962,"latitude":47.6289235,"name":"Ivókút","city":null,"address":null,"covered":null,"access":null,"website":null,"phone":null,"source":"OpenStreetMap","sourceUpdatedAt":"2026-04-04T22:50:22.71606+00:00","verifiedAt":null}},{"type":"Feature","geometry":{"type":"Point","coordinates":[20.7584249,47.6045893]},"properties":{"id":"water:0cb0a2fe-cf14-4a20-96cf-a255655b7e31","kind":"water","longitude":20.7584249,"latitude":47.6045893,"name":"Ivókút","city":null,"address":null,"covered":null,"access":null,"website":null,"phone":null,"source":"OpenStreetMap","sourceUpdatedAt":"2026-04-04T22:50:22.71606+00:00","verifiedAt":null}},{"type":"Feature","geometry":{"type":"Point","coordinates":[20.887568,47.6255235]},"properties":{"id":"water:0cfc0def-a431-4f89-88e3-87b5d32366c5","kind":"water","longitude":20.887568,"latitude":47.6255235,"name":"Ivókút","city":null,"address":null,"covered":null,"access":null,"website":null,"phone":null,"source":"OpenStreetMap","sourceUpdatedAt":"2026-04-04T22:50:22.71606+00:00","verifiedAt":null}},{"type":"Feature","geometry":{"type":"Point","coordinates":[20.8660795,47.6803212]},"properties":{"id":"water:0e1c52f4-e2a9-45ff-9c11-5316d2ff5c54","kind":"water","longitude":20.8660795,"latitude":47.6803212,"name":"Ivókút","city":null,"address":null,"covered":null,"access":null,"website":null,"phone":null,"source":"OpenStreetMap","sourceUpdatedAt":"2026-04-04T22:50:22.71606+00:00","verifiedAt":null}},{"type":"Feature","geometry":{"type":"Point","coordinates":[20.8772962,47.6168704]},"properties":{"id":"water:17ac697f-62f1-428b-84cf-4400623ab010","kind":"water","longitude":20.8772962,"latitude":47.6168704,"name":"Ivókút","city":null,"address":null,"covered":null,"access":null,"website":null,"phone":null,"source":"OpenStreetMap","sourceUpdatedAt":"2026-04-04T22:50:22.71606+00:00","verifiedAt":null}},{"type":"Feature","geometry":{"type":"Point","coordinates":[20.9958956,47.6959303]},"properties":{"id":"water:2cb80b0b-ee8a-4bca-a754-727a49adbc93","kind":"water","longitude":20.9958956,"latitude":47.6959303,"name":"Ivókút","city":null,"address":null,"covered":null,"access":null,"website":null,"phone":null,"source":"OpenStreetMap","sourceUpdatedAt":"2026-04-04T22:50:22.71606+00:00","verifiedAt":null}},{"type":"Feature","geometry":{"type":"Point","coordinates":[20.8943565,47.6239773]},"properties":{"id":"water:33d41fc6-dbad-44a4-946f-ed4007c3643f","kind":"water","longitude":20.8943565,"latitude":47.6239773,"name":"Ivókút","city":null,"address":null,"covered":null,"access":null,"website":null,"phone":null,"source":"OpenStreetMap","sourceUpdatedAt":"2026-04-04T22:50:22.71606+00:00","verifiedAt":null}},{"type":"Feature","geometry":{"type":"Point","coordinates":[20.8854613,47.6273656]},"properties":{"id":"water:3989d15c-e2ec-4ae8-80b3-cde0f1d5bb33","kind":"water","longitude":20.8854613,"latitude":47.6273656,"name":"Ivókút","city":null,"address":null,"covered":null,"access":null,"website":null,"phone":null,"source":"OpenStreetMap","sourceUpdatedAt":"2026-04-04T22:50:22.71606+00:00","verifiedAt":null}},{"type":"Feature","geometry":{"type":"Point","coordinates":[20.8914465,47.6202034]},"properties":{"id":"water:484e8b10-84bc-46e0-b715-6adb01cc75c7","kind":"water","longitude":20.8914465,"latitude":47.6202034,"name":"Ivókút","city":null,"address":null,"covered":null,"access":null,"website":null,"phone":null,"source":"OpenStreetMap","sourceUpdatedAt":"2026-04-04T22:50:22.71606+00:00","verifiedAt":null}},{"type":"Feature","geometry":{"type":"Point","coordinates":[20.7499481,47.6269221]},"properties":{"id":"water:4ed44cfe-4ec5-43d3-aa73-4beaffe8d504","kind":"water","longitude":20.7499481,"latitude":47.6269221,"name":"Közkifolyó","city":null,"address":null,"covered":null,"access":null,"website":null,"phone":null,"source":"OpenStreetMap","sourceUpdatedAt":"2026-04-04T22:54:11.856238+00:00","verifiedAt":null}},{"type":"Feature","geometry":{"type":"Point","coordinates":[20.931296,47.5458525]},"properties":{"id":"water:5adad2c6-36a7-4f49-9876-7d15a4300d03","kind":"water","longitude":20.931296,"latitude":47.5458525,"name":"Ivókút","city":null,"address":null,"covered":null,"access":null,"website":null,"phone":null,"source":"OpenStreetMap","sourceUpdatedAt":"2026-04-04T22:50:22.71606+00:00","verifiedAt":null}},{"type":"Feature","geometry":{"type":"Point","coordinates":[20.750917,47.60585]},"properties":{"id":"water:5f1e10a0-3a87-406b-b526-c436607a1113","kind":"water","longitude":20.750917,"latitude":47.60585,"name":"Ivókút","city":null,"address":null,"covered":null,"access":null,"website":null,"phone":null,"source":"OpenStreetMap","sourceUpdatedAt":"2026-04-04T22:50:22.71606+00:00","verifiedAt":null}},{"type":"Feature","geometry":{"type":"Point","coordinates":[20.7546076,47.603753]},"properties":{"id":"water:645e1969-8c51-4b79-99fb-0127fcb07e65","kind":"water","longitude":20.7546076,"latitude":47.603753,"name":"Ivókút","city":null,"address":null,"covered":null,"access":null,"website":null,"phone":null,"source":"OpenStreetMap","sourceUpdatedAt":"2026-04-04T22:50:22.71606+00:00","verifiedAt":null}},{"type":"Feature","geometry":{"type":"Point","coordinates":[20.941173,47.732142]},"properties":{"id":"water:6acf77b9-6026-48b4-b594-36921f5ff009","kind":"water","longitude":20.941173,"latitude":47.732142,"name":"Ivókút","city":null,"address":null,"covered":null,"access":null,"website":null,"phone":null,"source":"OpenStreetMap","sourceUpdatedAt":"2026-04-04T22:50:22.71606+00:00","verifiedAt":null}},{"type":"Feature","geometry":{"type":"Point","coordinates":[20.9331581,47.6459871]},"properties":{"id":"water:6cf45012-de83-4ca3-9da0-0d7744d44fb6","kind":"water","longitude":20.9331581,"latitude":47.6459871,"name":"Ivókút","city":"Egyek","address":null,"covered":null,"access":null,"website":null,"phone":null,"source":"OpenStreetMap/node/13634570225","sourceUpdatedAt":"2026-04-04T22:50:22.71606+00:00","verifiedAt":null}},{"type":"Feature","geometry":{"type":"Point","coordinates":[20.8881211,47.6349759]},"properties":{"id":"water:703c5536-193c-40d4-9867-87d86a0337f3","kind":"water","longitude":20.8881211,"latitude":47.6349759,"name":"Ivókút","city":null,"address":null,"covered":null,"access":null,"website":null,"phone":null,"source":"OpenStreetMap","sourceUpdatedAt":"2026-04-04T22:50:22.71606+00:00","verifiedAt":null}},{"type":"Feature","geometry":{"type":"Point","coordinates":[20.8122929,47.6889972]},"properties":{"id":"water:721b31bb-8cef-4308-afd0-c4542f3881bd","kind":"water","longitude":20.8122929,"latitude":47.6889972,"name":"Ivókút","city":null,"address":null,"covered":null,"access":null,"website":null,"phone":null,"source":"OpenStreetMap","sourceUpdatedAt":"2026-04-04T22:50:22.71606+00:00","verifiedAt":null}},{"type":"Feature","geometry":{"type":"Point","coordinates":[20.8979297,47.6268333]},"properties":{"id":"water:80488327-2fce-4668-9c4e-254ca5167894","kind":"water","longitude":20.8979297,"latitude":47.6268333,"name":"Ivókút","city":null,"address":null,"covered":null,"access":null,"website":null,"phone":null,"source":"OpenStreetMap","sourceUpdatedAt":"2026-04-04T22:50:22.71606+00:00","verifiedAt":null}},{"type":"Feature","geometry":{"type":"Point","coordinates":[20.990282,47.69778]},"properties":{"id":"water:80ae8302-daee-4456-a29a-8fabf6192ca2","kind":"water","longitude":20.990282,"latitude":47.69778,"name":"Ivókút","city":null,"address":null,"covered":null,"access":null,"website":null,"phone":null,"source":"OpenStreetMap","sourceUpdatedAt":"2026-04-04T22:50:22.71606+00:00","verifiedAt":null}},{"type":"Feature","geometry":{"type":"Point","coordinates":[20.980124,47.6956588]},"properties":{"id":"water:87a3f5fe-8fe4-4b4e-a10b-535a8ba42ee0","kind":"water","longitude":20.980124,"latitude":47.6956588,"name":"Ivókút","city":null,"address":null,"covered":null,"access":null,"website":null,"phone":null,"source":"OpenStreetMap","sourceUpdatedAt":"2026-04-04T22:50:22.71606+00:00","verifiedAt":null}},{"type":"Feature","geometry":{"type":"Point","coordinates":[20.952057,47.723943]},"properties":{"id":"water:9c0e420d-1a94-4ff4-8d02-f17b8115a8b7","kind":"water","longitude":20.952057,"latitude":47.723943,"name":"Ivókút","city":null,"address":null,"covered":null,"access":null,"website":null,"phone":null,"source":"OpenStreetMap","sourceUpdatedAt":"2026-04-04T22:50:22.71606+00:00","verifiedAt":null}},{"type":"Feature","geometry":{"type":"Point","coordinates":[20.7577359,47.6004259]},"properties":{"id":"water:9e148885-38c7-46cb-9209-dea6fe8eade7","kind":"water","longitude":20.7577359,"latitude":47.6004259,"name":"Ivókút","city":null,"address":null,"covered":null,"access":null,"website":null,"phone":null,"source":"OpenStreetMap","sourceUpdatedAt":"2026-04-04T22:50:22.71606+00:00","verifiedAt":null}},{"type":"Feature","geometry":{"type":"Point","coordinates":[20.810638,47.68353]},"properties":{"id":"water:a503bc6d-8659-4172-bf92-b46de7d42cdb","kind":"water","longitude":20.810638,"latitude":47.68353,"name":"Ivókút","city":null,"address":null,"covered":null,"access":null,"website":null,"phone":null,"source":"OpenStreetMap","sourceUpdatedAt":"2026-04-04T22:50:22.71606+00:00","verifiedAt":null}},{"type":"Feature","geometry":{"type":"Point","coordinates":[20.8953417,47.6305013]},"properties":{"id":"water:af0a59cc-d180-49ca-a494-a4b4c0dcd44c","kind":"water","longitude":20.8953417,"latitude":47.6305013,"name":"Ivókút","city":null,"address":null,"covered":null,"access":null,"website":null,"phone":null,"source":"OpenStreetMap","sourceUpdatedAt":"2026-04-04T22:50:22.71606+00:00","verifiedAt":null}},{"type":"Feature","geometry":{"type":"Point","coordinates":[20.7543363,47.6258934]},"properties":{"id":"water:b03098ac-4d9a-4010-ac81-9efaab308b57","kind":"water","longitude":20.7543363,"latitude":47.6258934,"name":"Ivókút","city":null,"address":null,"covered":null,"access":null,"website":null,"phone":null,"source":"OpenStreetMap","sourceUpdatedAt":"2026-04-04T22:50:22.71606+00:00","verifiedAt":null}},{"type":"Feature","geometry":{"type":"Point","coordinates":[20.7529995,47.6047772]},"properties":{"id":"water:b3991740-fa75-4d71-b3d3-0d372cecba7a","kind":"water","longitude":20.7529995,"latitude":47.6047772,"name":"Ivókút","city":null,"address":null,"covered":null,"access":null,"website":null,"phone":null,"source":"OpenStreetMap","sourceUpdatedAt":"2026-04-04T22:50:22.71606+00:00","verifiedAt":null}},{"type":"Feature","geometry":{"type":"Point","coordinates":[20.7596789,47.6181733]},"properties":{"id":"water:b83e7974-55c3-4005-ac6f-0626479b62a6","kind":"water","longitude":20.7596789,"latitude":47.6181733,"name":"Közkifolyó","city":null,"address":null,"covered":null,"access":null,"website":null,"phone":null,"source":"OpenStreetMap","sourceUpdatedAt":"2026-04-04T22:54:11.856238+00:00","verifiedAt":null}},{"type":"Feature","geometry":{"type":"Point","coordinates":[20.748612,47.689042]},"properties":{"id":"water:c5736d3e-3676-4a81-94e7-9cef60521532","kind":"water","longitude":20.748612,"latitude":47.689042,"name":"Ivókút","city":null,"address":null,"covered":null,"access":null,"website":null,"phone":null,"source":"OpenStreetMap","sourceUpdatedAt":"2026-04-04T22:50:22.71606+00:00","verifiedAt":null}},{"type":"Feature","geometry":{"type":"Point","coordinates":[20.8832924,47.6389905]},"properties":{"id":"water:cd289e63-15f4-4d7e-9c8d-46113b462c6e","kind":"water","longitude":20.8832924,"latitude":47.6389905,"name":"Ivókút","city":null,"address":null,"covered":null,"access":null,"website":null,"phone":null,"source":"OpenStreetMap","sourceUpdatedAt":"2026-04-04T22:50:22.71606+00:00","verifiedAt":null}},{"type":"Feature","geometry":{"type":"Point","coordinates":[20.9294491,47.5455286]},"properties":{"id":"water:d114b0ca-c260-4cec-96fb-e331e9f527b7","kind":"water","longitude":20.9294491,"latitude":47.5455286,"name":"Ivókút","city":null,"address":null,"covered":null,"access":null,"website":null,"phone":null,"source":"OpenStreetMap","sourceUpdatedAt":"2026-04-04T22:50:22.71606+00:00","verifiedAt":null}},{"type":"Feature","geometry":{"type":"Point","coordinates":[20.9288753,47.5471875]},"properties":{"id":"water:d53a07a8-8afb-4a26-9b88-22bc5dd82549","kind":"water","longitude":20.9288753,"latitude":47.5471875,"name":"Ivókút","city":null,"address":null,"covered":null,"access":null,"website":null,"phone":null,"source":"OpenStreetMap","sourceUpdatedAt":"2026-04-04T22:50:22.71606+00:00","verifiedAt":null}},{"type":"Feature","geometry":{"type":"Point","coordinates":[20.8799426,47.6193334]},"properties":{"id":"water:da6e8ca5-5bcf-49f7-bfdc-c25fc4c1fa0a","kind":"water","longitude":20.8799426,"latitude":47.6193334,"name":"Ivókút","city":null,"address":null,"covered":null,"access":null,"website":null,"phone":null,"source":"OpenStreetMap","sourceUpdatedAt":"2026-04-04T22:50:22.71606+00:00","verifiedAt":null}},{"type":"Feature","geometry":{"type":"Point","coordinates":[20.7556743,47.627676]},"properties":{"id":"water:dc8c0204-5d7c-4baf-9414-69b7700d8726","kind":"water","longitude":20.7556743,"latitude":47.627676,"name":"Ivókút","city":null,"address":null,"covered":null,"access":null,"website":null,"phone":null,"source":"OpenStreetMap","sourceUpdatedAt":"2026-04-04T22:50:22.71606+00:00","verifiedAt":null}},{"type":"Feature","geometry":{"type":"Point","coordinates":[20.750441,47.68771]},"properties":{"id":"water:df007a75-7fb1-432c-9ba8-cd7e66ca9643","kind":"water","longitude":20.750441,"latitude":47.68771,"name":"Ivókút","city":null,"address":null,"covered":null,"access":null,"website":null,"phone":null,"source":"OpenStreetMap","sourceUpdatedAt":"2026-04-04T22:50:22.71606+00:00","verifiedAt":null}},{"type":"Feature","geometry":{"type":"Point","coordinates":[20.8864648,47.6353363]},"properties":{"id":"water:e1e03cf9-0db9-439c-8355-e1ddb54fd179","kind":"water","longitude":20.8864648,"latitude":47.6353363,"name":"Ivókút","city":null,"address":null,"covered":null,"access":null,"website":null,"phone":null,"source":"OpenStreetMap","sourceUpdatedAt":"2026-04-04T22:50:22.71606+00:00","verifiedAt":null}},{"type":"Feature","geometry":{"type":"Point","coordinates":[20.95324,47.727039]},"properties":{"id":"water:e5b94681-4266-4fd7-9821-e769e0462e91","kind":"water","longitude":20.95324,"latitude":47.727039,"name":"Ivókút","city":null,"address":null,"covered":null,"access":null,"website":null,"phone":null,"source":"OpenStreetMap","sourceUpdatedAt":"2026-04-04T22:50:22.71606+00:00","verifiedAt":null}},{"type":"Feature","geometry":{"type":"Point","coordinates":[20.8880399,47.617175]},"properties":{"id":"water:eff2e4e9-e2a0-4d5a-9f12-a041760c6d46","kind":"water","longitude":20.8880399,"latitude":47.617175,"name":"Ivókút","city":null,"address":null,"covered":null,"access":null,"website":null,"phone":null,"source":"OpenStreetMap","sourceUpdatedAt":"2026-04-04T22:50:22.71606+00:00","verifiedAt":null}},{"type":"Feature","geometry":{"type":"Point","coordinates":[20.9384213,47.7312049]},"properties":{"id":"water:f36efe90-8dec-47b9-862f-261043687e6f","kind":"water","longitude":20.9384213,"latitude":47.7312049,"name":"Ivókút","city":null,"address":null,"covered":null,"access":null,"website":null,"phone":null,"source":"OpenStreetMap","sourceUpdatedAt":"2026-04-04T22:50:22.71606+00:00","verifiedAt":null}},{"type":"Feature","geometry":{"type":"Point","coordinates":[20.8825828,47.621863]},"properties":{"id":"water:f8486563-4871-416b-a777-13fbe6666f1b","kind":"water","longitude":20.8825828,"latitude":47.621863,"name":"Ivókút","city":null,"address":null,"covered":null,"access":null,"website":null,"phone":null,"source":"OpenStreetMap","sourceUpdatedAt":"2026-04-04T22:50:22.71606+00:00","verifiedAt":null}},{"type":"Feature","geometry":{"type":"Point","coordinates":[20.8927221,47.6335851]},"properties":{"id":"water:f95d033f-0749-4ca5-a731-281582aee66a","kind":"water","longitude":20.8927221,"latitude":47.6335851,"name":"Ivókút","city":null,"address":null,"covered":null,"access":null,"website":null,"phone":null,"source":"OpenStreetMap","sourceUpdatedAt":"2026-04-04T22:50:22.71606+00:00","verifiedAt":null}}]}