{"type":"FeatureCollection","features":[{"type":"Feature","geometry":{"type":"Point","coordinates":[16.2699464,50.6262594]},"properties":{"id":"bikerack:8016716a-377f-4975-a224-9f5ea8bbd44c","kind":"bikerack","longitude":16.2699464,"latitude":50.6262594,"name":"Bicycle Parking","city":"Mezimesti","address":null,"covered":false,"access":null,"website":null,"phone":null,"source":"OpenStreetMap/node/11303988276","sourceUpdatedAt":null,"verifiedAt":null}},{"type":"Feature","geometry":{"type":"Point","coordinates":[16.2702069,50.6262783]},"properties":{"id":"bikerack:ade3fe11-af4c-4e84-923d-e9eb4dd4285e","kind":"bikerack","longitude":16.2702069,"latitude":50.6262783,"name":"Bicycle Parking","city":"Mezimesti","address":null,"covered":false,"access":null,"website":null,"phone":null,"source":"OpenStreetMap/node/11303918930","sourceUpdatedAt":null,"verifiedAt":null}}]}