{"type":"FeatureCollection","features":[{"type":"Feature","geometry":{"type":"Point","coordinates":[16.2885235,48.3063698]},"properties":{"id":"bikerack:0b367069-7051-4ae2-b8ad-a5e5a5e095b9","kind":"bikerack","longitude":16.2885235,"latitude":48.3063698,"name":"Biciklitároló","city":"Klosterneuburg","address":null,"covered":false,"access":null,"website":null,"phone":null,"source":"OpenStreetMap/node/13316065893","sourceUpdatedAt":null,"verifiedAt":null}},{"type":"Feature","geometry":{"type":"Point","coordinates":[16.2688194,48.3083634]},"properties":{"id":"bikerack:2a035cef-8a36-4aa6-8dbb-5d0d74453a85","kind":"bikerack","longitude":16.2688194,"latitude":48.3083634,"name":"Biciklitároló","city":"Klosterneuburg","address":null,"covered":false,"access":null,"website":null,"phone":null,"source":"OpenStreetMap/node/9814179975","sourceUpdatedAt":null,"verifiedAt":null}},{"type":"Feature","geometry":{"type":"Point","coordinates":[16.2689334,48.3083776]},"properties":{"id":"bikerack:dd923a1f-4486-4515-a235-7ed9aeecd55c","kind":"bikerack","longitude":16.2689334,"latitude":48.3083776,"name":"Biciklitároló","city":"Klosterneuburg","address":null,"covered":false,"access":null,"website":null,"phone":null,"source":"OpenStreetMap/node/9814179976","sourceUpdatedAt":null,"verifiedAt":null}},{"type":"Feature","geometry":{"type":"Point","coordinates":[16.2935441,48.2843335]},"properties":{"id":"water:c101f4b4-aab2-4e2c-95ce-bff9296d2521","kind":"water","longitude":16.2935441,"latitude":48.2843335,"name":"Ivókút","city":"Klosterneuburg","address":null,"covered":null,"access":null,"website":null,"phone":null,"source":"OpenStreetMap/node/3323924594","sourceUpdatedAt":null,"verifiedAt":null}}]}