{"type":"FeatureCollection","features":[{"type":"Feature","geometry":{"type":"Point","coordinates":[16.2794287,47.8039746]},"properties":{"id":"bikerack:6744026a-de37-4901-b3ef-bc02eb5c2d95","kind":"bikerack","longitude":16.2794287,"latitude":47.8039746,"name":"Biciklitároló","city":"Neudorfl","address":null,"covered":false,"access":null,"website":null,"phone":null,"source":"OpenStreetMap/way/1039594204","sourceUpdatedAt":null,"verifiedAt":null}},{"type":"Feature","geometry":{"type":"Point","coordinates":[16.2691963,47.7839762]},"properties":{"id":"bikerack:fa986a56-de42-4f70-81d1-49fae62ee650","kind":"bikerack","longitude":16.2691963,"latitude":47.7839762,"name":"Biciklitároló","city":"Katzelsdorf","address":null,"covered":false,"access":null,"website":null,"phone":null,"source":"OpenStreetMap/node/9944707604","sourceUpdatedAt":null,"verifiedAt":null}},{"type":"Feature","geometry":{"type":"Point","coordinates":[16.2659549,47.8052455]},"properties":{"id":"service:5d89f719-06a9-4be8-857c-09d13760e5e6","kind":"service","longitude":16.2659549,"latitude":47.8052455,"name":"Velodrom","city":"Wiener Neustadt","address":null,"covered":null,"access":null,"website":null,"phone":null,"source":"OpenStreetMap/node/4577559353","sourceUpdatedAt":null,"verifiedAt":null}},{"type":"Feature","geometry":{"type":"Point","coordinates":[16.2684128,47.7845979]},"properties":{"id":"water:33a1a10d-7628-47ae-aa5a-03f398dd099e","kind":"water","longitude":16.2684128,"latitude":47.7845979,"name":"Ivókút","city":"Katzelsdorf","address":null,"covered":null,"access":null,"website":null,"phone":null,"source":"OpenStreetMap/node/2157912898","sourceUpdatedAt":null,"verifiedAt":null}}]}