{"type":"FeatureCollection","features":[{"type":"Feature","geometry":{"type":"Point","coordinates":[13.3361661,46.3641367]},"properties":{"id":"bikerack:e9c8a3bc-1441-47b0-8c97-cdec2941c491","kind":"bikerack","longitude":13.3361661,"latitude":46.3641367,"name":"Parcheggio bici","city":"Prato","address":null,"covered":false,"access":null,"website":null,"phone":null,"source":"OpenStreetMap/node/7893747386","sourceUpdatedAt":null,"verifiedAt":null}},{"type":"Feature","geometry":{"type":"Point","coordinates":[13.3565759,46.3604621]},"properties":{"id":"water:000bead2-d39a-4385-ae9b-ad81c016f494","kind":"water","longitude":13.3565759,"latitude":46.3604621,"name":"Fontanella","city":"Prato","address":null,"covered":null,"access":null,"website":null,"phone":null,"source":"OpenStreetMap/node/5110614987","sourceUpdatedAt":null,"verifiedAt":null}},{"type":"Feature","geometry":{"type":"Point","coordinates":[13.3540393,46.361508]},"properties":{"id":"water:5e6c88ae-c824-4e71-9306-888c5d908102","kind":"water","longitude":13.3540393,"latitude":46.361508,"name":"Fontanella","city":"Prato","address":null,"covered":null,"access":null,"website":null,"phone":null,"source":"OpenStreetMap/node/5110644586","sourceUpdatedAt":null,"verifiedAt":null}},{"type":"Feature","geometry":{"type":"Point","coordinates":[13.3526149,46.3623657]},"properties":{"id":"water:a377b327-df1e-48c1-849f-aef637cf2cc5","kind":"water","longitude":13.3526149,"latitude":46.3623657,"name":"Fontanella","city":"Prato","address":null,"covered":null,"access":null,"website":null,"phone":null,"source":"OpenStreetMap/node/5110645219","sourceUpdatedAt":null,"verifiedAt":null}}]}