{"type":"FeatureCollection","features":[{"type":"Feature","geometry":{"type":"Point","coordinates":[12.0266426,46.1037984]},"properties":{"id":"water:002a49b9-900a-481e-b113-9f4c15180b42","kind":"water","longitude":12.0266426,"latitude":46.1037984,"name":"Fontanella","city":"San Gregorio nelle Alpi","address":null,"covered":null,"access":null,"website":null,"phone":null,"source":"OpenStreetMap/node/9921205492","sourceUpdatedAt":null,"verifiedAt":null}},{"type":"Feature","geometry":{"type":"Point","coordinates":[12.0260706,46.1187846]},"properties":{"id":"water:0f0ffa93-e81c-48cb-aaa5-f89ccf52340d","kind":"water","longitude":12.0260706,"latitude":46.1187846,"name":"Fontanella","city":"San Gregorio nelle Alpi","address":null,"covered":null,"access":null,"website":null,"phone":null,"source":"OpenStreetMap/node/11272501442","sourceUpdatedAt":null,"verifiedAt":null}},{"type":"Feature","geometry":{"type":"Point","coordinates":[12.0258028,46.1084317]},"properties":{"id":"water:54574781-5b0b-4777-add2-82ab27f779d4","kind":"water","longitude":12.0258028,"latitude":46.1084317,"name":"Fontanella","city":"San Gregorio nelle Alpi","address":null,"covered":null,"access":null,"website":null,"phone":null,"source":"OpenStreetMap/node/7810080390","sourceUpdatedAt":null,"verifiedAt":null}},{"type":"Feature","geometry":{"type":"Point","coordinates":[12.0304325,46.1153446]},"properties":{"id":"water:54fb6b5f-17b2-4d43-a9da-aa1bc2b5c8b3","kind":"water","longitude":12.0304325,"latitude":46.1153446,"name":"Fontanella","city":"San Gregorio nelle Alpi","address":null,"covered":null,"access":null,"website":null,"phone":null,"source":"OpenStreetMap/node/7816978144","sourceUpdatedAt":null,"verifiedAt":null}},{"type":"Feature","geometry":{"type":"Point","coordinates":[12.0244127,46.1183875]},"properties":{"id":"water:59926edc-8cda-4490-9e91-7bfd71a98437","kind":"water","longitude":12.0244127,"latitude":46.1183875,"name":"Fontanella","city":"San Gregorio nelle Alpi","address":null,"covered":null,"access":null,"website":null,"phone":null,"source":"OpenStreetMap/node/6434174435","sourceUpdatedAt":null,"verifiedAt":null}},{"type":"Feature","geometry":{"type":"Point","coordinates":[12.0271401,46.1163951]},"properties":{"id":"water:5e6b909d-8f69-4f41-9d93-c1f1af32a01a","kind":"water","longitude":12.0271401,"latitude":46.1163951,"name":"Fontanella","city":"San Gregorio nelle Alpi","address":null,"covered":null,"access":null,"website":null,"phone":null,"source":"OpenStreetMap/node/11272501443","sourceUpdatedAt":null,"verifiedAt":null}},{"type":"Feature","geometry":{"type":"Point","coordinates":[12.0299319,46.1133299]},"properties":{"id":"water:7e67b36f-9149-45dd-9895-7af35edbdccc","kind":"water","longitude":12.0299319,"latitude":46.1133299,"name":"Fontanella","city":"San Gregorio nelle Alpi","address":null,"covered":null,"access":null,"website":null,"phone":null,"source":"OpenStreetMap/node/7820207204","sourceUpdatedAt":null,"verifiedAt":null}},{"type":"Feature","geometry":{"type":"Point","coordinates":[12.0389384,46.1255041]},"properties":{"id":"water:97262b60-650f-44ca-ac57-bf18d612c592","kind":"water","longitude":12.0389384,"latitude":46.1255041,"name":"Fontanella","city":"San Gregorio nelle Alpi","address":null,"covered":null,"access":null,"website":null,"phone":null,"source":"OpenStreetMap/node/11050989215","sourceUpdatedAt":null,"verifiedAt":null}},{"type":"Feature","geometry":{"type":"Point","coordinates":[12.0225718,46.1321238]},"properties":{"id":"water:c0b9f0b0-de2b-4aff-9ae5-bae3983c93e2","kind":"water","longitude":12.0225718,"latitude":46.1321238,"name":"Fontanella","city":"San Gregorio nelle Alpi","address":null,"covered":null,"access":null,"website":null,"phone":null,"source":"OpenStreetMap/node/11272501380","sourceUpdatedAt":null,"verifiedAt":null}},{"type":"Feature","geometry":{"type":"Point","coordinates":[12.029704,46.115259]},"properties":{"id":"water:cafa8130-aa03-4198-a35d-75bea23868fc","kind":"water","longitude":12.029704,"latitude":46.115259,"name":"Fontanella","city":"San Gregorio nelle Alpi","address":null,"covered":null,"access":null,"website":null,"phone":null,"source":"OpenStreetMap/node/7816978136","sourceUpdatedAt":null,"verifiedAt":null}},{"type":"Feature","geometry":{"type":"Point","coordinates":[12.0181138,46.1330428]},"properties":{"id":"water:fe952cb8-6c4a-45ca-8980-b2ebdadc37f5","kind":"water","longitude":12.0181138,"latitude":46.1330428,"name":"Fontanella","city":"San Gregorio nelle Alpi","address":null,"covered":null,"access":null,"website":null,"phone":null,"source":"OpenStreetMap/node/6434138040","sourceUpdatedAt":null,"verifiedAt":null}}]}