{"type":"FeatureCollection","features":[{"type":"Feature","geometry":{"type":"Point","coordinates":[12.0343917,45.2985422]},"properties":{"id":"bikerack:0a73c93f-121e-48d1-a496-0abf522e319f","kind":"bikerack","longitude":12.0343917,"latitude":45.2985422,"name":"Parcheggio bici","city":"Piove di Sacco-Piovega","address":null,"covered":false,"access":null,"website":null,"phone":null,"source":"OpenStreetMap/node/13580161076","sourceUpdatedAt":null,"verifiedAt":null}},{"type":"Feature","geometry":{"type":"Point","coordinates":[12.0318458,45.291553]},"properties":{"id":"bikerack:41a1fbeb-9279-45df-b783-6c66b97be3ce","kind":"bikerack","longitude":12.0318458,"latitude":45.291553,"name":"Parcheggio bici","city":"Piove di Sacco-Piovega","address":null,"covered":false,"access":null,"website":null,"phone":null,"source":"OpenStreetMap/node/12007522155","sourceUpdatedAt":null,"verifiedAt":null}},{"type":"Feature","geometry":{"type":"Point","coordinates":[12.0215242,45.3051897]},"properties":{"id":"bikerack:5eb1078b-c6b5-4ebb-96c9-670ccba23e91","kind":"bikerack","longitude":12.0215242,"latitude":45.3051897,"name":"Parcheggio bici","city":"Sant'Angelo di Piove di Sacco","address":null,"covered":false,"access":null,"website":null,"phone":null,"source":"OpenStreetMap/node/12007522254","sourceUpdatedAt":null,"verifiedAt":null}},{"type":"Feature","geometry":{"type":"Point","coordinates":[12.0209769,45.3036309]},"properties":{"id":"bikerack:5f15effd-2ebe-417c-a4e5-3394722954e7","kind":"bikerack","longitude":12.0209769,"latitude":45.3036309,"name":"Parcheggio bici","city":"Piove di Sacco-Piovega","address":null,"covered":false,"access":null,"website":null,"phone":null,"source":"OpenStreetMap/node/12034069799","sourceUpdatedAt":null,"verifiedAt":null}},{"type":"Feature","geometry":{"type":"Point","coordinates":[12.0350429,45.2983711]},"properties":{"id":"bikerack:60f1c5b7-9fed-407e-92de-61088a63191f","kind":"bikerack","longitude":12.0350429,"latitude":45.2983711,"name":"Parcheggio bici","city":"Piove di Sacco-Piovega","address":null,"covered":false,"access":null,"website":null,"phone":null,"source":"OpenStreetMap/way/1480630565","sourceUpdatedAt":null,"verifiedAt":null}},{"type":"Feature","geometry":{"type":"Point","coordinates":[12.03108,45.2986772]},"properties":{"id":"bikerack:62fe826d-a6ad-4fde-93d9-9cec1249c378","kind":"bikerack","longitude":12.03108,"latitude":45.2986772,"name":"Parcheggio bici","city":"Piove di Sacco-Piovega","address":null,"covered":false,"access":null,"website":null,"phone":null,"source":"OpenStreetMap/node/13085190666","sourceUpdatedAt":null,"verifiedAt":null}},{"type":"Feature","geometry":{"type":"Point","coordinates":[12.0341202,45.3011194]},"properties":{"id":"bikerack:7a3ee78e-5430-4a56-b148-82c2fcfba0c8","kind":"bikerack","longitude":12.0341202,"latitude":45.3011194,"name":"Parcheggio bici","city":"Piove di Sacco-Piovega","address":null,"covered":false,"access":null,"website":null,"phone":null,"source":"OpenStreetMap/node/12007522293","sourceUpdatedAt":null,"verifiedAt":null}},{"type":"Feature","geometry":{"type":"Point","coordinates":[12.0271684,45.2955768]},"properties":{"id":"bikerack:7fa40251-e243-4497-a4a3-1a750ba8617d","kind":"bikerack","longitude":12.0271684,"latitude":45.2955768,"name":"Parcheggio bici","city":"Piove di Sacco-Piovega","address":null,"covered":false,"access":null,"website":null,"phone":null,"source":"OpenStreetMap/node/13634106479","sourceUpdatedAt":null,"verifiedAt":null}},{"type":"Feature","geometry":{"type":"Point","coordinates":[12.0384799,45.2958289]},"properties":{"id":"bikerack:92e4cee7-2125-4760-8ea7-f9d0a65c6d76","kind":"bikerack","longitude":12.0384799,"latitude":45.2958289,"name":"Parcheggio bici","city":"Piove di Sacco-Piovega","address":null,"covered":false,"access":null,"website":null,"phone":null,"source":"OpenStreetMap/node/13356279201","sourceUpdatedAt":null,"verifiedAt":null}},{"type":"Feature","geometry":{"type":"Point","coordinates":[12.0226253,45.3000512]},"properties":{"id":"bikerack:bf8d562f-bb69-4505-9b9e-bf8a8ebdf72d","kind":"bikerack","longitude":12.0226253,"latitude":45.3000512,"name":"Parcheggio bici","city":"Piove di Sacco-Piovega","address":null,"covered":false,"access":null,"website":null,"phone":null,"source":"OpenStreetMap/node/13085190815","sourceUpdatedAt":null,"verifiedAt":null}},{"type":"Feature","geometry":{"type":"Point","coordinates":[12.0209882,45.3036152]},"properties":{"id":"bikerack:c91af344-6fd7-4a85-a017-a05e18934ecb","kind":"bikerack","longitude":12.0209882,"latitude":45.3036152,"name":"Parcheggio bici","city":"Piove di Sacco-Piovega","address":null,"covered":false,"access":null,"website":null,"phone":null,"source":"OpenStreetMap/node/12034069798","sourceUpdatedAt":null,"verifiedAt":null}},{"type":"Feature","geometry":{"type":"Point","coordinates":[12.0224841,45.3000475]},"properties":{"id":"bikerack:cb57b14d-75c1-4043-9030-e1cbd1a11dc5","kind":"bikerack","longitude":12.0224841,"latitude":45.3000475,"name":"Parcheggio bici","city":"Piove di Sacco-Piovega","address":null,"covered":false,"access":null,"website":null,"phone":null,"source":"OpenStreetMap/node/13085190818","sourceUpdatedAt":null,"verifiedAt":null}},{"type":"Feature","geometry":{"type":"Point","coordinates":[12.0347654,45.2884496]},"properties":{"id":"bikerack:d1afebcf-8fb5-4efb-96e1-8bda905d8c5b","kind":"bikerack","longitude":12.0347654,"latitude":45.2884496,"name":"Parcheggio bici","city":"Piove di Sacco-Piovega","address":null,"covered":false,"access":null,"website":null,"phone":null,"source":"OpenStreetMap/node/13515689201","sourceUpdatedAt":null,"verifiedAt":null}},{"type":"Feature","geometry":{"type":"Point","coordinates":[12.0215335,45.3052154]},"properties":{"id":"bikerack:f3f571ab-5b5c-49f9-94e5-0a6c6d68097c","kind":"bikerack","longitude":12.0215335,"latitude":45.3052154,"name":"Parcheggio bici","city":"Sant'Angelo di Piove di Sacco","address":null,"covered":false,"access":null,"website":null,"phone":null,"source":"OpenStreetMap/node/12007522255","sourceUpdatedAt":null,"verifiedAt":null}},{"type":"Feature","geometry":{"type":"Point","coordinates":[12.02525,45.3037778]},"properties":{"id":"water:77187fe6-e1e9-498d-9bbf-40d9a0536ea5","kind":"water","longitude":12.02525,"latitude":45.3037778,"name":"Fontanella","city":"Piove di Sacco-Piovega","address":null,"covered":null,"access":null,"website":null,"phone":null,"source":"OpenStreetMap/node/12703100918","sourceUpdatedAt":null,"verifiedAt":null}}]}