{"type":"FeatureCollection","features":[{"type":"Feature","geometry":{"type":"Point","coordinates":[15.0800523,50.0778909]},"properties":{"id":"bikerack:4f99f57c-923f-403e-8b61-6a853107c13d","kind":"bikerack","longitude":15.0800523,"latitude":50.0778909,"name":"Bicycle Parking","city":"Cerhenice","address":null,"covered":false,"access":null,"website":null,"phone":null,"source":"OpenStreetMap/node/11070786104","sourceUpdatedAt":null,"verifiedAt":null}},{"type":"Feature","geometry":{"type":"Point","coordinates":[15.0808388,50.0770155]},"properties":{"id":"bikerack:777f30d1-12b4-46fc-9a3b-4ed65b8a2e31","kind":"bikerack","longitude":15.0808388,"latitude":50.0770155,"name":"Bicycle Parking","city":"Cerhenice","address":null,"covered":false,"access":null,"website":null,"phone":null,"source":"OpenStreetMap/node/10842325549","sourceUpdatedAt":null,"verifiedAt":null}},{"type":"Feature","geometry":{"type":"Point","coordinates":[15.0799065,50.077739]},"properties":{"id":"bikerack:b9e1a3b9-66f8-402f-bf67-cfbb223e7657","kind":"bikerack","longitude":15.0799065,"latitude":50.077739,"name":"Bicycle Parking","city":"Cerhenice","address":null,"covered":false,"access":null,"website":null,"phone":null,"source":"OpenStreetMap/node/11070786103","sourceUpdatedAt":null,"verifiedAt":null}}]}