{"type":"FeatureCollection","features":[{"type":"Feature","geometry":{"type":"Point","coordinates":[15.9158692,50.3465506]},"properties":{"id":"bikerack:0ce46a30-8cca-4726-bc56-cb97a4e9c3e5","kind":"bikerack","longitude":15.9158692,"latitude":50.3465506,"name":"Bicycle Parking","city":"Jaromer","address":null,"covered":false,"access":null,"website":null,"phone":null,"source":"OpenStreetMap/node/10885796632","sourceUpdatedAt":null,"verifiedAt":null}},{"type":"Feature","geometry":{"type":"Point","coordinates":[15.917217,50.3517038]},"properties":{"id":"bikerack:1a969d30-8ddb-4032-92e4-4299fe06d2ee","kind":"bikerack","longitude":15.917217,"latitude":50.3517038,"name":"Bicycle Parking","city":"Jaromer","address":null,"covered":false,"access":null,"website":null,"phone":null,"source":"OpenStreetMap/node/8647499784","sourceUpdatedAt":null,"verifiedAt":null}},{"type":"Feature","geometry":{"type":"Point","coordinates":[15.9111113,50.3554412]},"properties":{"id":"bikerack:a49399c9-b5a1-4d46-b24b-2418adc984e9","kind":"bikerack","longitude":15.9111113,"latitude":50.3554412,"name":"Bicycle Parking","city":"Jaromer","address":null,"covered":true,"access":null,"website":null,"phone":null,"source":"OpenStreetMap/way/932879705","sourceUpdatedAt":null,"verifiedAt":null}},{"type":"Feature","geometry":{"type":"Point","coordinates":[15.9152631,50.3566286]},"properties":{"id":"bikerack:b2212cf3-b42a-438c-8f0e-34a49cce47e1","kind":"bikerack","longitude":15.9152631,"latitude":50.3566286,"name":"Bicycle Parking","city":"Jaromer","address":null,"covered":false,"access":null,"website":null,"phone":null,"source":"OpenStreetMap/node/10885785110","sourceUpdatedAt":null,"verifiedAt":null}},{"type":"Feature","geometry":{"type":"Point","coordinates":[15.9184592,50.3554231]},"properties":{"id":"bikerack:e39fe78d-6a3c-49bf-8820-2d1c444c4200","kind":"bikerack","longitude":15.9184592,"latitude":50.3554231,"name":"Bicycle Parking","city":"Jaromer","address":null,"covered":false,"access":null,"website":null,"phone":null,"source":"OpenStreetMap/node/10885835583","sourceUpdatedAt":null,"verifiedAt":null}},{"type":"Feature","geometry":{"type":"Point","coordinates":[15.9158147,50.3533314]},"properties":{"id":"bikerack:eced5ee9-56cc-4796-978b-b4ee69c70bfa","kind":"bikerack","longitude":15.9158147,"latitude":50.3533314,"name":"Bicycle Parking","city":"Jaromer","address":null,"covered":false,"access":null,"website":null,"phone":null,"source":"OpenStreetMap/node/10886028483","sourceUpdatedAt":null,"verifiedAt":null}}]}