{"type":"FeatureCollection","features":[{"type":"Feature","geometry":{"type":"Point","coordinates":[15.944052,47.6737218]},"properties":{"id":"bikerack:39c8a8f8-c410-415f-b5db-f144240d74f7","kind":"bikerack","longitude":15.944052,"latitude":47.6737218,"name":"Biciklitároló","city":"Gloggnitz","address":null,"covered":false,"access":null,"website":null,"phone":null,"source":"OpenStreetMap/node/8870706159","sourceUpdatedAt":null,"verifiedAt":null}},{"type":"Feature","geometry":{"type":"Point","coordinates":[15.9306055,47.6698546]},"properties":{"id":"bikerack:3e398ec2-7fe8-4a20-a3ea-71c7dccb47a4","kind":"bikerack","longitude":15.9306055,"latitude":47.6698546,"name":"Biciklitároló","city":"Gloggnitz","address":null,"covered":false,"access":null,"website":null,"phone":null,"source":"OpenStreetMap/node/12106275344","sourceUpdatedAt":null,"verifiedAt":null}},{"type":"Feature","geometry":{"type":"Point","coordinates":[15.9461013,47.6774707]},"properties":{"id":"bikerack:474b0bfa-8a33-467a-89fb-6f60851d128a","kind":"bikerack","longitude":15.9461013,"latitude":47.6774707,"name":"Biciklitároló","city":"Gloggnitz","address":null,"covered":true,"access":null,"website":null,"phone":null,"source":"OpenStreetMap/node/12106302216","sourceUpdatedAt":null,"verifiedAt":null}},{"type":"Feature","geometry":{"type":"Point","coordinates":[15.9134753,47.6823794]},"properties":{"id":"bikerack:5ed6660d-5fe4-4b44-833d-f6d56a8f3201","kind":"bikerack","longitude":15.9134753,"latitude":47.6823794,"name":"Biciklitároló","city":"Prigglitz","address":null,"covered":false,"access":null,"website":null,"phone":null,"source":"OpenStreetMap/node/10259151865","sourceUpdatedAt":null,"verifiedAt":null}},{"type":"Feature","geometry":{"type":"Point","coordinates":[15.94954,47.6673531]},"properties":{"id":"bikerack:74c5bdf6-a00b-4c3f-b473-3579763703dc","kind":"bikerack","longitude":15.94954,"latitude":47.6673531,"name":"Biciklitároló","city":"Enzenreith","address":null,"covered":true,"access":null,"website":null,"phone":null,"source":"OpenStreetMap/way/495035480","sourceUpdatedAt":null,"verifiedAt":null}},{"type":"Feature","geometry":{"type":"Point","coordinates":[15.9314284,47.670885]},"properties":{"id":"bikerack:b0bc209d-5a3f-40bb-b7ca-c45a2c34086a","kind":"bikerack","longitude":15.9314284,"latitude":47.670885,"name":"Biciklitároló","city":"Gloggnitz","address":null,"covered":false,"access":null,"website":null,"phone":null,"source":"OpenStreetMap/node/4959581454","sourceUpdatedAt":null,"verifiedAt":null}},{"type":"Feature","geometry":{"type":"Point","coordinates":[15.9465828,47.6780116]},"properties":{"id":"bikerack:e81928dc-3844-459b-8727-4f212126a6fa","kind":"bikerack","longitude":15.9465828,"latitude":47.6780116,"name":"Biciklitároló","city":"Gloggnitz","address":null,"covered":false,"access":null,"website":null,"phone":null,"source":"OpenStreetMap/node/10135763640","sourceUpdatedAt":null,"verifiedAt":null}},{"type":"Feature","geometry":{"type":"Point","coordinates":[15.9461702,47.6774939]},"properties":{"id":"repair:6f1e46fc-837a-4416-bdbb-0ad834ac3fe7","kind":"repair","longitude":15.9461702,"latitude":47.6774939,"name":"Kerékpár szervizállomás","city":"Gloggnitz","address":null,"covered":false,"access":null,"website":null,"phone":null,"source":"OpenStreetMap/node/12106302217","sourceUpdatedAt":null,"verifiedAt":null}},{"type":"Feature","geometry":{"type":"Point","coordinates":[15.9515795,47.6796318]},"properties":{"id":"service:c5eba818-b327-4f11-89b5-b23e4928b22d","kind":"service","longitude":15.9515795,"latitude":47.6796318,"name":"Radwerkstatt Kastner","city":"Gloggnitz","address":null,"covered":null,"access":null,"website":null,"phone":null,"source":"OpenStreetMap/node/11190862725","sourceUpdatedAt":null,"verifiedAt":null}},{"type":"Feature","geometry":{"type":"Point","coordinates":[15.9470469,47.677561]},"properties":{"id":"water:75b1a455-239f-461c-9479-8f07bd1878c5","kind":"water","longitude":15.9470469,"latitude":47.677561,"name":"Ivókút","city":"Gloggnitz","address":null,"covered":null,"access":null,"website":null,"phone":null,"source":"OpenStreetMap/node/793654261","sourceUpdatedAt":null,"verifiedAt":null}},{"type":"Feature","geometry":{"type":"Point","coordinates":[15.9361088,47.675706]},"properties":{"id":"water:c4e46203-d9a7-4c55-a368-bfcb2a879481","kind":"water","longitude":15.9361088,"latitude":47.675706,"name":"Ivókút","city":"Gloggnitz","address":null,"covered":null,"access":null,"website":null,"phone":null,"source":"OpenStreetMap/node/7798997437","sourceUpdatedAt":null,"verifiedAt":null}}]}