{"type":"FeatureCollection","features":[{"type":"Feature","geometry":{"type":"Point","coordinates":[15.9513594,45.8072151]},"properties":{"id":"bikerack:01bcc5e9-4c9c-4528-b4a7-36d4308ab0b4","kind":"bikerack","longitude":15.9513594,"latitude":45.8072151,"name":"Biciklitároló","city":"Zagreb - Centar","address":null,"covered":false,"access":null,"website":null,"phone":null,"source":"OpenStreetMap/node/7261168046","sourceUpdatedAt":null,"verifiedAt":null}},{"type":"Feature","geometry":{"type":"Point","coordinates":[15.9439651,45.8115142]},"properties":{"id":"bikerack:06166d49-8992-4ad3-b138-8b248d9ab75d","kind":"bikerack","longitude":15.9439651,"latitude":45.8115142,"name":"Biciklitároló","city":"Zagreb - Centar","address":null,"covered":false,"access":null,"website":null,"phone":null,"source":"OpenStreetMap/node/11257610465","sourceUpdatedAt":null,"verifiedAt":null}},{"type":"Feature","geometry":{"type":"Point","coordinates":[15.9296793,45.800957]},"properties":{"id":"bikerack:06f56899-8dcb-4c03-8750-fc3678893f7c","kind":"bikerack","longitude":15.9296793,"latitude":45.800957,"name":"Biciklitároló","city":"Jankomir","address":null,"covered":true,"access":null,"website":null,"phone":null,"source":"OpenStreetMap/node/13671587816","sourceUpdatedAt":null,"verifiedAt":null}},{"type":"Feature","geometry":{"type":"Point","coordinates":[15.9303574,45.8021136]},"properties":{"id":"bikerack:085924ee-bb3e-4122-b47e-1006766d92c9","kind":"bikerack","longitude":15.9303574,"latitude":45.8021136,"name":"Biciklitároló","city":"Jankomir","address":null,"covered":true,"access":null,"website":null,"phone":null,"source":"OpenStreetMap/way/1293393502","sourceUpdatedAt":null,"verifiedAt":null}},{"type":"Feature","geometry":{"type":"Point","coordinates":[15.9263469,45.8139109]},"properties":{"id":"bikerack:099391bd-b4a7-4507-9d2e-5a6d6b875058","kind":"bikerack","longitude":15.9263469,"latitude":45.8139109,"name":"Biciklitároló","city":"Jankomir","address":null,"covered":false,"access":null,"website":null,"phone":null,"source":"OpenStreetMap/node/8177606920","sourceUpdatedAt":null,"verifiedAt":null}},{"type":"Feature","geometry":{"type":"Point","coordinates":[15.9275672,45.8025483]},"properties":{"id":"bikerack:099d9b7e-590b-4506-9a26-56b245149568","kind":"bikerack","longitude":15.9275672,"latitude":45.8025483,"name":"Biciklitároló","city":"Jankomir","address":null,"covered":true,"access":null,"website":null,"phone":null,"source":"OpenStreetMap/node/13285094038","sourceUpdatedAt":null,"verifiedAt":null}},{"type":"Feature","geometry":{"type":"Point","coordinates":[15.928351,45.8139132]},"properties":{"id":"bikerack:0ba04b29-289d-4815-a652-d1ea60079c59","kind":"bikerack","longitude":15.928351,"latitude":45.8139132,"name":"Biciklitároló","city":"Jankomir","address":null,"covered":false,"access":null,"website":null,"phone":null,"source":"OpenStreetMap/node/11580676768","sourceUpdatedAt":null,"verifiedAt":null}},{"type":"Feature","geometry":{"type":"Point","coordinates":[15.9401213,45.8022109]},"properties":{"id":"bikerack:0dc4034f-3c5a-4123-b020-7441769be165","kind":"bikerack","longitude":15.9401213,"latitude":45.8022109,"name":"Biciklitároló","city":"Zagreb - Centar","address":null,"covered":false,"access":null,"website":null,"phone":null,"source":"OpenStreetMap/node/10965666205","sourceUpdatedAt":null,"verifiedAt":null}},{"type":"Feature","geometry":{"type":"Point","coordinates":[15.9486285,45.8058041]},"properties":{"id":"bikerack:10460c11-6c11-4fce-ad57-b0e5871bc7b1","kind":"bikerack","longitude":15.9486285,"latitude":45.8058041,"name":"Biciklitároló","city":"Zagreb - Centar","address":null,"covered":false,"access":null,"website":null,"phone":null,"source":"OpenStreetMap/node/11959030434","sourceUpdatedAt":null,"verifiedAt":null}},{"type":"Feature","geometry":{"type":"Point","coordinates":[15.9433921,45.8028937]},"properties":{"id":"bikerack:109726b6-ba1e-4ebe-85e8-bef23d059741","kind":"bikerack","longitude":15.9433921,"latitude":45.8028937,"name":"Biciklitároló","city":"Zagreb - Centar","address":null,"covered":true,"access":null,"website":null,"phone":null,"source":"OpenStreetMap/node/3471428894","sourceUpdatedAt":null,"verifiedAt":null}},{"type":"Feature","geometry":{"type":"Point","coordinates":[15.9382031,45.8202048]},"properties":{"id":"bikerack:14fdab64-8c19-42e2-b8d4-06ab82a14e94","kind":"bikerack","longitude":15.9382031,"latitude":45.8202048,"name":"Biciklitároló","city":"Zagreb - Centar","address":null,"covered":true,"access":null,"website":null,"phone":null,"source":"OpenStreetMap/node/11896482681","sourceUpdatedAt":null,"verifiedAt":null}},{"type":"Feature","geometry":{"type":"Point","coordinates":[15.9281861,45.7993858]},"properties":{"id":"bikerack:175d90ec-8b68-4be4-b699-85025d055bde","kind":"bikerack","longitude":15.9281861,"latitude":45.7993858,"name":"Biciklitároló","city":"Jankomir","address":null,"covered":false,"access":null,"website":null,"phone":null,"source":"OpenStreetMap/node/8140324056","sourceUpdatedAt":null,"verifiedAt":null}},{"type":"Feature","geometry":{"type":"Point","coordinates":[15.938361,45.8102877]},"properties":{"id":"bikerack:191e6e80-1110-4731-9117-c82045311082","kind":"bikerack","longitude":15.938361,"latitude":45.8102877,"name":"Biciklitároló","city":"Zagreb - Centar","address":null,"covered":false,"access":null,"website":null,"phone":null,"source":"OpenStreetMap/node/12298200625","sourceUpdatedAt":null,"verifiedAt":null}},{"type":"Feature","geometry":{"type":"Point","coordinates":[15.9449221,45.802054]},"properties":{"id":"bikerack:1c1c6804-bf57-45c5-a18f-d04203cf27e1","kind":"bikerack","longitude":15.9449221,"latitude":45.802054,"name":"Biciklitároló","city":"Zagreb - Centar","address":null,"covered":false,"access":null,"website":null,"phone":null,"source":"OpenStreetMap/node/7287916189","sourceUpdatedAt":null,"verifiedAt":null}},{"type":"Feature","geometry":{"type":"Point","coordinates":[15.943114,45.8070888]},"properties":{"id":"bikerack:20cf5f7e-f80f-4763-82ca-310df124754c","kind":"bikerack","longitude":15.943114,"latitude":45.8070888,"name":"Biciklitároló","city":"Zagreb - Centar","address":null,"covered":false,"access":null,"website":null,"phone":null,"source":"OpenStreetMap/node/7235872431","sourceUpdatedAt":null,"verifiedAt":null}},{"type":"Feature","geometry":{"type":"Point","coordinates":[15.9412629,45.8015074]},"properties":{"id":"bikerack:28dd0dc2-0dc5-4fdc-b4e2-971d49bf42e9","kind":"bikerack","longitude":15.9412629,"latitude":45.8015074,"name":"Biciklitároló","city":"Zagreb - Centar","address":null,"covered":true,"access":null,"website":null,"phone":null,"source":"OpenStreetMap/node/12396960772","sourceUpdatedAt":null,"verifiedAt":null}},{"type":"Feature","geometry":{"type":"Point","coordinates":[15.9347365,45.8149706]},"properties":{"id":"bikerack:29e02db3-18ef-4726-b251-500df21b272c","kind":"bikerack","longitude":15.9347365,"latitude":45.8149706,"name":"Biciklitároló","city":"Jankomir","address":null,"covered":false,"access":null,"website":null,"phone":null,"source":"OpenStreetMap/node/13188515894","sourceUpdatedAt":null,"verifiedAt":null}},{"type":"Feature","geometry":{"type":"Point","coordinates":[15.9445586,45.8117047]},"properties":{"id":"bikerack:2a3ab7c7-3562-449c-8d61-80d2b2970650","kind":"bikerack","longitude":15.9445586,"latitude":45.8117047,"name":"Biciklitároló","city":"Zagreb - Centar","address":null,"covered":false,"access":null,"website":null,"phone":null,"source":"OpenStreetMap/node/12886339377","sourceUpdatedAt":null,"verifiedAt":null}},{"type":"Feature","geometry":{"type":"Point","coordinates":[15.9309325,45.8087359]},"properties":{"id":"bikerack:2dbd5d9c-c9cd-4d01-ae5b-6ad39afb39e2","kind":"bikerack","longitude":15.9309325,"latitude":45.8087359,"name":"Biciklitároló","city":"Jankomir","address":null,"covered":false,"access":null,"website":null,"phone":null,"source":"OpenStreetMap/node/11372493461","sourceUpdatedAt":null,"verifiedAt":null}},{"type":"Feature","geometry":{"type":"Point","coordinates":[15.9470897,45.8028554]},"properties":{"id":"bikerack:2f4d680a-6699-4858-978c-84bd087a5bae","kind":"bikerack","longitude":15.9470897,"latitude":45.8028554,"name":"Biciklitároló","city":"Zagreb - Centar","address":null,"covered":true,"access":null,"website":null,"phone":null,"source":"OpenStreetMap/node/7287916190","sourceUpdatedAt":null,"verifiedAt":null}},{"type":"Feature","geometry":{"type":"Point","coordinates":[15.9410126,45.8071036]},"properties":{"id":"bikerack:33851e4d-037c-4c80-94eb-e78fde3cf891","kind":"bikerack","longitude":15.9410126,"latitude":45.8071036,"name":"Biciklitároló","city":"Zagreb - Centar","address":null,"covered":false,"access":null,"website":null,"phone":null,"source":"OpenStreetMap/node/11183944227","sourceUpdatedAt":null,"verifiedAt":null}},{"type":"Feature","geometry":{"type":"Point","coordinates":[15.9424241,45.8011147]},"properties":{"id":"bikerack:370e60a9-fbf0-4c48-8a86-86f86d242d37","kind":"bikerack","longitude":15.9424241,"latitude":45.8011147,"name":"Biciklitároló","city":"Zagreb - Centar","address":null,"covered":false,"access":null,"website":null,"phone":null,"source":"OpenStreetMap/node/8384925277","sourceUpdatedAt":null,"verifiedAt":null}},{"type":"Feature","geometry":{"type":"Point","coordinates":[15.924112,45.8052586]},"properties":{"id":"bikerack:3a0a8ae1-41e8-43a5-813d-84ed40df96d0","kind":"bikerack","longitude":15.924112,"latitude":45.8052586,"name":"Biciklitároló","city":"Jankomir","address":null,"covered":false,"access":null,"website":null,"phone":null,"source":"OpenStreetMap/node/3396293471","sourceUpdatedAt":null,"verifiedAt":null}},{"type":"Feature","geometry":{"type":"Point","coordinates":[15.9425682,45.802725]},"properties":{"id":"bikerack:3b00cff7-8805-4e4b-86e5-61370a5be583","kind":"bikerack","longitude":15.9425682,"latitude":45.802725,"name":"Biciklitároló","city":"Zagreb - Centar","address":null,"covered":false,"access":null,"website":null,"phone":null,"source":"OpenStreetMap/node/7287916192","sourceUpdatedAt":null,"verifiedAt":null}},{"type":"Feature","geometry":{"type":"Point","coordinates":[15.9353056,45.8127185]},"properties":{"id":"bikerack:3f58d469-462b-4553-892e-acb75350086a","kind":"bikerack","longitude":15.9353056,"latitude":45.8127185,"name":"Biciklitároló","city":"Jankomir","address":null,"covered":false,"access":null,"website":null,"phone":null,"source":"OpenStreetMap/node/12260392449","sourceUpdatedAt":null,"verifiedAt":null}},{"type":"Feature","geometry":{"type":"Point","coordinates":[15.9496785,45.8099111]},"properties":{"id":"bikerack:40cb334f-60b5-4e3c-91d3-9863d9262875","kind":"bikerack","longitude":15.9496785,"latitude":45.8099111,"name":"Biciklitároló","city":"Zagreb - Centar","address":null,"covered":false,"access":null,"website":null,"phone":null,"source":"OpenStreetMap/node/12991921445","sourceUpdatedAt":null,"verifiedAt":null}},{"type":"Feature","geometry":{"type":"Point","coordinates":[15.9295015,45.8007144]},"properties":{"id":"bikerack:43f47ed6-b59f-4326-a12b-7df66d0365d0","kind":"bikerack","longitude":15.9295015,"latitude":45.8007144,"name":"Biciklitároló","city":"Jankomir","address":null,"covered":false,"access":null,"website":null,"phone":null,"source":"OpenStreetMap/node/11435742175","sourceUpdatedAt":null,"verifiedAt":null}},{"type":"Feature","geometry":{"type":"Point","coordinates":[15.9281951,45.8003454]},"properties":{"id":"bikerack:453e1ff0-0447-477a-98ab-30f86227346d","kind":"bikerack","longitude":15.9281951,"latitude":45.8003454,"name":"Biciklitároló","city":"Jankomir","address":null,"covered":false,"access":null,"website":null,"phone":null,"source":"OpenStreetMap/node/12635463800","sourceUpdatedAt":null,"verifiedAt":null}},{"type":"Feature","geometry":{"type":"Point","coordinates":[15.9366893,45.8168272]},"properties":{"id":"bikerack:4590df18-fec4-477b-960b-76e6aa9657b9","kind":"bikerack","longitude":15.9366893,"latitude":45.8168272,"name":"Biciklitároló","city":"Zagreb - Centar","address":null,"covered":false,"access":null,"website":null,"phone":null,"source":"OpenStreetMap/node/9590183706","sourceUpdatedAt":null,"verifiedAt":null}},{"type":"Feature","geometry":{"type":"Point","coordinates":[15.934692,45.8164182]},"properties":{"id":"bikerack:4624dae5-9307-4468-8630-5e0969d3ade9","kind":"bikerack","longitude":15.934692,"latitude":45.8164182,"name":"Biciklitároló","city":"Jankomir","address":null,"covered":false,"access":null,"website":null,"phone":null,"source":"OpenStreetMap/node/8105748255","sourceUpdatedAt":null,"verifiedAt":null}},{"type":"Feature","geometry":{"type":"Point","coordinates":[15.9262894,45.813638]},"properties":{"id":"bikerack:46c52904-e0fb-4972-a10a-2863d62c637b","kind":"bikerack","longitude":15.9262894,"latitude":45.813638,"name":"Biciklitároló","city":"Jankomir","address":null,"covered":false,"access":null,"website":null,"phone":null,"source":"OpenStreetMap/node/13382256938","sourceUpdatedAt":null,"verifiedAt":null}},{"type":"Feature","geometry":{"type":"Point","coordinates":[15.9421544,45.8127107]},"properties":{"id":"bikerack:4956094a-6423-4014-8677-487eef0710bc","kind":"bikerack","longitude":15.9421544,"latitude":45.8127107,"name":"Biciklitároló","city":"Zagreb - Centar","address":null,"covered":false,"access":null,"website":null,"phone":null,"source":"OpenStreetMap/node/11687537369","sourceUpdatedAt":null,"verifiedAt":null}},{"type":"Feature","geometry":{"type":"Point","coordinates":[15.9413713,45.8019559]},"properties":{"id":"bikerack:4e475cba-98f9-43c3-8b66-b8eed683f29c","kind":"bikerack","longitude":15.9413713,"latitude":45.8019559,"name":"Biciklitároló","city":"Zagreb - Centar","address":null,"covered":false,"access":null,"website":null,"phone":null,"source":"OpenStreetMap/node/7804726413","sourceUpdatedAt":null,"verifiedAt":null}},{"type":"Feature","geometry":{"type":"Point","coordinates":[15.9348022,45.8150073]},"properties":{"id":"bikerack:569a7e51-25ec-478a-9788-8cc6efd5eef8","kind":"bikerack","longitude":15.9348022,"latitude":45.8150073,"name":"Biciklitároló","city":"Jankomir","address":null,"covered":false,"access":null,"website":null,"phone":null,"source":"OpenStreetMap/node/12100489905","sourceUpdatedAt":null,"verifiedAt":null}},{"type":"Feature","geometry":{"type":"Point","coordinates":[15.9512068,45.8111472]},"properties":{"id":"bikerack:6008d089-c100-4513-a359-49627d69f71a","kind":"bikerack","longitude":15.9512068,"latitude":45.8111472,"name":"Biciklitároló","city":"Zagreb - Centar","address":null,"covered":true,"access":null,"website":null,"phone":null,"source":"OpenStreetMap/node/9815239797","sourceUpdatedAt":null,"verifiedAt":null}},{"type":"Feature","geometry":{"type":"Point","coordinates":[15.9450008,45.8009909]},"properties":{"id":"bikerack:64261153-d72a-4e3d-a969-42647815f9cf","kind":"bikerack","longitude":15.9450008,"latitude":45.8009909,"name":"Biciklitároló","city":"Zagreb - Centar","address":null,"covered":false,"access":null,"website":null,"phone":null,"source":"OpenStreetMap/node/7287916193","sourceUpdatedAt":null,"verifiedAt":null}},{"type":"Feature","geometry":{"type":"Point","coordinates":[15.9400227,45.8207403]},"properties":{"id":"bikerack:661d969e-dfdf-43d1-b019-64c1c4f21438","kind":"bikerack","longitude":15.9400227,"latitude":45.8207403,"name":"Biciklitároló","city":"Zagreb - Centar","address":null,"covered":true,"access":null,"website":null,"phone":null,"source":"OpenStreetMap/node/11830131789","sourceUpdatedAt":null,"verifiedAt":null}},{"type":"Feature","geometry":{"type":"Point","coordinates":[15.9437659,45.8108308]},"properties":{"id":"bikerack:6673b39f-faca-44ce-a4c9-8b52e5f5a990","kind":"bikerack","longitude":15.9437659,"latitude":45.8108308,"name":"Biciklitároló","city":"Zagreb - Centar","address":null,"covered":false,"access":null,"website":null,"phone":null,"source":"OpenStreetMap/node/9360796624","sourceUpdatedAt":null,"verifiedAt":null}},{"type":"Feature","geometry":{"type":"Point","coordinates":[15.9094882,45.800964]},"properties":{"id":"bikerack:6a0fc8d5-5ffa-46df-96ff-40f69e3cc834","kind":"bikerack","longitude":15.9094882,"latitude":45.800964,"name":"Biciklitároló","city":"Jankomir","address":null,"covered":true,"access":null,"website":null,"phone":null,"source":"OpenStreetMap/node/12289895540","sourceUpdatedAt":null,"verifiedAt":null}},{"type":"Feature","geometry":{"type":"Point","coordinates":[15.9489831,45.8111693]},"properties":{"id":"bikerack:6b823e6b-5b0e-4a51-86b3-8dbbf7ea1c6c","kind":"bikerack","longitude":15.9489831,"latitude":45.8111693,"name":"Biciklitároló","city":"Zagreb - Centar","address":null,"covered":false,"access":null,"website":null,"phone":null,"source":"OpenStreetMap/node/12640066744","sourceUpdatedAt":null,"verifiedAt":null}},{"type":"Feature","geometry":{"type":"Point","coordinates":[15.9486728,45.8083198]},"properties":{"id":"bikerack:6d09887d-6d0c-4f67-b624-9359cbae59a9","kind":"bikerack","longitude":15.9486728,"latitude":45.8083198,"name":"Biciklitároló","city":"Zagreb - Centar","address":null,"covered":true,"access":null,"website":null,"phone":null,"source":"OpenStreetMap/node/13316618042","sourceUpdatedAt":null,"verifiedAt":null}},{"type":"Feature","geometry":{"type":"Point","coordinates":[15.9283007,45.8001669]},"properties":{"id":"bikerack:72bb7f01-afbd-471c-9b0f-33d4fb884d01","kind":"bikerack","longitude":15.9283007,"latitude":45.8001669,"name":"Biciklitároló","city":"Jankomir","address":null,"covered":false,"access":null,"website":null,"phone":null,"source":"OpenStreetMap/node/11291834426","sourceUpdatedAt":null,"verifiedAt":null}},{"type":"Feature","geometry":{"type":"Point","coordinates":[15.9427616,45.8046282]},"properties":{"id":"bikerack:76fa2d10-7263-4a7a-99d2-73a52cf14800","kind":"bikerack","longitude":15.9427616,"latitude":45.8046282,"name":"Biciklitároló","city":"Zagreb - Centar","address":null,"covered":false,"access":null,"website":null,"phone":null,"source":"OpenStreetMap/node/3475504341","sourceUpdatedAt":null,"verifiedAt":null}},{"type":"Feature","geometry":{"type":"Point","coordinates":[15.9486827,45.8123258]},"properties":{"id":"bikerack:7b0b04b5-c8e8-4db0-bc51-a811f58252bc","kind":"bikerack","longitude":15.9486827,"latitude":45.8123258,"name":"Biciklitároló","city":"Zagreb - Centar","address":null,"covered":false,"access":null,"website":null,"phone":null,"source":"OpenStreetMap/node/8280647433","sourceUpdatedAt":null,"verifiedAt":null}},{"type":"Feature","geometry":{"type":"Point","coordinates":[15.9450788,45.8150103]},"properties":{"id":"bikerack:7bbd301d-be19-49b0-8e29-6aeea5d3cdb9","kind":"bikerack","longitude":15.9450788,"latitude":45.8150103,"name":"Biciklitároló","city":"Zagreb - Centar","address":null,"covered":false,"access":null,"website":null,"phone":null,"source":"OpenStreetMap/node/3746215084","sourceUpdatedAt":null,"verifiedAt":null}},{"type":"Feature","geometry":{"type":"Point","coordinates":[15.9281698,45.7995075]},"properties":{"id":"bikerack:7fb291a5-f570-4e1c-a831-c3babe8485c5","kind":"bikerack","longitude":15.9281698,"latitude":45.7995075,"name":"Biciklitároló","city":"Jankomir","address":null,"covered":false,"access":null,"website":null,"phone":null,"source":"OpenStreetMap/node/8140324057","sourceUpdatedAt":null,"verifiedAt":null}},{"type":"Feature","geometry":{"type":"Point","coordinates":[15.9520449,45.8065442]},"properties":{"id":"bikerack:85a6029d-b0f5-4b5b-80dc-8711c7c09782","kind":"bikerack","longitude":15.9520449,"latitude":45.8065442,"name":"Biciklitároló","city":"Zagreb - Centar","address":null,"covered":false,"access":null,"website":null,"phone":null,"source":"OpenStreetMap/node/7261168043","sourceUpdatedAt":null,"verifiedAt":null}},{"type":"Feature","geometry":{"type":"Point","coordinates":[15.9445181,45.8146515]},"properties":{"id":"bikerack:872a27e2-04aa-4a4d-ad99-8041c4551209","kind":"bikerack","longitude":15.9445181,"latitude":45.8146515,"name":"Biciklitároló","city":"Zagreb - Centar","address":null,"covered":false,"access":null,"website":null,"phone":null,"source":"OpenStreetMap/node/13188515892","sourceUpdatedAt":null,"verifiedAt":null}},{"type":"Feature","geometry":{"type":"Point","coordinates":[15.9222648,45.8025732]},"properties":{"id":"bikerack:91659f53-ac67-4e36-a162-109373509b4f","kind":"bikerack","longitude":15.9222648,"latitude":45.8025732,"name":"Biciklitároló","city":"Jankomir","address":null,"covered":false,"access":null,"website":null,"phone":null,"source":"OpenStreetMap/node/11350748532","sourceUpdatedAt":null,"verifiedAt":null}},{"type":"Feature","geometry":{"type":"Point","coordinates":[15.942481,45.8024302]},"properties":{"id":"bikerack:93507bd3-7394-4c88-9526-25890402bdda","kind":"bikerack","longitude":15.942481,"latitude":45.8024302,"name":"Biciklitároló","city":"Zagreb - Centar","address":null,"covered":false,"access":null,"website":null,"phone":null,"source":"OpenStreetMap/node/7287916191","sourceUpdatedAt":null,"verifiedAt":null}},{"type":"Feature","geometry":{"type":"Point","coordinates":[15.9303123,45.807288]},"properties":{"id":"bikerack:94e368ed-0a0a-464e-b675-20be1a001f97","kind":"bikerack","longitude":15.9303123,"latitude":45.807288,"name":"Biciklitároló","city":"Jankomir","address":null,"covered":false,"access":null,"website":null,"phone":null,"source":"OpenStreetMap/node/11577780193","sourceUpdatedAt":null,"verifiedAt":null}},{"type":"Feature","geometry":{"type":"Point","coordinates":[15.9219306,45.8056848]},"properties":{"id":"bikerack:a11a3fe1-ce87-4ab6-8475-3b5d40a51dcb","kind":"bikerack","longitude":15.9219306,"latitude":45.8056848,"name":"Biciklitároló","city":"Jankomir","address":null,"covered":true,"access":null,"website":null,"phone":null,"source":"OpenStreetMap/node/13252007846","sourceUpdatedAt":null,"verifiedAt":null}},{"type":"Feature","geometry":{"type":"Point","coordinates":[15.9299898,45.8028598]},"properties":{"id":"bikerack:a63b5633-6c22-4e8e-aa0c-4b3e0f97624d","kind":"bikerack","longitude":15.9299898,"latitude":45.8028598,"name":"Biciklitároló","city":"Jankomir","address":null,"covered":false,"access":null,"website":null,"phone":null,"source":"OpenStreetMap/node/12800401043","sourceUpdatedAt":null,"verifiedAt":null}},{"type":"Feature","geometry":{"type":"Point","coordinates":[15.9511433,45.8154419]},"properties":{"id":"bikerack:a76551ee-d9db-4f58-8c1e-02087ac4f8a8","kind":"bikerack","longitude":15.9511433,"latitude":45.8154419,"name":"Biciklitároló","city":"Zagreb - Centar","address":null,"covered":false,"access":null,"website":null,"phone":null,"source":"OpenStreetMap/node/13038669137","sourceUpdatedAt":null,"verifiedAt":null}},{"type":"Feature","geometry":{"type":"Point","coordinates":[15.9512096,45.8114674]},"properties":{"id":"bikerack:ad2b4e2e-8d13-42fb-bbdf-a1bec2275380","kind":"bikerack","longitude":15.9512096,"latitude":45.8114674,"name":"Biciklitároló","city":"Zagreb - Centar","address":null,"covered":false,"access":null,"website":null,"phone":null,"source":"OpenStreetMap/node/4427057555","sourceUpdatedAt":null,"verifiedAt":null}},{"type":"Feature","geometry":{"type":"Point","coordinates":[15.9388427,45.8198256]},"properties":{"id":"bikerack:afa55726-3426-4333-95f3-d94c7379ab1e","kind":"bikerack","longitude":15.9388427,"latitude":45.8198256,"name":"Biciklitároló","city":"Zagreb - Centar","address":null,"covered":false,"access":null,"website":null,"phone":null,"source":"OpenStreetMap/node/6297978479","sourceUpdatedAt":null,"verifiedAt":null}},{"type":"Feature","geometry":{"type":"Point","coordinates":[15.9506037,45.8111228]},"properties":{"id":"bikerack:b270e804-17c0-4b3f-8511-d4322b56c652","kind":"bikerack","longitude":15.9506037,"latitude":45.8111228,"name":"Biciklitároló","city":"Zagreb - Centar","address":null,"covered":true,"access":null,"website":null,"phone":null,"source":"OpenStreetMap/node/12901357210","sourceUpdatedAt":null,"verifiedAt":null}},{"type":"Feature","geometry":{"type":"Point","coordinates":[15.9385988,45.8199138]},"properties":{"id":"bikerack:b2b49f6e-e44c-4cf2-9aaf-2d3fd383bced","kind":"bikerack","longitude":15.9385988,"latitude":45.8199138,"name":"Biciklitároló","city":"Zagreb - Centar","address":null,"covered":false,"access":null,"website":null,"phone":null,"source":"OpenStreetMap/node/11830131790","sourceUpdatedAt":null,"verifiedAt":null}},{"type":"Feature","geometry":{"type":"Point","coordinates":[15.9216602,45.805652]},"properties":{"id":"bikerack:b6b49692-f748-447b-8533-5e7d0bb940e8","kind":"bikerack","longitude":15.9216602,"latitude":45.805652,"name":"Biciklitároló","city":"Jankomir","address":null,"covered":false,"access":null,"website":null,"phone":null,"source":"OpenStreetMap/node/9455521169","sourceUpdatedAt":null,"verifiedAt":null}},{"type":"Feature","geometry":{"type":"Point","coordinates":[15.947285,45.8029004]},"properties":{"id":"bikerack:b6bb5c0e-5ff4-4e26-8a9e-2b18df1a994d","kind":"bikerack","longitude":15.947285,"latitude":45.8029004,"name":"Biciklitároló","city":"Zagreb - Centar","address":null,"covered":false,"access":null,"website":null,"phone":null,"source":"OpenStreetMap/node/3523879047","sourceUpdatedAt":null,"verifiedAt":null}},{"type":"Feature","geometry":{"type":"Point","coordinates":[15.9510831,45.8111538]},"properties":{"id":"bikerack:bc318087-216d-4261-9b7e-6c3a2b6d8cfe","kind":"bikerack","longitude":15.9510831,"latitude":45.8111538,"name":"Biciklitároló","city":"Zagreb - Centar","address":null,"covered":false,"access":null,"website":null,"phone":null,"source":"OpenStreetMap/node/9815279461","sourceUpdatedAt":null,"verifiedAt":null}},{"type":"Feature","geometry":{"type":"Point","coordinates":[15.9282581,45.8001203]},"properties":{"id":"bikerack:c57aa0ea-4961-4c7c-9738-57725ecaac70","kind":"bikerack","longitude":15.9282581,"latitude":45.8001203,"name":"Biciklitároló","city":"Jankomir","address":null,"covered":false,"access":null,"website":null,"phone":null,"source":"OpenStreetMap/node/9592229526","sourceUpdatedAt":null,"verifiedAt":null}},{"type":"Feature","geometry":{"type":"Point","coordinates":[15.9510847,45.8161841]},"properties":{"id":"bikerack:c5b1d9fd-e0db-4b75-b8c9-520d6eb8d29e","kind":"bikerack","longitude":15.9510847,"latitude":45.8161841,"name":"Biciklitároló","city":"Zagreb - Centar","address":null,"covered":true,"access":null,"website":null,"phone":null,"source":"OpenStreetMap/node/13038746853","sourceUpdatedAt":null,"verifiedAt":null}},{"type":"Feature","geometry":{"type":"Point","coordinates":[15.9341923,45.8126905]},"properties":{"id":"bikerack:d010ebf9-6fcc-46d7-9f19-36a4201115f1","kind":"bikerack","longitude":15.9341923,"latitude":45.8126905,"name":"Biciklitároló","city":"Jankomir","address":null,"covered":true,"access":null,"website":null,"phone":null,"source":"OpenStreetMap/node/12460783251","sourceUpdatedAt":null,"verifiedAt":null}},{"type":"Feature","geometry":{"type":"Point","coordinates":[15.9278644,45.81312]},"properties":{"id":"bikerack:d6391e21-6132-473a-aa81-fe5f367a1d97","kind":"bikerack","longitude":15.9278644,"latitude":45.81312,"name":"Biciklitároló","city":"Jankomir","address":null,"covered":false,"access":null,"website":null,"phone":null,"source":"OpenStreetMap/node/10681145148","sourceUpdatedAt":null,"verifiedAt":null}},{"type":"Feature","geometry":{"type":"Point","coordinates":[15.9252432,45.810614]},"properties":{"id":"bikerack:d83d1e0f-e31a-4837-aa39-b19a4c7cf7f1","kind":"bikerack","longitude":15.9252432,"latitude":45.810614,"name":"Biciklitároló","city":"Jankomir","address":null,"covered":false,"access":null,"website":null,"phone":null,"source":"OpenStreetMap/node/9591301451","sourceUpdatedAt":null,"verifiedAt":null}},{"type":"Feature","geometry":{"type":"Point","coordinates":[15.9439632,45.8114034]},"properties":{"id":"bikerack:da685544-ae5b-4708-9009-d1f64e54b1bd","kind":"bikerack","longitude":15.9439632,"latitude":45.8114034,"name":"Biciklitároló","city":"Zagreb - Centar","address":null,"covered":false,"access":null,"website":null,"phone":null,"source":"OpenStreetMap/node/13390026895","sourceUpdatedAt":null,"verifiedAt":null}},{"type":"Feature","geometry":{"type":"Point","coordinates":[15.9406588,45.808464]},"properties":{"id":"bikerack:dd23273d-0e6a-4624-887d-1f61041c66ab","kind":"bikerack","longitude":15.9406588,"latitude":45.808464,"name":"Biciklitároló","city":"Zagreb - Centar","address":null,"covered":false,"access":null,"website":null,"phone":null,"source":"OpenStreetMap/node/13269816636","sourceUpdatedAt":null,"verifiedAt":null}},{"type":"Feature","geometry":{"type":"Point","coordinates":[15.9446667,45.8041584]},"properties":{"id":"bikerack:de4ae40d-c60b-4614-ae68-019a829440e3","kind":"bikerack","longitude":15.9446667,"latitude":45.8041584,"name":"Biciklitároló","city":"Zagreb - Centar","address":null,"covered":false,"access":null,"website":null,"phone":null,"source":"OpenStreetMap/node/8383472855","sourceUpdatedAt":null,"verifiedAt":null}},{"type":"Feature","geometry":{"type":"Point","coordinates":[15.9135004,45.7997637]},"properties":{"id":"bikerack:dfd4aa1d-428d-4967-9872-f03ad30da7a0","kind":"bikerack","longitude":15.9135004,"latitude":45.7997637,"name":"Biciklitároló","city":"Jankomir","address":null,"covered":false,"access":null,"website":null,"phone":null,"source":"OpenStreetMap/node/9875838898","sourceUpdatedAt":null,"verifiedAt":null}},{"type":"Feature","geometry":{"type":"Point","coordinates":[15.9351176,45.8015717]},"properties":{"id":"bikerack:e6153d36-c53e-47a9-ba83-5939edaac4a0","kind":"bikerack","longitude":15.9351176,"latitude":45.8015717,"name":"Biciklitároló","city":"Jankomir","address":null,"covered":true,"access":null,"website":null,"phone":null,"source":"OpenStreetMap/node/2268002503","sourceUpdatedAt":null,"verifiedAt":null}},{"type":"Feature","geometry":{"type":"Point","coordinates":[15.9435043,45.8226822]},"properties":{"id":"bikerack:eb254eac-bbdf-4453-b60c-1e8050810407","kind":"bikerack","longitude":15.9435043,"latitude":45.8226822,"name":"Biciklitároló","city":"Zagreb - Centar","address":null,"covered":false,"access":null,"website":null,"phone":null,"source":"OpenStreetMap/node/11726401958","sourceUpdatedAt":null,"verifiedAt":null}},{"type":"Feature","geometry":{"type":"Point","coordinates":[15.9301118,45.8016849]},"properties":{"id":"bikerack:ec038bed-6728-4fa6-b5b9-e70f46844b93","kind":"bikerack","longitude":15.9301118,"latitude":45.8016849,"name":"Biciklitároló","city":"Jankomir","address":null,"covered":false,"access":null,"website":null,"phone":null,"source":"OpenStreetMap/node/10989364951","sourceUpdatedAt":null,"verifiedAt":null}},{"type":"Feature","geometry":{"type":"Point","coordinates":[15.9210219,45.8048695]},"properties":{"id":"bikerack:ec2b07e8-6aca-4046-bcdd-702abd500677","kind":"bikerack","longitude":15.9210219,"latitude":45.8048695,"name":"Biciklitároló","city":"Jankomir","address":null,"covered":true,"access":null,"website":null,"phone":null,"source":"OpenStreetMap/node/3277846675","sourceUpdatedAt":null,"verifiedAt":null}},{"type":"Feature","geometry":{"type":"Point","coordinates":[15.9450567,45.8017608]},"properties":{"id":"bikerack:edb6429a-da62-4188-a6cb-907f6c9444db","kind":"bikerack","longitude":15.9450567,"latitude":45.8017608,"name":"Biciklitároló","city":"Zagreb - Centar","address":null,"covered":false,"access":null,"website":null,"phone":null,"source":"OpenStreetMap/node/8357314122","sourceUpdatedAt":null,"verifiedAt":null}},{"type":"Feature","geometry":{"type":"Point","coordinates":[15.9282994,45.800212]},"properties":{"id":"bikerack:efc0fb95-cecb-4251-a872-25d4fcd14bcd","kind":"bikerack","longitude":15.9282994,"latitude":45.800212,"name":"Biciklitároló","city":"Jankomir","address":null,"covered":false,"access":null,"website":null,"phone":null,"source":"OpenStreetMap/node/12635463799","sourceUpdatedAt":null,"verifiedAt":null}},{"type":"Feature","geometry":{"type":"Point","coordinates":[15.9481149,45.8089436]},"properties":{"id":"bikerack:f2ef2965-cc9c-452e-b87b-d799d7b980c5","kind":"bikerack","longitude":15.9481149,"latitude":45.8089436,"name":"Biciklitároló","city":"Zagreb - Centar","address":null,"covered":false,"access":null,"website":null,"phone":null,"source":"OpenStreetMap/node/11748262984","sourceUpdatedAt":null,"verifiedAt":null}},{"type":"Feature","geometry":{"type":"Point","coordinates":[15.9447622,45.8042877]},"properties":{"id":"bikerack:f35655e2-8497-40e3-869a-8a488df90c10","kind":"bikerack","longitude":15.9447622,"latitude":45.8042877,"name":"Biciklitároló","city":"Zagreb - Centar","address":null,"covered":false,"access":null,"website":null,"phone":null,"source":"OpenStreetMap/node/8383472854","sourceUpdatedAt":null,"verifiedAt":null}},{"type":"Feature","geometry":{"type":"Point","coordinates":[15.9421386,45.80323]},"properties":{"id":"bikerack:f402e78d-ad79-4bfd-92cc-fe422f90b2ec","kind":"bikerack","longitude":15.9421386,"latitude":45.80323,"name":"Biciklitároló","city":"Zagreb - Centar","address":null,"covered":false,"access":null,"website":null,"phone":null,"source":"OpenStreetMap/node/10819259736","sourceUpdatedAt":null,"verifiedAt":null}},{"type":"Feature","geometry":{"type":"Point","coordinates":[15.9436896,45.8126932]},"properties":{"id":"bikerack:f7be0bb7-0727-4ce5-8040-bb4c4d693df1","kind":"bikerack","longitude":15.9436896,"latitude":45.8126932,"name":"Biciklitároló","city":"Zagreb - Centar","address":null,"covered":false,"access":null,"website":null,"phone":null,"source":"OpenStreetMap/node/12372933424","sourceUpdatedAt":null,"verifiedAt":null}},{"type":"Feature","geometry":{"type":"Point","coordinates":[15.9328586,45.8121567]},"properties":{"id":"bikerack:fcd16975-5ab7-4186-9d60-b0764a7ef43f","kind":"bikerack","longitude":15.9328586,"latitude":45.8121567,"name":"Biciklitároló","city":"Jankomir","address":null,"covered":false,"access":null,"website":null,"phone":null,"source":"OpenStreetMap/node/2332249049","sourceUpdatedAt":null,"verifiedAt":null}},{"type":"Feature","geometry":{"type":"Point","coordinates":[15.9251901,45.8107794]},"properties":{"id":"bikerack:feaf9b0f-a9aa-491d-a617-fcd100c1aa51","kind":"bikerack","longitude":15.9251901,"latitude":45.8107794,"name":"Biciklitároló","city":"Jankomir","address":null,"covered":false,"access":null,"website":null,"phone":null,"source":"OpenStreetMap/node/2626969886","sourceUpdatedAt":null,"verifiedAt":null}},{"type":"Feature","geometry":{"type":"Point","coordinates":[15.9168418,45.8180067]},"properties":{"id":"repair:93aa89d3-00e5-48d5-a2fb-f2fd30e68830","kind":"repair","longitude":15.9168418,"latitude":45.8180067,"name":"Kerékpár szervizállomás","city":"Jankomir","address":null,"covered":false,"access":null,"website":null,"phone":null,"source":"OpenStreetMap/node/8593024451","sourceUpdatedAt":null,"verifiedAt":null}},{"type":"Feature","geometry":{"type":"Point","coordinates":[15.937232,45.8041392]},"properties":{"id":"service:1ae8beb0-a14c-47e6-85ef-08bff105f969","kind":"service","longitude":15.937232,"latitude":45.8041392,"name":"Pedala","city":"Zagreb","address":null,"covered":null,"access":null,"website":null,"phone":null,"source":"OpenStreetMap/node/1725417575","sourceUpdatedAt":null,"verifiedAt":null}},{"type":"Feature","geometry":{"type":"Point","coordinates":[15.9446975,45.8123555]},"properties":{"id":"service:496f2ef5-659c-48b9-b1b0-a4c0c7ddfe4d","kind":"service","longitude":15.9446975,"latitude":45.8123555,"name":"T.Č.T.","city":"Zagreb","address":null,"covered":null,"access":null,"website":null,"phone":null,"source":"OpenStreetMap/node/1725311201","sourceUpdatedAt":null,"verifiedAt":null}},{"type":"Feature","geometry":{"type":"Point","coordinates":[15.9293604,45.8137333]},"properties":{"id":"service:75bb2ab8-bd92-408a-b76b-d049aa83bdf2","kind":"service","longitude":15.9293604,"latitude":45.8137333,"name":"Bike Medic","city":"Jankomir","address":null,"covered":null,"access":null,"website":null,"phone":null,"source":"OpenStreetMap/node/2656319327","sourceUpdatedAt":null,"verifiedAt":null}},{"type":"Feature","geometry":{"type":"Point","coordinates":[15.9180119,45.7982889]},"properties":{"id":"service:b16b19ad-c320-453c-8356-9cf78a456463","kind":"service","longitude":15.9180119,"latitude":45.7982889,"name":"Hafer","city":"Jankomir","address":null,"covered":null,"access":null,"website":null,"phone":null,"source":"OpenStreetMap/node/2135085664","sourceUpdatedAt":null,"verifiedAt":null}},{"type":"Feature","geometry":{"type":"Point","coordinates":[15.9390046,45.8027891]},"properties":{"id":"service:d483e6dd-b917-477d-883b-78df09b0bc3c","kind":"service","longitude":15.9390046,"latitude":45.8027891,"name":"Keindl sport","city":"Zagreb","address":null,"covered":null,"access":null,"website":null,"phone":null,"source":"OpenStreetMap/node/2311957152","sourceUpdatedAt":null,"verifiedAt":null}},{"type":"Feature","geometry":{"type":"Point","coordinates":[15.9442267,45.8057799]},"properties":{"id":"water:0861867f-6501-426b-98e5-eee04227d2ef","kind":"water","longitude":15.9442267,"latitude":45.8057799,"name":"Ivókút","city":"Zagreb - Centar","address":null,"covered":null,"access":null,"website":null,"phone":null,"source":"OpenStreetMap/node/8661801529","sourceUpdatedAt":null,"verifiedAt":null}},{"type":"Feature","geometry":{"type":"Point","coordinates":[15.9345452,45.8158923]},"properties":{"id":"water:09685027-1061-4045-9ad5-91217d29bb09","kind":"water","longitude":15.9345452,"latitude":45.8158923,"name":"Ivókút","city":"Jankomir","address":null,"covered":null,"access":null,"website":null,"phone":null,"source":"OpenStreetMap/node/11992864402","sourceUpdatedAt":null,"verifiedAt":null}},{"type":"Feature","geometry":{"type":"Point","coordinates":[15.9340414,45.8154594]},"properties":{"id":"water:39fc229f-f52a-4192-ba81-f219f7bd7650","kind":"water","longitude":15.9340414,"latitude":45.8154594,"name":"Ivókút","city":"Jankomir","address":null,"covered":null,"access":null,"website":null,"phone":null,"source":"OpenStreetMap/node/12636068558","sourceUpdatedAt":null,"verifiedAt":null}},{"type":"Feature","geometry":{"type":"Point","coordinates":[15.9288267,45.8139358]},"properties":{"id":"water:75b5b892-0136-44bf-9937-7dd2106b04f2","kind":"water","longitude":15.9288267,"latitude":45.8139358,"name":"Ivókút","city":"Jankomir","address":null,"covered":null,"access":null,"website":null,"phone":null,"source":"OpenStreetMap/node/11992862720","sourceUpdatedAt":null,"verifiedAt":null}},{"type":"Feature","geometry":{"type":"Point","coordinates":[15.9136076,45.8059857]},"properties":{"id":"water:d99a1db5-2359-491c-81dc-12ee33982f40","kind":"water","longitude":15.9136076,"latitude":45.8059857,"name":"Ivókút","city":"Jankomir","address":null,"covered":null,"access":null,"website":null,"phone":null,"source":"OpenStreetMap/node/13246033391","sourceUpdatedAt":null,"verifiedAt":null}}]}