{"type":"FeatureCollection","features":[{"type":"Feature","geometry":{"type":"Point","coordinates":[23.785838,53.6510143]},"properties":{"id":"bikerack:0321af79-6703-4525-87b9-9a72229b95c9","kind":"bikerack","longitude":23.785838,"latitude":53.6510143,"name":"Bicycle Parking","city":"Hrodna","address":null,"covered":false,"access":null,"website":null,"phone":null,"source":"OpenStreetMap/node/5133704793","sourceUpdatedAt":null,"verifiedAt":null}},{"type":"Feature","geometry":{"type":"Point","coordinates":[23.7869915,53.6659117]},"properties":{"id":"bikerack:20e76fef-303e-4d19-9695-ab7b11de5781","kind":"bikerack","longitude":23.7869915,"latitude":53.6659117,"name":"Bicycle Parking","city":"Hrodna","address":null,"covered":false,"access":null,"website":null,"phone":null,"source":"OpenStreetMap/node/5133695507","sourceUpdatedAt":null,"verifiedAt":null}},{"type":"Feature","geometry":{"type":"Point","coordinates":[23.796599,53.6703626]},"properties":{"id":"bikerack:2badaffe-3acb-44f8-81bf-5aae5ba09929","kind":"bikerack","longitude":23.796599,"latitude":53.6703626,"name":"Bicycle Parking","city":"Hrodna","address":null,"covered":false,"access":null,"website":null,"phone":null,"source":"OpenStreetMap/node/5133678682","sourceUpdatedAt":null,"verifiedAt":null}},{"type":"Feature","geometry":{"type":"Point","coordinates":[23.8053974,53.6517414]},"properties":{"id":"bikerack:2d3a6b93-6c76-4816-85e2-83faa038f66a","kind":"bikerack","longitude":23.8053974,"latitude":53.6517414,"name":"Bicycle Parking","city":"Hrodna","address":null,"covered":false,"access":null,"website":null,"phone":null,"source":"OpenStreetMap/node/10733516673","sourceUpdatedAt":null,"verifiedAt":null}},{"type":"Feature","geometry":{"type":"Point","coordinates":[23.8029984,53.6699184]},"properties":{"id":"bikerack:32a36195-0b69-40d4-9bb2-e7d034271417","kind":"bikerack","longitude":23.8029984,"latitude":53.6699184,"name":"Bicycle Parking","city":"Hrodna","address":null,"covered":false,"access":null,"website":null,"phone":null,"source":"OpenStreetMap/node/10709846057","sourceUpdatedAt":null,"verifiedAt":null}},{"type":"Feature","geometry":{"type":"Point","coordinates":[23.7817651,53.6605173]},"properties":{"id":"bikerack:5ac2bde1-ce00-4a28-9203-20a6837df5a5","kind":"bikerack","longitude":23.7817651,"latitude":53.6605173,"name":"Bicycle Parking","city":"Hrodna","address":null,"covered":true,"access":null,"website":null,"phone":null,"source":"OpenStreetMap/node/5133696352","sourceUpdatedAt":null,"verifiedAt":null}},{"type":"Feature","geometry":{"type":"Point","coordinates":[23.7774668,53.6663136]},"properties":{"id":"bikerack:5e877db9-472e-43bd-b800-1ddef794679c","kind":"bikerack","longitude":23.7774668,"latitude":53.6663136,"name":"Bicycle Parking","city":"Hrodna","address":null,"covered":false,"access":null,"website":null,"phone":null,"source":"OpenStreetMap/node/5133695508","sourceUpdatedAt":null,"verifiedAt":null}},{"type":"Feature","geometry":{"type":"Point","coordinates":[23.780818,53.6566639]},"properties":{"id":"bikerack:82d765dd-b1e2-4e4e-8625-de0a3d2d36c2","kind":"bikerack","longitude":23.780818,"latitude":53.6566639,"name":"Bicycle Parking","city":"Hrodna","address":null,"covered":false,"access":null,"website":null,"phone":null,"source":"OpenStreetMap/node/4978246322","sourceUpdatedAt":null,"verifiedAt":null}},{"type":"Feature","geometry":{"type":"Point","coordinates":[23.8171285,53.6679609]},"properties":{"id":"bikerack:841a9d9d-4bb9-48d1-958d-915f3e3f00ea","kind":"bikerack","longitude":23.8171285,"latitude":53.6679609,"name":"Bicycle Parking","city":"Hrodna","address":null,"covered":false,"access":null,"website":null,"phone":null,"source":"OpenStreetMap/node/5133607730","sourceUpdatedAt":null,"verifiedAt":null}},{"type":"Feature","geometry":{"type":"Point","coordinates":[23.7840292,53.6553017]},"properties":{"id":"bikerack:998d21b6-f068-46ae-9c55-40449d715ae5","kind":"bikerack","longitude":23.7840292,"latitude":53.6553017,"name":"Bicycle Parking","city":"Hrodna","address":null,"covered":false,"access":null,"website":null,"phone":null,"source":"OpenStreetMap/node/5133696357","sourceUpdatedAt":null,"verifiedAt":null}},{"type":"Feature","geometry":{"type":"Point","coordinates":[23.7745796,53.6596841]},"properties":{"id":"bikerack:a472cea3-1d10-49bd-bf00-8656b08c0833","kind":"bikerack","longitude":23.7745796,"latitude":53.6596841,"name":"Bicycle Parking","city":"Hrodna","address":null,"covered":false,"access":null,"website":null,"phone":null,"source":"OpenStreetMap/node/12992759461","sourceUpdatedAt":null,"verifiedAt":null}},{"type":"Feature","geometry":{"type":"Point","coordinates":[23.8058265,53.6665448]},"properties":{"id":"bikerack:a493880a-c762-4656-b5dc-6baf11a2ee22","kind":"bikerack","longitude":23.8058265,"latitude":53.6665448,"name":"Bicycle Parking","city":"Hrodna","address":null,"covered":false,"access":null,"website":null,"phone":null,"source":"OpenStreetMap/node/12723130872","sourceUpdatedAt":null,"verifiedAt":null}},{"type":"Feature","geometry":{"type":"Point","coordinates":[23.8147733,53.6624293]},"properties":{"id":"bikerack:aad2f4b0-247d-40e5-9803-698d219ab6ec","kind":"bikerack","longitude":23.8147733,"latitude":53.6624293,"name":"Bicycle Parking","city":"Hrodna","address":null,"covered":false,"access":null,"website":null,"phone":null,"source":"OpenStreetMap/node/8095061100","sourceUpdatedAt":null,"verifiedAt":null}},{"type":"Feature","geometry":{"type":"Point","coordinates":[23.7744801,53.660833]},"properties":{"id":"bikerack:b13dda4a-78b3-498a-a108-7031e3787327","kind":"bikerack","longitude":23.7744801,"latitude":53.660833,"name":"Bicycle Parking","city":"Hrodna","address":null,"covered":false,"access":null,"website":null,"phone":null,"source":"OpenStreetMap/node/12992759452","sourceUpdatedAt":null,"verifiedAt":null}},{"type":"Feature","geometry":{"type":"Point","coordinates":[23.7745775,53.6596322]},"properties":{"id":"bikerack:c4128818-3bef-438f-9e8c-53390437f3ad","kind":"bikerack","longitude":23.7745775,"latitude":53.6596322,"name":"Bicycle Parking","city":"Hrodna","address":null,"covered":false,"access":null,"website":null,"phone":null,"source":"OpenStreetMap/node/12992759462","sourceUpdatedAt":null,"verifiedAt":null}},{"type":"Feature","geometry":{"type":"Point","coordinates":[23.7746064,53.6608334]},"properties":{"id":"bikerack:ca1aeb1c-2d8a-422e-8670-4c17a2ef9148","kind":"bikerack","longitude":23.7746064,"latitude":53.6608334,"name":"Bicycle Parking","city":"Hrodna","address":null,"covered":false,"access":null,"website":null,"phone":null,"source":"OpenStreetMap/node/12992759453","sourceUpdatedAt":null,"verifiedAt":null}},{"type":"Feature","geometry":{"type":"Point","coordinates":[23.817679,53.6699325]},"properties":{"id":"bikerack:d20c012f-8526-436d-97bc-62eeb2b56253","kind":"bikerack","longitude":23.817679,"latitude":53.6699325,"name":"Bicycle Parking","city":"Hrodna","address":null,"covered":false,"access":null,"website":null,"phone":null,"source":"OpenStreetMap/node/5133634258","sourceUpdatedAt":null,"verifiedAt":null}},{"type":"Feature","geometry":{"type":"Point","coordinates":[23.7840287,53.648021]},"properties":{"id":"bikerack:d5643896-1f3c-42b7-94db-2159ed3a6175","kind":"bikerack","longitude":23.7840287,"latitude":53.648021,"name":"Bicycle Parking","city":"Hrodna","address":null,"covered":true,"access":null,"website":null,"phone":null,"source":"OpenStreetMap/node/6985971337","sourceUpdatedAt":null,"verifiedAt":null}},{"type":"Feature","geometry":{"type":"Point","coordinates":[23.7887694,53.6668055]},"properties":{"id":"bikerack:e95f80cb-28db-4e19-b378-ecffa79261d6","kind":"bikerack","longitude":23.7887694,"latitude":53.6668055,"name":"Bicycle Parking","city":"Hrodna","address":null,"covered":false,"access":null,"website":null,"phone":null,"source":"OpenStreetMap/node/5133695506","sourceUpdatedAt":null,"verifiedAt":null}},{"type":"Feature","geometry":{"type":"Point","coordinates":[23.7907072,53.6686619]},"properties":{"id":"bikerack:ed88620b-43d4-4679-a16a-cc155249de28","kind":"bikerack","longitude":23.7907072,"latitude":53.6686619,"name":"Bicycle Parking","city":"Hrodna","address":null,"covered":false,"access":null,"website":null,"phone":null,"source":"OpenStreetMap/node/5133695505","sourceUpdatedAt":null,"verifiedAt":null}},{"type":"Feature","geometry":{"type":"Point","coordinates":[23.7839035,53.6480853]},"properties":{"id":"repair:1d9a8720-acc8-4c73-b83e-5a7e728eaa64","kind":"repair","longitude":23.7839035,"latitude":53.6480853,"name":"Bicycle Repair Station","city":"Hrodna","address":null,"covered":false,"access":null,"website":null,"phone":null,"source":"OpenStreetMap/node/6985971338","sourceUpdatedAt":null,"verifiedAt":null}},{"type":"Feature","geometry":{"type":"Point","coordinates":[23.7849561,53.6633515]},"properties":{"id":"service:a2b3d725-9e70-49ca-a0da-dee83788d381","kind":"service","longitude":23.7849561,"latitude":53.6633515,"name":"Твой велик","city":"Hrodna","address":null,"covered":null,"access":null,"website":null,"phone":null,"source":"OpenStreetMap/node/2676089592","sourceUpdatedAt":null,"verifiedAt":null}}]}